{"version": 0.6, "generator": "Overpass API 0.7.62.4 2390de5a", "osm3s": {"timestamp_osm_base": "2025-01-08T06:26:38Z", "copyright": "The data included in this document is from www.openstreetmap.org. The data is made available under ODbL."}, "elements": [{"type": "node", "id": 658736581, "lat": 26.0012848, "lon": 50.6176993, "tags": {"int_name": "Jaww", "name": "\u062c\u0648", "name:ar": "\u062c\u0648", "name:en": "Jaww", "name:ml": "\u0d1c\u0d57", "place": "town", "wikipedia": "en:Jaww"}}, {"type": "node", "id": 1812751158, "lat": 26.2947431, "lon": 50.666445, "tags": {"name": "\u062c\u0632\u0631 \u0623\u0645\u0648\u0627\u062c", "name:ar": "\u062c\u0632\u0631 \u0623\u0645\u0648\u0627\u062c", "name:cs": "Amwajsk\u00e9 ostrovy", "name:en": "Amwaj Islands", "name:es": "Islas Amwaj", "name:fr": "\u00celes Amwaj", "place": "town", "website": "http://www.amwaj-islands.com/", "wikidata": "Q2616820", "wikipedia": "ar:\u062c\u0632\u0631 \u0623\u0645\u0648\u0627\u062c"}}, {"type": "node", "id": 1934092516, "lat": 26.2512038, "lon": 50.6326852, "tags": {"int_name": "Arad", "name": "\u0639\u0631\u0627\u062f", "name:ar": "\u0639\u0631\u0627\u062f", "name:cs": "Arad", "name:en": "Arad", "name:ml": "\u0d05\u0d31\u0d3e\u0d26\u0d4d", "place": "town", "wikidata": "Q2263927"}}, {"type": "node", "id": 1935263128, "lat": 26.2440537, "lon": 50.6528891, "tags": {"name": "\u0627\u0644\u062d\u062f", "name:ar": "\u0627\u0644\u062d\u062f", "name:cs": "al-Hidd", "name:en": "Al-Hidd", "name:fr": "Al-Hadd", "name:ml": "\u0d05\u0d7d-\u0d39\u0d3f\u0d26\u0d4d", "place": "town", "population": "12797", "wikidata": "Q3360322", "wikipedia": "en:Al Hidd"}}, {"type": "node", "id": 2125987766, "lat": 26.2719165, "lon": 50.6028404, "tags": {"name": "\u0628\u0633\u064a\u062a\u064a\u0646", "name:ar": "\u0628\u0633\u064a\u062a\u064a\u0646", "name:en": "Busaiteen", "name:ml": "\u0d2c\u0d41\u0d38\u0d48\u0d24\u0d40\u0d7b", "place": "town", "population": "19185"}}, {"type": "node", "id": 2189170851, "lat": 26.2465946, "lon": 50.6164127, "tags": {"description": "Bahrain's third largest city and former capitall until 1923.", "name": "\u0627\u0644\u0645\u062d\u0631\u0642", "name:ar": "\u0627\u0644\u0645\u062d\u0631\u0642", "name:cs": "Muh\u00e1rrak", "name:de": "al-Muharraq", "name:en": "Muharraq", "name:es": "Muharraq", "name:fr": "Muharraq", "name:he": "\u05de\u05d5\u05d7\u05d0\u05e8\u05e7", "name:ml": "\u0d2e\u0d41\u0d39\u0d31\u0d16\u0d4d", "name:ru": "\u041c\u0443\u0445\u0430\u0440\u0440\u0430\u043a", "name:zh": "\u7a46\u54c8\u62c9\u514b", "place": "city", "population": "75000", "source:population": "French Wikipedia", "wikidata": "Q270500", "wikipedia": "en:Muharraq"}}, {"type": "node", "id": 2363091252, "lat": 26.1331901, "lon": 50.6151344, "tags": {"int_name": "Ma'ameer", "name": "\u0627\u0644\u0645\u0639\u0627\u0645\u064a\u0631", "name:ar": "\u0627\u0644\u0645\u0639\u0627\u0645\u064a\u0631", "name:en": "Ma'ameer", "place": "town", "wikidata": "Q6720597"}}]}