{"version": 0.6, "generator": "Overpass API 0.7.62.4 2390de5a", "osm3s": {"timestamp_osm_base": "2025-01-08T06:33:56Z", "copyright": "The data included in this document is from www.openstreetmap.org. The data is made available under ODbL."}, "elements": [{"type": "node", "id": 573457450, "lat": 34.7687753, "lon": 40.6493254, "tags": {"name": "\u0627\u0644\u062f\u0648\u064a\u0631", "name:ar": "\u0627\u0644\u062f\u0648\u064a\u0631", "name:de": "ad-Duweir", "name:en": "Ad-Deweir", "name:fr": "Ad-Doueir", "name:he": "\u05d0-\u05d3\u05d5\u05d5\u05d9\u05e8", "name:ja": "\u30a2\u30c3\u30a0\u30c7\u30a6\u30a7\u30a4\u30eb", "name:ko": "\uc544\ub5bc\uc6e8\uc774\ub974", "name:ru": "\u0410\u0434-\u0414\u0435\u0432\u0435\u0439\u0440", "place": "town", "population": "5536", "population:date": "2004", "source:population": "\u0627\u0644\u0645\u0643\u062a\u0628 \u0627\u0644\u0645\u0631\u0643\u0632\u064a \u0644\u0644\u0625\u062d\u0635\u0627\u0621", "wikidata": "Q17375025"}}, {"type": "node", "id": 573457541, "lat": 34.8072222, "lon": 40.65, "tags": {"alt_name": "\u0623\u0628\u0648 \u062d\u0645\u0627\u0645", "int_name": "Abou Hamam, Abou Hammam, Abou Ham\u00e2m, Ab\u016b \u1e28amm\u0101m", "is_in": "Syria, \u0627\u0644\u062c\u0645\u0647\u0648\u0631\u064a\u0629 \u0627\u0644\u0639\u0631\u0628\u064a\u0629 \u0627\u0644\u0633\u0648\u0631\u064a\u0629 \u060c \u0633\u0648\u0631\u064a\u0627", "name": "\u0623\u0628\u0648 \u062d\u0645\u0627\u0645", "name:ar": "\u0623\u0628\u0648 \u062d\u0645\u0627\u0645", "name:ar1": "\u0623\u0628\u0648 \u062d\u0645\u0627\u0645", "name:de": "Abu Hammam", "name:en": "Abu Hammam", "name:fr": "Abu Hammam", "name:ml": "\u0d05\u0d2c\u0d41 \u0d39\u0d2e\u0d3e\u0d02", "name:ru": "\u0410\u0431\u0443-\u0425\u0430\u043c\u043c\u0430\u043c", "place": "town", "population": "21947"}}, {"type": "node", "id": 573457553, "lat": 34.7752778, "lon": 40.7272222, "tags": {"is_in": "Syria, \u0627\u0644\u062c\u0645\u0647\u0648\u0631\u064a\u0629 \u0627\u0644\u0639\u0631\u0628\u064a\u0629 \u0627\u0644\u0633\u0648\u0631\u064a\u0629 \u060c \u0633\u0648\u0631\u064a\u0627", "name": "\u063a\u0631\u0627\u0646\u064a\u062c", "name:alt": "Khar\u0101'ij", "name:ar": "\u063a\u0631\u0627\u0646\u064a\u062c", "name:de": "Khara'ij", "name:en": "Khara'ij", "name:fr": "Khara'ij", "name:ml": "\u0d16\u0d31\u0d3e\u0d2f\u0d4d\u0d1c\u0d4d", "name:ru": "\u0425\u0430\u0440\u0430\u0435\u0434\u0436", "place": "town", "population": "23009", "wikidata": "Q12229487"}}, {"type": "node", "id": 573457558, "lat": 34.81101, "lon": 40.6946495, "tags": {"alt_name": "\u062c\u064a\u0634\u064a\u0629", "alt_name:ar": "\u062c\u064a\u0634\u064a\u0629", "alt_name:de": "Dschischija", "alt_name:en": "Jishiya", "alt_name:fr": "Djichia", "alt_name:ru": "\u0414\u0436\u0438\u0448\u0438\u044f", "name": "\u0627\u0644\u0643\u0634\u0643\u064a\u0629", "name:ar": "\u0627\u0644\u0643\u0634\u0643\u064a\u0629", "name:de": "al-Kischkije", "name:en": "Al-Kishkiye", "name:fr": "Al-Kichki\u00e9", "name:he": "\u05d0\u05dc-\u05db\u05e9\u05db\u05d9\u05d4", "name:ja": "\u30a2\u30eb\u30a0\u30ad\u30b7\u30e5\u30a6\u30ad\u30a8", "name:ko": "\uc54c\ud0a4\uc288\ud0a4\uc608", "name:ru": "\u0410\u043b\u044c-\u041a\u0438\u0448\u043a\u0438\u0301\u0439\u0439\u0435", "place": "town", "population": "14979", "population:date": "2004", "source:population": "\u0627\u0644\u0645\u0643\u062a\u0628 \u0627\u0644\u0645\u0631\u0643\u0632\u064a \u0644\u0644\u0625\u062d\u0635\u0627\u0621"}}, {"type": "node", "id": 573457561, "lat": 34.8736111, "lon": 40.5616667, "tags": {"name": "\u063a\u0631\u064a\u0628\u0629", "name:ar": "\u063a\u0631\u064a\u0628\u0629", "name:de": "Garibe", "name:en": "Gharibe", "name:fr": "Gharib\u00e9", "name:he": "\u05e2\u05f3\u05e8\u05d9\u05d1\u05d4", "name:ja": "\u30ac\u30ea\u30fc\u30d9", "name:ko": "\uac00\ub9ac\ubca0", "name:ru": "\u0413\u0430\u0440\u0438\u0431\u0435", "place": "town", "population": "5991", "population:date": "2004", "source:population": "\u0627\u0644\u0645\u0643\u062a\u0628 \u0627\u0644\u0645\u0631\u0643\u0632\u064a \u0644\u0644\u0625\u062d\u0635\u0627\u0621"}}, {"type": "node", "id": 573457569, "lat": 34.8451991, "lon": 40.6279369, "tags": {"name": "\u0623\u0628\u0648 \u062d\u0631\u062f\u0648\u0628", "name:ar": "\u0623\u0628\u0648 \u062d\u0631\u062f\u0648\u0628", "name:de": "Abu Hardub", "name:en": "Abu Hardub", "name:fr": "Abu Hardub", "name:he": "\u05d0\u05d1\u05d5 \u05d7\u05e8\u05d3\u05d5\u05d1", "name:ja": "\u30a2\u30d6\u30fb\u30cf\u30eb\u30c9\u30d6", "name:ko": "\uc544\ubd80\ud558\ub974\ub450\ube0c", "name:ru": "\u0410\u0431\u0443-\u0425\u0430\u0440\u0434\u0443\u0431", "place": "town", "population": "8657", "population:date": "2004", "source:population": "\u0627\u0644\u0645\u0643\u062a\u0628 \u0627\u0644\u0645\u0631\u0643\u0632\u064a \u0644\u0644\u0625\u062d\u0635\u0627\u0621"}}, {"type": "node", "id": 573457572, "lat": 34.8606229, "lon": 40.6014432, "tags": {"name": "\u0635\u0628\u064a\u062e\u0627\u0646", "name:ar": "\u0635\u0628\u064a\u062e\u0627\u0646", "name:de": "Sebeichan", "name:en": "Sebeikhan", "name:fr": "Sebeikhane", "name:he": "\u05e1\u05d1\u05d9\u05d7\u05f3\u05d0\u05e0", "name:ja": "\u30bb\u30d0\u30a4\u30cf\u30fc\u30f3", "name:ko": "\uc138\ubca0\uc774\uce78", "name:ml": "\u0d38\u0d41\u0d2c\u0d48\u0d16\u0d3e\u0d7b", "name:ru": "\u0421\u0435\u0431\u0430\u0439\u0445\u0430\u043d", "place": "town", "population": "23867", "population:date": "2004", "source:population": "\u0627\u0644\u0645\u0643\u062a\u0628 \u0627\u0644\u0645\u0631\u0643\u0632\u064a \u0644\u0644\u0625\u062d\u0635\u0627\u0621"}}, {"type": "node", "id": 573457576, "lat": 34.7588889, "lon": 40.7611111, "tags": {"name": "\u063a\u0631\u0627\u0646\u064a\u062c", "name:ar": "\u063a\u0631\u0627\u0646\u064a\u062c", "name:de": "Garanidsch", "name:en": "Gharanij", "name:fr": "Gharanidj", "name:he": "\u05e2\u05f3\u05e8\u05d0\u05e0\u05d9\u05d2\u05f3", "name:ja": "\u30ac\u30e9\u30fc\u30cb\u30b8\u30e5", "name:ko": "\uac00\ub77c\ub2c8\uc988", "name:ml": "\u0d17\u0d30\u0d3e\u0d28\u0d3f\u0d1c\u0d4d", "name:ru": "\u0413\u0430\u0440\u0430\u043d\u0438\u0434\u0436", "place": "town", "population": "23009", "population:date": "2004", "source:population": "\u0627\u0644\u0645\u0643\u062a\u0628 \u0627\u0644\u0645\u0631\u0643\u0632\u064a \u0644\u0644\u0625\u062d\u0635\u0627\u0621"}}, {"type": "node", "id": 573457661, "lat": 34.9627778, "lon": 40.5480556, "tags": {"name": "\u0627\u0644\u0642\u0648\u0631\u064a\u0629", "name:ar": "\u0627\u0644\u0642\u0648\u0631\u064a\u0629", "name:de": "al-Kurije", "name:en": "Al-Quriye", "name:fr": "Al-Qouri\u00e9", "name:he": "\u05d0\u05dc\u05e7\u05d5\u05e8\u05d9\u05d4", "name:ja": "\u30a2\u30eb\u30a0\u30af\u30fc\u30ea\u30e4", "name:ko": "\uc54c\ucfe0\ub9ac\uc608", "name:ml": "\u0d05\u0d7d \u0d16\u0d41\u0d31\u0d2f\u0d4d\u0d2f", "name:ru": "\u0410\u043b\u044c-\u041a\u0443\u0440\u0438\u0301\u0439\u044f", "place": "town", "population": "28172", "population:date": "2004", "source:population": "\u0627\u0644\u0645\u0643\u062a\u0628 \u0627\u0644\u0645\u0631\u0643\u0632\u064a \u0644\u0644\u0625\u062d\u0635\u0627\u0621"}}, {"type": "node", "id": 573457690, "lat": 34.9244444, "lon": 40.5791667, "tags": {"name": "\u062f\u0631\u0646\u062c", "name:ar": "\u062f\u0631\u0646\u062c", "name:de": "Darnadsch", "name:en": "Darnaj", "name:fr": "Darnadje", "name:he": "\u05d3\u05e8\u05e0\u05d2\u05f3", "name:ja": "\u30c0\u30eb\u30ca\u30b8\u30e5", "name:ko": "\ub2e4\ub974\ub098\uc988", "name:ru": "\u0414\u0430\u0440\u043d\u0430\u0434\u0436", "place": "town", "population": "7847", "population:date": "2004", "source:population": "\u0627\u0644\u0645\u0643\u062a\u0628 \u0627\u0644\u0645\u0631\u0643\u0632\u064a \u0644\u0644\u0625\u062d\u0635\u0627\u0621"}}, {"type": "node", "id": 573457697, "lat": 34.9827778, "lon": 40.5375, "tags": {"name": "\u0627\u0644\u0637\u064a\u0627\u0646\u0629", "name:ar": "\u0627\u0644\u0637\u064a\u0627\u0646\u0629", "name:de": "at-Teijana", "name:en": "At-Tayyana", "name:fr": "At-Taiana", "name:he": "\u05d0-\u05d8\u05d9\u05d0\u05e0\u05d4", "name:ja": "\u30a2\u30c3\u30a0\u30bf\u30a4\u30e4\u30ca", "name:ko": "\uc544\ud0c0\uc57c\ub098", "name:ru": "\u0410\u0442-\u0422\u0430\u0439\u044f\u043d\u0430", "place": "town", "population": "7237", "population:date": "2004", "source:population": "\u0627\u0644\u0645\u0643\u062a\u0628 \u0627\u0644\u0645\u0631\u0643\u0632\u064a \u0644\u0644\u0625\u062d\u0635\u0627\u0621"}}, {"type": "node", "id": 573457777, "lat": 35.0837723, "lon": 40.4495065, "tags": {"name": "\u0627\u0644\u0634\u062d\u064a\u0644", "name:ar": "\u0627\u0644\u0634\u062d\u064a\u0644", "name:de": "asch-Scheheil", "name:en": "Ash-Sheheil", "name:fr": "Ach-Chehe\u00efl", "name:he": "\u05d0-\u05e9\u05d7\u05d9\u05dc", "name:ja": "\u30a2\u30c3\u30a0\u30b8\u30a7\u30d8\u30a4\u30eb", "name:ko": "\uc544\uc170\ud558\uc77c", "name:ru": "\u0410\u0448-\u0428\u0435\u0445\u0435\u0438\u043b\u044c", "place": "town", "population": "14005", "population:date": "2004", "source:population": "\u0627\u0644\u0645\u0643\u062a\u0628 \u0627\u0644\u0645\u0631\u0643\u0632\u064a \u0644\u0644\u0625\u062d\u0635\u0627\u0621"}}, {"type": "node", "id": 573457790, "lat": 35.0573579, "lon": 40.4155234, "tags": {"name": "\u0628\u0642\u0631\u0635 \u062a\u062d\u062a\u0627\u0646\u064a", "name:ar": "\u0628\u0642\u0631\u0635 \u062a\u062d\u062a\u0627\u0646\u064a", "name:de": "Bakras Tahtani", "name:en": "Baqras Tahtani", "name:fr": "Baqrase Tahtani", "name:he": "\u05d1\u05e7\u05e8\u05e1 \u05ea\u05d7\u05ea\u05d0\u05e0\u05d9", "name:ja": "\u30d0\u30af\u30e9\u30b9\u30fb\u30bf\u30d8\u30bf\u30fc\u30cb", "name:ko": "\ubc14\ud06c\ub77c\uc2a4\ud0c0\ud750\ud0c0\ub2c8", "name:ru": "\u0411\u0430\u043a\u0440\u0430\u0441-\u0422\u0430\u0445\u0442\u0430\u043d\u0438", "place": "town", "population": "7284", "population:date": "2004", "source:population": "\u0627\u0644\u0645\u0643\u062a\u0628 \u0627\u0644\u0645\u0631\u0643\u0632\u064a \u0644\u0644\u0625\u062d\u0635\u0627\u0621"}}, {"type": "node", "id": 573457820, "lat": 34.9013889, "lon": 40.5897222, "tags": {"name": "\u0633\u0648\u064a\u062f\u0627\u0646 \u062c\u0632\u064a\u0631\u0629", "name:ar": "\u0633\u0648\u064a\u062f\u0627\u0646 \u062c\u0632\u064a\u0631\u0629", "name:de": "Seweidan Dschasira", "name:en": "Seweidan Jazira", "name:fr": "Soueidane Djazira", "name:he": "\u05e1\u05d5\u05d9\u05d3\u05d0\u05df \u05d2\u05f3\u05d6\u05d9\u05e8\u05d4", "name:ja": "\u30b9\u30a6\u30a7\u30a4\u30c0\u30f3\u30fb\u30b8\u30e3\u30ba\u30a3\u30fc\u30e9", "name:ko": "\uc218\uc6e8\uc774\ub2e8\uc790\uc9c0\ub77c", "name:ru": "\u0421\u0435\u0432\u0435\u0439\u0434\u0430\u043d-\u0414\u0436\u0430\u0437\u0438\u0440\u0430", "place": "town", "population": "5947", "population:date": "2004", "source:population": "\u0627\u0644\u0645\u0643\u062a\u0628 \u0627\u0644\u0645\u0631\u0643\u0632\u064a \u0644\u0644\u0625\u062d\u0635\u0627\u0621"}}, {"type": "node", "id": 573457886, "lat": 34.9227778, "lon": 40.5616667, "tags": {"name": "\u0627\u0644\u0639\u0634\u0627\u0631\u0629", "name:ar": "\u0627\u0644\u0639\u0634\u0627\u0631\u0629", "name:de": "al-Aschara", "name:en": "Al-Ashaara", "name:fr": "Al-Ach\u00e2ra", "name:he": "\u05d0\u05dc-\u05e2\u05e9\u05d0\u05e8\u05d4", "name:ja": "\u30a2\u30eb\u30a0\u30a2\u30b7\u30e3\u30fc\u30e9", "name:ko": "\uc54c\uc544\uc0e4\ub77c", "name:ml": "\u0d05\u0d7d-\u0d05\u0d37\u0d3e\u0d31", "name:ru": "\u0410\u043b\u044c-\u0410\u0448\u00e1\u0440\u0430", "place": "town", "population": "17537", "population:date": "2004", "source:population": "\u0627\u0644\u0645\u0643\u062a\u0628 \u0627\u0644\u0645\u0631\u0643\u0632\u064a \u0644\u0644\u0625\u062d\u0635\u0627\u0621"}}, {"type": "node", "id": 573457888, "lat": 34.9806133, "lon": 40.5029526, "tags": {"name": "\u0645\u062d\u0643\u0627\u0646", "name:ar": "\u0645\u062d\u0643\u0627\u0646", "name:de": "Mahkan", "name:en": "Mahkan", "name:fr": "Mahkane", "name:he": "\u05de\u05d7\u05db\u05d0\u05df", "name:ja": "\u30de\u30cf\u30ab\u30f3", "name:ko": "\ub9c8\ud750\uce78", "name:ru": "\u041c\u0430\u0445\u043a\u0430\u043d", "place": "town", "population": "10086", "population:date": "2004", "source:population": "\u0627\u0644\u0645\u0643\u062a\u0628 \u0627\u0644\u0645\u0631\u0643\u0632\u064a \u0644\u0644\u0625\u062d\u0635\u0627\u0621"}}, {"type": "node", "id": 573457895, "lat": 35.0190567, "lon": 40.4509227, "tags": {"name": "\u0627\u0644\u0645\u064a\u0627\u062f\u064a\u0646", "name:ar": "\u0627\u0644\u0645\u064a\u0627\u062f\u064a\u0646", "name:cs": "Majad\u00edn", "name:de": "al-Majadin", "name:en": "Al-Mayadin", "name:fr": "Al-Maiadine", "name:he": "\u05d0\u05dc-\u05de\u05d9\u05d0\u05d3\u05d9\u05df", "name:ja": "\u30a2\u30eb\u30a0\u30de\u30e4\u30c7\u30a3\u30f3", "name:ko": "\uc54c\ub9c8\uc57c\ub518", "name:ml": "\u0d05\u0d7d-\u0d2e\u0d46\u0d2f\u0d3e\u0d26\u0d40\u0d7b", "name:ru": "\u0410\u043b\u044c-\u041c\u0430\u044f\u0434\u0438\u043d", "place": "town", "population": "44028", "population:date": "2004", "source:population": "\u0627\u0644\u0645\u0643\u062a\u0628 \u0627\u0644\u0645\u0631\u0643\u0632\u064a \u0644\u0644\u0625\u062d\u0635\u0627\u0621", "wikidata": "Q310895", "wikipedia": "en:Mayadin"}}, {"type": "node", "id": 12118143349, "lat": 34.83252, "lon": 40.6601456, "tags": {"name": "\u0623\u0628\u0648 \u062d\u0645\u0627\u0645", "name:ar": "\u0623\u0628\u0648 \u062d\u0645\u0627\u0645", "name:de": "Abu Hamam", "name:en": "Abu Hamam", "name:fr": "Abu Hamam", "name:he": "\u05d0\u05d1\u05d5 \u05d7\u05de\u05d0\u05dd", "name:ja": "\u30a2\u30d6\u30fb\u30cf\u30de\u30fc\u30e0", "name:ko": "\uc544\ubd80\ud558\ub9d8", "name:ru": "\u0410\u0431\u0443-\u0425\u0430\u043c\u0430\u043c", "place": "town", "population": "21947", "population:date": "2004", "source:population": "\u0627\u0644\u0645\u0643\u062a\u0628 \u0627\u0644\u0645\u0631\u0643\u0632\u064a \u0644\u0644\u0625\u062d\u0635\u0627\u0621"}}, {"type": "node", "id": 12173137366, "lat": 34.8818512, "lon": 40.6381055, "tags": {"name": "\u0627\u0644\u062c\u0631\u0630\u0649 \u0627\u0644\u0634\u0631\u0642\u064a", "name:ar": "\u0627\u0644\u062c\u0631\u0630\u0649 \u0627\u0644\u0634\u0631\u0642\u064a", "name:de": "al-Dscharda asch-Scharki", "name:en": "Al-Jardha ash-Sharqi", "name:fr": "Al-Djarda ach-Charqi", "name:he": "\u05d0\u05dc-\u05d2\u05f3\u05e8\u05d3\u05f3\u05d0 \u05d0-\u05e9\u05e8\u05e7\u05d9", "name:ja": "\u30a2\u30eb\u30a0\u30b8\u30e3\u30eb\u30c0\u30fb\u30a2\u30c3\u30a0\u30b7\u30e3\u30eb\u30ad", "name:ko": "\uc54c\uc790\ub974\ub2e4\uc544\uc0e4\ub974\ud0a4", "name:ru": "\u0410\u043b\u044c-\u0414\u0436\u0430\u0440\u0434\u0430-\u0430\u0448-\u0428\u0430\u0440\u043a\u0438", "place": "town", "population": "8261", "population:date": "2004", "source:population": "\u0627\u0644\u0645\u0643\u062a\u0628 \u0627\u0644\u0645\u0631\u0643\u0632\u064a \u0644\u0644\u0625\u062d\u0635\u0627\u0621"}}, {"type": "node", "id": 12202128846, "lat": 35.0045346, "lon": 40.4624392, "tags": {"name": "\u0627\u0644\u0637\u064a\u0628\u0629", "name:ar": "\u0627\u0644\u0637\u064a\u0628\u0629", "name:de": "at-Tiba", "name:en": "At-Tiba", "name:fr": "At-Tiba", "name:he": "\u05d0-\u05d8\u05d9\u05d1\u05d4", "name:ja": "\u30a2\u30c3\u30a0\u30c6\u30a3\u30fc\u30d0", "name:ko": "\uc544\ud2f0\ubc14", "name:ru": "\u0410\u0442-\u0422\u0438\u0431\u0430", "place": "town", "population": "6061", "population:date": "2004", "source:population": "\u0627\u0644\u0645\u0643\u062a\u0628 \u0627\u0644\u0645\u0631\u0643\u0632\u064a \u0644\u0644\u0625\u062d\u0635\u0627\u0621"}}, {"type": "node", "id": 12216632751, "lat": 34.8892399, "lon": 40.6086476, "tags": {"name": "\u0627\u0644\u0643\u0631\u0627\u0645\u0629", "name:ar": "\u0627\u0644\u0643\u0631\u0627\u0645\u0629", "name:de": "al-Karama", "name:en": "Al-Karama", "name:fr": "Al-Karama", "name:he": "\u05d0\u05dc-\u05db\u05e8\u05d0\u05de\u05d4", "name:ja": "\u30a2\u30eb\u30a0\u30ab\u30e9\u30fc\u30de", "name:ko": "\uc54c\uce74\ub77c\ub9c8", "name:ru": "\u0410\u043b\u044c-\u041a\u0430\u0440\u0430\u043c\u0430", "place": "town", "population": "5138", "population:date": "2004", "source:population": "\u0627\u0644\u0645\u0643\u062a\u0628 \u0627\u0644\u0645\u0631\u0643\u0632\u064a \u0644\u0644\u0625\u062d\u0635\u0627\u0621"}}, {"type": "node", "id": 12248488950, "lat": 35.0906798, "lon": 40.4006213, "tags": {"name": "\u0628\u0642\u0631\u0635 \u0641\u0648\u0642\u0627\u0646\u064a", "name:ar": "\u0628\u0642\u0631\u0635 \u0641\u0648\u0642\u0627\u0646\u064a", "name:de": "Bakras Fokani", "name:en": "Baqras Fouqani", "name:fr": "Baqrase Fouqani", "name:he": "\u05d1\u05e7\u05e8\u05e1 \u05e4\u05d5\u05e7\u05d0\u05e0\u05d9", "name:ja": "\u30d0\u30af\u30e9\u30b9\u30fb\u30d5\u30a9\u30fc\u30ab\u30fc\u30cb", "name:ko": "\ubc14\ud06c\ub77c\uc2a4\ud3ec\uce74\ub2c8", "name:ru": "\u0411\u0430\u043a\u0440\u0430\u0441-\u0424\u043e\u043a\u0430\u043d\u0438", "place": "town", "population": "6577", "population:date": "2004", "source:population": "\u0627\u0644\u0645\u0643\u062a\u0628 \u0627\u0644\u0645\u0631\u0643\u0632\u064a \u0644\u0644\u0625\u062d\u0635\u0627\u0621"}}, {"type": "node", "id": 12255827081, "lat": 34.7972089, "lon": 40.5963209, "tags": {"name": "\u062a\u0634\u0631\u064a\u0646", "name:ar": "\u062a\u0634\u0631\u064a\u0646", "name:de": "Tischrin", "name:en": "Tishrin", "name:fr": "Tichrine", "name:he": "\u05ea\u05e9\u05e8\u05d9\u05df", "name:ja": "\u30c6\u30a3\u30b7\u30e5\u30ea\u30fc\u30f3", "name:ko": "\ud2f0\uc288\ub9b0", "name:ru": "\u0422\u0438\u0448\u0440\u0438\u043d", "place": "town", "population": "8749", "population:date": "2004", "source:population": "\u0627\u0644\u0645\u0643\u062a\u0628 \u0627\u0644\u0645\u0631\u0643\u0632\u064a \u0644\u0644\u0625\u062d\u0635\u0627\u0621", "wikidata": "Q17375052"}}, {"type": "node", "id": 12292149888, "lat": 35.0318196, "lon": 40.5177489, "tags": {"name": "\u062d\u0627\u0648\u064a", "name:ar": "\u062d\u0627\u0648\u064a", "name:de": "Hawi", "name:en": "Hawi", "name:fr": "Haoui", "name:he": "\u05d7\u05d0\u05d5\u05d5\u05d9", "name:ja": "\u30cf\u30fc\u30a6\u30a3", "name:ko": "\ud558\uc704", "name:ru": "\u0425\u0430\u0432\u0438", "place": "town", "population": "5789", "population:date": "2004", "source:population": "\u0627\u0644\u0645\u0643\u062a\u0628 \u0627\u0644\u0645\u0631\u0643\u0632\u064a \u0644\u0644\u0625\u062d\u0635\u0627\u0621"}}, {"type": "node", "id": 12307211938, "lat": 34.8594186, "lon": 40.5709022, "tags": {"name": "\u062f\u0628\u0644\u0627\u0646", "name:ar": "\u062f\u0628\u0644\u0627\u0646", "name:de": "Dablan", "name:en": "Dablan", "name:fr": "Dablane", "name:he": "\u05d3\u05d1\u05dc\u05d0\u05df", "name:ja": "\u30c0\u30d6\u30e9\u30fc\u30f3", "name:ko": "\ub2e4\ube14\ub780", "name:ru": "\u0414\u0430\u0431\u043b\u0430\u043d", "place": "town", "population": "6149", "population:date": "2004", "source:population": "\u0627\u0644\u0645\u0643\u062a\u0628 \u0627\u0644\u0645\u0631\u0643\u0632\u064a \u0644\u0644\u0625\u062d\u0635\u0627\u0621"}}, {"type": "node", "id": 12312219539, "lat": 35.0026252, "lon": 40.5116205, "tags": {"name": "\u0630\u064a\u0628\u0627\u0646", "name:ar": "\u0630\u064a\u0628\u0627\u0646", "name:de": "Diban", "name:en": "Dhiban", "name:fr": "Dibane", "name:he": "\u05d3\u05f3\u05d9\u05d1\u05d0\u05df", "name:ja": "\u30c7\u30a3\u30d0\u30fc\u30f3", "name:ko": "\ub514\ubc18", "name:ru": "\u0414\u0438\u0431\u0430\u043d", "place": "town", "population": "9000", "population:date": "2004", "source:population": "\u0627\u0644\u0645\u0643\u062a\u0628 \u0627\u0644\u0645\u0631\u0643\u0632\u064a \u0644\u0644\u0625\u062d\u0635\u0627\u0621"}}]}