{"version": 0.6, "generator": "Overpass API 0.7.62.4 2390de5a", "osm3s": {"timestamp_osm_base": "2025-01-08T06:24:35Z", "copyright": "The data included in this document is from www.openstreetmap.org. The data is made available under ODbL."}, "elements": [{"type": "node", "id": 1718102747, "lat": 25.9426327, "lon": 56.4226837, "tags": {"alt_name": "\u0644\u064a\u0645\u0629", "int_name": "Al Ima, Al L\u012bmah, L\u012bmah, L\u012bm\u0101, Al Ima, Al Limah, Limah, Lima", "is_in": "Oman , \u0639\u064f\u0645\u0627\u0646", "name": "\u0644\u064a\u0645\u0627\u0621", "name:ar": "\u0644\u064a\u0645\u0627\u0621", "name:ar1": "\u0644\u064a\u0645\u0629", "name:de": "Lima", "name:en": "Al Limah", "name:es": "Limah", "name:fr": "Al Limah", "place": "city", "population": "3000", "source": "https://www.mindat.org/feature-287480.html"}}, {"type": "node", "id": 1718116417, "lat": 26.1841297, "lon": 56.2469789, "tags": {"alt_name": "Al Khasab;Al Khasal;Al Kha\u015fab;Al-Khasab", "name": "\u062e\u0635\u0628", "name:ar": "\u062e\u0635\u0628", "name:cs": "Chasab", "name:de": "Khasab", "name:en": "Khasab", "name:es": "Khasab", "name:fa": "\u062e\u0635\u0628", "name:fr": "Khasab", "name:hi": "\u0916\u093e\u0938\u093e\u092c", "name:hr": "Hasab", "name:ml": "\u0d16\u0d38\u0d2c\u0d4d", "name:ru": "\u0425\u0430\u0441\u0430\u0431", "name:uk": "\u0425\u0430\u0441\u0430\u0431", "place": "city", "population": "17730", "source": "https://www.researchgate.net/publication/305730022_Wadis_of_Oman_Satellite_Image_Atlas", "wikidata": "Q426646", "wikipedia": "es:Jasab"}}, {"type": "node", "id": 2918533811, "lat": 26.2338376, "lon": 56.2053669}, {"type": "node", "id": 2918533812, "lat": 26.2353534, "lon": 56.2063167}, {"type": "node", "id": 2918533813, "lat": 26.2350719, "lon": 56.210085}, {"type": "node", "id": 2918533814, "lat": 26.2321597, "lon": 56.2103074}, {"type": "node", "id": 2918533815, "lat": 26.2314846, "lon": 56.2099099}, {"type": "node", "id": 2918533816, "lat": 26.2300949, "lon": 56.2088905}, {"type": "node", "id": 2918533817, "lat": 26.2287999, "lon": 56.2053362}, {"type": "node", "id": 2918533818, "lat": 26.2290786, "lon": 56.2046273}, {"type": "node", "id": 2918533819, "lat": 26.2317278, "lon": 56.2035645}, {"type": "node", "id": 2918533820, "lat": 26.2324942, "lon": 56.2037052}, {"type": "node", "id": 9666517008, "lat": 26.2313469, "lon": 56.2092022}, {"type": "node", "id": 9666517009, "lat": 26.2300463, "lon": 56.2077422}, {"type": "node", "id": 9666517010, "lat": 26.2293465, "lon": 56.2074864}, {"type": "node", "id": 9666517011, "lat": 26.2322956, "lon": 56.203464}, {"type": "node", "id": 9666517012, "lat": 26.232755, "lon": 56.2039343}, {"type": "node", "id": 9666517013, "lat": 26.2333799, "lon": 56.2043983}, {"type": "node", "id": 9666517014, "lat": 26.2336157, "lon": 56.2046768}, {"type": "node", "id": 9666517015, "lat": 26.2337615, "lon": 56.2049792}, {"type": "node", "id": 9666517016, "lat": 26.2338538, "lon": 56.2062028}, {"type": "node", "id": 9666592017, "lat": 26.2353276, "lon": 56.2071023}, {"type": "node", "id": 9666592018, "lat": 26.2358648, "lon": 56.2073088}, {"type": "node", "id": 9666592019, "lat": 26.2356947, "lon": 56.2079011}, {"type": "node", "id": 9666592020, "lat": 26.2355261, "lon": 56.2079023}, {"type": "node", "id": 9666592021, "lat": 26.2352607, "lon": 56.2091606}, {"type": "node", "id": 9666592022, "lat": 26.2349678, "lon": 56.2091531}, {"type": "node", "id": 9666592023, "lat": 26.2335864, "lon": 56.2103683}, {"type": "node", "id": 10758835612, "lat": 25.8652503, "lon": 56.2832774, "tags": {"description": "Alternative Names:\tAr Rawdah, Ar Raw\u1e0dah, Ar Raw\u1e11ah, Rawdah, Raw\u1e11ah, alrwdt, \u0627\u0644\u0631\u0651\u0648\u0636\u0629.See also Ar Rawdah Airstrip", "name": "Ar Rawdah \u0627\u0644\u0631\u0651\u0648\u0636\u0629", "name:ar": "\u0627\u0644\u0631\u0651\u0648\u0636\u0629", "name:de": "Ar Rawda", "name:en": "Ar Rawdah", "name:es": "Ar Rawda", "name:fr": "Ar Rawda", "place": "town", "source": "https://www.mindat.org/feature-286763.html"}}, {"type": "node", "id": 10784806559, "lat": 25.9671251, "lon": 56.206236, "tags": {"alt_name": "Ra`lat al Yas, Ra\u2018lat al Y\u0101s, \u0631\u0639\u0644\u0629 \u0627\u0644\u064a\u0627\u0633", "name": "\u0631\u0639\u0644\u0629 \u0627\u0644\u064a\u0627\u0633", "name:ar": "\u0631\u0639\u0644\u0629 \u0627\u0644\u064a\u0627\u0633", "name:de": "Ra'lat al Yas", "name:en": "Ra'lat al Yas", "name:es": "Ra'lat al Yas", "name:fr": "Ra'lat al Yas", "place": "town", "source": "https://www.mindat.org/feature-11763542.html"}}, {"type": "node", "id": 10784855265, "lat": 25.995499, "lon": 56.2165616, "tags": {"name": "\u0627\u0644\u0631\u0651\u0643\u0628\u0629", "name:ar": "\u0627\u0644\u0631\u0651\u0643\u0628\u0629", "name:de": "Ar Rakba", "name:en": "Ar Rakbah", "name:es": "Ar Rakba", "name:fr": "Ar Rakba", "place": "town", "source": "https://www.mindat.org/feature-11763471.html"}}, {"type": "node", "id": 10784886796, "lat": 25.9930706, "lon": 56.2118632, "tags": {"alt_name": "As Say\u1e25;As Say\u1e29;alsyh;\u0627\u0644\u0633\u0651\u064a\u062d", "name": "\u0627\u0644\u0633\u0651\u064a\u062d", "name:ar": "\u0627\u0644\u0633\u0651\u064a\u062d", "name:de": "As Sayh", "name:en": "As Sayh", "name:es": "As Sayh", "name:fr": "As Sayh", "place": "town", "source": "https://www.mindat.org/feature-11763548.html"}}, {"type": "node", "id": 10784892409, "lat": 25.9973094, "lon": 56.2117022, "tags": {"alt_name": "Al Mas'adah, Al Masa'dah, Al Masa\u2019dah, Al Mas\u2019adah, almsadt, \u0627\u0644\u0645\u0633\u0623\u062f\u0629", "name": "\u0627\u0644\u0645\u0633\u0623\u062f\u0629", "name:ar": "\u0627\u0644\u0645\u0633\u0623\u062f\u0629", "name:de": "Al Mas'ada", "name:en": "Al Mas'adah", "name:es": "Al Mas'ada", "name:fr": "Al Mas'ada", "place": "town", "source": "https://www.mindat.org/feature-11763549.html"}}, {"type": "node", "id": 10811370710, "lat": 25.9036406, "lon": 56.2051206, "tags": {"alt_name": "Al Jannur, Al Jann\u016br, aljnwr, \u0627\u0644\u062c\u0646\u0651\u0648\u0631", "name": "Al Jannur", "place": "town", "source": "https://www.mindat.org/feature-11763490.html"}}, {"type": "node", "id": 10811392135, "lat": 25.8633714, "lon": 56.2182313, "tags": {"alt_name": "Salhad, Sal\u1e25ad, Sal\u1e29ad, slhd, \u0633\u0644\u062d\u062f", "description": "Map of Trucial States, Muscat and Oman - Rams - Scale 1:100 000 - Published by D Survey, Ministry of Defence, United Kingdom (1971) - Edition 3-GSGS - The National Archives, London, England", "is_in:country": "Oman", "name": "Salhad - \u0633\u0644\u062d\u062f", "name:ar": "\u0633\u0644\u062d\u062f", "name:de": "Salhad", "name:en": "Sal\u1e25ad", "name:es": "Salhad", "name:fr": "Salhad", "place": "town", "source": "https://www.mindat.org/feature-390037.html;The national atlas of the United Arab Emirates"}}, {"type": "node", "id": 10811392576, "lat": 25.8655557, "lon": 56.2352408, "tags": {"alt_name": "Al Asmat, Al Asma\u0163, Al Asma\u1e6d, alasmt, \u0627\u0644\u0623\u0633\u0645\u0637", "name": "Al Asmat", "place": "town", "source": "https://www.mindat.org/feature-11763496.html"}}, {"type": "node", "id": 11723044958, "lat": 25.8314256, "lon": 56.3559728, "tags": {"alt_name": "Ash Sharyah al `Aqqah, Ash Sharyah al `Uqqah, Ash Sharyah al \u2018Aqqah, Ash Sharyah al \u2018Uqqah, \u0627\u0644\u0634\u0651\u0631\u064a\u0629 \u0627\u0644\u0639\u0642\u0651\u0629", "name": "Ash Sharyah al \u2018Aqqah", "name:en": "Ash Sharyah al \u2018Aqqah", "name:es": "Ash Sharyah al \u2018Aqqah", "name:fr": "Ash Sharyah al \u2018Aqqah", "place": "town", "source": "https://www.mindat.org/feature-11773459.html"}}, {"type": "node", "id": 11822065492, "lat": 25.8322566, "lon": 56.237043, "tags": {"name": "Majjah", "name:en": "Majjah", "name:es": "Majjah", "name:fr": "Majjah", "place": "town", "source": "https://www.mindat.org/feature-11763505.html"}}, {"type": "node", "id": 11828816888, "lat": 25.8475556, "lon": 56.3607991, "tags": {"alt_name": "Ash Sharyah al Hulwah", "description": "Alternative Names:\tAsh Sharyah al Hulwah, Ash Sharyah al \u1e24ulwah, Ash Sharyah al \u1e28ulwah, Sharyah, alshryt alhlwt, \u0627\u0644\u0634\u0651\u0631\u064a\u0629 \u0627\u0644\u062d\u0644\u0648\u0629", "name": "Ash Sharyah al \u1e28ulwah", "name:en": "Ash Sharyah al \u1e28ulwah", "name:es": "Ash Sharyah al \u1e28ulwah", "name:fr": "Ash Sharyah al \u1e28ulwah", "place": "town", "source": "https://www.mindat.org/feature-407220.html"}}, {"type": "node", "id": 11917747492, "lat": 26.0846895, "lon": 56.3334097, "tags": {"alt_name": "Sall Asfal, sl asfl, \u0633\u0644 \u0623\u0633\u0641\u0644", "name": "\u0633\u0644 \u0623\u0633\u0641\u0644", "name:ar": "\u0633\u0644 \u0623\u0633\u0641\u0644", "name:en": "Sall Asfal", "name:es": "Sall Asfal", "name:fr": "Sall Asfal", "place": "town", "source": "https://www.mindat.org/feature-12013390.html"}}, {"type": "node", "id": 11918713362, "lat": 26.1850174, "lon": 56.3280251, "tags": {"alt_name": "Qanah, Q\u0101nah", "name": "Qanah", "name:en": "Qanah", "name:es": "Qanah", "name:fr": "Qanah", "place": "town", "source": "https://www.mindat.org/feature-390430.html"}}, {"type": "node", "id": 11918716028, "lat": 26.1805321, "lon": 56.3168404, "tags": {"alt_name": "Huwayniyah, Huwayn\u012byah", "name": "Huwayniyah", "name:en": "Huwayniyah", "name:es": "Huwayniyah", "name:fr": "Huwayniyah", "place": "town", "source": "https://www.mindat.org/feature-390429.html"}}, {"type": "node", "id": 11918745530, "lat": 26.1487529, "lon": 56.2944995, "tags": {"alt_name": "Al Masharta, Al Mishayti, Al Mishayt\u012b, Al Mushayti, Al Mushayt\u012b, almshyty, \u0627\u0644\u0645\u0634\u064a\u062a\u064a", "name": "Al Masharta", "name:en": "Al Masharta", "name:es": "Al Masharta", "name:fr": "Al Masharta", "name:ml": "\u0d05\u0d7d \u0d2e\u0d37\u0d40\u0d24\u0d4d\u0d24\u0d3f", "place": "town", "source": "https://www.mindat.org/feature-390327.html"}}, {"type": "node", "id": 11918757551, "lat": 26.2322727, "lon": 56.2064725, "tags": {"GNS:id": "108674", "alt_name": "Al Harf;Al \u1e24arf;Al \u1e28arf;Harf;Harf Ghabi;alhrf;\u0627\u0644\u062d\u0631\u0641, \u1e28arf, \u1e28arf Ghab\u012b", "name": "\u0627\u0644\u062d\u0631\u0641", "name:ar": "\u0627\u0644\u062d\u0631\u0641", "name:en": "Harf Ghabi", "name:es": "Harf Ghabi", "name:fr": "Harf Ghabi", "name:ml": "\u0d05\u0d7d \u0d39\u0d7c\u0d2b\u0d4d", "place": "town", "source": "https://www.mindat.org/feature-388466.html"}}, {"type": "node", "id": 12302107038, "lat": 26.1297401, "lon": 56.2021597, "tags": {"GNS:id": "110475", "alt_name": "Rekab al Shib;Rik\u0101b ash Shab;Rikab ash Shibb", "name": "\u0631\u0643\u0627\u0628 \u0627\u0644\u0634\u0651\u0628", "name:ar": "\u0631\u0643\u0627\u0628 \u0627\u0644\u0634\u0651\u0628", "name:es": "Rik\u0101b ash Shabb", "name:fr": "Rik\u0101b ash Shabb", "place": "town"}}, {"type": "way", "id": 288292274, "nodes": [2918533811, 9666517016, 2918533812, 9666592017, 9666592018, 9666592019, 9666592020, 9666592021, 9666592022, 2918533813, 9666592023, 2918533814, 2918533815, 9666517008, 2918533816, 9666517009, 9666517010, 2918533817, 2918533818, 2918533819, 9666517011, 2918533820, 9666517012, 9666517013, 9666517014, 9666517015, 2918533811], "tags": {"alt_name": "Al Harf;Al \u1e24arf;Al \u1e28arf;Harf;Harf Ghabi;alhrf;\u0627\u0644\u062d\u0631\u0641, \u1e28arf, \u1e28arf Ghab\u012b", "name": "Harf Ghabi", "name:en": "Harf Ghabi", "name:es": "Harf Ghabi", "name:fr": "Harf Ghabi", "name:ml": "\u0d05\u0d7d \u0d39\u0d7c\u0d2b\u0d4d", "place": "town", "source": "https://www.mindat.org/feature-388466.html"}}]}