{"version": 0.6, "generator": "Overpass API 0.7.62.4 2390de5a", "osm3s": {"timestamp_osm_base": "2025-01-08T07:20:36Z", "copyright": "The data included in this document is from www.openstreetmap.org. The data is made available under ODbL."}, "elements": [{"type": "node", "id": 1986296891, "lat": 14.7413351, "lon": -12.088013, "tags": {"GNS:dsg_code": "PPL", "GNS:id": "-1401707", "alt_name": "Khabou;Khabou Guidimaka", "alt_name:ar": "\u062e\u0628\u0648 \u063a\u0623\u0625\u062f\u0645\u0643", "capital": "9", "name": "\u062e\u0628\u0648", "name:ar": "\u062e\u0628\u0648", "name:fr": "Khabou", "place": "town"}}, {"type": "node", "id": 1986707728, "lat": 14.847318, "lon": -12.392932, "tags": {"GNS:dsg_code": "PPL", "GNS:id": "-1400032", "alt_name": "Diaguili; Diaguily", "alt_name:ar": "\u062f\u0623\u063a\u0623\u0625\u0644", "name": "\u062f\u064a\u0627\u0643\u064a\u0644\u064a", "name:ar": "\u062f\u064a\u0627\u0643\u064a\u0644\u064a", "name:fr": "Diaguili", "place": "town", "source": "http://www.basegeo.gouv.sn/-Donnees-vectorielles-au-1-50-000-.html"}}, {"type": "node", "id": 2651917474, "lat": 15.1579884, "lon": -12.1847821, "tags": {"GNS:dsg_code": "PPLA", "GNS:id": "-1403634", "alt_name": "Selibaby;S\u00e9libabi;Selibabi;S\u00e9libaby", "alt_name:ar": "\u0633\u064a\u0644\u0628\u0627\u0628\u064a", "name": "\u0633\u064a\u0644\u064a\u0628\u0627\u0628\u064a", "name:ar": "\u0633\u064a\u0644\u064a\u0628\u0627\u0628\u064a", "name:de": "Silibabi", "name:es": "S\u00e9libaby", "name:fr": "S\u00e9libabi", "name:pl": "Silibabi", "name:ru": "\u0421\u0435\u043b\u0438\u0431\u0430\u0431\u0438", "place": "city", "rank": "0", "wikidata": "Q1010137", "wikipedia": "ar:\u0633\u064a\u0644\u064a\u0628\u0627\u0628\u064a"}}, {"type": "node", "id": 4650988990, "lat": 14.7699194, "lon": -12.250047, "tags": {"GNS:dsg_code": "PPL", "GNS:id": "-1400084", "alt_name": "Diogoutourou;Diogountourou", "alt_name:ar": "\u062f\u0648\u063a\u0648\u0646\u062a\u0648\u0631\u0648", "name": "\u062f\u064a\u0643\u0648\u062a\u0648\u0631\u0648", "name:ar": "\u062f\u064a\u0643\u0648\u062a\u0648\u0631\u0648", "name:fr": "Diogoutouro", "place": "town"}}]}