{"version": 0.6, "generator": "Overpass API 0.7.62.4 2390de5a", "osm3s": {"timestamp_osm_base": "2025-01-08T07:10:30Z", "copyright": "The data included in this document is from www.openstreetmap.org. The data is made available under ODbL."}, "elements": [{"type": "node", "id": 424944424, "lat": 35.8329584, "lon": -0.0035725, "tags": {"name": "Stidia", "name:ar": "\u0633\u062a\u064a\u062f\u064a\u0629", "name:ber": "\u2d59\u2d5c\u2d49\u2d37\u2d49\u2d62\u2d30", "name:en": "Stidia", "name:fr": "Stidia", "name:kab": "Stidya", "place": "town", "population": "11965", "wikidata": "Q1649899", "wikimedia_commons": "Category:Stidia", "wikipedia": "fr:Stidia"}}, {"type": "node", "id": 428237405, "lat": 35.7824852, "lon": -0.4242038, "tags": {"name": "Gdyel", "name:ar": "\u0642\u062f\u064a\u0644", "name:ber": "\u2d33\u2d3b\u2d37\u2d62\u2d3b\u2d4d", "name:de": "Qudayyil", "name:en": "Qudayyil", "name:fa": "\u0642\u062f\u06cc\u0644", "name:fr": "Gdyel", "name:kab": "Gdeyyel", "old_name": "\u0633\u0627\u0646 \u0643\u0644\u0648", "old_name:ar": "\u0633\u0627\u0646 \u0643\u0644\u0648", "old_name:fr": "Saint-Cloud", "place": "town", "population": "42688", "wikidata": "Q5529400", "wikimedia_commons": "Category:Gdyel", "wikipedia": "fr:Gdyel"}}, {"type": "node", "id": 428239843, "lat": 35.8006933, "lon": -0.3765323, "tags": {"name": "Hassi Mefsoukh", "name:ar": "\u062d\u0627\u0633\u064a \u0645\u0641\u0633\u0648\u062e", "name:ber": "\u2d43\u2d30\u2d59\u2d49 \u2d4e\u2d3b\u2d3c\u2d59\u2d53\u2d45", "name:en": "Hassi Mefsoukh", "name:fr": "Hassi Mefsoukh", "name:kab": "\u1e24asi Mefsux", "place": "town", "population": "12836", "wikidata": "Q3128229", "wikimedia_commons": "Category:Hassi Mefsoukh", "wikipedia": "fr:Hassi Mefsoukh"}}, {"type": "node", "id": 429683749, "lat": 35.805837, "lon": -0.267936, "tags": {"name": "Bethioua", "name:ar": "\u0628\u0637\u064a\u0648\u0629", "name:ber": "\u2d31\u2d3b\u2d5f\u2d5f\u2d49\u2d61\u2d30", "name:el": "\u039c\u03c0\u03b5\u03b8\u03b9\u03bf\u03cd\u03b1", "name:en": "Bethioua", "name:fr": "Bethioua", "name:kab": "Be\u1e6d\u1e6diwa", "place": "town", "wikidata": "Q1649251", "wikipedia": "fr:Bethioua"}}, {"type": "node", "id": 443037222, "lat": 35.7519675, "lon": -0.0167043, "tags": {"name": "Fornaka", "name:ar": "\u0641\u0631\u0646\u0627\u0643\u0629", "name:ber": "\u2d3c\u2d49\u2d54\u2d4f\u2d30\u2d3d\u2d30", "name:en": "Fornaka", "name:fr": "Fornaka", "name:kab": "Fernaka", "place": "town", "population": "16543", "wikidata": "Q2404804", "wikimedia_commons": "Category:Fornaka", "wikipedia": "fr:Fornaka"}}, {"type": "node", "id": 464766544, "lat": 35.5621748, "lon": -0.2588196, "tags": {"alt_name:ar": "\u0639\u0643\u0627\u0632", "name": "Oggaz", "name:ar": "\u0639\u0642\u0627\u0632", "name:azb": "\u0639\u06a9\u0627\u0632", "name:ber": "\u2d44\u2d53\u2d33\u2d33\u2d30\u2d54", "name:en": "Oggaz", "name:fa": "\u0639\u06a9\u0627\u0632", "name:fr": "Oggaz", "name:kab": "\u0190uggar", "place": "town", "population": "11140", "wikidata": "Q3349780", "wikipedia": "ar:\u0639\u0642\u0627\u0632"}}, {"type": "node", "id": 497122254, "lat": 35.7948853, "lon": -0.1652125, "tags": {"name": "Mersat El Hadjadj", "name:ar": "\u0645\u0631\u0633\u0649 \u0627\u0644\u062d\u062c\u0627\u062c", "name:ber": "\u2d4e\u2d3b\u2d54\u2d59\u2d30 \u2d4d\u2d43\u2d3b\u2d35\u2d35\u2d30\u2d35", "name:en": "Mers El Hadjadj", "name:fr": "Mers El Hadjadj", "name:kab": "Mersa L\u1e25e\u01e7\u01e7a\u01e7", "old_name": "Port aux poules", "place": "town", "population": "13153", "ref:ONS": "3108", "source": "Algerie Mapper Team", "wikidata": "Q3294984", "wikimedia_commons": "Category:Marsat El Hadjadj", "wikipedia": "fr:Marsat El Hadjadj"}}, {"type": "node", "id": 810749486, "lat": 35.726419, "lon": -0.4671047, "tags": {"name": "Hassi Ben Okba", "name:ar": "\u062d\u0627\u0633\u064a \u0628\u0646 \u0639\u0642\u0628\u0629", "name:ber": "\u2d43\u2d30\u2d59\u2d49 \u2d31\u2d3b\u2d4f \u2d44\u2d53\u2d47\u2d31\u2d30", "name:en": "Hassi Ben Okba", "name:fr": "Hassi Ben Okba", "name:kab": "\u1e24asi Ben \u0190uqba", "place": "town", "population": "13905", "ref:ONS": "3119", "wikidata": "Q3128217", "wikimedia_commons": "Category:Hassi Ben Okba", "wikipedia": "fr:Hassi Ben Okba"}}, {"type": "node", "id": 810749489, "lat": 35.6791406, "lon": -0.4117684, "tags": {"name": "Boufatis", "name:ar": "\u0628\u0648\u0641\u0627\u0637\u064a\u0633", "name:ber": "\u2d31\u2d53\u2d3c\u2d30\u2d5f\u2d49\u2d59", "name:en": "Boufatis", "name:fr": "Boufatis", "name:kab": "Bufatis", "place": "town", "population": "11872", "wikidata": "Q2921527", "wikipedia": "fr:Boufatis"}}, {"type": "node", "id": 810749490, "lat": 35.6937209, "lon": -0.4186546, "tags": {"name": "Ben Freha", "name:ar": "\u0628\u0646 \u0641\u0631\u064a\u062d\u0629", "name:ber": "\u2d31\u2d3b\u2d4f \u2d3c\u2d54\u2d49\u2d43\u2d30", "name:en": "Ben Freha", "name:fr": "Ben Freha", "name:kab": "Ben Fri\u1e25a", "place": "town", "population": "23254", "wikidata": "Q582107", "wikimedia_commons": "Category:Ben Freha", "wikipedia": "fr:Ben Freha"}}, {"type": "node", "id": 810749518, "lat": 35.6912811, "lon": -0.4979622, "tags": {"name": "Hassi Bounif", "name:ar": "\u062d\u0627\u0633\u064a \u0628\u0648\u0646\u064a\u0641", "name:ber": "\u2d43\u2d30\u2d59\u2d49 \u2d31\u2d53\u2d4f\u2d49\u2d3c", "name:el": "\u03a7\u03ac\u03c3\u03c3\u03b9 \u039c\u03c0\u03bf\u03c5\u03bd\u03af\u03c6", "name:en": "Hassi Bounif", "name:fr": "Hassi Bounif", "name:kab": "\u1e24asi Bunif", "place": "town", "population": "63581", "wikidata": "Q3128219", "wikimedia_commons": "Category:Hassi Bounif", "wikipedia": "fr:Hassi Bounif"}}, {"type": "node", "id": 810753701, "lat": 35.5519239, "lon": -0.4522604, "tags": {"name": "Oued Tlelat", "name:ar": "\u0648\u0627\u062f\u064a \u062a\u0644\u064a\u0644\u0627\u062a", "name:azb": "\u0648\u0627\u062f\u06cc \u062a\u0644\u06cc\u0644\u0627\u062a", "name:ber": "\u2d61\u2d30\u2d37 \u2d5c\u2d4d\u2d49\u2d4d\u2d30\u2d5c", "name:el": "\u039f\u03c5\u03ad\u03bd\u03c4 \u03a4\u03bb\u03b5\u03bb\u03ac\u03c4", "name:en": "Oued Tlelat", "name:fa": "\u0648\u0627\u062f\u06cc \u062a\u0644\u06cc\u0644\u0627\u062a", "name:fr": "Oued Tlelat", "name:kab": "Wad Tlilat", "name:kab-Arab": "\u0648\u0627\u062f \u062a\u0644\u064a\u0644\u0627\u062a", "place": "town", "population": "19384", "population:date": "2008", "ref:ONS": "3111", "wikidata": "Q3358055", "wikipedia": "fr:Oued Tlelat"}}, {"type": "node", "id": 833944299, "lat": 35.561548, "lon": -0.0885759, "tags": {"name": "Bou Henni", "name:ar": "\u0628\u0648\u0647\u0646\u064a", "name:ber": "\u2d31\u2d53\u2d40\u2d4f\u2d49", "name:en": "Bouhenni", "name:fr": "Bouhenni", "name:kab": "Buhni", "place": "town", "population": "11715", "wikidata": "Q2911895", "wikipedia": "fr:Bou Henni"}}, {"type": "node", "id": 1678539135, "lat": 35.8133273, "lon": -0.2871248, "tags": {"name": "A\u00efn El Bia", "name:ar": "\u0639\u064a\u0646 \u0627\u0644\u0628\u064a\u0629", "name:ber": "\u2d44\u2d49\u2d4f \u2d4d\u2d31\u2d49\u2d62\u2d30", "name:en": "Ain El Bia", "name:fr": "A\u00efn El Bia", "name:kab": "\u0190in Lbeyya", "old_name": "Damesme", "place": "town", "population": "32611", "wikidata": "Q2876293", "wikipedia": "fr:A\u00efn El Bia"}}, {"type": "node", "id": 2922724122, "lat": 35.856348, "lon": -0.313678, "tags": {"name": "Arzew", "name:ar": "\u0623\u0631\u0632\u064a\u0648", "name:ber": "\u2d30\u2d54\u2d3b\u2d63\u2d62\u2d53", "name:el": "\u0391\u03c1\u03b6\u03ad\u03bf\u03c5", "name:en": "Arzew", "name:fr": "Arzew", "name:kab": "Ar\u1e93yu", "place": "town", "population": "85658", "source": "Algerie Mapper Team", "wikidata": "Q2084446", "wikimedia_commons": "Category:Arzew", "wikipedia": "fr:Arzew"}}]}