{"version": 0.6, "generator": "Overpass API 0.7.62.4 2390de5a", "osm3s": {"timestamp_osm_base": "2025-01-08T07:18:43Z", "copyright": "The data included in this document is from www.openstreetmap.org. The data is made available under ODbL."}, "elements": [{"type": "node", "id": 1864970021, "lat": 34.259878, "lon": -5.927253, "tags": {"capital": "5", "int_name": "Sidi Slimane", "name": "Sidi Slimane \u2d59\u2d49\u2d37\u2d49 \u2d59\u2d4d\u2d49\u2d4e\u2d30\u2d4f \u0633\u064a\u062f\u064a \u0633\u0644\u064a\u0645\u0627\u0646", "name:ar": "\u0633\u064a\u062f\u064a \u0633\u0644\u064a\u0645\u0627\u0646", "name:ber": "\u2d59\u2d49\u2d37\u2d49 \u2d59\u2d4d\u2d49\u2d4e\u2d30\u2d4f", "name:de": "Sidi Slimane", "name:en": "Sidi Slimane", "name:fr": "Sidi Slimane", "name:kab": "Sidi Sliman", "name:ml": "\u0d38\u0d3f\u0d26\u0d3f \u0d38\u0d41\u0d32\u0d48\u0d2e\u0d3e\u0d7b", "name:zgh": "\u2d59\u2d49\u2d37\u2d49 \u2d59\u2d4d\u2d49\u2d4e\u2d30", "place": "city", "wikidata": "Q2359952", "wikimedia_commons": "Category:Sidi Slimane, Morocco", "wikipedia": "en:Sidi Slimane, Morocco"}}, {"type": "node", "id": 1884808398, "lat": 34.4208162, "lon": -6.0941702, "tags": {"capital": "6", "int_name": "Dar Gueddari", "name": "Dar Gueddari \u2d37\u2d30\u2d55 \u2d33\u2d37\u2d37\u2d30\u2d54\u2d49 \u062f\u0627\u0631 \u0627\u0644\u0643\u062f\u0627\u0631\u064a", "name:ar": "\u062f\u0627\u0631 \u0627\u0644\u0643\u062f\u0627\u0631\u064a", "name:ber": "\u2d37\u2d30\u2d55 \u2d33\u2d37\u2d37\u2d30\u2d54\u2d49", "name:en": "Dar Gueddari", "name:fr": "Dar Gueddari", "name:zgh": "\u2d37\u2d30\u2d55 \u2d33\u2d37\u2d37\u2d30\u2d54\u2d49", "place": "town"}}, {"type": "node", "id": 1920931046, "lat": 34.573416, "lon": -5.956615, "tags": {"capital": "6", "int_name": "Mechra Bel Ksiri", "name": "Mechra Bel Ksiri \u2d4e\u2d5b\u2d55\u2d44 \u2d31\u2d4d\u2d4d\u2d47\u2d5a\u2d49\u2d55\u2d49 \u0645\u0634\u0631\u0639 \u0628\u0644\u0642\u0635\u064a\u0631\u064a", "name:ar": "\u0645\u0634\u0631\u0639 \u0628\u0644\u0642\u0635\u064a\u0631\u064a", "name:ber": "\u2d4e\u2d5b\u2d55\u2d44 \u2d31\u2d4d\u2d4d\u2d47\u2d5a\u2d49\u2d55\u2d49", "name:en": "Mechra Bel Ksiri", "name:fr": "Mechra Bel Ksiri", "name:zgh": "\u2d4e\u2d5b\u2d55\u2d44 \u2d31\u2d4d\u2d4d\u2d47\u2d5a\u2d49\u2d55\u2d49", "place": "town", "wikidata": "Q3303856", "wikimedia_commons": "Category:Mechra Bel Ksiri", "wikipedia": "en:Mechra Bel Ksiri"}}, {"type": "node", "id": 1999389626, "lat": 34.615129, "lon": -5.736023, "tags": {"capital": "6", "name": "Had Kourt \u2d43\u2d37\u2d37 \u2d3d\u2d53\u2d54\u2d5c \u0623\u062d\u062f \u0643\u0648\u0631\u062a", "name:ar": "\u0623\u062d\u062f \u0643\u0648\u0631\u062a", "name:ary": "\u062d\u062f \u0643\u0631\u062a", "name:azb": "\u0627\u062d\u062f \u06a9\u0648\u0631\u062a", "name:ber": "\u2d43\u2d37\u2d37 \u2d3d\u2d53\u2d54\u2d5c", "name:de": "Had Kurt", "name:en": "Had Kourt", "name:es": "Had Kurt", "name:fa": "\u0627\u062d\u062f \u06a9\u0648\u0631\u062a", "name:fr": "Had Kourt", "name:zgh": "\u2d43\u2d37\u2d37 \u2d3d\u2d53\u2d54\u2d5c", "place": "town", "wikidata": "Q3125519", "wikimedia_commons": "Category:Had Kourt", "wikipedia": "ar:\u0623\u062d\u062f \u0643\u0648\u0631\u062a"}}, {"type": "node", "id": 2158441715, "lat": 34.4383085, "lon": -5.6844179, "tags": {"capital": "7", "int_name": "Khnichet", "name": "Khnichet \u2d45\u2d4f\u2d49\u2d5b\u2d30\u2d5c \u0627\u0644\u062e\u0646\u064a\u0634\u0627\u062a", "name:ar": "\u0627\u0644\u062e\u0646\u064a\u0634\u0627\u062a", "name:ber": "\u2d45\u2d4f\u2d49\u2d5b\u2d30\u2d5c", "name:en": "Khnichet", "name:fr": "Khnichet", "name:zgh": "\u2d45\u2d4f\u2d49\u2d5b\u2d30\u2d5c", "place": "town"}}, {"type": "node", "id": 4376785290, "lat": 34.5410761, "lon": -5.8562735, "tags": {"int_name": "Gamna", "name": "Gamna \u2d33\u2d30\u2d4e\u2d4f\u2d30 \u0643\u0627\u0645\u0646\u0627", "name:ar": "\u0643\u0627\u0645\u0646\u0627", "name:ber": "\u2d33\u2d30\u2d4e\u2d4f\u2d30", "name:en": "Gamna", "name:fr": "Gamna", "name:zgh": "\u2d33\u2d30\u2d4e\u2d4f\u2d30", "place": "town"}}]}