{"version": 0.6, "generator": "Overpass API 0.7.62.4 2390de5a", "osm3s": {"timestamp_osm_base": "2025-01-08T06:51:12Z", "copyright": "The data included in this document is from www.openstreetmap.org. The data is made available under ODbL."}, "elements": [{"type": "node", "id": 1565510525, "lat": 32.6574771, "lon": 21.1077228, "tags": {"name": "\u0628\u0637\u0629", "name:ar": "\u0628\u0637\u0629", "name:en": "Battah", "name:fr": "Battah", "pcode": "LY-23-10700", "place": "town", "population": "2649", "shabya_cd": "23", "source": "NGA;OCHA"}}, {"type": "node", "id": 1565511323, "lat": 32.4833738, "lon": 21.4096623, "tags": {"name": "\u0645\u0631\u0627\u0648\u0629", "name:ar": "\u0645\u0631\u0627\u0648\u0629", "name:en": "Marawah", "name:fr": "Marawah", "pcode": "LY-17-10630", "place": "town", "shabya_cd": "17", "source": "NGA;OCHA;wikipedia"}}, {"type": "node", "id": 1565512821, "lat": 32.4803518, "lon": 21.1266826, "tags": {"name": "\u062a\u0627\u0643\u0646\u0633", "name:ar": "\u062a\u0627\u0643\u0646\u0633", "name:en": "Taknis", "name:fr": "Taknis", "name:it": "Borgo Torelli", "pcode": "LY-23-10631", "place": "town", "population": "3144", "shabya_cd": "23", "source": "NGA;OCHA"}}]}