{"version": 0.6, "generator": "Overpass API 0.7.62.4 2390de5a", "osm3s": {"timestamp_osm_base": "2025-01-08T07:18:43Z", "copyright": "The data included in this document is from www.openstreetmap.org. The data is made available under ODbL."}, "elements": [{"type": "node", "id": 63439019, "lat": 33.830287, "lon": -6.072605, "tags": {"capital": "5", "check_date": "2024-12-03", "name": "Kh\u00e9misset \u2d45\u2d3b\u2d4e\u2d49\u2d59\u2d59\u2d3b\u2d5c \u0627\u0644\u062e\u0645\u064a\u0633\u0627\u062a", "name:ar": "\u0627\u0644\u062e\u0645\u064a\u0633\u0627\u062a", "name:azb": "\u062e\u0645\u06cc\u0633\u0627\u062a", "name:ber": "\u2d45\u2d3b\u2d4e\u2d49\u2d59\u2d59\u2d3b\u2d5c", "name:de": "Khemisset", "name:en": "Khemisset", "name:es": "Jemisat", "name:et": "Khemisset", "name:fa": "\u062e\u0645\u06cc\u0633\u0627\u062a", "name:fr": "Kh\u00e9misset", "name:kab": "Xmisat", "name:lt": "Chemisetas", "name:ml": "\u0d05\u0d7d-\u0d16\u0d2e\u0d40\u0d38\u0d3e\u0d24\u0d4d\u0d24\u0d4d", "name:uk": "\u0425\u0435\u043c\u0456\u0441\u0441\u0435\u0442", "name:ur": "\u062e\u0645\u06cc\u0633\u0627\u062a", "name:zgh": "\u2d45\u2d3b\u2d4e\u2d49\u2d59\u2d59\u2d3b\u2d5c", "place": "city", "population": "125834", "population:date": "2024", "source:population": "Haut-Commissariat au Plan", "wikidata": "Q1046653", "wikipedia": "ar:\u0627\u0644\u062e\u0645\u064a\u0633\u0627\u062a"}}, {"type": "node", "id": 1052247758, "lat": 34.226412, "lon": -5.711434, "tags": {"capital": "5", "name": "Sidi Kacem \u2d59\u2d49\u2d37\u2d49 \u2d47\u2d30\u2d59\u2d30\u2d4e \u0633\u064a\u062f\u064a \u0642\u0627\u0633\u0645", "name:ar": "\u0633\u064a\u062f\u064a \u0642\u0627\u0633\u0645", "name:ber": "\u2d59\u2d49\u2d37\u2d49 \u2d47\u2d30\u2d59\u2d30\u2d4e", "name:de": "Sidi Kacem", "name:en": "Sidi Kacem", "name:fr": "Sidi Kacem", "name:kab": "Sidi Qacem", "name:ml": "\u0d38\u0d3f\u0d26\u0d3f \u0d16\u0d3e\u0d38\u0d02", "name:zgh": "\u2d59\u2d49\u2d37\u2d49 \u2d47\u2d30\u2d59\u2d30\u2d4e", "place": "city", "wikidata": "Q2089594", "wikipedia": "fr:Sidi Kacem"}}, {"type": "node", "id": 1871530439, "lat": 34.189104, "lon": -5.971499, "tags": {"capital": "7", "int_name": "Dar Bel Amri", "name": "Dar Bel Amri \u2d37\u2d30\u2d55 \u2d31\u2d4d\u2d4d\u2d44\u2d4e\u2d54\u2d49 \u062f\u0627\u0631 \u0628\u0644\u0639\u0645\u0631\u064a", "name:ar": "\u062f\u0627\u0631 \u0628\u0644\u0639\u0645\u0631\u064a", "name:ber": "\u2d37\u2d30\u2d55 \u2d31\u2d4d\u2d4d\u2d44\u2d4e\u2d54\u2d49", "name:en": "Dar Bel Amri", "name:fr": "Dar Bel Amri", "name:zgh": "\u2d37\u2d30\u2d55 \u2d31\u2d4d\u2d4d\u2d44\u2d4e\u2d54\u2d49", "place": "town", "wikidata": "Q2369020", "wikimedia_commons": "Category:Dar Bel Amri", "wikipedia": "en:Dar Bel Amri"}}, {"type": "node", "id": 1970448080, "lat": 33.9704133, "lon": -6.0175027, "tags": {"capital": "8", "int_name": "Ait Yadine", "name": "Ait Yadine \u2d30\u2d62\u2d5c \u2d62\u2d30\u2d37\u2d49\u2d4f \u0622\u064a\u062a \u064a\u0627\u062f\u064a\u0646", "name:ar": "\u0622\u064a\u062a \u064a\u0627\u062f\u064a\u0646", "name:ber": "\u2d30\u2d62\u2d5c \u2d62\u2d30\u2d37\u2d49\u2d4f", "name:en": "Ait Yadine", "name:fr": "Ait Yadine", "name:zgh": "\u2d30\u2d62\u2d5c \u2d62\u2d30\u2d37\u2d49\u2d4f", "place": "town"}}]}