{"version": 0.6, "generator": "Overpass API 0.7.62.4 2390de5a", "osm3s": {"timestamp_osm_base": "2025-01-08T07:16:40Z", "copyright": "The data included in this document is from www.openstreetmap.org. The data is made available under ODbL."}, "elements": [{"type": "node", "id": 569755163, "lat": 26.7435827, "lon": -11.6645492, "tags": {"capital": "5", "name": "Esmara \u2d59\u2d4e\u2d30\u2d54\u2d30 \u0627\u0644\u0633\u0645\u0627\u0631\u0629", "name:ar": "\u0627\u0644\u0633\u0645\u0627\u0631\u0629", "name:ber": "\u2d59\u2d4e\u2d30\u2d54\u2d30", "name:de": "Esmara", "name:en": "Smara", "name:es": "Esmara", "name:fr": "Smara", "name:ko": "\uc2a4\ub9c8\ub77c", "name:ru": "\u0421\u043c\u0430\u0440\u0430", "name:zgh": "\u2d59\u2d4e\u2d30\u2d54\u2d30", "name:zh": "\u65af\u9a6c\u62c9", "place": "city", "population": "57035", "population:date": "2014", "wikidata": "Q842810", "wikipedia": "ar:\u0627\u0644\u0633\u0645\u0627\u0631\u0629 (\u0627\u0644\u0645\u063a\u0631\u0628)", "wikipedia:es": "Esmara"}}]}