{"version": 0.6, "generator": "Overpass API 0.7.62.4 2390de5a", "osm3s": {"timestamp_osm_base": "2025-01-08T07:10:30Z", "copyright": "The data included in this document is from www.openstreetmap.org. The data is made available under ODbL."}, "elements": [{"type": "node", "id": 299682062, "lat": 35.1907399, "lon": -0.6341153, "tags": {"capital": "4", "name": "Sidi Bel Abb\u00e8s \u2d59\u2d49\u2d37\u2d49 \u2d31\u2d4d\u2d44\u2d30\u2d31\u2d30\u2d59 \u0633\u064a\u062f\u064a \u0628\u0644\u0639\u0628\u0627\u0633", "name:ar": "\u0633\u064a\u062f\u064a \u0628\u0644\u0639\u0628\u0627\u0633", "name:azb": "\u0633\u06cc\u062f\u06cc \u0628\u0644\u0639\u0628\u0627\u0633", "name:ber": "\u2d59\u2d49\u2d37\u2d49 \u2d31\u2d4d\u2d44\u2d30\u2d31\u2d30\u2d59", "name:el": "\u03a3\u03af\u03bd\u03c4\u03b9 \u039c\u03c0\u03b5\u03bb \u0391\u03bc\u03c0\u03ad\u03c2", "name:en": "Sidi Bel Abbes", "name:fa": "\u0633\u06cc\u062f\u06cc \u0628\u0644\u0639\u0628\u0627\u0633", "name:fr": "Sidi Bel Abb\u00e8s", "name:kab": "Sidi Bel\u025bebbas", "name:ks": "\u0633\u06cc\u062f\u06cc \u0628\u0644\u0639\u0628\u0627\u0633", "name:lt": "Sidi bel Abesas", "name:pnb": "\u0633\u06cc\u062f\u06cc \u0628\u0644\u0639\u0628\u0627\u0633", "name:ro": "Sidi Bel Abbes", "name:ur": "\u0633\u06cc\u062f\u06cc \u0628\u0644\u0639\u0628\u0627\u0633", "name:zgh": "\u2d59\u2d49\u2d37\u2d49 \u2d31\u2d4d\u2d44\u2d30\u2d31\u2d30\u2d59", "place": "city", "population": "212935", "population:date": "2008", "ref:ONS": "2201", "wikidata": "Q852276", "wikipedia": "ar:\u0633\u064a\u062f\u064a \u0628\u0644\u0639\u0628\u0627\u0633"}}, {"type": "node", "id": 464631977, "lat": 35.3790296, "lon": -0.9711585, "tags": {"alt_name:ar": "\u062d\u0645\u0627\u0645 \u0623\u0628\u0648 \u062d\u062c\u0631;\u062d\u0645\u0627\u0645 \u0628\u0648 \u062d\u062c\u0627\u0631", "name": "Hammam Bou Hadjar", "name:ar": "\u062d\u0645\u0627\u0645 \u0628\u0648\u062d\u062c\u0631", "name:azb": "\u062d\u0645\u0627\u0645 \u0628\u0648\u062d\u062c\u0631", "name:ber": "\u2d43\u2d3b\u2d4e\u2d4e\u2d30\u2d4e \u2d31\u2d53\u2d43\u2d3b\u2d35\u2d35\u2d30\u2d54", "name:en": "Hammam Bouhadjar", "name:fa": "\u062d\u0645\u0627\u0645 \u0628\u0648\u062d\u062c\u0631", "name:fr": "Hammam Bouhadjar", "name:kab": "\u1e24emmam Bu\u1e25jer", "place": "town", "population": "35158", "wikidata": "Q887319", "wikimedia_commons": "Category:Hammam Bou Hadjar", "wikipedia": "ar:\u062d\u0645\u0627\u0645 \u0628\u0648\u062d\u062c\u0631"}}, {"type": "node", "id": 464766548, "lat": 35.3671349, "lon": -0.5120201, "tags": {"name": "A\u00efn El Berd", "name:ar": "\u0639\u064a\u0646 \u0627\u0644\u0628\u0631\u062f", "name:ber": "\u2d44\u2d49\u2d4f \u2d4d\u2d31\u2d3b\u2d54\u2d37", "name:el": "\u0391\u0390\u03bd \u0395\u03bb \u039c\u03c0\u03b5\u03c1\u03bd\u03c4", "name:en": "Ain El Berd", "name:fr": "A\u00efn El Berd", "name:kab": "\u0190in Lberd", "place": "town", "population": "16013", "ref:ONS": "2228", "wikidata": "Q1648951", "wikimedia_commons": "Category:Ain El Berd", "wikipedia": "fr:A\u00efn El Berd"}}, {"type": "node", "id": 464766553, "lat": 35.260678, "lon": -0.567467, "tags": {"name": "Sidi Brahim", "name:ar": "\u0633\u064a\u062f\u064a \u0625\u0628\u0631\u0627\u0647\u064a\u0645", "name:ber": "\u2d59\u2d49\u2d37\u2d49 \u2d31\u2d54\u2d30\u2d40\u2d49\u2d4e", "name:el": "\u03a3\u03af\u03bd\u03c4\u03b9 \u039c\u03c0\u03c1\u03b1\u03c7\u03af\u03bc", "name:en": "Sidi Brahim", "name:fr": "Sidi Brahim", "name:kab": "Sidi Brahim", "place": "town", "population": "10371", "wikidata": "Q1650068", "wikimedia_commons": "Category:Sidi Brahim", "wikipedia": "fr:Sidi Brahim (Sidi Bel Abb\u00e8s)"}}, {"type": "node", "id": 810762302, "lat": 35.4058264, "lon": -0.8811572, "tags": {"name": "Ain El Arbaa", "name:ar": "\u0639\u064a\u0646 \u0627\u0644\u0623\u0631\u0628\u0639\u0627\u0621", "name:azb": "\u0639\u06cc\u0646 \u0627\u0631\u0628\u0639\u0627\u0621", "name:ber": "\u2d44\u2d49\u2d4f \u2d44\u2d3b\u2d54\u2d31\u2d30", "name:en": "Ain El Arbaa", "name:fa": "\u0639\u06cc\u0646 \u0627\u0631\u0628\u0639\u0627\u0621", "name:fr": "A\u00efn El Arbaa", "name:kab": "\u0190in \u0190erba", "place": "town", "population": "15683", "wikidata": "Q1649088", "wikipedia": "ar:\u0639\u064a\u0646 \u0627\u0644\u0623\u0631\u0628\u0639\u0627\u0621"}}, {"type": "node", "id": 1373299402, "lat": 35.1361811, "lon": -0.6228938, "tags": {"name": "Bellouladi", "name:ar": "\u0628\u0644\u0648\u0644\u0627\u062f\u064a", "name:ber": "\u2d31\u2d3b\u2d4d\u2d4do\u2d53\u2d4d\u2d30\u2d37\u2d49", "name:el": "\u039c\u03c0\u03b5\u03bb\u03bb\u03bf\u03c5\u03bb\u03ac\u03bd\u03c4\u03b9", "name:en": "Bellouladi", "name:fr": "Bellouladi", "name:kab": "Belwaldi", "place": "town", "population": "11293"}}, {"type": "node", "id": 4555604233, "lat": 35.1651869, "lon": -0.6944968, "tags": {"name": "Sidi Lahcene", "name:ar": "\u0633\u064a\u062f\u064a \u0644\u062d\u0633\u0646", "name:ber": "\u2d59\u2d49\u2d37\u2d49 \u2d4d\u2d3b\u2d43\u2d59\u2d3b\u2d4f", "name:el": "\u03a3\u03af\u03bd\u03c4\u03b9 \u039b\u03b1\u03c7\u03c3\u03ad\u03bd\u03b5", "name:en": "Sidi Lahcene", "name:fr": "Sidi Lahcene", "name:kab": "Sidi Le\u1e25sen", "place": "town", "population": "25000", "wikidata": "Q1650058", "wikimedia_commons": "Category:Sidi Lahcene", "wikipedia": "fr:Sidi Lahcene"}}]}