{"version": 0.6, "generator": "Overpass API 0.7.62.4 2390de5a", "osm3s": {"timestamp_osm_base": "2025-01-08T06:24:35Z", "copyright": "The data included in this document is from www.openstreetmap.org. The data is made available under ODbL."}, "elements": [{"type": "node", "id": 1721860073, "lat": 23.3938645, "lon": 57.4291659, "tags": {"alt_name": "\u0627\u0644\u0631\u0633\u062a\u0627\u0642", "int_name": "Al-Rustaq", "is_in": "\u0639\u0645\u0627\u0646", "name": "\u0627\u0644\u0631\u0633\u062a\u0627\u0642", "name:ar": "\u0627\u0644\u0631\u0633\u062a\u0627\u0642", "name:ar1": "\u0627\u0644\u0631\u0633\u062a\u0627\u0642", "name:cs": "Rustak", "name:de": "Al-Rustaq", "name:en": "Al-Rustaq", "name:fr": "Al-Rustaq", "name:he": "\u05d0\u05dc \u05e8\u05d5\u05e1\u05d8\u05d0\u05e7", "name:hi": "\u0905\u0932-\u0930\u0941\u0938\u094d\u0924\u093e\u0915", "name:ml": "\u0d05\u0d7d-\u0d31\u0d41\u0d38\u0d4d\u0d24\u0d3e\u0d16\u0d4d", "natural": "oasis", "place": "city", "population": "120000", "wikidata": "Q542678", "wikipedia": "ar:\u0648\u0644\u0627\u064a\u0629 \u0627\u0644\u0631\u0633\u062a\u0627\u0642"}}, {"type": "node", "id": 1721860080, "lat": 23.31, "lon": 57.53, "tags": {"alt_name": "\u0627\u0644\u0639\u0648\u0627\u0628\u064a", "int_name": "Awabi, Al Aw\u0101bi, Aw\u0101b\u012b, Awbi, Al Awabi, Awabi", "name": "\u0648\u0644\u0627\u064a\u0629 \u0627\u0644\u0639\u0648\u0627\u0628\u064a", "name:ar": "\u0627\u0644\u0639\u0648\u0627\u0628\u064a", "name:ar1": "\u0627\u0644\u0639\u0648\u0627\u0628\u064a", "name:de": "Awabi", "name:en": "Al Awabi", "name:fr": "Awabi", "name:ml": "\u0d05\u0d7d-\u0d05\u0d35\u0d3e\u0d2c\u0d3f", "place": "town"}}, {"type": "node", "id": 12324776076, "lat": 23.2161452, "lon": 57.5539472, "tags": {"GNS:id": "-787449", "alt_name": "Is\u0163\u0101l", "name": "Sit\u0101l", "name:ar": "\u0633\u062a\u0627\u0644", "name:en": "Sit\u0101l", "name:es": "Sit\u0101l", "name:fr": "Sit\u0101l", "place": "town"}}, {"type": "node", "id": 12324833715, "lat": 23.1884285, "lon": 57.5647079, "tags": {"GNS:id": "379516", "alt_name": "Th\u0101qib;Thaqub;Thaqib", "name": "Thaqib", "name:ar": "\u062b\u0642\u0628", "name:de": "Thaqib", "name:en": "Thaqib", "name:es": "Thaqib", "name:fr": "Thaqib", "place": "town"}}, {"type": "node", "id": 12324836393, "lat": 23.1908706, "lon": 57.5599544, "tags": {"GNS:id": "379514", "alt_name": "Shuwah;Sh\u016bh", "name": "Sh\u016bh", "name:ar": "\u0634\u0648\u0647", "name:de": "Sh\u016bh", "name:en": "Sh\u016bh", "name:es": "Sh\u016bh", "name:fr": "Sh\u016bh", "place": "town"}}, {"type": "node", "id": 12324845983, "lat": 23.1957956, "lon": 57.5579097, "tags": {"GNS:id": "-789036", "alt_name": "Sunaybah;Hijar Sajr Sanaiba;Sanaiba;\u015eunaybah;\u015eunaybi\u2018;\u1e62unaybu\u2018", "name": "\u015eunaybi\u2018", "name:ar": "\u0635\u0646\u064a\u0628\u0639", "name:en": "\u015eunaybi\u2018", "name:es": "\u015eunaybi\u2018", "name:fr": "\u015eunaybi\u2018", "place": "town"}}, {"type": "node", "id": 12324862959, "lat": 23.2105864, "lon": 57.5556601, "tags": {"GNS:id": "379512", "name": "Far\u2018", "name:en": "Far\u2018", "name:es": "Far\u2018", "name:fr": "Far\u2018", "place": "town"}}, {"type": "node", "id": 12324869048, "lat": 23.2074489, "lon": 57.5611677, "tags": {"GNS:id": "379513", "alt_name": "Misf\u0101t al Ha\u1e6d\u0101\u1e6dlah;Misf\u0101t al Ha\u0163\u0101\u0163ilah;Misfah", "name": "Misf\u0101t al Ha\u0163\u0101\u0163ilah", "name:ar": "\u0645\u0633\u0641\u0627\u0629 \u0627\u0644\u0647\u0637\u0627\u0637\u0644\u0629", "name:en": "Misf\u0101t al Ha\u0163\u0101\u0163ilah", "name:es": "Misf\u0101t al Ha\u0163\u0101\u0163ilah", "name:fr": "Misf\u0101t al Ha\u0163\u0101\u0163ilah", "place": "town"}}, {"type": "node", "id": 12324903426, "lat": 23.2056293, "lon": 57.5022115, "tags": {"GNS:id": "14497543", "alt_name": "A\u1e93 \u1e92aharah;Az\u0327 Z\u0327ahrah", "name": "Az\u0327 Z\u0327ahrah", "name:ar": "\u0627\u0644\u0638\u0647\u0631\u0629", "name:en": "Az\u0327 Z\u0327ahrah", "name:es": "Az\u0327 Z\u0327ahrah", "name:fr": "Az\u0327 Z\u0327ahrah", "place": "town"}}]}