{"version": 0.6, "generator": "Overpass API 0.7.62.4 2390de5a", "osm3s": {"timestamp_osm_base": "2025-01-08T06:22:27Z", "copyright": "The data included in this document is from www.openstreetmap.org. The data is made available under ODbL."}, "elements": [{"type": "node", "id": 288992209, "lat": 16.894719, "lon": 42.5579758, "tags": {"GNS:dsg_code": "PPLA", "GNS:dsg_name": "captial of a first-order administrative division", "GNS:id": "-3096152", "alt_name": "Djayzan;Djayz\u0101n;Djazan;Dj\u0101z\u0101n;Gizan;Giz\u00e1n;Jaizan;Jezan;Jizan;J\u012bz\u0101n;Qizan;Q\u012bz\u0101n;\u062c\u064a\u0632\u0627\u0646;J\u0101z\u0101n;Jazan", "alt_name:en": "Jazan, Gizan,Gazan", "capital": "4", "name": "\u062c\u064a\u0632\u0627\u0646", "name:ar": "\u062c\u064a\u0632\u0627\u0646", "name:ckb": "\u062c\u06ce\u0632\u0627\u0646", "name:de": "Dsch\u0101z\u0101n", "name:en": "Jizan", "name:es": "Jizan", "name:et": "J\u012bz\u0101n", "name:fr": "Jizan", "name:he": "\u05d2'\u05d9\u05d6\u05d0\u05df", "name:hi": "\u091c\u093f\u091c\u093c\u093e\u0928", "name:ko": "\uc9c0\uc794", "name:ku": "C\u00eazan", "name:ml": "\u0d1c\u0d3f\u0d38\u0d3e\u0d7b", "name:ru": "\u0414\u0436\u0438\u0437\u0430\u043d", "name:uk": "\u0414\u0436\u0438\u0437\u0430\u043d", "name:zh": "\u5409\u8d5e", "place": "city", "population": "127743", "population:date": "2010", "source:population": "stats.gov.sa", "wikidata": "Q27660", "wikipedia": "en:Jizan"}}, {"type": "node", "id": 1237960746, "lat": 16.7700821, "lon": 42.7310559, "tags": {"GNS:dsg_code": "PPL", "GNS:dsg_name": "populated place", "GNS:id": "-3092180", "alt_name": "Al Madaya; Al Ma\u1e11\u0101y\u0101; Madhan; Madhaya", "int_name": "Al Ma\u1e11\u0101yah", "name": "\u0627\u0644\u0645\u0636\u0627\u064a\u0627", "name:ar": "\u0627\u0644\u0645\u0636\u0627\u064a\u0627", "name:de": "Al Madayah", "name:en": "Al Madayah", "name:fr": "Al Madayah", "place": "town", "population": "7752", "population:date": "2010", "source:name": "GNS", "source:population": "stats.gov.sa"}}, {"type": "node", "id": 1237961063, "lat": 16.992779, "lon": 42.7746761, "tags": {"alt_name": "\u0627\u0644\u0628\u062f\u064a\u0639", "int_name": "Al Bad\u012b , Al Badi", "name": "\u0627\u0644\u0628\u062f\u064a\u0639", "name:ar": "\u0627\u0644\u0628\u062f\u064a\u0639", "name:de": "Al Badi", "name:en": "Al Badi", "name:fr": "Al Badi", "place": "town"}}, {"type": "node", "id": 1237961075, "lat": 16.9761297, "lon": 42.6927044, "tags": {"GNS:dsg_code": "PPL", "GNS:dsg_name": "populated place", "GNS:id": "-3098624", "alt_name": "AL Rayyan", "int_name": "Ar Rayy\u0101n", "name": "\u0627\u0644\u0631\u064a\u0627\u0646", "name:ar": "\u0627\u0644\u0631\u064a\u0627\u0646", "name:de": "Al Rayyan", "name:en": "Al Rayyan", "name:fr": "AL Rayyan", "place": "town"}}, {"type": "node", "id": 1237961090, "lat": 17.009972, "lon": 42.834281, "tags": {"GNS:dsg_code": "PPL", "GNS:dsg_name": "populated place", "GNS:id": "-3095193", "alt_name": "\u1e28\u0101kimah; Hakimah", "int_name": "\u1e28\u0101kimah, Hakimah", "name": "\u062d\u0627\u0643\u0645\u0629 \u0627\u0628\u0648\u0639\u0631\u064a\u0634", "name:ar": "\u062d\u0627\u0643\u0645\u0629 \u0627\u0628\u0648\u0639\u0631\u064a\u0634", "name:de": "Hakimah", "name:en": "Hakimah", "name:fr": "Hakimah", "place": "town", "population": "7656", "population:date": "2010", "source:population": "stats.gov.sa"}}, {"type": "node", "id": 8506762133, "lat": 16.9661387, "lon": 42.8380784, "tags": {"GNS:dsg_code": "ADM2", "GNS:dsg_name": "second-order administrative division", "GNS:id": "13470239", "capital": "6", "int_name": "Ab\u016b \u2018Ar\u012bsh", "name": "\u0623\u0628\u0648 \u0639\u0631\u064a\u0634", "name:ar": "\u0623\u0628\u0648 \u0639\u0631\u064a\u0634", "name:ckb": "\u0626\u06d5\u0628\u0648\u0648 \u0639\u06d5\u0631\u06cc\u0634", "name:de": "Abu `Arish", "name:en": "Abu `Arish", "name:fr": "Abou Arish", "name:he": "\u05d0\u05d1\u05d5 \u05e2\u05e8\u05d9\u05e9", "name:ku": "Eb\u00fb Er\u00ee\u015f", "name:ml": "\u0d05\u0d2c\u0d41 \u0d05\u0d30\u0d3f\u0d37\u0d4d", "place": "city", "wikidata": "Q97290977", "wikipedia": "ar:\u0623\u0628\u0648 \u0639\u0631\u064a\u0634"}}]}