{"version": 0.6, "generator": "Overpass API 0.7.62.4 2390de5a", "osm3s": {"timestamp_osm_base": "2025-01-08T06:31:42Z", "copyright": "The data included in this document is from www.openstreetmap.org. The data is made available under ODbL."}, "elements": [{"type": "node", "id": 598253294, "lat": 35.1792062, "lon": 45.9873683, "tags": {"alt_name": "\u0647\u06d5\u06b5\u06d5\u0628\u062c\u06d5", "alt_name:ku": "Helebce", "capital": "6", "int_name": "Halabja", "name": "\u06be\u06d5\u06b5\u06d5\u0628\u062c\u06d5", "name:ar": "\u062d\u0644\u0628\u062c\u0629", "name:bn": "\u09b9\u09be\u09b2\u09be\u09ac\u099c\u09be", "name:ckb": "\u06be\u06d5\u06b5\u06d5\u0628\u062c\u06d5", "name:cs": "Halabd\u017ea", "name:de": "Halabdscha", "name:en": "Halabja", "name:es": "Halabja", "name:fa": "\u062d\u0644\u0628\u0686\u0647", "name:fr": "Halabja", "name:hi": "\u0939\u0932\u093e\u092c\u094d\u091c\u093e", "name:hr": "Halabd\u017ea", "name:ja": "\u30cf\u30e9\u30d6\u30b8\u30e3", "name:ku": "Hellebce", "name:ml": "\u0d39\u0d32\u0d2c\u0d4d\u0d1c", "name:pl": "Halabd\u017ca", "name:ru": "\u0425\u0430\u043b\u0430\u0431\u0434\u0436\u0430", "name:tr": "Halep\u00e7e", "name:uk": "\u0425\u0430\u043b\u0430\u0431\u0434\u0436\u0430", "place": "city", "population": "145700", "population:date": "2022", "postal_code": "46006", "wikidata": "Q605544", "wikipedia": "ckb:\u06be\u06d5\u06b5\u06d5\u0628\u062c\u06d5"}}, {"type": "node", "id": 2357660925, "lat": 34.8322142, "lon": 45.8424966, "tags": {"alt_name": "Asgaleh;Asqaileh;Asqaila;Ezgeleh;Azgaleh;Azgaleh-ye Sheykh Najm od Din;Askileh", "is_in:country": "Iran", "is_in:state": "Kermanshah", "name": "\u0627\u0632\u06af\u0644\u0647", "name:ar": "\u0627\u0632\u063a\u0644\u0647", "name:ckb": "\u0626\u06d5\u0632\u06af\u06b5\u06d5", "name:en": "Ezgeleh", "name:fa": "\u0627\u0632\u06af\u0644\u0647", "name:fr": "Ozgoleh", "name:ku": "Ezgi\u0142e", "place": "town", "population": "1502", "population:date": "2016", "source:name": "GNS", "source:population": "amar.org.ir", "wikidata": "Q4358750"}}, {"type": "node", "id": 2488610837, "lat": 34.9798057, "lon": 45.7970561, "tags": {"alt_name": "\u0643\u0644\u064a \u062c\u0627\u0644", "int_name": "Kal\u012b Ch\u0101l, Kilah J\u0101l, \u0643\u0644\u064a \u0686\u0627\u0644, Kali Chal, Kilah Jal, \u0643\u0644\u064a \u0686\u0627\u0644", "name": "\u06af\u06b5\u06ce\u062c\u0627\u06b5", "name:ar": "\u06a9\u0644\u06cc\u062c\u0627\u0644", "name:ckb": "\u06af\u06b5\u06ce\u062c\u0627\u06b5", "name:de": "Glejal", "name:en": "Glejal", "name:fr": "Glejal", "name:ku": "Gill\u00eacall", "name:ml": "\u0d17\u0d4d\u0d32\u0d46\u0d1c\u0d3e\u0d7d", "place": "town", "wikidata": "Q61390467", "wikipedia": "ckb:\u06af\u06b5\u06ce\u062c\u0627\u06b5"}}, {"type": "node", "id": 2489389602, "lat": 35.1153052, "lon": 45.6829264, "tags": {"alt_name": "\u062f\u0631\u0628\u0646\u062f\u062e\u0627\u0646", "capital": "6", "int_name": "Darbandekhan, Darbandikhan, Darbandikh\u0101n, Debendi Khan, Derbend Khan, \u062f\u0631\u0628\u0646\u062f\u062e\u0627\u0646, Darbandekhan, Darbandikhan, Darbandikhan, Debendi Khan, Derbend Khan, \u062f\u0631\u0628\u0646\u062f\u062e\u0627\u0646", "is_in:country_code": "IQ", "name": "\u062f\u06d5\u0631\u0628\u06d5\u0646\u062f\u06cc\u062e\u0627\u0646", "name:ar": "\u062f\u0631\u0628\u0646\u062f\u062e\u0627\u0646", "name:ckb": "\u062f\u06d5\u0631\u0628\u06d5\u0646\u062f\u06cc\u062e\u0627\u0646", "name:de": "Darbandichan", "name:en": "Darbandikhan", "name:fr": "Darbandekhan", "name:ja": "\u30c0\u30fc\u30d0\u30f3\u30c7\u30a3\u30ab\u30f3", "name:ku": "Derbend\u00eexan", "name:ml": "\u0d26\u0d7c\u0d2c\u0d28\u0d4d\u0d26\u0d4d\u0d16\u0d3e\u0d7b", "name:tr": "Darbandikhan", "place": "town", "population": "85000", "population:date": "2014", "wikidata": "Q2353110", "wikipedia": "ckb:\u062f\u06d5\u0631\u0628\u06d5\u0646\u062f\u06cc\u062e\u0627\u0646"}}, {"type": "node", "id": 3214265021, "lat": 34.9159508, "lon": 45.6195104}, {"type": "node", "id": 3214265022, "lat": 34.9164235, "lon": 45.6177179}, {"type": "node", "id": 3214265023, "lat": 34.917117, "lon": 45.6162214}, {"type": "node", "id": 3214265024, "lat": 34.9195396, "lon": 45.6183168}, {"type": "node", "id": 3214265026, "lat": 34.9209249, "lon": 45.6193256}, {"type": "node", "id": 3214265027, "lat": 34.9228343, "lon": 45.6201458}, {"type": "node", "id": 3214265029, "lat": 34.922761, "lon": 45.6224855}, {"type": "node", "id": 3214265033, "lat": 34.9215787, "lon": 45.6254736}, {"type": "node", "id": 3214265034, "lat": 34.9203833, "lon": 45.625021}, {"type": "node", "id": 3214265035, "lat": 34.9197867, "lon": 45.6248312}, {"type": "node", "id": 3214265038, "lat": 34.9189259, "lon": 45.6229201}, {"type": "node", "id": 3524795115, "lat": 34.9707879, "lon": 45.9260275, "tags": {"alt_name": "\u0634\u06cc\u062e \u0635\u0644\u0647", "alt_name:en": "Sheykh Saleh", "is_in:country": "Iran", "is_in:state": "Kermanshah", "name": "\u0634\u06cc\u062e \u0635\u0627\u0644\u062d", "name:en": "Sheykh Salleh", "name:ku": "\u015e\u00eax Se\u0142e", "place": "town", "source:name": "GNS"}}, {"type": "node", "id": 7373023563, "lat": 34.9188967, "lon": 45.6204974, "tags": {"name": "\u0645\u06d5\u06cc\u062f\u0627\u0646", "name:ar": "\u0645\u06cc\u062f\u0627\u0646", "name:ckb": "\u0645\u06d5\u06cc\u062f\u0627\u0646", "name:en": "Maydan", "name:ku": "Meydan", "name:ml": "\u0d2e\u0d2f\u0d4d\u0d26\u0d3e\u0d7b", "place": "town", "wikidata": "Q61390516", "wikipedia": "ckb:\u0645\u06d5\u06cc\u062f\u0627\u0646\u060c \u0634\u0627\u0631\u06d5\u062f\u06ce"}}, {"type": "way", "id": 315316228, "nodes": [3214265021, 3214265022, 3214265023, 3214265024, 3214265026, 3214265027, 3214265029, 3214265033, 3214265034, 3214265035, 3214265038, 3214265021], "tags": {"name": "\u0645\u06d5\u06cc\u062f\u0627\u0646", "place": "town", "residential": "urban", "wikidata": "Q61390516", "wikipedia": "ckb:\u0645\u06d5\u06cc\u062f\u0627\u0646\u060c \u0634\u0627\u0631\u06d5\u062f\u06ce"}}]}