{"version": 0.6, "generator": "Overpass API 0.7.62.4 2390de5a", "osm3s": {"timestamp_osm_base": "2025-01-08T06:28:44Z", "copyright": "The data included in this document is from www.openstreetmap.org. The data is made available under ODbL."}, "elements": [{"type": "node", "id": 32520143, "lat": 36.19924, "lon": 37.1637253, "tags": {"alt_name": "\u0627\u0644\u0634\u0647\u0628\u0627\u0621", "alt_name:ar": "\u0627\u0644\u0634\u0647\u0628\u0627\u0621", "alt_name:de": "Halab", "alt_name:en": "Halab", "alt_name:fr": "Halab", "alt_name:grc": "\u0392\u03ad\u03c1\u03bf\u03b9\u03b1", "alt_name:he": "\u05d7\u05d0\u05dc\u05d1", "alt_name:ja": "\u30cf\u30e9\u30d6", "alt_name:ko": "\ud560\ub78d", "alt_name:ml": "\u0d05\u0d32\u0d46\u0d2a\u0d4d\u0d2a\u0d4b", "alt_name:ru": "\u0425\u0430\u043b\u0430\u0431", "name": "\u062d\u0644\u0628", "name:ar": "\u062d\u0644\u0628", "name:arc": "\u071a\u0720\u0712", "name:ca": "Alep", "name:ckb": "\u062d\u06d5\u0644\u06d5\u0628", "name:cnr": "Alep", "name:cs": "Aleppo", "name:da": "Aleppo", "name:de": "Aleppo", "name:el": "\u03a7\u03b1\u03bb\u03ad\u03c0\u03b9", "name:en": "Aleppo", "name:es": "Alepo", "name:et": "Aleppo", "name:fi": "Aleppo", "name:fr": "Alep", "name:grc": "\u03a7\u03b1\u03bb\u03b9\u03b2\u03ce\u03bd", "name:he": "\u05d7\u05dc\u05d1", "name:hi": "\u0939\u0932\u092c", "name:hr": "Alep", "name:hu": "Alepp\u00f3", "name:hy": "\u0540\u0561\u056c\u0565\u057a", "name:ja": "\u30a2\u30ec\u30c3\u30dd", "name:ka": "\u10d0\u10da\u10d4\u10de\u10dd", "name:kn": "\u0cb9\u0cb2\u0cac", "name:ko": "\uc54c\ub808\ud3ec", "name:ku": "Heleb", "name:lt": "Alepas", "name:ml": "\u0d39\u0d32\u0d2c\u0d4d", "name:mr": "\u0939\u0932\u092c", "name:nl": "Aleppo", "name:oc": "Al\u00e8p", "name:ru": "\u0410\u043b\u0435\u043f\u043f\u043e", "name:sv": "Aleppo", "name:syc": "\u071a\u0720\u0712", "name:te": "\u0c05\u0c32\u0c46\u0c2a\u0c4d\u0c2a\u0c4b", "name:tr": "Halep", "name:tt": "\u0425\u04d9\u043b\u0435\u0431", "name:uk": "\u0425\u0430\u043b\u0435\u0431", "name:ur": "\u062d\u0644\u0628", "name:zh": "\u963f\u52d2\u9887", "place": "city", "population": "2132100", "population:date": "2004", "source:population": "\u0627\u0644\u0645\u0643\u062a\u0628 \u0627\u0644\u0645\u0631\u0643\u0632\u064a \u0644\u0644\u0625\u062d\u0635\u0627\u0621", "wikidata": "Q41183", "wikipedia": "ar:\u062d\u0644\u0628"}}, {"type": "node", "id": 571209497, "lat": 36.2935655, "lon": 37.0447187, "tags": {"name": "\u0639\u0646\u062f\u0627\u0646", "name:ar": "\u0639\u0646\u062f\u0627\u0646", "name:de": "Andan", "name:en": "Andan", "name:fr": "Andane", "name:he": "\u05e2\u05e0\u05d3\u05d0\u05df", "name:ja": "\u30a2\u30f3\u30c0\u30fc\u30f3", "name:ko": "\uc548\ub2e8", "name:ku": "Enedan\u00ea", "name:ml": "\u0d05\u0d28\u0d26\u0d3e\u0d7b", "name:ru": "\u0410\u043d\u0434\u0430\u043d", "place": "town", "population": "11918", "population:date": "2004", "source:population": "\u0627\u0644\u0645\u0643\u062a\u0628 \u0627\u0644\u0645\u0631\u0643\u0632\u064a \u0644\u0644\u0625\u062d\u0635\u0627\u0621", "wikidata": "Q4750735", "wikipedia": "ar:\u0639\u0646\u062f\u0627\u0646"}}, {"type": "node", "id": 571210008, "lat": 36.3237724, "lon": 37.0589462, "tags": {"name": "\u062d\u064a\u0627\u0646", "name:ar": "\u062d\u064a\u0627\u0646", "name:de": "Haijan", "name:en": "Haiyan", "name:fr": "Haian", "name:he": "\u05d7\u05d9\u05d0\u05df", "name:ja": "\u30cf\u30a4\u30e4\u30f3", "name:ko": "\ud558\uc774\uc580", "name:ml": "\u0d39\u0d2f\u0d3e\u0d7b", "name:ru": "\u0425\u0430\u0438\u0301\u0439\u044f\u043d", "place": "town", "population": "6419", "population:date": "2004", "source:population": "\u0627\u0644\u0645\u0643\u062a\u0628 \u0627\u0644\u0645\u0631\u0643\u0632\u064a \u0644\u0644\u0625\u062d\u0635\u0627\u0621"}}, {"type": "node", "id": 571210276, "lat": 36.2509334, "lon": 37.0544059, "tags": {"name": "\u0645\u0639\u0627\u0631\u0629 \u0627\u0644\u0623\u0631\u062a\u064a\u0642", "name:ar": "\u0645\u0639\u0627\u0631\u0629 \u0627\u0644\u0623\u0631\u062a\u064a\u0642", "name:de": "Maaret al-Artik", "name:en": "Ma'aret al-Artiq", "name:fr": "Maarete al-Artiq", "name:he": "\u05de\u05e2\u05d0\u05e8\u05ea \u05d0\u05dc-\u05d0\u05e8\u05ea\u05d9\u05e7", "name:ja": "\u30de\u30a2\u30ec\u30c8\u30fb\u30a2\u30eb\u30a0\u30a2\u30eb\u30c6\u30a3\u30fc\u30af", "name:ko": "\ub9c8\uc544\ub808\ud2b8\uc54c\uc544\ub974\ud2f0\ud06c", "name:ml": "\u0d2e\u0d3e\u0d31\u0d24\u0d4d\u0d24\u0d4d \u0d05\u0d7d-\u0d05\u0d7c\u0d24\u0d4d\u0d24\u0d40\u0d16\u0d4d", "name:ru": "\u041c\u0430\u044c\u0430\u0440\u0435\u0442-\u0430\u043b\u044c-\u0410\u0440\u0442\u0438\u043a", "place": "town", "population": "5723", "population:date": "2004", "source:population": "\u0627\u0644\u0645\u0643\u062a\u0628 \u0627\u0644\u0645\u0631\u0643\u0632\u064a \u0644\u0644\u0625\u062d\u0635\u0627\u0621"}}, {"type": "node", "id": 571210453, "lat": 36.4191428, "lon": 37.0745657, "tags": {"name": "\u0643\u0641\u0631\u0646\u0627\u064a\u0627", "name:ar": "\u0643\u0641\u0631\u0646\u0627\u064a\u0627", "name:de": "Kafrnaja", "name:en": "Kafrnaya", "name:fr": "Kafrnaia", "name:he": "\u05db\u05e4\u05e8\u05e0\u05d0\u05d9\u05d0", "name:ja": "\u30ab\u30d5\u30eb\u30ca\u30fc\u30e4", "name:ko": "\uce74\ud504\ub974\ub098\uc57c", "name:ku": "Kefer Naya", "name:ml": "\u0d15\u0d2b\u0d7c\u0d28\u0d3e\u0d2f", "name:ru": "\u041a\u0430\u0444\u0440\u043d\u0430\u044f", "place": "town", "population": "5647", "population:date": "2004", "source:population": "\u0627\u0644\u0645\u0643\u062a\u0628 \u0627\u0644\u0645\u0631\u0643\u0632\u064a \u0644\u0644\u0625\u062d\u0635\u0627\u0621"}}, {"type": "node", "id": 571213541, "lat": 36.4726137, "lon": 37.0964754, "tags": {"name": "\u062a\u0644 \u0631\u0641\u0639\u062a", "name:ar": "\u062a\u0644 \u0631\u0641\u0639\u062a", "name:de": "Tell Rifaat", "name:en": "Tell Rifaat", "name:fr": "Tell Rifaat", "name:he": "\u05ea\u05dc \u05e8\u05e4\u05e2\u05ea", "name:hy": "\u0539\u0565\u056c-\u054c\u056b\u0586\u0561\u0564", "name:ja": "\u30bf\u30c3\u30eb\u30fb\u30ea\u30d5\u30a2\u30c8", "name:ko": "\ud0c8\ub9ac\ud504\uc544\ud2b8", "name:ku": "Til Rifet", "name:ml": "\u0d24\u0d7d \u0d31\u0d3f\u0d2b\u0d3e\u0d24\u0d4d\u0d24\u0d4d", "name:ru": "\u0422\u0435\u043b\u043b\u044c-\u0420\u0438\u0444\u044a\u0430\u0442", "name:tr": "Tel R\u0131f'at", "place": "town", "population": "20514", "population:date": "2004", "source:population": "\u0627\u0644\u0645\u0643\u062a\u0628 \u0627\u0644\u0645\u0631\u0643\u0632\u064a \u0644\u0644\u0625\u062d\u0635\u0627\u0621", "wikidata": "Q7697511", "wikipedia": "en:Tell Rifaat"}}, {"type": "node", "id": 571213877, "lat": 36.5116605, "lon": 37.3364929, "tags": {"name": "\u0623\u062e\u062a\u0631\u064a\u0646", "name:ar": "\u0623\u062e\u062a\u0631\u064a\u0646", "name:de": "Achtarin", "name:en": "Akhtarin", "name:fr": "Akhtarine", "name:he": "\u05d0\u05d7\u05f3\u05ea\u05e8\u05d9\u05df", "name:ja": "\u30a2\u30af\u30bf\u30ea\u30fc\u30f3", "name:ko": "\uc544\ud06c\ud0c0\ub9b0", "name:ml": "\u0d05\u0d16\u0d4d\u0d24\u0d31\u0d40\u0d7b", "name:ru": "\u0410\u0445\u0442\u0430\u0440\u0438\u043d", "place": "town", "population": "5305", "population:date": "2004", "source:population": "\u0627\u0644\u0645\u0643\u062a\u0628 \u0627\u0644\u0645\u0631\u0643\u0632\u064a \u0644\u0644\u0625\u062d\u0635\u0627\u0621"}}, {"type": "node", "id": 571213951, "lat": 36.4814643, "lon": 37.1968431, "tags": {"name": "\u0645\u0627\u0631\u0639", "name:ar": "\u0645\u0627\u0631\u0639", "name:de": "Mare", "name:en": "Mare'", "name:fr": "Mar\u00e9", "name:he": "\u05de\u05d0\u05e8\u05e2", "name:ja": "\u30de\u30fc\u30ec", "name:ko": "\ub9c8\ub808", "name:ku": "Marih", "name:ml": "\u0d2e\u0d3e\u0d31", "name:ru": "\u041c\u0430\u0440\u044d", "place": "town", "population": "16904", "population:date": "2004", "source:population": "\u0627\u0644\u0645\u0643\u062a\u0628 \u0627\u0644\u0645\u0631\u0643\u0632\u064a \u0644\u0644\u0625\u062d\u0635\u0627\u0621", "wikidata": "Q4118935", "wikipedia": "ar:\u0645\u0627\u0631\u0639"}}, {"type": "node", "id": 572540653, "lat": 36.1019136, "lon": 37.1292153, "tags": {"name": "\u0627\u0644\u0648\u0636\u064a\u062d\u064a", "name:ar": "\u0627\u0644\u0648\u0636\u064a\u062d\u064a", "name:de": "al-Wedeihi", "name:en": "Al-Wedeihi", "name:fr": "Al-Ouedeihi", "name:he": "\u05d0\u05dc-\u05d5\u05d5\u05d3\u05d9\u05d7\u05d9", "name:ja": "\u30a2\u30eb\u30a0\u30a6\u30a7\u30c7\u30a4\u30d2", "name:ko": "\uc54c\uc6e8\ub370\uc774\ud788", "name:ml": "\u0d05\u0d7d-\u0d35\u0d26\u0d40\u0d39\u0d3f", "name:ru": "\u0410\u043b\u044c-\u0412\u0435\u0434\u0435\u0438\u0445\u0438", "place": "town", "population": "6934", "population:date": "2004", "source:population": "\u0627\u0644\u0645\u0643\u062a\u0628 \u0627\u0644\u0645\u0631\u0643\u0632\u064a \u0644\u0644\u0625\u062d\u0635\u0627\u0621"}}, {"type": "node", "id": 573542533, "lat": 36.1381423, "lon": 37.2439548, "tags": {"name": "\u062a\u0644 \u0634\u063a\u064a\u0628", "name:ar": "\u062a\u0644 \u0634\u063a\u064a\u0628", "name:de": "Tell Schegeib", "name:en": "Tell Shegheib", "name:fr": "Tell Chegheib", "name:ml": "\u0d24\u0d7d \u0d37\u0d17\u0d48\u0d2c\u0d4d", "name:ru": "\u0422\u0430\u043b\u043b\u044c-\u0428\u0435\u0433\u0435\u0439\u0431", "place": "town", "population": "5110", "population:date": "2004", "source:population": "\u0627\u0644\u0645\u0643\u062a\u0628 \u0627\u0644\u0645\u0631\u0643\u0632\u064a \u0644\u0644\u0625\u062d\u0635\u0627\u0621"}}, {"type": "node", "id": 573543155, "lat": 36.3097142, "lon": 37.2056541, "tags": {"name": "\u0627\u0644\u0645\u0633\u0644\u0645\u064a\u0629", "name:ar": "\u0627\u0644\u0645\u0633\u0644\u0645\u064a\u0629", "name:de": "al-Musallamije", "name:en": "Al-Musallamiye", "name:fr": "Al-Musallami\u00e9", "name:he": "\u05d0\u05dc-\u05de\u05e1\u05dc\u05de\u05d9\u05d4", "name:ja": "\u30a2\u30eb\u30a0\u30e0\u30b5\u30c3\u30e9\u30df\u30a8", "name:ko": "\uc54c\ubb34\uc0b4\ub77c\ubbf8\uc608", "name:ml": "\u0d05\u0d7d-\u0d2e\u0d41\u0d38\u0d32\u0d4d\u0d32\u0d2e\u0d3f\u0d2f\u0d46", "name:ru": "\u0410\u043b\u044c-\u041c\u0443\u0441\u0430\u043b\u043b\u0430\u043c\u0438\u0301\u0439\u0435", "place": "town", "population": "5916", "population:date": "2004", "source:population": "\u0627\u0644\u0645\u0643\u062a\u0628 \u0627\u0644\u0645\u0631\u0643\u0632\u064a \u0644\u0644\u0625\u062d\u0635\u0627\u0621"}}, {"type": "node", "id": 573544707, "lat": 36.3484716, "lon": 37.5314609, "tags": {"name": "\u062a\u0627\u062f\u0641", "name:ar": "\u062a\u0627\u062f\u0641", "name:de": "Tadef", "name:en": "Tadef", "name:fr": "Tadef", "name:he": "\u05ea\u05d0\u05d3\u05e3", "name:ja": "\u30bf\u30fc\u30c7\u30d5", "name:ko": "\ud0c0\ub370\ud504", "name:ru": "\u0422\u0430\u0434\u0435\u0444", "place": "town", "population": "12360", "population:date": "2004", "source:population": "\u0627\u0644\u0645\u0643\u062a\u0628 \u0627\u0644\u0645\u0631\u0643\u0632\u064a \u0644\u0644\u0625\u062d\u0635\u0627\u0621"}}, {"type": "node", "id": 2169145674, "lat": 36.3516287, "lon": 37.511215}, {"type": "node", "id": 3713918960, "lat": 36.2878977, "lon": 37.0838387, "tags": {"name": "\u062d\u0631\u064a\u062a\u0627\u0646", "name:ar": "\u062d\u0631\u064a\u062a\u0627\u0646", "name:de": "Heraitan", "name:en": "Heraitan", "name:fr": "Hera\u00eftane", "name:he": "\u05d7\u05e8\u05d9\u05ea\u05d0\u05df", "name:ja": "\u30d8\u30e9\u30a4\u30bf\u30fc\u30f3", "name:ko": "\ud5e4\ub77c\uc774\ub2e8", "name:ku": "Hir\u00eetan", "name:ml": "\u0d39\u0d46\u0d31\u0d48\u0d24\u0d4d\u0d24\u0d3e\u0d7b", "name:ru": "\u0425\u0435\u0440\u0430\u0439\u0442\u0430\u043d", "place": "town", "population": "12937", "population:date": "2004", "source:population": "\u0627\u0644\u0645\u0643\u062a\u0628 \u0627\u0644\u0645\u0631\u0643\u0632\u064a \u0644\u0644\u0625\u062d\u0635\u0627\u0621"}}, {"type": "node", "id": 3754806691, "lat": 36.2556404, "lon": 37.0886958, "tags": {"name": "\u0643\u0641\u0631 \u062d\u0645\u0631\u0629", "name:ar": "\u0643\u0641\u0631 \u062d\u0645\u0631\u0629", "name:de": "Kafr Hamra", "name:en": "Kafr Hamra", "name:fr": "Kafr Hamra", "name:he": "\u05db\u05e4\u05e8 \u05d7\u05de\u05e8\u05d4", "name:ja": "\u30ab\u30d5\u30eb\u30fb\u30cf\u30e0\u30e9", "name:ko": "\uce74\ud504\ub974\ud558\ubbc0\ub77c", "name:ml": "\u0d15\u0d2b\u0d7c \u0d39\u0d02\u0d31", "name:ru": "\u041a\u0430\u0444\u0440-\u0425\u0430\u043c\u0440\u0430", "place": "town", "population": "10696", "population:date": "2004", "source:population": "\u0627\u0644\u0645\u0643\u062a\u0628 \u0627\u0644\u0645\u0631\u0643\u0632\u064a \u0644\u0644\u0625\u062d\u0635\u0627\u0621", "wikidata": "Q15232252", "wikipedia": "en:Kafr Hamrah"}}, {"type": "node", "id": 3859475458, "lat": 36.1445961, "lon": 37.3130052, "tags": {"name": "\u062a\u0644 \u062d\u0627\u0635\u0644", "name:ar": "\u062a\u0644 \u062d\u0627\u0635\u0644", "name:de": "Tell Hasel", "name:en": "Tell Hasel", "name:fr": "Tell Hasel", "name:he": "\u05ea\u05dc \u05d7\u05d0\u05e1\u05dc", "name:ja": "\u30bf\u30c3\u30eb\u30fb\u30cf\u30fc\u30bb\u30eb", "name:ko": "\ud0c8\ud558\uc140", "name:ml": "\u0d24\u0d7d \u0d39\u0d3e\u0d38\u0d3f\u0d7d", "name:ru": "\u0422\u0430\u043b\u043b\u044c-\u0425\u0430\u0441\u0435\u043b\u044c", "place": "town", "population": "6535", "population:date": "2004", "source:population": "\u0627\u0644\u0645\u0643\u062a\u0628 \u0627\u0644\u0645\u0631\u0643\u0632\u064a \u0644\u0644\u0625\u062d\u0635\u0627\u0621"}}, {"type": "node", "id": 3859475459, "lat": 36.1210027, "lon": 37.3365316, "tags": {"name": "\u062a\u0644 \u0639\u0631\u0646", "name:ar": "\u062a\u0644 \u0639\u0631\u0646", "name:de": "Tell Aran", "name:en": "Tell Aran", "name:fr": "Tell Arane", "name:he": "\u05ea\u05dc \u05e2\u05e8\u05df", "name:ja": "\u30bf\u30eb\u30fb\u30a2\u30e9\u30f3", "name:ko": "\ud0c8\uc544\ub780", "name:ml": "\u0d24\u0d7d \u0d05\u0d31\u0d7b", "name:ru": "\u0422\u0430\u043b\u043b\u044c-\u0410\u0440\u0430\u043d", "place": "town", "population": "17767", "population:date": "2004", "source:population": "\u0627\u0644\u0645\u0643\u062a\u0628 \u0627\u0644\u0645\u0631\u0643\u0632\u064a \u0644\u0644\u0625\u062d\u0635\u0627\u0621", "wikidata": "Q6563648"}}, {"type": "node", "id": 3871242686, "lat": 36.3711098, "lon": 37.5143955, "tags": {"alt_name:ku": "El-Bab", "name": "\u0627\u0644\u0628\u0627\u0628", "name:ar": "\u0627\u0644\u0628\u0627\u0628", "name:de": "al-Bab", "name:en": "Al-Bab", "name:es": "Al-Bab", "name:fr": "Al-Bab", "name:he": "\u05d0\u05dc-\u05d1\u05d0\u05d1", "name:ja": "\u30a2\u30eb\u30a0\u30d0\u30fc\u30d6", "name:ko": "\uc54c\ubc14\ube0c", "name:ku": "Bab", "name:ml": "\u0d05\u0d7d \u0d2c\u0d3e\u0d2c\u0d4d", "name:ru": "\u0410\u043b\u044c-\u0411\u0430\u0431", "name:tr": "El-Bab", "name:zh": "\u5df4\u535c", "place": "city", "population": "63069", "population:date": "2004", "source:population": "\u0627\u0644\u0645\u0643\u062a\u0628 \u0627\u0644\u0645\u0631\u0643\u0632\u064a \u0644\u0644\u0625\u062d\u0635\u0627\u0621", "wikidata": "Q310892", "wikipedia": "en:Al-Bab"}}, {"type": "node", "id": 7849645512, "lat": 36.3480755, "lon": 37.5166417}, {"type": "node", "id": 11610726965, "lat": 36.3555899, "lon": 37.5263958}, {"type": "node", "id": 11610726966, "lat": 36.3426219, "lon": 37.5250915}, {"type": "node", "id": 11610726967, "lat": 36.3414335, "lon": 37.5281064}, {"type": "node", "id": 11610726968, "lat": 36.3416919, "lon": 37.5367662}, {"type": "node", "id": 11610745669, "lat": 36.3422086, "lon": 37.5394818}, {"type": "node", "id": 11610745670, "lat": 36.3456876, "lon": 37.5465379}, {"type": "node", "id": 11610745671, "lat": 36.3499414, "lon": 37.5436513}, {"type": "node", "id": 11610745672, "lat": 36.3551422, "lon": 37.5337727}, {"type": "node", "id": 11610745673, "lat": 36.3579472, "lon": 37.5342507}, {"type": "node", "id": 11610745674, "lat": 36.3579135, "lon": 37.5341287}, {"type": "node", "id": 12155372964, "lat": 36.3516213, "lon": 37.5112264}, {"type": "way", "id": 1249142263, "nodes": [11610726965, 2169145674, 12155372964, 7849645512, 11610726966, 11610726967, 11610726968, 11610745669, 11610745670, 11610745671, 11610745672, 11610745673, 11610745674, 11610726965], "tags": {"name": "\u0645\u062f\u064a\u0646\u0629 \u062a\u0627\u062f\u0641", "place": "town", "population": "40000"}}]}