{"version": 0.6, "generator": "Overpass API 0.7.62.4 2390de5a", "osm3s": {"timestamp_osm_base": "2025-01-08T07:32:50Z", "copyright": "The data included in this document is from www.openstreetmap.org. The data is made available under ODbL."}, "elements": [{"type": "node", "id": 316808022, "lat": 11.7857101, "lon": 42.8846543, "tags": {"GNS:dsg_code": "PPLA", "GNS:dsg_name": "populated place", "GNS:id": "-2037463", "GNS:modify_date": "2018-04-10", "alt_name": "Tagiura;Tajura;Tadjura;Tadjoura;Tadjoura \u062a\u0627\u062c\u0648\u0631\u0629", "alt_name:ar": "\u062a\u0627\u062c\u0648\u0631\u0629;\u062a\u062f\u062c\u0648\u0631;\u062a\u063a\u0625\u0623\u0631;\u062a\u062c\u0631;\u062a\u062f\u062c\u0631", "is_capital": "county", "name": "Tadjoura \u062a\u062c\u0631\u0629", "name:aa": "Tag\u00f3rri", "name:ar": "\u062a\u062c\u0631\u0629", "name:de": "Tadschura", "name:en": "Tadjoura", "name:es": "Tadyura", "name:fa": "\u062a\u0627\u062c\u0648\u0631\u0647", "name:fr": "Tadjourah", "name:ru": "\u0422\u0430\u0434\u0436\u0443\u0440\u0430", "name:so": "Tajuura", "name:ur": "\u062a\u0627\u062c\u0648\u0631\u06c1", "place": "town", "population": "25000", "wikidata": "Q820972", "wikipedia": "ar:\u062a\u062c\u0631\u0629 (\u062c\u064a\u0628\u0648\u062a\u064a)"}}]}