{"version": 0.6, "generator": "Overpass API 0.7.62.4 2390de5a", "osm3s": {"timestamp_osm_base": "2025-01-08T06:51:12Z", "copyright": "The data included in this document is from www.openstreetmap.org. The data is made available under ODbL."}, "elements": [{"type": "node", "id": 277399765, "lat": 30.7550035, "lon": 20.2233257, "tags": {"alt_name": "\u0627\u062c\u062f\u0627\u0628\u064a\u0627;\u0623\u062c\u062f\u0627\u0628\u064a\u0627", "alt_name:ar": "\u0627\u062c\u062f\u0627\u0628\u064a\u0627;\u0623\u062c\u062f\u0627\u0628\u064a\u0627", "name": "\u0625\u062c\u062f\u0627\u0628\u064a\u0627", "name:ar": "\u0625\u062c\u062f\u0627\u0628\u064a\u0627", "name:az": "\u018fcd\u0259biyy\u0259", "name:be": "\u0410\u0434\u0436\u0434\u0430\u0431\u0456\u044f", "name:bg": "\u0410\u0434\u0436\u0434\u0430\u0431\u0438\u044f", "name:ca": "Agedabia", "name:cs": "Ad\u017eed\u00e1b\u00edja", "name:cy": "Agedabia", "name:da": "Ajdabiya", "name:de": "Adschdabiya", "name:en": "Ajdabiya", "name:eo": "A\u011ddabija", "name:es": "Ajdabiya", "name:et": "Ajd\u0101biy\u0101", "name:eu": "Ajdabiya", "name:fa": "\u0627\u062c\u062f\u0627\u0628\u06cc\u0627", "name:fi": "Ajdabiya", "name:fr": "Ajdabiya", "name:he": "\u05d0\u05d2'\u05d3\u05d0\u05d1\u05d9\u05d0", "name:hu": "Adzsd\u00e1bija", "name:hy": "\u0531\u056a\u0564\u0561\u0562\u056b\u0561", "name:id": "Ajdabiya", "name:it": "Agedabia", "name:ja": "\u30a2\u30b8\u30e5\u30c0\u30fc\u30d3\u30e4\u30fc", "name:ka": "\u10d0\u10ef\u10d3\u10d0\u10d1\u10d8\u10d0", "name:kab": "Ajdabiya", "name:ko": "\uc544\uc9c0\ub2e4\ube44\uc57c", "name:la": "Corniclanum", "name:lt": "Ad\u017edabija", "name:ms": "Ajdabiya", "name:nb": "Agedabia", "name:nl": "Ajdabiya", "name:pl": "Ad\u017cdabija", "name:pt": "Aged\u00e1bia", "name:ru": "\u0410\u0434\u0436\u0434\u0430\u0431\u0438\u044f", "name:sc": "Agedabia", "name:sk": "Ad\u017ed\u00e1bij\u00e1", "name:sr": "\u0410\u045f\u0434\u0430\u0431\u0438\u0458\u0430", "name:sv": "Ajdabiya", "name:tr": "Ecdebiye", "name:uk": "\u0410\u0434\u0436\u0434\u0430\u0431\u0456\u044f", "name:vi": "Ajdabiya", "name:vo": "\u00c4cdabiya", "name:zh": "\u827e\u5b63\u8fbe\u6bd4\u8036", "name:zu": "Ajdabiya", "place": "city", "population": "153806", "wikidata": "Q202991", "wikipedia": "ar:\u0623\u062c\u062f\u0627\u0628\u064a\u0627"}}]}