{"version": 0.6, "generator": "Overpass API 0.7.62.4 2390de5a", "osm3s": {"timestamp_osm_base": "2025-01-08T07:20:36Z", "copyright": "The data included in this document is from www.openstreetmap.org. The data is made available under ODbL."}, "elements": [{"type": "node", "id": 1703670347, "lat": 15.363071, "lon": -11.7514166, "tags": {"name": "Kalinioro", "name:ar": "\u0643\u0627\u0644\u064a\u0646\u064a\u0648\u0631\u0648", "ocha:fid": "687", "ocha:objectid": "1121", "ocha:type": "Chef-lieu Commune", "place": "town", "source": "OCHA COD Humanitarian Response", "wikidata": "Q27889968", "wikipedia": "fr:Kalinioro"}}, {"type": "node", "id": 1703672297, "lat": 15.274217, "lon": -11.706231, "tags": {"admin_level": "8", "capital": "8", "indoor": "wall", "material": "concrete", "name": "Teichibe", "natural": "tree", "ocha:fid": "204", "ocha:objectid": "263", "ocha:type": "Autre", "place": "town", "source": "OCHA COD Humanitarian Response", "wikidata": "Q7694957", "wikipedia": "en:Teichibe"}}, {"type": "node", "id": 2247629298, "lat": 15.5435752, "lon": -11.7128739, "tags": {"GNS:dsg_code": "PPL", "GNS:id": "-1403140", "alt_name": "Ould Yenje;Ould Yanja;Ould Yenj\u00e9", "alt_name:ar": "\u0648\u0644\u062f \u064a\u0646\u062c", "ele": "43", "name": "\u0648\u0644\u062f \u064a\u064a\u0646\u0643\u064a", "name:ar": "\u0648\u0644\u062f \u064a\u064a\u0646\u0643\u064a", "name:fr": "Ould Yeng\u00e9", "place": "town", "population": "4935", "rank": "0", "wikidata": "Q3358184", "wikipedia": "fr:Ould Yeng\u00e9"}}, {"type": "node", "id": 4467884222, "lat": 15.3188396, "lon": -11.7954438, "tags": {"GNS:dsg_code": "PPL", "GNS:id": "-1399572", "alt_name": "Bouli;Bouly", "name": "\u0628\u0648\u0644\u064a", "name:ar": "\u0628\u0648\u0644\u064a", "name:fr": "Boully", "place": "town", "wikidata": "Q2922115", "wikipedia": "fr:Boully"}}]}