{"version": 0.6, "generator": "Overpass API 0.7.62.4 2390de5a", "osm3s": {"timestamp_osm_base": "2025-01-08T06:51:12Z", "copyright": "The data included in this document is from www.openstreetmap.org. The data is made available under ODbL."}, "elements": [{"type": "node", "id": 1159112554, "lat": 32.4853167, "lon": 20.832738, "tags": {"alt_name": "El Merj", "alt_name:it": "Al-Marj", "int_name": "Al Marj", "name": "\u0627\u0644\u0645\u0631\u062c", "name:ar": "\u0627\u0644\u0645\u0631\u062c", "name:arz": "\u0627\u0644\u0645\u0631\u062c (\u062a\u062c\u0645\u0639 \u0633\u0643\u0627\u0646 \u0641\u0649 \u0634\u0639\u0628\u064a\u0647 \u0627\u0644\u0645\u0631\u062c)", "name:az": "\u018fl M\u0259ric", "name:azb": "\u0645\u0631\u062c (\u0644\u06cc\u0628\u06cc)", "name:ca": "Al Marj", "name:ceb": "Al Marj (kapital sa distrito)", "name:cs": "Mard\u017e", "name:de": "Al Marj", "name:en": "Marj", "name:eo": "Al Mar\u011d", "name:es": "Al Marj", "name:fa": "\u0645\u0631\u062c (\u0644\u06cc\u0628\u06cc)", "name:fr": "Al Marj", "name:hy": "\u0531\u056c-\u0544\u0561\u0580\u057b", "name:it": "Barce", "name:ja": "\u30de\u30eb\u30b8\u30e5", "name:ka": "\u10d4\u10da-\u10db\u10d0\u10e0\u10ef\u10d8", "name:kab": "Lmarj", "name:ko": "\ub9c8\ub974\uc9c0", "name:pl": "Al-Mard\u017c", "name:pt": "Marje", "name:ro": "Al Marj", "name:ru": "\u042d\u043b\u044c-\u041c\u0430\u0440\u0434\u0436", "name:sc": "El Merj", "name:sco": "Al Marj", "name:sh": "Mard\u017e", "name:uk": "\u0415\u043b\u044c-\u041c\u0430\u0440\u0434\u0436", "name:ur": "\u0645\u0631\u062c", "name:vi": "Marj", "name:vo": "M\u00e4rc", "name:zh": "\u8fc8\u5c14\u5b63", "name:zh-Hant": "\u8fc8\u5c14\u5b63", "name:zu": "Marj", "old_name": "Barce", "old_name:cs": "Barka", "place": "city", "population": "90667", "wikidata": "Q427646", "wikipedia": "ar:\u0627\u0644\u0645\u0631\u062c (\u0644\u064a\u0628\u064a\u0627)"}}, {"type": "node", "id": 1164542411, "lat": 32.529886, "lon": 20.5773992}, {"type": "node", "id": 1164542425, "lat": 32.5221483, "lon": 20.5696257}, {"type": "node", "id": 1164542426, "lat": 32.5320569, "lon": 20.5688161}, {"type": "node", "id": 1164542431, "lat": 32.539367, "lon": 20.592376}, {"type": "node", "id": 1164542433, "lat": 32.5253284, "lon": 20.5753493}, {"type": "node", "id": 1164542435, "lat": 32.5275703, "lon": 20.5634946}, {"type": "node", "id": 1574963951, "lat": 32.532222, "lon": 20.572222, "tags": {"alt_name": "Taucheira ; Arsinoe , Tukrah;Tauquira", "alt_name:ar": "\u062a\u0648\u0643\u0631\u0629 (\u0627\u0644\u0639\u0627\u0642\u0648\u0631\u064a\u0629)", "name": "\u062a\u0648\u0643\u0631\u0629", "name:ar": "\u062a\u0648\u0643\u0631\u0629", "name:ca": "Arsinoe", "name:de": "Taucheira", "name:el": "\u03a4\u03b1\u03cd\u03c7\u03b5\u03b9\u03c1\u03b1", "name:en": "Tocra", "name:es": "Tocra", "name:fr": "Tocra", "name:it": "Tocra", "name:ka": "\u10e2\u10e3\u10d9\u10e0\u10d0", "name:kab": "Tukra", "name:pl": "Arsinoe", "name:pt": "Tocra", "name:sv": "T\u016bkrah", "name:zu": "Tocra", "place": "town", "wikidata": "Q1788306", "wikipedia": "ar:\u062a\u0648\u0643\u0631\u0629"}}, {"type": "node", "id": 1889663291, "lat": 32.5380841, "lon": 20.5810327}, {"type": "node", "id": 2336669301, "lat": 32.5357747, "lon": 20.5764098}, {"type": "node", "id": 2336669385, "lat": 32.5397845, "lon": 20.5840197}, {"type": "node", "id": 3237889499, "lat": 32.5006761, "lon": 20.8929729, "tags": {"alt_name:it": "Antica citt\u00e0 di Barca", "name": "\u0645\u062f\u064a\u0646\u0647 \u0627\u0644\u0645\u0631\u062c \u0627\u0644\u0642\u062f\u064a\u0645\u0629", "name:ar": "\u0645\u062f\u064a\u0646\u0647 \u0627\u0644\u0645\u0631\u062c \u0627\u0644\u0642\u062f\u064a\u0645\u0629", "name:cs": "Barka", "name:en": "Old City Al Marj", "name:fr": "Vieille ville Al Marj", "name:it": "Antica citt\u00e0 di Barce", "place": "town"}}, {"type": "node", "id": 3593725039, "lat": 32.5374839, "lon": 20.5795692}, {"type": "node", "id": 3593725042, "lat": 32.5365919, "lon": 20.578431}, {"type": "node", "id": 3593725044, "lat": 32.5378983, "lon": 20.5806351}, {"type": "node", "id": 3593725116, "lat": 32.5358648, "lon": 20.5970184}, {"type": "node", "id": 3593725167, "lat": 32.5359404, "lon": 20.5964129}, {"type": "node", "id": 3593725239, "lat": 32.5372293, "lon": 20.5797607}, {"type": "node", "id": 3593725273, "lat": 32.5333413, "lon": 20.5967689}, {"type": "node", "id": 3593725285, "lat": 32.53442, "lon": 20.596891}, {"type": "node", "id": 3593725293, "lat": 32.5403846, "lon": 20.585052}, {"type": "node", "id": 3593725316, "lat": 32.535991, "lon": 20.5772203}, {"type": "node", "id": 6200668855, "lat": 32.5334456, "lon": 20.5967793}, {"type": "node", "id": 6200817895, "lat": 32.5358218, "lon": 20.5970349}, {"type": "node", "id": 6200817896, "lat": 32.5358921, "lon": 20.5969524}, {"type": "node", "id": 6201409851, "lat": 32.5391935, "lon": 20.5829792}, {"type": "node", "id": 6201409856, "lat": 32.5382978, "lon": 20.5814157}, {"type": "node", "id": 6201409857, "lat": 32.5385613, "lon": 20.5818859}, {"type": "node", "id": 6201409858, "lat": 32.5389826, "lon": 20.5826264}, {"type": "node", "id": 6201494200, "lat": 32.5384324, "lon": 20.5816618}, {"type": "node", "id": 6201541910, "lat": 32.5394269, "lon": 20.5833924}, {"type": "node", "id": 6212991975, "lat": 32.5400963, "lon": 20.5845714}, {"type": "node", "id": 6213105336, "lat": 32.5288649, "lon": 20.5970585}, {"type": "node", "id": 6213105337, "lat": 32.5289079, "lon": 20.5970538}, {"type": "node", "id": 6213105339, "lat": 32.5288479, "lon": 20.5970719}, {"type": "node", "id": 6213105340, "lat": 32.5288841, "lon": 20.5970532}, {"type": "node", "id": 6213105341, "lat": 32.5289497, "lon": 20.5970626}, {"type": "node", "id": 6213105342, "lat": 32.5297605, "lon": 20.5972248}, {"type": "node", "id": 6213294667, "lat": 32.5381712, "lon": 20.5811958}, {"type": "node", "id": 6213389310, "lat": 32.538814, "lon": 20.582341}, {"type": "node", "id": 6231546957, "lat": 32.5368267, "lon": 20.5789133}, {"type": "node", "id": 6231547142, "lat": 32.5364205, "lon": 20.5780856}, {"type": "node", "id": 6231547257, "lat": 32.5369983, "lon": 20.5792681}, {"type": "node", "id": 6322489429, "lat": 32.5377406, "lon": 20.5802532}, {"type": "node", "id": 6322489430, "lat": 32.5379732, "lon": 20.5808068}, {"type": "node", "id": 6322489431, "lat": 32.5386799, "lon": 20.5820916}, {"type": "node", "id": 8591394917, "lat": 32.535926, "lon": 20.5966014}, {"type": "node", "id": 9373483470, "lat": 32.5313373, "lon": 20.5679625}, {"type": "node", "id": 9373483484, "lat": 32.5314941, "lon": 20.5681485}, {"type": "node", "id": 9556441710, "lat": 32.5319594, "lon": 20.5969459}, {"type": "node", "id": 9556441713, "lat": 32.532159, "lon": 20.5969203}, {"type": "node", "id": 9556454485, "lat": 32.528915, "lon": 20.5958001}, {"type": "node", "id": 11155559675, "lat": 32.5336182, "lon": 20.5737679}, {"type": "node", "id": 11155559676, "lat": 32.5326446, "lon": 20.5730882}, {"type": "node", "id": 11155559765, "lat": 32.5359129, "lon": 20.5967483}, {"type": "node", "id": 11155559817, "lat": 32.5362717, "lon": 20.5934713}, {"type": "node", "id": 11506665714, "lat": 32.5400783, "lon": 20.5856524}, {"type": "node", "id": 11506665715, "lat": 32.5396044, "lon": 20.5892681}, {"type": "node", "id": 11506665716, "lat": 32.5391997, "lon": 20.5864448}, {"type": "node", "id": 11506665717, "lat": 32.5411887, "lon": 20.5965456}, {"type": "node", "id": 11506665718, "lat": 32.5426669, "lon": 20.5966761}, {"type": "way", "id": 100754446, "nodes": [1164542435, 1164542425, 1164542433, 1164542411, 9556454485, 6213105339, 6213105336, 6213105340, 6213105337, 6213105341, 6213105342, 9556441710, 9556441713, 3593725273, 6200668855, 3593725285, 6200817895, 3593725116, 6200817896, 11155559765, 8591394917, 3593725167, 11155559817, 11506665717, 11506665718, 1164542431, 11506665715, 11506665716, 11506665714, 3593725293, 6212991975, 2336669385, 6201541910, 6201409851, 6201409858, 6213389310, 6322489431, 6201409857, 6201494200, 6201409856, 6213294667, 1889663291, 6322489430, 3593725044, 6322489429, 3593725039, 3593725239, 6231547257, 6231546957, 3593725042, 6231547142, 3593725316, 2336669301, 11155559675, 11155559676, 1164542426, 9373483484, 9373483470, 1164542435], "tags": {"name": "\u062a\u0648\u0643\u0631\u0629", "name:ar": "\u062a\u0648\u0643\u0631\u0629", "name:en": "Tukara", "place": "town"}}]}