{"version": 0.6, "generator": "Overpass API 0.7.62.4 2390de5a", "osm3s": {"timestamp_osm_base": "2025-01-08T06:06:18Z", "copyright": "The data included in this document is from www.openstreetmap.org. The data is made available under ODbL."}, "elements": [{"type": "node", "id": 1013646924, "lat": 24.4727747, "lon": 46.2705605, "tags": {"GNS:dsg_code": "PPL", "GNS:dsg_name": "populated place", "GNS:id": "-3092417", "alt_name": "Al Muz\u0101him\u012byah", "capital": "6", "int_name": "Al Muz\u0101\u1e29im\u012byah", "name": "\u0627\u0644\u0645\u0632\u0627\u062d\u0645\u064a\u0629", "name:ar": "\u0627\u0644\u0645\u0632\u0627\u062d\u0645\u064a\u0629", "name:en": "Al Muzahimiyah", "name:fr": "Al-Muzahmiya", "name:ml": "\u0d05\u0d7d-\u0d2e\u0d41\u0d38\u0d3e\u0d39\u0d3f\u0d2e\u0d3f\u0d2f", "place": "town", "population": "30164", "population:date": "2010", "source:population": "stats.gov.sa"}}, {"type": "node", "id": 1236704884, "lat": 24.59551, "lon": 46.133743, "tags": {"GNS:dsg_code": "PPL", "GNS:dsg_name": "populated place", "GNS:id": "-3094597", "alt_name": "Adh Dharma;Darma;\u1e10arm\u0101;Dhruma;Durma;\u1e10urm\u0101", "capital": "6", "int_name": "\u1e10urum\u0101", "name": "\u0636\u0631\u0645\u0627", "name:ar": "\u0636\u0631\u0645\u0627", "name:de": "Duruma", "name:en": "Duruma", "name:fr": "Duruma", "name:ml": "\u0d26\u0d41\u0d7c\u0d2e", "place": "town", "population": "11461", "population:date": "2010", "source:name": "GNS", "source:population": "stats.gov.sa", "wikidata": "Q27223"}}]}