{"version": 0.6, "generator": "Overpass API 0.7.62.4 2390de5a", "osm3s": {"timestamp_osm_base": "2025-01-08T06:35:59Z", "copyright": "The data included in this document is from www.openstreetmap.org. The data is made available under ODbL."}, "elements": [{"type": "node", "id": 1870260644, "lat": 14.1394199, "lon": 25.5504429, "tags": {"GNS:dsg_code": "PPL", "GNS:dsg_name": "populated place", "GNS:id": "-11127", "GNS:modify_date": "2009-01-27", "alt_name": "Millit;Mellit", "alt_name:ar": "\u0645\u0644\u0651\u062a", "alt_name:en": "Malit", "name": "\u0645\u0644\u064a\u0637", "name:ar": "\u0645\u0644\u064a\u0637", "name:de": "Mellit", "name:en": "Mellit", "name:es": "Mellit", "name:fr": "Mellit", "place": "town", "wikidata": "Q12245024"}}, {"type": "node", "id": 7730407154, "lat": 14.3127776, "lon": 25.7570919, "tags": {"GNS:dsg_code": "PPL", "GNS:dsg_name": "populated place", "GNS:id": "-13812", "GNS:modify_date": "2009-01-27", "alt_name": "Sayyah;Saiyah", "alt_name:ar": "\u0633\u0625\u064a\u0629", "name": "Sayy\u0101\u1e29", "name:ar": "\u0633\u064a\u0651\u0627\u062d", "name:en": "Sayyah", "place": "town", "source": "GNS"}}]}