{"version": 0.6, "generator": "Overpass API 0.7.62.4 2390de5a", "osm3s": {"timestamp_osm_base": "2025-01-08T07:02:18Z", "copyright": "The data included in this document is from www.openstreetmap.org. The data is made available under ODbL."}, "elements": [{"type": "node", "id": 299833893, "lat": 35.3846699, "lon": 5.3702215, "tags": {"alt_name:ar": "\u0627\u0644\u0628\u0631\u064a\u0643\u0629;\u0628\u0631\u064a\u0643\u0647", "name": "Barika", "name:ar": "\u0628\u0631\u064a\u0643\u0629", "name:azb": "\u0628\u0631\u06cc\u06a9\u0647", "name:ber": "\u2d31\u2d30\u2d54\u2d49\u2d3d\u2d30", "name:de": "Barika", "name:en": "Barika", "name:fa": "\u0628\u0631\u06cc\u06a9\u0647", "name:fr": "Barika", "name:hu": "Barika", "name:kab": "Barika", "name:lt": "Barika", "place": "city", "population": "162711", "wikidata": "Q648253", "wikimedia_commons": "Category:Barika", "wikipedia": "ar:\u0628\u0631\u064a\u0643\u0629"}}, {"type": "node", "id": 1431001239, "lat": 35.5082551, "lon": 5.2676704, "tags": {"name": "Djezzar", "name:ar": "\u0627\u0644\u062c\u0632\u0627\u0631", "name:ber": "\u2d33\u2d3b\u2d63\u2d63\u2d30\u2d54", "name:en": "Djezzar", "name:fr": "Djezzar", "name:kab": "L\u01e7e\u1e93\u1e93ar", "place": "town", "population": "22124", "wikidata": "Q3032929", "wikimedia_commons": "Category:Djezar", "wikipedia": "en:Djezar"}}, {"type": "node", "id": 1431038792, "lat": 35.5393686, "lon": 4.9718744, "tags": {"name": "A\u00efn Khadra", "name:ar": "\u0639\u064a\u0646 \u0627\u0644\u062e\u0636\u0631\u0627\u0621", "name:ber": "\u2d44\u2d49\u2d4f \u2d45\u2d3b\u2d39\u2d54\u2d30", "name:en": "Ain Khadra", "name:fr": "A\u00efn Khadra", "name:kab": "\u0190in Xe\u1e0dra", "place": "town"}}, {"type": "node", "id": 1561549472, "lat": 35.527774, "lon": 5.1546938, "tags": {"name": "Belaiba", "name:ar": "\u0628\u0644\u0639\u0627\u0626\u0628\u0629", "name:ber": "\u2d31\u2d3b\u2d4d\u2d44\u2d30\u2d62\u2d31\u2d49\u2d62\u2d30", "name:en": "Belaiba", "name:fr": "Belaiba", "name:kab": "Bel\u025bayba", "place": "town", "population": "27404", "wikidata": "Q2894197", "wikimedia_commons": "Category:Belaiba", "wikipedia": "fr:Belaiba"}}]}