{"version": 0.6, "generator": "Overpass API 0.7.62.4 2390de5a", "osm3s": {"timestamp_osm_base": "2025-01-08T06:56:05Z", "copyright": "The data included in this document is from www.openstreetmap.org. The data is made available under ODbL."}, "elements": [{"type": "node", "id": 288179120, "lat": 31.9843815, "lon": 11.153275}, {"type": "node", "id": 288179123, "lat": 31.9673263, "lon": 11.1613002}, {"type": "node", "id": 288179124, "lat": 31.9822156, "lon": 11.1495413}, {"type": "node", "id": 1246799070, "lat": 31.9754962, "lon": 11.1622355, "tags": {"name": "\u0627\u0644\u062d\u0648\u0627\u0645\u062f", "name:ar": "\u0627\u0644\u062d\u0648\u0627\u0645\u062f", "name:en": "Al Hawamid", "name:fr": "AI Hawamid", "place": "town", "source": "GNS", "source:imagery": "Landsat"}}, {"type": "node", "id": 1246799080, "lat": 32.0109901, "lon": 11.3600996, "tags": {"name": "\u062a\u064a\u062c\u064a", "name:ar": "\u062a\u064a\u062c\u064a", "name:en": "Tiji", "name:fr": "Tiji", "place": "town", "source:imagery": "Landsat", "wikipedia": "ar:\u062a\u064a\u062c\u064a (\u0644\u064a\u0628\u064a\u0627)"}}, {"type": "node", "id": 1246799127, "lat": 31.8463361, "lon": 11.3406478, "tags": {"alt_name": "Cabao", "alt_name:1": "Kabao", "ele": "643", "name": "\u0643\u0627\u0628\u0627\u0648", "name:ar": "\u0643\u0627\u0628\u0627\u0648", "name:en": "Kabaw", "name:fr": "Kabaw", "name:kab": "Kabaw", "name:pl": "Kabau", "place": "town", "wikidata": "Q647345", "wikipedia": "ar:\u0643\u0627\u0628\u0627\u0648"}}, {"type": "node", "id": 1565509384, "lat": 31.86, "lon": 11.159167, "tags": {"name": "\u0627\u0644\u0645\u062c\u0627\u0628\u0631\u0629", "name:ar": "\u0627\u0644\u0645\u062c\u0627\u0628\u0631\u0629", "name:en": "Al Majabirah", "name:fr": "Al Majabirah", "pcode": "LY-27-10232", "place": "town", "population": "4116", "shabya_cd": "27", "source": "NGA;OCHA"}}, {"type": "node", "id": 1565513116, "lat": 31.920649, "lon": 11.652961, "tags": {"name": "\u0632\u0639\u0631\u0627\u0631\u0629", "name:ar": "\u0632\u0639\u0631\u0627\u0631\u0629", "name:en": "Za`rarah", "name:fr": "Za`rarah", "pcode": "LY-27-10262", "place": "town", "population": "2321", "shabya_cd": "27", "wikidata": "Q12214368", "wikipedia": "ar:\u0632\u0639\u0631\u0627\u0631\u0629"}}, {"type": "node", "id": 7797368471, "lat": 31.9798337, "lon": 11.1409718}, {"type": "node", "id": 7797368472, "lat": 31.9751043, "lon": 11.1681377}, {"type": "node", "id": 7797395165, "lat": 31.9724085, "lon": 11.1768986}, {"type": "node", "id": 7797395166, "lat": 31.9815388, "lon": 11.1634457}, {"type": "node", "id": 7797395167, "lat": 31.9565308, "lon": 11.1346283}, {"type": "way", "id": 26305914, "nodes": [288179120, 7797395166, 7797368472, 7797395165, 288179123, 7797395167, 7797368471, 288179124, 288179120], "tags": {"name": "\u0627\u0644\u062d\u0648\u0627\u0645\u062f", "name:ar": "\u0627\u0644\u062d\u0648\u0627\u0645\u062f", "name:en": "AI Hawamid", "name:fr": "AI Hawamid", "place": "town"}}]}