{"version": 0.6, "generator": "Overpass API 0.7.62.4 2390de5a", "osm3s": {"timestamp_osm_base": "2025-01-08T06:31:42Z", "copyright": "The data included in this document is from www.openstreetmap.org. The data is made available under ODbL."}, "elements": [{"type": "node", "id": 599486131, "lat": 34.6312629, "lon": 45.3176622, "tags": {"description": "Kalar is a historic city in the Garmian Region of the Kurdistan Region, Iraq. Located along the Diyala River, it serves as a key commercial hub linking Sulaymaniyah, Diyala, and Baghdad. The city is known for its vibrant markets, and agricultural rich.", "int_name": "Kalar", "name": "\u06a9\u06d5\u0644\u0627\u0631", "name:ar": "\u0643\u0644\u0627\u0631", "name:az": "Kelar", "name:az-Arab": "\u06a9\u0644\u0627\u0631", "name:ckb": "\u06a9\u06d5\u0644\u0627\u0631", "name:de": "Kalar", "name:en": "Kalar", "name:fa": "\u06a9\u0644\u0627\u0631", "name:fr": "Kalar", "name:hi": "\u0915\u0932\u093e\u0930", "name:hy": "\u053f\u0561\u056c\u0561\u0580", "name:ja": "\u30ab\u30e9\u30fc\u30eb", "name:ka": "\u10d9\u10d0\u10da\u10d0\u10e0\u10d8", "name:ko": "\uce7c\ub77c\ub974", "name:ku": "Kelar", "name:lrc": "\u06a9\u0644\u0627\u0631", "name:ml": "\u0d15\u0d32\u0d3e\u0d7c", "name:nl": "Kalar", "name:ru": "\u041a\u0435\u043b\u043b\u0430\u0440", "name:syr": "\u071f\u0720\u0710\u072a", "name:tk": "Kelar", "name:tr": "Kelar", "name:zh": "\u5361\u62c9\u5c14", "name:zh-Hans": "\u5361\u62c9\u5c14", "place": "city", "population": "250000", "population:date": "2020", "source": "wikipedia;geonames.org;local knowledge", "source:population": "wikipedia", "wikidata": "Q2625872", "wikipedia": "ckb:\u06a9\u06d5\u0644\u0627\u0631"}}, {"type": "node", "id": 819610833, "lat": 34.515594, "lon": 45.5800155, "tags": {"is_in": "Kermanshah,Iran", "is_in:country": "Iran", "is_in:state": "Kermanshah", "name": "\u0642\u0635\u0631 \u0634\u06cc\u0631\u06cc\u0646", "name:ckb": "\u0642\u06d5\u0633\u0631\u06cc \u0634\u06cc\u0631\u06cc\u0646", "name:en": "Qasr-e Shirin", "name:fa": "\u0642\u0635\u0631 \u0634\u06cc\u0631\u06cc\u0646", "name:fr": "Qasr-e Chirin", "name:ku": "Qesra \u015e\u00eer\u00een", "name:ml": "\u0d16\u0d38\u0d4d\u0d30\u0d46 \u0d37\u0d3f\u0d31\u0d40\u0d7b", "name:ru": "\u041a\u0430\u0441\u0440\u0435-\u0428\u0438\u0440\u0438\u043d", "place": "town", "population": "18473", "population:date": "2016", "source:population": "amar.org.ir", "wikidata": "Q8139321"}}, {"type": "node", "id": 1671541862, "lat": 34.6606075, "lon": 45.2372391, "tags": {"alt_name:ckb-Latn": "Sumud", "capital": "7", "int_name": "Rizgary", "name": "\u0695\u0632\u06af\u0627\u0631\u06cc", "name:ar": "\u0631\u0632\u0643\u0627\u0631\u0649", "name:ckb": "\u0695\u0632\u06af\u0627\u0631\u0649", "name:en": "Rizgari", "name:fr": "Rizgari", "name:ku": "Rizgar\u00ee", "old_name": "\u0633\u0645\u0648\u0648\u062f", "place": "town", "wikidata": "Q61391301", "wikipedia": "ckb:\u0695\u0632\u06af\u0627\u0631\u06cc"}}, {"type": "node", "id": 2488546069, "lat": 34.3475129, "lon": 45.3919154, "tags": {"capital": "6", "int_name": "Kanaqin, Khanaqeen, Kh\u0101naq\u012bn, Khanikin, Khaniqin, \u062e\u0627\u0646\u0642\u064a\u0646, Khanaqeen, Khanaqin, Khanikin, \u062e\u0627\u0646\u06d5\u0642\u06cc\u0646", "name": "\u062e\u0627\u0646\u0642\u064a\u0646", "name:ar": "\u062e\u0627\u0646\u0642\u064a\u0646", "name:ckb": "\u062e\u0627\u0646\u06d5\u0642\u06cc\u0646", "name:de": "Kanaqin", "name:en": "Kanaqin", "name:fr": "Kanaqin", "name:ku": "Xaneq\u00een", "name:ml": "\u0d15\u0d28\u0d3e\u0d16\u0d3f\u0d7b", "name:pl": "Chanakin", "name:ru": "\u0425\u0430\u043d\u0430\u043a\u0438\u043d", "name:tr": "Hanekin", "place": "town", "population": "170000", "wikidata": "Q1004283", "wikipedia": "ar:\u062e\u0627\u0646\u0642\u064a\u0646"}}, {"type": "node", "id": 7373021519, "lat": 34.6065617, "lon": 45.4948531, "tags": {"name": "\u0642\u06c6\u0631\u06d5\u062a\u0648\u0648", "name:ar": "\u0642\u0648\u0631\u062a\u0648", "name:ckb": "\u0642\u06c6\u0631\u06d5\u062a\u0648\u0648", "name:en": "Qoratu", "name:ku": "Qoret\u00fb", "place": "town", "wikidata": "Q61390687", "wikipedia": "ckb:\u0642\u06c6\u0631\u06d5\u062a\u0648\u0648"}}, {"type": "node", "id": 7728087374, "lat": 34.4646039, "lon": 45.1668535, "tags": {"name": "\u06a9\u0648\u06b5\u06d5\u062c\u06c6", "name:ar": "\u06a9\u0648\u0644\u0629\u062c\u0648", "name:en": "Kulajo", "name:ml": "\u0d15\u0d41\u0d32\u0d3e\u0d1c\u0d4b", "place": "town", "wikidata": "Q61392013", "wikipedia": "ckb:\u06a9\u0648\u06b5\u06d5\u062c\u06c6"}}]}