{"version": 0.6, "generator": "Overpass API 0.7.62.4 2390de5a", "osm3s": {"timestamp_osm_base": "2025-01-08T06:29:44Z", "copyright": "The data included in this document is from www.openstreetmap.org. The data is made available under ODbL."}, "elements": [{"type": "node", "id": 1830001713, "lat": 34.2280176, "lon": 35.6628077, "tags": {"alt_name": "Kfaraabida", "name": "\u0643\u0641\u0631\u0639\u0628\u064a\u062f\u0627", "name:ar": "\u0643\u0641\u0631\u0639\u0628\u064a\u062f\u0627", "name:de": "Kfaraabida", "name:en": "Kfaraabida", "name:fr": "Kfaraabida", "name:ml": "\u0d15\u0d2b\u0d31\u0d2c\u0d40\u0d26", "place": "town", "postal_code": "4107", "wikidata": "Q3195893", "wikipedia": "en:Kfar Abida"}}, {"type": "node", "id": 2337736413, "lat": 34.2507231, "lon": 36.0099915, "tags": {"alt_name": "Becharre;Bcharre", "capital": "4", "name": "\u0628\u0634\u0631\u064a", "name:ar": "\u0628\u0634\u0631\u064a", "name:de": "Bischarri", "name:el": "\u039c\u03c0\u03c3\u03b1\u03c1\u03af", "name:en": "Bsharri", "name:es": "Bisharri", "name:fr": "Bcharr\u00e9", "name:he": "\u05d1\u05e9\u05e8\u05d9", "name:hr": "B\u0161ari", "name:ml": "\u0d2c\u0d41\u0d37\u0d30\u0d4d\u0d30\u0d3f", "name:pl": "Baszarri", "name:ru": "\u0411\u0430\u0448\u0430\u0440\u0440\u0438", "name:sl": "B\u0161ari", "name:tr": "Bi\u015ferri", "name:uk": "\u0411\u0456\u0448\u0430\u0440\u0456", "place": "town", "postal_code": "1377", "wikidata": "Q181167", "wikipedia": "en:Bsharri"}}, {"type": "node", "id": 4746546642, "lat": 34.2548879, "lon": 35.6588567, "tags": {"alt_name:el": "\u039c\u03c0\u03b1\u03c4\u03c1\u03bf\u03cd\u03bd\u03b1", "alt_name:grc": "\u0392\u03bf\u03b8\u03c1\u03cd\u03c2", "capital": "4", "name": "\u0627\u0644\u0628\u062a\u0631\u0648\u0646", "name:ar": "\u0627\u0644\u0628\u062a\u0631\u0648\u0646", "name:arc": "\u0712\u072c\u072a\u0718\u0722", "name:az-Arab": "\u0627\u0644\u0628\u062a\u0631\u0648\u0646", "name:azb": "\u0627\u0644\u0628\u062a\u0631\u0648\u0646", "name:de": "Batrun", "name:el": "\u039c\u03c0\u03b1\u03c4\u03c1\u03bf\u03cd\u03bd", "name:en": "Batroun", "name:es": "Batr\u00fan", "name:eu": "Batroun", "name:fa": "\u0627\u0644\u0628\u062a\u0631\u0648\u0646", "name:fr": "Batro\u00fbn", "name:grc": "\u0392\u03bf\u03c4\u03c1\u03cd\u03c2", "name:he": "\u05d1\u05ea\u05e8\u05d5\u05df", "name:hr": "Batrun", "name:hy": "\u0531\u056c-\u0532\u0561\u0569\u0580\u0578\u0582\u0576", "name:ks": "\u0627\u0644\u0628\u062a\u0631\u0648\u0646", "name:ml": "\u0d2c\u0d24\u0d4d\u0d30\u0d42\u0d7a", "name:mzn": "\u0627\u0644\u0628\u062a\u0631\u0648\u0646", "name:sl": "Batrun", "name:syc": "\u0712\u072c\u072a\u0718\u0722", "name:tr": "Betrun", "name:uk": "\u0411\u0430\u0442\u0440\u0443\u043d", "name:ur": "\u0627\u0644\u0628\u062a\u0631\u0648\u0646", "place": "town", "population": "45000", "wikidata": "Q3285145", "wikipedia": "ar:\u0627\u0644\u0628\u062a\u0631\u0648\u0646"}}, {"type": "node", "id": 4746570478, "lat": 34.1236954, "lon": 35.6493557, "tags": {"alt_name:az": "C\u00fcbeyl", "alt_name:en": "Jbeil", "alt_name:fr": "Jbeil", "alt_name:ml": "\u0d2c\u0d3f\u0d2c\u0d4d\u0d32\u0d4b\u0d38\u0d4d", "alt_name:tr": "C\u00fcbeyl", "capital": "4", "name": "\u062c\u0628\u064a\u0644", "name:ar": "\u062c\u0628\u064a\u0644", "name:az": "Bibl", "name:de": "Byblos", "name:el": "\u0392\u03cd\u03b2\u03bb\u03bf\u03c2", "name:en": "Byblos", "name:fa": "\u062c\u0628\u06cc\u0644", "name:fr": "Byblos", "name:he": "\u05d2\u05d1\u05dc", "name:hr": "Biblos", "name:hy": "\u0532\u056b\u0562\u056c\u0578\u057d", "name:ml": "\u0d1c\u0d41\u0d2c\u0d48\u0d7d", "name:ru": "\u0411\u0438\u0431\u043b", "name:sl": "Biblos", "name:sr": "\u0411\u0438\u0431\u043b\u043e\u0441", "name:tr": "Biblos", "name:uk": "\u0411\u0456\u0431\u043b", "place": "town", "wikidata": "Q173532", "wikipedia": "en:Byblos"}}, {"type": "node", "id": 4747728043, "lat": 34.0842051, "lon": 35.6584659, "tags": {"name": "\u062d\u0627\u0644\u0627\u062a", "name:ar": "\u062d\u0627\u0644\u0627\u062a", "name:de": "Halat", "name:en": "Halat", "name:es": "Halat", "name:fr": "Halat", "name:ml": "\u0d39\u0d3e\u0d32\u0d3e\u0d24\u0d4d\u0d24\u0d4d", "place": "town", "wikidata": "Q22936390", "wikipedia": "ar:\u062d\u0627\u0644\u0627\u062a"}}, {"type": "node", "id": 4748423550, "lat": 34.0161562, "lon": 35.6609117, "tags": {"name": "\u063a\u0632\u064a\u0631", "name:ar": "\u063a\u0632\u064a\u0631", "name:en": "Ghazir", "name:fr": "Ghazir", "name:ml": "\u0d17\u0d38\u0d40\u0d7c", "place": "town", "postal_code": "1215"}}, {"type": "node", "id": 4802509982, "lat": 34.1421297, "lon": 35.6465525, "tags": {"alt_name": "Amsheet;Amchit", "name": "\u0639\u0645\u0634\u064a\u062a", "name:ar": "\u0639\u0645\u0634\u064a\u062a", "name:de": "Aamchit", "name:en": "Aamchit", "name:fr": "Aamchit", "name:ml": "\u0d05\u0d02\u0d37\u0d40\u0d24\u0d4d\u0d24\u0d4d", "place": "town"}}, {"type": "node", "id": 4866800802, "lat": 33.9907186, "lon": 35.7313178, "tags": {"alt_name": "Faytroun;Faitroun;Feitroun;Feitrun", "name": "\u0641\u064a\u0637\u0631\u0648\u0646", "name:ar": "\u0641\u064a\u0637\u0631\u0648\u0646", "name:de": "Faytroun", "name:en": "Faytroun", "name:fr": "Faytroun", "name:ml": "\u0d2b\u0d46\u0d2f\u0d4d\u0d24\u0d4d\u0d30\u0d42\u0d7a", "place": "town", "wikidata": "Q3064667", "wikipedia": "ar:\u0641\u064a\u0637\u0631\u0648\u0646"}}, {"type": "node", "id": 5018293944, "lat": 34.3578742, "lon": 35.7339496, "tags": {"alt_name": "Anfe;Enfe", "name": "\u0627\u0646\u0641\u0647", "name:ar": "\u0627\u0646\u0641\u0647", "name:de": "Anfah", "name:en": "Enfeh", "name:es": "Enfeh", "name:eu": "Enfeh", "name:fr": "Enf\u00e9", "name:ml": "\u0d05\u0d7b\u0d2b", "place": "town", "wikidata": "Q4119042"}}, {"type": "node", "id": 5018298801, "lat": 34.3308738, "lon": 35.7350815, "tags": {"alt_name": "Shekka", "name": "\u0634\u0643\u0627", "name:ar": "\u0634\u0643\u0627", "name:de": "Chekka", "name:en": "Chekka", "name:fr": "Chekka", "name:he": "\u05e9\u05db\u05d0", "name:ml": "\u0d37\u0d46\u0d15\u0d4d\u0d15", "place": "town", "wikidata": "Q2916190"}}, {"type": "node", "id": 5051679201, "lat": 34.2906583, "lon": 35.9656763, "tags": {"name": "\u0625\u0647\u062f\u0646", "name:ar": "\u0625\u0647\u062f\u0646", "name:de": "Ehden", "name:en": "Ehden", "name:fa": "\u0627\u0647\u062f\u0646", "name:fr": "Ehden", "name:ml": "\u0d0e\u0d39\u0d4d\u0d26\u0d46\u0d7b", "place": "town", "wikidata": "Q611452", "wikipedia": "fr:Ehden"}}, {"type": "node", "id": 5659045412, "lat": 34.3004082, "lon": 35.816685, "tags": {"capital": "4", "name": "\u0623\u0645\u064a\u0648\u0646", "name:ar": "\u0623\u0645\u064a\u0648\u0646", "name:en": "Amioun", "name:fr": "Amioun", "place": "town", "postal_code": "1306", "wikidata": "Q25922", "wikipedia": "en:Amioun"}}, {"type": "node", "id": 5779148454, "lat": 33.9727584, "lon": 35.7142884, "tags": {"alt_name": "Qleiaat;Qlaiaat", "name": "\u0642\u0644\u064a\u0639\u0627\u062a", "name:ar": "\u0642\u0644\u064a\u0639\u0627\u062a", "name:en": "Qleiat", "name:fr": "Qleiat", "name:ml": "\u0d16\u0d41\u0d32\u0d2f\u0d3e\u0d24\u0d4d\u0d24\u0d4d", "place": "town", "wikipedia": "en:Qleiat"}}]}