{"version": 0.6, "generator": "Overpass API 0.7.62.4 2390de5a", "osm3s": {"timestamp_osm_base": "2025-01-08T07:02:18Z", "copyright": "The data included in this document is from www.openstreetmap.org. The data is made available under ODbL."}, "elements": [{"type": "node", "id": 291964314, "lat": 36.7511783, "lon": 5.0643687, "tags": {"alt_name:es": "Buj\u00eda", "capital": "4", "name": "B\u00e9ja\u00efa \u2d32\u2d33\u2d30\u2d62\u2d3b\u2d5d \u0628\u062c\u0627\u064a\u0629", "name:ar": "\u0628\u062c\u0627\u064a\u0629", "name:azb": "\u0628\u062c\u0627\u06cc\u0647", "name:ber": "\u2d32\u2d33\u2d30\u2d62\u2d3b\u2d5d", "name:bg": "\u0411\u0435\u0436\u0430\u044f", "name:ca": "Beja\u00efa", "name:cs": "Bid\u017e\u00e1ja", "name:el": "\u039c\u03c0\u03b5\u03c4\u03b6\u03ac\u03b9\u03b1", "name:en": "Bejaia", "name:es": "Bug\u00eda", "name:fa": "\u0628\u062c\u0627\u06cc\u0647", "name:fr": "B\u00e9ja\u00efa", "name:it": "Bejaia", "name:ja": "\u30d9\u30b8\u30e3\u30a4\u30a2", "name:kab": "Bgayet", "name:kab-Arab": "\u0628\u062c\u0627\u064a\u0629", "name:kk-Arab": "\u0628\u06d5\u062f\u062c\u0627\u064a\u0627", "name:ko": "\ubca0\uc790\uc774\uc544", "name:ks": "\u0628\u062c\u0627\u06cc\u06c1", "name:la": "Saldae", "name:lt": "Bed\u017eaja", "name:mk": "\u0411\u0435\u045f\u0430\u0458\u0430", "name:ota": "\u0628\u062c\u0627\u06cc\u0647", "name:pl": "Bid\u017caja", "name:pnb": "\u0628\u062c\u0627\u06cc\u06c1", "name:pt": "Bugia", "name:ru": "\u0411\u0435\u0434\u0436\u0430\u044f", "name:uk": "\u0411\u0435\u0434\u0436\u0430\u044f", "name:ur": "\u0628\u062c\u0627\u06cc\u06c1", "name:zh": "\u8d1d\u8d3e\u4e9a", "old_name": "\u0628\u0648\u062c\u064a", "old_name:ar": "\u0628\u0648\u062c\u064a", "old_name:fr": "Bougie", "place": "city", "population": "177988", "population:date": "2008", "ref:ONS": "0601", "reg_name": "\u0635\u0627\u0644\u062f\u0649;\u0627\u0644\u0646\u0627\u0635\u0631\u064a\u0629", "reg_name:ar": "\u0635\u0627\u0644\u062f\u0649;\u0627\u0644\u0646\u0627\u0635\u0631\u064a\u0629", "wikidata": "Q59975", "wikipedia": "ar:\u0628\u062c\u0627\u064a\u0629"}}, {"type": "node", "id": 425061188, "lat": 36.668951, "lon": 5.1574875, "tags": {"name": "Tichy", "name:ar": "\u062a\u0640\u064a\u0634\u064a", "name:ber": "\u2d5c\u2d49\u2d5b\u2d49", "name:en": "Tichy", "name:fr": "Tichy", "name:kab": "Ticci", "name:pt": "Tichy", "old_name": "Tichissois", "place": "town", "population": "16546", "population:date": "2008", "postal_code": "06023", "ref:ONS": "0611", "source:population": "ONS 2008", "wikidata": "Q2215739", "wikimedia_commons": "Category:Tichy", "wikipedia": "fr:Tichy"}}, {"type": "node", "id": 425062007, "lat": 36.6376518, "lon": 5.2453122, "tags": {"name": "Aokas", "name:ar": "\u0627\u0648\u0642\u0627\u0633", "name:ber": "\u2d30\u2d61\u2d47\u2d30\u2d59", "name:en": "Aokas", "name:fr": "Aokas", "name:kab": "Aweqqas", "place": "town", "population": "15989", "wikidata": "Q2214081", "wikimedia_commons": "Category:Aokas", "wikipedia": "en:Aokas"}}, {"type": "node", "id": 425062579, "lat": 36.6251894, "lon": 5.3365523, "tags": {"name": "Souk El Tenine", "name:ar": "\u0633\u0648\u0642 \u0627\u0644\u0627\u062b\u0646\u064a\u0646", "name:ber": "\u2d59\u2d53\u2d47 \u2d4d\u2d3b\u2d5d\u2d4f\u2d49\u2d4f", "name:en": "Souk El Tenine", "name:fr": "Souk El T\u00e9nine", "name:kab": "Suq n Letniyen", "name:ms": "Souk El-Thenine", "name:pt": "Souk El-Thenine", "name:ro": "Souk El T\u00e9nine", "place": "town", "population": "14045", "wikidata": "Q3491584", "wikimedia_commons": "Category:Souk El T\u00e9nine", "wikipedia": "fr:Souk El T\u00e9nine (B\u00e9ja\u00efa)"}}, {"type": "node", "id": 425064156, "lat": 36.6403282, "lon": 5.3626372, "tags": {"name": "Melbou", "name:ar": "\u0645\u0644\u0628\u0648", "name:ber": "\u2d4e\u2d3b\u2d4d\u2d31\u2d53", "name:fr": "Melbou", "name:kab": "Melbu", "place": "town", "population": "11396", "wikidata": "Q1657401", "wikimedia_commons": "Category:Melbou", "wikipedia": "en:Melbou"}}, {"type": "node", "id": 425066820, "lat": 36.6721506, "lon": 5.4808312, "tags": {"name": "Ziama Mansouriah", "name:ar": "\u0632\u064a\u0627\u0645\u0629 \u0645\u0646\u0635\u0648\u0631\u064a\u0629", "name:ber": "\u2d63\u2d62\u2d30\u2d4e\u2d30 \u2d4d\u2d4e\u2d3b\u2d4f\u2d5a\u2d53\u2d55\u2d49\u2d62\u2d30", "name:en": "Ziama Mansouriah", "name:fr": "Ziama Mansouriah", "name:kab": "Zyama Men\u1e63ureyya", "old_name": "Mansouria", "place": "town", "population": "12642", "wikidata": "Q3575466", "wikimedia_commons": "Category:Ziama Mansouriah", "wikipedia": "fr:Ziama Mansouriah"}}, {"type": "node", "id": 443160243, "lat": 36.564307, "lon": 5.3063118, "tags": {"alt_name:ar": "\u062f\u0631\u063a\u064a\u0646\u0629", "name": "Darguina", "name:ar": "\u062f\u0631\u0642\u064a\u0646\u0629", "name:azb": "\u062f\u0631\u0642\u06cc\u0646\u0647", "name:ber": "\u2d37\u2d3b\u2d54\u2d33\u2d53\u2d49\u2d4f\u2d30", "name:en": "Darguina", "name:fa": "\u062f\u0631\u0642\u06cc\u0646\u0647", "name:fr": "Darguina", "name:kab": "Dargina", "name:ota": "\u062f\u0631\u0642\u06cc\u0646\u0647", "place": "town", "population": "14146", "population:date": "2008", "ref:ONS": "0620", "wikidata": "Q1649721", "wikimedia_commons": "Category:Darguina", "wikipedia": "fr:Darguina", "wikipedia:ar": "\u062f\u0631\u0642\u064a\u0646\u0629"}}, {"type": "node", "id": 443160283, "lat": 36.4936262, "lon": 5.2771041, "tags": {"name": "Xerra\u1e6d\u1e6da", "name:ar": "\u062e\u0631\u0627\u0637\u0629", "name:azb": "\u062e\u0631\u0627\u0637\u0647", "name:ber": "\u2d45\u2d3b\u2d54\u2d54\u2d30\u2d5f\u2d30", "name:en": "Kherrata", "name:fa": "\u062e\u0631\u0627\u0637\u0647", "name:fr": "Kherrata", "name:he": "\u05d7\u05e8\u05e8\u05d8\u05d4", "name:kab": "Xerra\u1e6d\u1e6da", "place": "town", "population": "35077", "population:date": "2008", "ref:ONS": "0644", "wikidata": "Q2215859", "wikimedia_commons": "Category:Kherrata", "wikipedia": "fr:Kherrata", "wikipedia:ar": "\u062e\u0631\u0627\u0637\u0629 (\u0648\u0644\u0627\u064a\u0629 \u0628\u062c\u0627\u064a\u0629)"}}, {"type": "node", "id": 455545068, "lat": 36.4941296, "lon": 5.1012394, "tags": {"name": "Bu\u025bendas", "name:ar": "\u0628\u0648\u0639\u0646\u062f\u0627\u0633", "name:ber": "\u2d32\u2d53\u2d44\u2d30\u2d4f\u2d37\u2d30\u2d59", "name:en": "Bouandas", "name:fr": "Bouandas", "name:kab": "Bu\u025bendas", "place": "town"}}, {"type": "node", "id": 1000745863, "lat": 36.5721683, "lon": 5.3746744, "tags": {"name": "Tamridjet", "name:ar": "\u062a\u0627\u0645\u0631\u064a\u062c\u062a", "name:ber": "\u2d5d\u2d30\u2d4e\u2d54\u2d49\u2d35\u2d5d", "name:en": "Tamridjet", "name:fr": "Tamridjet", "name:kab": "Tamrijt", "place": "town", "postal_code": "06650"}}, {"type": "node", "id": 1356784489, "lat": 36.4988939, "lon": 5.0378277, "tags": {"name": "Ain Doukar", "name:ar": "\u0639\u064a\u0646 \u062f\u0643\u0627\u0631", "name:ber": "\u2d44\u2d49\u2d4f \u2d37\u2d53\u2d3d\u2d3d\u2d30\u2d54", "name:en": "Ain Doukar", "name:fr": "Ain Doukar", "name:kab": "Tala Udekkar", "place": "town", "population": "16095", "postal_code": "19124", "ref": "1919"}}, {"type": "node", "id": 1359687433, "lat": 36.5466688, "lon": 5.2295267, "tags": {"alt_name:en": "Tharegregth", "name": "Targregt", "name:ar": "\u062b\u0627\u0631\u0642\u0631\u0642\u062b", "name:ber": "\u2d5d\u2d30\u2d54\u2d3b\u2d33\u2d54\u2d3b\u2d33\u2d5d", "name:en": "Taregregt", "name:fr": "Targregt", "name:kab": "Taregregt", "place": "town", "postal_code": "06044"}}, {"type": "node", "id": 1370339888, "lat": 36.6116043, "lon": 5.0898734, "tags": {"alt_name:ar": "\u0623\u064a\u062a \u0645\u062d\u0645\u0648\u062f", "name": "Taguemmount", "name:ar": "\u062b\u0627\u0642\u0645\u0648\u0646\u062a", "name:ber": "\u2d5d\u2d30\u2d33\u2d3b\u2d4e\u2d53\u2d4f\u2d5c", "name:fr": "Taguemmount", "name:kab": "Tagemmunt", "place": "town"}}, {"type": "node", "id": 3090988170, "lat": 36.5476676, "lon": 5.2759669, "tags": {"description": "Bordj-Mira est le chef-lieu de la commune de Taskriout", "name": "Bordj Mira", "name:ar": "\u0628\u0631\u062c \u0645\u064a\u0631\u0629", "name:ber": "\u2d31\u2d53\u2d54\u2d35 \u2d4e\u2d49\u2d54\u2d30", "name:en": "Bordj Mira", "name:fr": "Bordj Mira", "name:kab": "Bur\u01e7 Mira", "place": "town", "postal_code": "06621"}}, {"type": "node", "id": 3755700078, "lat": 36.5405974, "lon": 5.0275437, "tags": {"alt_name:fr": "Kendira", "description": "Tizi Tindjit chef-lieu de la commune de Kendira", "name": "Tizi Tindjit", "name:ar": "\u062a\u064a\u0632\u064a \u062a\u0646\u062f\u062c\u064a\u062a", "name:ber": "\u2d5d\u2d49\u2d5c\u2d49 \u2d5c\u2d49\u2d4f\u2d35\u2d49\u2d5d", "name:en": "Tizi Tindjit", "name:fr": "Tizi Tindjit", "name:kab": "Tizi Tinjit", "place": "town"}}]}