{"version": 0.6, "generator": "Overpass API 0.7.62.4 2390de5a", "osm3s": {"timestamp_osm_base": "2025-01-08T06:21:22Z", "copyright": "The data included in this document is from www.openstreetmap.org. The data is made available under ODbL."}, "elements": [{"type": "node", "id": 1223198317, "lat": 13.9648684, "lon": 45.468503, "tags": {"GNS:dsg_code": "PPLA2", "GNS:dsg_name": "captial of a second-order administrative division", "GNS:id": "-3193114", "alt_name": "Zahir", "int_name": "Az Z\u0101hir", "name": "\u0627\u0644\u0632\u0627\u0647\u0631", "name:ar": "\u0627\u0644\u0632\u0627\u0647\u0631", "name:de": "Az Zahir", "name:en": "Az Zahir", "name:fr": "Az Zahir", "place": "town", "population": "1472", "population:date": "2004-12-17", "source:name": "GNS", "source:population": "YCSO2004:14-5-21-1"}}, {"type": "node", "id": 1225615702, "lat": 13.9433032, "lon": 45.6711122, "tags": {"GNS:dsg_code": "PPLA2", "GNS:dsg_name": "captial of a second-order administrative division", "GNS:id": "-3190044", "alt_name": "Mukayris; Makayris; Mukairas; Mukair\u0101s; Mukeiras", "int_name": "Mukayr\u0101s", "name": "\u0645\u0643\u064a\u0631\u0627\u0633", "name:ar": "\u0645\u0643\u064a\u0631\u0627\u0633", "name:de": "Mukayras", "name:en": "Mukayras", "name:fr": "Mukayras", "place": "town", "population": "3091", "population:date": "2004-12-17", "source:name": "GNS", "source:population": "YCSO2004:14-8-21-1", "wikidata": "Q986772"}}, {"type": "node", "id": 1225646830, "lat": 13.712217, "lon": 45.303123, "tags": {"GNS:dsg_code": "PPLA2", "GNS:dsg_name": "captial of a second-order administrative division", "GNS:id": "11245866", "capital": "6", "int_name": "Ra\u015fad", "name": "\u0631\u0635\u062f", "name:ar": "\u0631\u0635\u062f", "name:de": "Rasad", "name:en": "Rasad", "name:fr": "Rasad", "place": "town", "population": "862", "population:date": "2004-12-17", "source:name": "GNS", "source:population": "YCSO2004:12-6-21-1"}}, {"type": "node", "id": 5587743989, "lat": 13.9880512, "lon": 45.5729268, "tags": {"GNS:dsg_code": "PPLA", "GNS:dsg_name": "captial of a first-order administrative division", "GNS:id": "-3182652", "alt_name": "Al-Baidhah; Beida; Al-Baid\u0101; Al Beidha; Al-Baida; Beidha", "capital": "4", "int_name": "Al Bay\u1e11\u0101\u2019", "name": "\u0627\u0644\u0628\u064a\u0636\u0627\u0621", "name:ar": "\u0671\u0644\u0652\u0628\u064e\u064a\u0652\u0636\u064e\u0627\u0621", "name:cs": "Bajd\u00e1", "name:de": "Al Beidha", "name:en": "Al Bayda", "name:fr": "Al Bayda'", "name:ru": "\u042d\u043b\u044c-\u0411\u0435\u0439\u0434\u0430", "place": "town", "population": "29059", "population:date": "2004-12-17", "source:name": "GNS", "source:population": "YCSO2004:14-9-21-1", "wikidata": "Q1752951", "wikipedia": "en:Al Bayda, Yemen"}}, {"type": "node", "id": 6937083107, "lat": 13.814355, "lon": 45.392295, "tags": {"GNS:dsg_code": "PPLA2", "GNS:dsg_name": "captial of a second-order administrative division", "GNS:id": "11245867", "int_name": "S\u016bq Sib\u0101\u1e29", "name": "\u0633\u0648\u0642 \u0633\u0628\u0627\u062d", "name:ar": "\u0633\u0648\u0642 \u0633\u0628\u0627\u062d", "name:en": "Suq Sibah", "place": "town", "population": "149", "population:date": "2004-12-17", "source:name": "GNS", "source:population": "YCSO2004:12-5-21-1"}}]}