{"version": 0.6, "generator": "Overpass API 0.7.62.4 2390de5a", "osm3s": {"timestamp_osm_base": "2025-01-08T05:59:05Z", "copyright": "The data included in this document is from www.openstreetmap.org. The data is made available under ODbL."}, "elements": [{"type": "node", "id": 767964923, "lat": 25.5615048, "lon": 29.262811, "tags": {"alt_name": "\u0628\u0644\u0627\u0637", "int_name": "Bal\u0101\u0163, Balat", "name": "\u0628\u0644\u0627\u0637", "name:ar": "\u0628\u0644\u0627\u0637", "name:ar1": "\u0628\u0644\u0627\u0637", "name:de": "Balat", "name:en": "Balat", "name:fr": "Balat", "name:ru": "\u0411\u0430\u043b\u0430\u0442", "place": "town", "wikidata": "Q804654"}}, {"type": "node", "id": 2662989689, "lat": 25.5120622, "lon": 29.2581601, "tags": {"alt_name": "\u0627\u0644\u062f\u0627\u062e\u0644\u0629;\u0627\u0644\u062f\u0627\u062e\u0644\u0647", "alt_name:ar": "\u0627\u0644\u062f\u0627\u062e\u0644\u0629;\u0627\u0644\u062f\u0627\u062e\u0644\u0647", "alt_name:es": "Dajla", "name": "\u0627\u0644\u0648\u0627\u062d\u0627\u062a \u0627\u0644\u062f\u0627\u062e\u0644\u0629", "name:ar": "\u0627\u0644\u0648\u0627\u062d\u0627\u062a \u0627\u0644\u062f\u0627\u062e\u0644\u0629", "name:de": "Oase Dachla", "name:en": "El Dakhla Oases", "name:es": "Oasis de Dajla", "name:fr": "Oasis d'Ad Dakhla", "name:hu": "Dakhla o\u00e1zisok", "name:lt": "Dachla oaz\u0117", "name:ml": "\u0d05\u0d7d-\u0d26\u0d3e\u0d16\u0d4d\u0d32 \u0d2e\u0d30\u0d41\u0d2a\u0d4d\u0d2a\u0d1a\u0d4d\u0d1a\u0d15\u0d7e", "name:ru": "\u0414\u0430\u0445\u043b\u0430 \u041e\u0430\u0437\u0438\u0441", "name:uk": "\u0414\u0430\u0445\u043b\u0430 \u041e\u0430\u0437\u0430", "place": "city", "population": "80209", "population:date": "2006", "wikidata": "Q1015386", "wikipedia": "ar:\u0627\u0644\u0648\u0627\u062d\u0627\u062a \u0627\u0644\u062f\u0627\u062e\u0644\u0629", "wikipedia:ar": "\u0627\u0644\u0648\u0627\u062d\u0627\u062a \u0627\u0644\u062f\u0627\u062e\u0644\u0629"}}]}