{"version": 0.6, "generator": "Overpass API 0.7.62.4 2390de5a", "osm3s": {"timestamp_osm_base": "2025-01-08T07:04:26Z", "copyright": "The data included in this document is from www.openstreetmap.org. The data is made available under ODbL."}, "elements": [{"type": "node", "id": 287622372, "lat": 36.1784491, "lon": 8.707347, "tags": {"name": "\u0627\u0644\u0643\u0627\u0641", "name:ar": "\u0627\u0644\u0643\u0627\u0641", "name:azb": "\u0627\u0644\u06a9\u0627\u0641", "name:de": "Al-Kaf", "name:en": "Al-Kaf", "name:fa": "\u0627\u0644\u06a9\u0627\u0641", "name:fr": "Le Kef", "name:kab": "Lkaf", "name:ks": "\u0627\u0644\u06a9\u0627\u0641", "name:ru": "\u042d\u043b\u044c-\u041a\u0435\u0444", "name:ur": "\u0627\u0644\u06a9\u0627\u0641", "place": "city", "population": "73710", "wikidata": "Q27155", "wikipedia": "ar:\u0627\u0644\u0643\u0627\u0641"}}, {"type": "node", "id": 462003374, "lat": 36.2220401, "lon": 8.3547342, "tags": {"addr:city": "\u0633\u0627\u0642\u064a\u0629 \u0633\u064a\u062f\u064a \u064a\u0648\u0633\u0641", "addr:city:ar": "\u0633\u0627\u0642\u064a\u0629 \u0633\u064a\u062f\u064a \u064a\u0648\u0633\u0641", "name": "\u0633\u0627\u0642\u064a\u0629 \u0633\u064a\u062f\u064a \u064a\u0648\u0633\u0641", "name:ar": "\u0633\u0627\u0642\u064a\u0629 \u0633\u064a\u062f\u064a \u064a\u0648\u0633\u0641", "name:en": "Sakiet Sidi Youcef", "name:fr": "Sakiet Sidi Youssef", "name:kab": "Saqiyet Sidi Yusef", "name:ru": "\u0421\u0438\u0434\u0438-\u042e\u0441\u0435\u0444", "place": "town", "population": "17500", "population:date": "2014", "wikidata": "Q958423", "wikimedia_commons": "Category:Sakiet Sidi Youssef", "wikipedia": "ar:\u0633\u0627\u0642\u064a\u0629 \u0633\u064a\u062f\u064a \u064a\u0648\u0633\u0641", "wikipedia:ar": "\u0633\u0627\u0642\u064a\u0629 \u0633\u064a\u062f\u064a \u064a\u0648\u0633\u0641"}}, {"type": "node", "id": 675058710, "lat": 36.3398873, "lon": 8.5798302, "tags": {"addr:governorate": "Le Kef", "addr:postcode": "7112", "name": "\u0627\u0644\u0637\u0648\u064a\u0631\u0641", "name:ar": "\u0627\u0644\u0637\u0648\u064a\u0631\u0641", "name:en": "Touiref", "name:fr": "Touiref", "name:ru": "\u0422\u0443\u0438\u0440\u0435", "place": "town", "population": "2895", "wikidata": "Q338163", "wikipedia": "en:Touiref"}}, {"type": "node", "id": 1195202561, "lat": 35.8912484, "lon": 8.5426548}, {"type": "node", "id": 1195202856, "lat": 35.8890716, "lon": 8.559882}, {"type": "node", "id": 1195202935, "lat": 35.8828987, "lon": 8.5517056}, {"type": "node", "id": 1195202966, "lat": 35.8898677, "lon": 8.5583046}, {"type": "node", "id": 1195203149, "lat": 35.8837585, "lon": 8.560642}, {"type": "node", "id": 1195203170, "lat": 35.8991132, "lon": 8.558766}, {"type": "node", "id": 1195203183, "lat": 35.8957266, "lon": 8.5440976}, {"type": "node", "id": 1195203209, "lat": 35.8840447, "lon": 8.5501058}, {"type": "node", "id": 1195203210, "lat": 35.8818436, "lon": 8.5589553}, {"type": "node", "id": 1195203217, "lat": 35.8844619, "lon": 8.5427244}, {"type": "node", "id": 1195203223, "lat": 35.8904663, "lon": 8.5457396}, {"type": "node", "id": 1195203225, "lat": 35.9000503, "lon": 8.5512825}, {"type": "node", "id": 1195203251, "lat": 35.8876557, "lon": 8.5424147}, {"type": "node", "id": 1195203254, "lat": 35.8821892, "lon": 8.5447905}, {"type": "node", "id": 1899226323, "lat": 35.8796626, "lon": 8.5534306}, {"type": "node", "id": 1899226324, "lat": 35.8799287, "lon": 8.5511046}, {"type": "node", "id": 1899226325, "lat": 35.8814253, "lon": 8.5578089}, {"type": "node", "id": 1899226327, "lat": 35.8838309, "lon": 8.5540463}, {"type": "node", "id": 1899226335, "lat": 35.8933195, "lon": 8.5392421}, {"type": "node", "id": 1899226339, "lat": 35.8946385, "lon": 8.5577542}, {"type": "node", "id": 1899226340, "lat": 35.895237, "lon": 8.5399809}, {"type": "node", "id": 1899226341, "lat": 35.8986176, "lon": 8.5502016}, {"type": "node", "id": 1899226343, "lat": 35.8991606, "lon": 8.5449476}, {"type": "node", "id": 3430536430, "lat": 36.3050927, "lon": 8.7713168, "tags": {"addr:city": "\u0646\u0628\u0631", "name": "\u0646\u0628\u0631", "name:ar": "\u0646\u0628\u0631", "name:de": "Nibbar", "name:en": "Nibbar", "name:fa": "\u0646\u0628\u0631", "name:fr": "Nebeur", "name:ru": "\u041d\u0438\u0431\u0431\u0430\u0440", "name:ur": "\u0646\u0628\u0631", "place": "town", "population": "3435", "source:population": "INS TN 2004", "wikidata": "Q3117290", "wikipedia": "ar:\u0646\u0628\u0631 (\u062a\u0648\u0646\u0633)"}}, {"type": "way", "id": 103510660, "nodes": [1195203170, 1899226339, 1195202966, 1195202856, 1195203149, 1195203210, 1899226325, 1899226327, 1899226323, 1899226324, 1195202935, 1195203209, 1195203254, 1195203217, 1195203251, 1195203223, 1195202561, 1899226335, 1899226340, 1195203183, 1899226343, 1899226341, 1195203225, 1195203170], "tags": {"name": "\u062a\u0627\u062c\u0631\u0648\u064a\u0646", "name:ar": "\u062a\u0627\u062c\u0631\u0648\u064a\u0646", "name:en": "Tajerouine", "name:fr": "Tajerouine", "name:ru": "\u0422\u0430\u0434\u0436\u0435\u0440\u0432\u0438\u043d", "place": "town"}}]}