{"version": 0.6, "generator": "Overpass API 0.7.62.4 2390de5a", "osm3s": {"timestamp_osm_base": "2025-01-08T07:00:15Z", "copyright": "The data included in this document is from www.openstreetmap.org. The data is made available under ODbL."}, "elements": [{"type": "node", "id": 455443197, "lat": 34.8470491, "lon": 4.1634964, "tags": {"name": "A\u00efn El Melh", "name:ar": "\u0639\u064a\u0646 \u0627\u0644\u0645\u0644\u062d", "name:ber": "\u2d44\u2d49\u2d4f \u2d4d\u2d4e\u2d3b\u2d4d\u2d43", "name:en": "Ain El Melh", "name:fr": "A\u00efn El Melh", "name:kab": "\u0190in Lmel\u1e25", "place": "town", "population": "55000", "wikidata": "Q1649756", "wikipedia": "ar:\u0639\u064a\u0646 \u0627\u0644\u0645\u0644\u062d"}}, {"type": "node", "id": 489290385, "lat": 34.9930304, "lon": 4.0907504, "tags": {"alt_name:fr": "A\u00efn Oghrab", "loc_name": "\u0639\u064a\u0646 \u063a\u0631\u0627\u0628", "name": "Djebel Messaad", "name:ar": "\u062c\u0628\u0644 \u0645\u0633\u0627\u0639\u062f", "name:ber": "\u2d35\u2d31\u2d3b\u2d4d \u2d4e\u2d3b\u2d59\u2d59\u2d30\u2d44\u2d37", "name:en": "Djebel Messaad", "name:fr": "Djebel Messaad", "name:kab": "\u01e6bel Messa\u025bd", "place": "town", "population": "13948", "wikidata": "Q3032841", "wikipedia": "fr:Djebel Messaad"}}]}