{"version": 0.6, "generator": "Overpass API 0.7.62.4 2390de5a", "osm3s": {"timestamp_osm_base": "2025-01-08T06:56:05Z", "copyright": "The data included in this document is from www.openstreetmap.org. The data is made available under ODbL."}, "elements": [{"type": "node", "id": 1215763443, "lat": 32.142882, "lon": 13.0555778, "tags": {"name": "\u062c\u0639\u0641\u0631", "name:ar": "\u062c\u0639\u0641\u0631", "name:en": "Jaffar", "name:fr": "Jaffar", "place": "town"}}, {"type": "node", "id": 1565508856, "lat": 32.2564249, "lon": 13.038171, "tags": {"alt_name:ar": "\u0628\u0648\u063a\u064a\u0644\u0627\u0646 \u063a\u0631\u064a\u0627\u0646", "name": "\u0623\u0628\u0648 \u063a\u064a\u0644\u0627\u0646", "name:ar": "\u0623\u0628\u0648 \u063a\u064a\u0644\u0627\u0646", "name:en": "Abu Ghaylan", "name:fr": "Abu Ghaylan", "pcode": "LY-18-10513", "place": "town", "shabya_cd": "18", "source": "NGA;OCHA"}}, {"type": "node", "id": 1565510610, "lat": 32.1715873, "lon": 13.0211451, "tags": {"name": "\u063a\u0631\u064a\u0627\u0646", "name:ar": "\u063a\u0631\u064a\u0627\u0646", "name:az": "Qaryan", "name:be": "\u0413\u0430\u0440\u2019\u044f\u043d", "name:ber": "\u2d56\u2d54\u2d62\u2d30\u2d4f", "name:cs": "Gharj\u00e1n", "name:de": "Garian", "name:en": "Gharyan", "name:eo": "Garjan", "name:es": "Garian", "name:et": "Ghary\u0101n", "name:fi": "Gharyan", "name:fr": "Gharyan", "name:it": "Garian", "name:ja": "\u30ac\u30ea\u30e4\u30f3", "name:ka": "\u10e6\u10d0\u10e0\u10d8\u10d0\u10dc\u10d8", "name:kab": "\u0194eryan", "name:ko": "\uac00\ub9ac\uc548", "name:lt": "Garjanas", "name:nl": "Gharyan", "name:pl": "Gharjan", "name:pt": "Gari\u00e3", "name:ro": "Ghiryan", "name:ru": "\u0413\u0430\u0440\u044c\u044f\u043d", "name:sv": "Gharyan", "name:tr": "Geryan", "name:uk": "\u0490\u0430\u0440'\u044f\u043d", "name:vi": "Gharyan", "name:vo": "Garyan", "name:zh": "\u76d6\u5c14\u626c", "name:zu": "Gharyan", "pcode": "LY-18-10520", "place": "city", "population": "187854", "population:date": "2011", "shabya_cd": "18", "wikidata": "Q867102", "wikipedia": "ar:\u063a\u0631\u064a\u0627\u0646"}}, {"type": "node", "id": 3302658161, "lat": 32.2198895, "lon": 13.0428058, "tags": {"name": "\u0627\u0644\u0642\u0648\u0627\u0633\u0645", "name:ar": "\u0627\u0644\u0642\u0648\u0627\u0633\u0645", "name:en": "Al Qawasim", "name:fr": "Al Qawasim", "place": "town"}}, {"type": "node", "id": 7212959831, "lat": 32.0629189, "lon": 12.6952536, "tags": {"name": "\u0643\u0643\u0644\u0629", "name:ar": "\u0643\u0643\u0644\u0629", "name:en": "Kikla", "name:fr": "Kikla", "place": "town"}}]}