{"version": 0.6, "generator": "Overpass API 0.7.62.4 2390de5a", "osm3s": {"timestamp_osm_base": "2025-01-08T06:32:48Z", "copyright": "The data included in this document is from www.openstreetmap.org. The data is made available under ODbL."}, "elements": [{"type": "node", "id": 213402531, "lat": 37.1433762, "lon": 42.6822907, "tags": {"capital": "6", "ele": "440", "int_name": "Zakho", "is_in:region": "\u0627\u0642\u0644\u064a\u0645 \u0643\u0631\u062f\u0633\u062a\u0627\u0646 \u0627\u0644\u0639\u0631\u0627\u0642", "name": "\u0632\u0627\u062e\u06c6", "name:ar": "\u0632\u0627\u062e\u0648", "name:arc": "\u0719\u0735\u071f\u0323\u0718\u0307", "name:ckb": "\u0632\u0627\u062e\u06c6", "name:en": "Zakho", "name:he": "\u05d6\u05d0\u05db\u05d5", "name:ja": "\u30b6\u30fc\u30db\u30fc", "name:ku": "Zaxo", "name:ml": "\u0d38\u0d3e\u0d15\u0d4d\u0d15\u0d42", "name:ru": "\u0417\u0430\u0445\u0443", "name:tr": "Zaho", "name:zh": "\u624e\u80e1", "place": "town", "population": "197163", "postal_code": "42002", "wikidata": "Q167800", "wikipedia": "ckb:\u0632\u0627\u062e\u06c6"}}, {"type": "node", "id": 2480157973, "lat": 37.1986523, "lon": 42.8225436, "tags": {"alt_name": "\u062f\u0631\u0643\u0627\u0631", "capital": "7", "int_name": "Dark\u0101r, Darkar", "is_in": "Iraq , \u062c\u0645\u0647\u0648\u0631\u064a\u0629 \u0627\u0644\u0639\u0631\u0627\u0642", "name": "\u062f\u06d5\u0631\u06a9\u0627\u0631", "name:ar": "\u062f\u0631\u0643\u0627\u0631", "name:ckb": "\u062f\u06d5\u0631\u06a9\u0627\u0631", "name:de": "Darkar", "name:en": "Darkar", "name:fr": "Darkar", "name:ku": "Derkar", "place": "town", "wikidata": "Q6768701", "wikipedia": "ckb:\u062f\u06d5\u0631\u06a9\u0627\u0631"}}, {"type": "node", "id": 2488238143, "lat": 36.9608059, "lon": 42.6810078, "tags": {"alt_name": "\u0628\u0627\u062a\u0644", "capital": "7", "int_name": "Batil, B\u0101til, \u0628\u0627\u062a\u0644, Batil, Batil, \u0628\u0627\u062a\u0644", "is_in": "Iraq , \u062c\u0645\u0647\u0648\u0631\u064a\u0629 \u0627\u0644\u0639\u0631\u0627\u0642", "name": "\u0628\u0627\u062a\u06cc\u0644", "name:ar": "\u0628\u0627\u062a\u06cc\u0644", "name:ckb": "\u0628\u0627\u062a\u06ce\u0644", "name:de": "Batel", "name:en": "Batel", "name:fr": "Batel", "name:ku": "Bat\u00eal", "name:ml": "\u0d2c\u0d3e\u0d24\u0d4d\u0d24\u0d3f\u0d7d", "place": "town", "wikidata": "Q12195617", "wikipedia": "ku:Bat\u00eal,_S\u00eam\u00eal"}}, {"type": "node", "id": 2488238154, "lat": 37.138585, "lon": 42.5660021, "tags": {"alt_name": "\u0646\u0627\u062d\u064a\u0629 \u0625\u0628\u0631\u0627\u0647\u064a\u0645 \u0627\u0644\u062e\u0644\u064a\u0644", "int_name": "Ibrahim Khalil, Ibr\u0101h\u012bm al Khal\u012bl, \u0627\u0628\u0631\u0627\u0647\u064a\u0645 \u0627\u0644\u062e\u0644\u06cc\u0644 ,\u0626\u06cc\u0628\u0631\u0627\u0647\u06cc\u0645 \u062e\u06d5\u0644\u06cc\u0644, \u00cebrah\u00eem Xel\u00eel", "is_in": "Iraq , \u062c\u0645\u0647\u0648\u0631\u064a\u0629 \u0627\u0644\u0639\u0631\u0627\u0642", "name": "\u0626\u06cc\u0628\u0631\u0627\u06be\u06cc\u0645 \u062e\u06d5\u0644\u06cc\u0644", "name:ar": "\u0625\u0628\u0631\u0627\u0647\u064a\u0645 \u0627\u0644\u062e\u0644\u064a\u0644", "name:ckb": "\u0626\u06cc\u0628\u0631\u0627\u06be\u06cc\u0645 \u062e\u06d5\u0644\u06cc\u0644", "name:de": "Ibrahim Khalil", "name:en": "Ibrahim Khalil", "name:fr": "Ibrahim Khalil", "name:ku": "\u00cebrah\u00eem Xel\u00eel", "name:ml": "\u0d07\u0d2c\u0d4d\u0d30\u0d3e\u0d39\u0d40\u0d02 \u0d16\u0d32\u0d40\u0d7d", "place": "town"}}]}