{"version": 0.6, "generator": "Overpass API 0.7.62.4 2390de5a", "osm3s": {"timestamp_osm_base": "2025-01-08T07:11:40Z", "copyright": "The data included in this document is from www.openstreetmap.org. The data is made available under ODbL."}, "elements": [{"type": "node", "id": 391550616, "lat": 34.955281, "lon": -2.100793, "tags": {"alt_name:ar": "\u0627\u062d\u0641\u064a\u0631", "capital": "6", "name": "Ahfir \u2d30\u2d43\u2d3c\u2d49\u2d54 \u0623\u062d\u0641\u064a\u0631", "name:ar": "\u0623\u062d\u0641\u064a\u0631", "name:azb": "\u0627\u062d\u0641\u06cc\u0631", "name:ber": "\u2d30\u2d43\u2d3c\u2d49\u2d54", "name:de": "Ahfir", "name:en": "Ahfir", "name:fa": "\u0627\u062d\u0641\u06cc\u0631", "name:fr": "Ahfir", "name:kab": "A\u1e25fir", "name:ur": "\u0627\u06c1\u0641\u06cc\u0631", "name:zgh": "\u2d30\u2d43\u2d3c\u2d49\u2d54", "place": "town", "population": "19482", "postal_code": "63050", "wikidata": "Q2544620", "wikimedia_commons": "Category:Ahfir", "wikipedia": "ar:\u0623\u062d\u0641\u064a\u0631", "wikipedia:ar": "\u0623\u062d\u0641\u064a\u0631"}}, {"type": "node", "id": 391562106, "lat": 34.9266755, "lon": -2.3294087, "tags": {"capital": "5", "name": "Berkane \u2d31\u2d3b\u2d54\u2d3d\u2d30\u2d4f \u0628\u0631\u0643\u0627\u0646", "name:ar": "\u0628\u0631\u0643\u0627\u0646", "name:azb": "\u0628\u0631\u06a9\u0627\u0646", "name:ber": "\u2d31\u2d3b\u2d54\u2d3d\u2d30\u2d4f", "name:de": "Berkan", "name:en": "Berkane", "name:es": "Berk\u00e1n", "name:et": "Berkane", "name:fa": "\u0628\u0631\u06a9\u0627\u0646", "name:fr": "Berkane", "name:kab": "Berkan", "name:ru": "\u0411\u0435\u0440\u043a\u0430\u043d", "name:uk": "\u0411\u0435\u0440\u043a\u0430\u043d", "name:ur": "\u0628\u0631\u06a9\u0627\u0646", "name:zgh": "\u2d31\u2d3b\u2d54\u2d3d\u2d30\u2d4f", "place": "city", "population": "109237", "population:date": "2014", "postal_code": "60300", "wikidata": "Q820813", "wikipedia": "ar:\u0628\u0631\u0643\u0627\u0646 (\u0645\u062f\u064a\u0646\u0629)"}}, {"type": "node", "id": 490570863, "lat": 34.9747704, "lon": -2.0995852, "tags": {"alt_name:ar": "\u0623\u0628\u0648 \u0643\u0627\u0646\u0648\u0646", "name": "Boukanoun", "name:ar": "\u0628\u0648\u0643\u0627\u0646\u0648\u0646", "name:de": "Bukanun", "name:en": "Boukanoun", "name:fr": "Boukanoun", "name:kab": "Bukannun", "old_name:ar": "\u0644\u0627\u0632\u062a\u0627", "old_name:fr": "Lazeta", "place": "town", "postal_code": "13442", "wikidata": "Q12200107", "wikipedia": "ar:\u0628\u0648\u0643\u0627\u0646\u0648\u0646"}}, {"type": "node", "id": 1578444301, "lat": 34.886741, "lon": -2.518554, "tags": {"alt_name:ar": "\u0627\u0643\u0644\u064a\u0645", "capital": "6", "name": "Aklim \u2d30\u2d3d\u2d4d\u2d49\u2d4e \u0623\u0643\u0644\u064a\u0645", "name:ar": "\u0623\u0643\u0644\u064a\u0645", "name:azb": "\u0627\u06a9\u0644\u06cc\u0645", "name:ber": "\u2d30\u2d3d\u2d4d\u2d49\u2d4e", "name:en": "Aklim", "name:fa": "\u0627\u06a9\u0644\u06cc\u0645", "name:fr": "Aklim", "name:ks": "\u0627\u06a9\u0644\u06cc\u0645", "name:ota": "\u0627\u06a9\u0644\u06cc\u0645", "name:ur": "\u0627\u06a9\u0644\u06cc\u0645", "place": "town", "population": "9695", "population:date": "2014", "wikidata": "Q2484384", "wikipedia": "ar:\u0623\u0643\u0644\u064a\u0645", "wikipedia:ar": "\u0623\u0643\u0644\u064a\u0645"}}, {"type": "node", "id": 1863759656, "lat": 34.578344, "lon": -2.502961, "tags": {"capital": "6", "name": "El A\u00efoun Sidi Mellouk \u2d4d\u2d44\u2d62\u2d53\u2d4f \u2d59\u2d49\u2d37\u2d49 \u2d4e\u2d4d\u2d4d\u2d53\u2d3d \u0627\u0644\u0639\u064a\u0648\u0646 \u0633\u064a\u062f\u064a \u0645\u0644\u0648\u0643", "name:ar": "\u0627\u0644\u0639\u064a\u0648\u0646 \u0633\u064a\u062f\u064a \u0645\u0644\u0648\u0643", "name:ber": "\u2d4d\u2d44\u2d62\u2d53\u2d4f \u2d59\u2d49\u2d37\u2d49 \u2d4e\u2d4d\u2d4d\u2d53\u2d3d", "name:en": "El Aioun Sidi Mellouk", "name:es": "El Ai\u00fan", "name:fr": "El A\u00efoun Sidi Mellouk", "place": "town", "population": "41832", "start_date": "1679", "wikidata": "Q3049730", "wikipedia": "fr:El A\u00efoun Sidi Mellouk"}}, {"type": "node", "id": 1959257012, "lat": 34.6051162, "lon": -2.2179267, "tags": {"capital": "6", "ele": "200", "name": "Na\u00efma \u2d4f\u2d44\u2d49\u2d4e\u2d30 \u0627\u0644\u0646\u0639\u064a\u0645\u0629", "name:ar": "\u0627\u0644\u0646\u0639\u064a\u0645\u0629", "name:ber": "\u2d4f\u2d44\u2d49\u2d4e\u2d30", "name:en": "Na\u00efma", "name:fr": "Na\u00efma", "place": "town", "population": "1151", "wikidata": "Q3335196", "wikipedia": "fr:Na\u00efma (Maroc)"}}]}