{"version": 0.6, "generator": "Overpass API 0.7.62.4 2390de5a", "osm3s": {"timestamp_osm_base": "2025-01-08T06:21:22Z", "copyright": "The data included in this document is from www.openstreetmap.org. The data is made available under ODbL."}, "elements": [{"type": "node", "id": 1226372174, "lat": 15.504503, "lon": 44.415007, "tags": {"GNS:dsg_code": "PPLA2", "GNS:dsg_name": "captial of a second-order administrative division", "GNS:id": "10644162", "capital": "6", "int_name": "Bayt as Sayyid", "name": "\u0628\u064a\u062a \u0627\u0644\u0633\u064a\u062f", "name:ar": "\u0628\u064a\u062a \u0627\u0644\u0633\u064a\u062f", "name:de": "Bayt as Sayyid", "name:en": "Bayt as Sayyid", "name:fr": "Bayt as Sayyid", "place": "town", "population": "1418", "population:date": "2004-12-17", "source:name": "GNS", "source:population": "YCSO2004:23-4-21-1"}}, {"type": "node", "id": 1226372376, "lat": 15.6442887, "lon": 44.4726954, "tags": {"GNS:dsg_code": "PPLA2", "GNS:dsg_name": "captial of a second-order administrative division", "GNS:id": "-3189192", "alt_name": "Madid; Mad\u012bd", "capital": "6", "int_name": "Al Mad\u012bd", "name": "\u0627\u0644\u0645\u062f\u064a\u062f", "name:ar": "\u0627\u0644\u0645\u062f\u064a\u062f", "name:de": "Al Madid", "name:en": "Al Madid", "name:fr": "Al Madid", "place": "town", "population": "1359", "population:date": "2004-12-17", "source:name": "GNS", "source:population": "YCSO2004:23-3-22-1", "wikidata": "Q6727704", "wikipedia:en": "Madid"}}, {"type": "node", "id": 1226964017, "lat": 15.488692, "lon": 44.66573, "tags": {"GNS:dsg_code": "PPLA2", "GNS:dsg_name": "captial of a second-order administrative division", "GNS:id": "10643100", "alt_name": "Al \u1e28arajah; Al Harajah", "int_name": "Al \u1e28arjah", "name": "\u0627\u0644\u062d\u0631\u062c\u0629", "name:ar": "\u0627\u0644\u062d\u0631\u062c\u0629", "name:de": "Al Harjah", "name:en": "Al Harjah", "name:fr": "Al Harjah", "place": "town", "population": "224", "population:date": "2004-12-17", "source:name": "GNS", "source:population": "YCSO2004:26-4-22-1"}}]}