{"version": 0.6, "generator": "Overpass API 0.7.62.4 2390de5a", "osm3s": {"timestamp_osm_base": "2025-01-08T07:19:43Z", "copyright": "The data included in this document is from www.openstreetmap.org. The data is made available under ODbL."}, "elements": [{"type": "node", "id": 31380375, "lat": 35.1739922, "lon": -2.9281198, "tags": {"addr:postcode": "62000", "capital": "5", "loc_name": "\u0646\u0627\u0638\u0648\u0631", "loc_name:ar": "\u0646\u0627\u0638\u0648\u0631", "name": "Nador \u2d4f\u2d30\u2d39\u2d53\u2d55 \u0627\u0644\u0646\u0627\u0638\u0648\u0631", "name:ar": "\u0627\u0644\u0646\u0627\u0638\u0648\u0631", "name:az-Arab": "\u0646\u0627\u0638\u0648\u0631", "name:azb": "\u0646\u0627\u0638\u0648\u0631", "name:be": "\u041d\u0430\u0434\u043e\u0440", "name:ber": "\u2d4f\u2d30\u2d39\u2d53\u2d55", "name:ca": "Nador", "name:da": "Nador", "name:de": "Nador", "name:en": "Nador", "name:eo": "Nador", "name:es": "Nador", "name:et": "Nador", "name:eu": "Nador", "name:fa": "\u0646\u0627\u0638\u0648\u0631", "name:fr": "Nador", "name:it": "Nador", "name:ja": "\u30ca\u30c9\u30fc\u30eb", "name:kab": "Nna\u1e0dur", "name:ko": "\ub098\ub3c4\ub974", "name:ks": "\u0646\u0627\u0638\u0648\u0631", "name:lt": "Nadoras", "name:lv": "N\u0101dora", "name:ml": "\u0d28\u0d3e\u0d26\u0d4b\u0d7c", "name:nb": "Nador", "name:nl": "Nador", "name:pl": "Nador", "name:pt": "Nador", "name:ro": "Nador", "name:ru": "\u041d\u0430\u0434\u043e\u0440", "name:sr": "\u041d\u0430\u0434\u043e\u0440", "name:sv": "Nador", "name:sw": "Nador", "name:th": "\u0e19\u0e32\u0e14\u0e2d\u0e23\u0e4c", "name:uk": "\u041d\u0430\u0434\u043e\u0440", "name:ur": "\u0646\u0627\u0638\u0648\u0631", "name:vi": "Nador", "name:zgh": "\u2d4f\u2d30\u2d3a\u2d53\u2d54", "name:zh": "\u7d0d\u7956\u723e", "place": "city", "population": "161726", "population:date": "2014", "wikidata": "Q824594", "wikipedia": "ar:\u0627\u0644\u0646\u0627\u0638\u0648\u0631 (\u0627\u0644\u0645\u063a\u0631\u0628)", "wikipedia:ar": "\u0627\u0644\u0646\u0627\u0638\u0648\u0631 (\u0627\u0644\u0645\u063a\u0631\u0628)", "wikipedia:es": "Nador"}}, {"type": "node", "id": 289031151, "lat": 35.2919028, "lon": -2.9407146, "tags": {"addr:postcode": "52001", "capital": "4", "ele": "0", "name": "Melilla", "name:ar": "\u0645\u0644\u064a\u0644\u064a\u0629", "name:azb": "\u0645\u0644\u06cc\u0644\u06cc\u0647", "name:ber": "\u2d5c\u2d30\u2d4e\u2d4d\u2d49\u2d4d\u2d5c", "name:de": "Melilla", "name:fa": "\u0645\u0644\u06cc\u0644\u0647", "name:fr": "Melilla", "name:ja": "\u30e1\u30ea\u30ea\u30e3", "name:lt": "Melilja", "name:ml": "\u0d2e\u0d46\u0d32\u0d3f\u0d32\u0d4d\u0d32", "name:pa": "\u0a2e\u0a47\u0a32\u0a3f\u0a32\u0a3e", "name:ru": "\u041c\u0435\u043b\u0438\u043b\u044c\u044f", "name:sr": "\u041c\u0435\u043b\u0438\u0459\u0430", "name:ur": "\u0645\u0644\u06cc\u0644\u06c1", "name:zgh": "\u2d5c\u2d30\u2d4e\u2d4d\u2d49\u2d4d\u2d5c", "name:zh": "\u6885\u5229\u5229\u4e9a", "place": "city", "population": "85491", "population:date": "2023", "ref:ine": "52001000301", "source": "Instituto Geogr\u00e1fico Nacional", "source:date": "2011-06", "source:ele": "MDT5", "source:name": "Nomencl\u00e1tor Geogr\u00e1fico de Municipios y Entidades de Poblaci\u00f3n", "wikidata": "Q5831", "wikipedia": "es:Melilla"}}, {"type": "node", "id": 1102345303, "lat": 35.1192286, "lon": -3.3338008, "tags": {"alt_name": "Thadarte el Kabdani", "alt_name:es": "Quebdani", "capital": "7", "int_name": "Dar el Quebdani", "name": "Dar El Kebdani \u2d37\u2d30\u2d55 \u2d3d\u2d31\u2d37\u2d30\u2d4f\u2d49 \u062f\u0627\u0631 \u0627\u0644\u0643\u0628\u062f\u0627\u0646\u064a", "name:ar": "\u062f\u0627\u0631 \u0627\u0644\u0643\u0628\u062f\u0627\u0646\u064a", "name:ber": "\u2d37\u2d30\u2d55 \u2d3d\u2d31\u2d37\u2d30\u2d4f\u2d49", "name:en": "Dar El Kebdani", "name:es": "Dar el Quebdani", "name:fr": "Dar El Kebdani", "name:zgh": "\u2d37\u2d30\u2d55 \u2d3d\u2d31\u2d37\u2d30\u2d4f\u2d49", "place": "town", "population": "10674", "postal_code": "62202", "wikidata": "Q2678389", "wikipedia": "ar:\u062f\u0627\u0631 \u0627\u0644\u0643\u0628\u062f\u0627\u0646\u064a", "wikipedia:es": "Dar el Quebdani"}}, {"type": "node", "id": 1578592887, "lat": 35.155014, "lon": -3.004546, "tags": {"alt_name": "Segangane", "capital": "6", "ele": "91", "name": "Zeghanghane \u2d30\u2d63\u2d56\u2d30\u2d4f\u2d56\u2d30\u2d4f \u0623\u0632\u063a\u0646\u063a\u0627\u0646", "name:ar": "\u0623\u0632\u063a\u0646\u063a\u0627\u0646", "name:ber": "\u2d30\u2d63\u2d56\u2d30\u2d4f\u2d56\u2d30\u2d4f", "name:en": "Zeghanghane", "name:es": "Segang\u00e1n", "name:fr": "Zeghanghane", "name:kab": "Az\u0263en\u0263an", "name:zgh": "\u2d30\u2d63\u2d56\u2d30\u2d4f\u2d56\u2d30\u2d4f", "place": "town", "population": "20181", "wikidata": "Q184459", "wikimedia_commons": "Category:Segangan", "wikipedia": "fr:Zeghanghane"}}, {"type": "node", "id": 1688890307, "lat": 35.07284, "lon": -2.941719, "tags": {"alt_name:kab": "Selwan", "capital": "6", "name": "Selouane \u2d59\u2d4d\u2d61\u2d30\u2d4f \u0633\u0644\u0648\u0627\u0646", "name:ar": "\u0633\u0644\u0648\u0627\u0646", "name:azb": "\u0633\u0644\u0648\u0627\u0646", "name:ber": "\u2d59\u2d4d\u2d61\u2d30\u2d4f", "name:en": "Selouane", "name:es": "Zelu\u00e1n", "name:fa": "\u0633\u0644\u0648\u0627\u0646", "name:fr": "Selouane", "name:kab": "Se\u0159wan", "name:ur": "\u0633\u0644\u0648\u0627\u0646", "name:zgh": "\u2d59\u2d4d\u2d61\u2d30\u2d4f", "place": "town", "population": "24877", "wikidata": "Q280853", "wikimedia_commons": "Category:Selouane", "wikipedia": "ar:\u0633\u0644\u0648\u0627\u0646 (\u0627\u0644\u0645\u063a\u0631\u0628)", "wikipedia:es": "Zelu\u00e1n"}}, {"type": "node", "id": 1863757417, "lat": 35.259687, "lon": -2.933644, "tags": {"alt_name": "\u0622\u064a\u062b \u0646\u0635\u0627\u0631", "alt_name:ar": "\u0622\u064a\u062b \u0646\u0635\u0627\u0631", "capital": "6", "name": "Beni Ensar \u2d31\u2d4f\u2d49 \u2d4f\u2d5a\u2d30\u2d54 \u0628\u0646\u064a \u0627\u0646\u0635\u0627\u0631", "name:ar": "\u0628\u0646\u064a \u0627\u0646\u0635\u0627\u0631", "name:az-Arab": "\u0628\u0646\u06cc \u0627\u0646\u0635\u0627\u0631", "name:azb": "\u0628\u0646\u06cc \u0627\u0646\u0635\u0627\u0631", "name:ber": "\u2d31\u2d4f\u2d49 \u2d4f\u2d5a\u2d30\u2d54", "name:ceb": "Beni Enzar", "name:de": "Beni Enzar", "name:en": "Beni Ansar / A\u00eft Nsar", "name:es": "Beni Enzar", "name:fa": "\u0628\u0646\u06cc \u0627\u0646\u0635\u0627\u0631", "name:fr": "Beni Ensar", "name:kab": "At N\u1e63ar", "name:ml": "\u0d2c\u0d28\u0d3f \u0d05\u0d7b\u0d38\u0d3e\u0d7c", "name:sv": "Beni Enzar", "name:ur": "\u0628\u0646\u06cc \u0627\u0646\u0635\u0627\u0631", "place": "town", "population": "31800", "wikidata": "Q537462", "wikimedia_commons": "Category:Beni Ensar", "wikipedia": "ar:\u0628\u0646\u064a \u0627\u0646\u0635\u0627\u0631", "wikipedia:es": "Beni Enzar"}}, {"type": "node", "id": 1884851469, "lat": 35.286107, "lon": -2.980918, "tags": {"name": "Farkhana \u2d3c\u2d30\u2d55\u2d45\u2d30\u2d4f\u2d30 \u0641\u0631\u062e\u0627\u0646\u0629", "name:ar": "\u0641\u0631\u062e\u0627\u0646\u0629", "name:ast": "Farjana", "name:azb": "\u0641\u0631\u062e\u0627\u0646\u0647", "name:ber": "\u2d3c\u2d30\u2d55\u2d45\u2d30\u2d4f\u2d30", "name:en": "Farkhana", "name:es": "Farjana", "name:fa": "\u0641\u0631\u062e\u0627\u0646\u0647", "name:fr": "Farkhana", "place": "town", "population": "10994", "wikidata": "Q428202", "wikimedia_commons": "Category:Farkhana", "wikipedia": "ar:\u0641\u0631\u062e\u0627\u0646\u0629", "wikipedia:es": "Farjana"}}, {"type": "node", "id": 1884851502, "lat": 35.277213, "lon": -3.013687, "tags": {"alt_name": "Ayt Ciker", "capital": "7", "ele": "218", "int_name": "Bni Chiker", "name": "Bni Chiker \u2d31\u2d4f\u2d49 \u2d5b\u2d49\u2d3d\u2d54 \u062c\u0645\u0627\u0639\u0629 \u0628\u0646\u064a \u0634\u064a\u0643\u0631", "name:ar": "\u062c\u0645\u0627\u0639\u0629 \u0628\u0646\u064a \u0634\u064a\u0643\u0631", "name:ber": "\u2d31\u2d4f\u2d49 \u2d5b\u2d49\u2d3d\u2d54", "name:en": "Bni Chiker", "name:es": "Beni Chikar", "name:fr": "Beni Chiker", "place": "town", "population": "4188", "wikidata": "Q817275", "wikipedia": "fr:Beni Chiker"}}, {"type": "node", "id": 1938288565, "lat": 35.1626522, "lon": -2.9660295, "tags": {"capital": "8", "int_name": "Ihaddaden", "name": "Ihaddaden \u2d49\u2d43\u2d37\u2d37\u2d30\u2d37\u2d4f \u0625\u062d\u062f\u0627\u062f\u0646", "name:ar": "\u0625\u062d\u062f\u0627\u062f\u0646", "name:ber": "\u2d49\u2d43\u2d37\u2d37\u2d30\u2d37\u2d4f", "name:en": "Ihaddaden", "name:es": "Iheddad\u00e9n", "name:fr": "Ihaddaden", "place": "town"}}, {"type": "node", "id": 1967084809, "lat": 35.2840927, "lon": -3.0032909}, {"type": "node", "id": 1967088150, "lat": 35.2840664, "lon": -3.0030656}, {"type": "node", "id": 1967089871, "lat": 35.2841365, "lon": -3.0043852}, {"type": "node", "id": 1967090440, "lat": 35.2842504, "lon": -3.0037415}, {"type": "node", "id": 1967092320, "lat": 35.2837687, "lon": -3.0045676}, {"type": "node", "id": 1967092389, "lat": 35.2842499, "lon": -3.0034346}, {"type": "node", "id": 3132623868, "lat": 35.2732854, "lon": -3.0139986}, {"type": "node", "id": 3132623900, "lat": 35.2750963, "lon": -3.0129241}, {"type": "node", "id": 3132623905, "lat": 35.2733029, "lon": -3.0137304}, {"type": "node", "id": 3132624536, "lat": 35.2741, "lon": -3.0128936}, {"type": "node", "id": 3132624560, "lat": 35.2721804, "lon": -3.0139552}, {"type": "node", "id": 3132624593, "lat": 35.2750547, "lon": -3.0139772}, {"type": "node", "id": 3132624605, "lat": 35.2741088, "lon": -3.0137411}, {"type": "node", "id": 3132751683, "lat": 35.2797325, "lon": -3.0116207}, {"type": "node", "id": 3133057205, "lat": 35.270837, "lon": -3.0132474}, {"type": "node", "id": 3133057429, "lat": 35.2709693, "lon": -3.0131603}, {"type": "node", "id": 3133274899, "lat": 35.2698472, "lon": -3.0158975}, {"type": "node", "id": 3133274901, "lat": 35.271148, "lon": -3.0155917}, {"type": "node", "id": 3133274902, "lat": 35.2795935, "lon": -3.0074555}, {"type": "node", "id": 3133274903, "lat": 35.280327, "lon": -3.0153289}, {"type": "node", "id": 3133274904, "lat": 35.283226, "lon": -3.0053296}, {"type": "node", "id": 3133274905, "lat": 35.2793001, "lon": -3.0141503}, {"type": "node", "id": 3133274906, "lat": 35.27311, "lon": -3.0150607}, {"type": "node", "id": 3133274907, "lat": 35.2791884, "lon": -3.0107638}, {"type": "node", "id": 3133274908, "lat": 35.2780542, "lon": -3.008795}, {"type": "node", "id": 3133274909, "lat": 35.2776951, "lon": -3.0100717}, {"type": "node", "id": 3133274910, "lat": 35.2770776, "lon": -3.0063757}, {"type": "node", "id": 3133274911, "lat": 35.2693041, "lon": -3.014948}, {"type": "node", "id": 3133274912, "lat": 35.2791797, "lon": -3.010871}, {"type": "node", "id": 3133274913, "lat": 35.2795869, "lon": -3.0060484}, {"type": "node", "id": 3133274916, "lat": 35.276482, "lon": -3.0123248}, {"type": "node", "id": 3133274917, "lat": 35.283169, "lon": -3.0055549}, {"type": "node", "id": 3133274918, "lat": 35.2798409, "lon": -3.0046161}, {"type": "node", "id": 3133274919, "lat": 35.2809707, "lon": -3.0076041}, {"type": "node", "id": 3133274920, "lat": 35.2790461, "lon": -3.0100519}, {"type": "node", "id": 3133274921, "lat": 35.2778527, "lon": -3.0057266}, {"type": "node", "id": 3133274922, "lat": 35.2703158, "lon": -3.0159082}, {"type": "node", "id": 3133274923, "lat": 35.2792147, "lon": -3.0052223}, {"type": "node", "id": 3133274925, "lat": 35.2685023, "lon": -3.0135487}, {"type": "node", "id": 3133274927, "lat": 35.2707188, "lon": -3.0140736}, {"type": "node", "id": 3133274928, "lat": 35.2743492, "lon": -3.0150338}, {"type": "node", "id": 3133279329, "lat": 35.2711237, "lon": -3.0143649}, {"type": "node", "id": 3133279330, "lat": 35.2739857, "lon": -3.0147173}, {"type": "node", "id": 3133279331, "lat": 35.2769462, "lon": -3.0107638}, {"type": "node", "id": 3133279332, "lat": 35.2805153, "lon": -3.0079528}, {"type": "node", "id": 3133279333, "lat": 35.2729086, "lon": -3.014433}, {"type": "node", "id": 3133279334, "lat": 35.2833289, "lon": -3.0050952}, {"type": "node", "id": 3133279335, "lat": 35.2774017, "lon": -3.0081996}, {"type": "node", "id": 3133279337, "lat": 35.2703859, "lon": -3.0149265}, {"type": "node", "id": 3133279338, "lat": 35.2780761, "lon": -3.0084034}, {"type": "node", "id": 3133279339, "lat": 35.2752886, "lon": -3.0145526}, {"type": "node", "id": 3133279340, "lat": 35.2797052, "lon": -3.0154844}, {"type": "node", "id": 3133279341, "lat": 35.281216, "lon": -3.0046108}, {"type": "node", "id": 3133279342, "lat": 35.2767798, "lon": -3.0118635}, {"type": "node", "id": 3133279343, "lat": 35.2773842, "lon": -3.0071428}, {"type": "node", "id": 3133279344, "lat": 35.2693961, "lon": -3.0142184}, {"type": "node", "id": 3133279346, "lat": 35.2772725, "lon": -3.0109317}, {"type": "node", "id": 3133279347, "lat": 35.2713494, "lon": -3.0154308}, {"type": "node", "id": 3133279348, "lat": 35.2810715, "lon": -3.0043908}, {"type": "node", "id": 3133279349, "lat": 35.2829829, "lon": -3.0039043}, {"type": "node", "id": 3133279350, "lat": 35.279773, "lon": -3.014558}, {"type": "node", "id": 3133279351, "lat": 35.2710779, "lon": -3.0156132}, {"type": "node", "id": 3133279352, "lat": 35.2710142, "lon": -3.0153895}, {"type": "node", "id": 3133279353, "lat": 35.2756784, "lon": -3.0130292}, {"type": "node", "id": 3133279354, "lat": 35.2757156, "lon": -3.0149963}, {"type": "node", "id": 3133279355, "lat": 35.2708283, "lon": -3.0154308}, {"type": "node", "id": 3133279356, "lat": 35.277533, "lon": -3.0080279}, {"type": "node", "id": 3133279357, "lat": 35.2768586, "lon": -3.0111715}, {"type": "node", "id": 3133279358, "lat": 35.2805066, "lon": -3.0060914}, {"type": "node", "id": 3133279359, "lat": 35.2831953, "lon": -3.0056246}, {"type": "node", "id": 3133279360, "lat": 35.2716823, "lon": -3.0153074}, {"type": "node", "id": 3133279361, "lat": 35.2698122, "lon": -3.01461}, {"type": "node", "id": 3133279362, "lat": 35.2794161, "lon": -3.0091169}, {"type": "node", "id": 3133279363, "lat": 35.2754222, "lon": -3.0134942}, {"type": "node", "id": 3133279364, "lat": 35.2770075, "lon": -3.0112841}, {"type": "node", "id": 3133279365, "lat": 35.2752996, "lon": -3.0150499}, {"type": "node", "id": 3133279366, "lat": 35.2798322, "lon": -3.0113646}, {"type": "node", "id": 3133279367, "lat": 35.2771345, "lon": -3.0086073}, {"type": "node", "id": 3133279368, "lat": 35.2755711, "lon": -3.0131563}, {"type": "node", "id": 3133279369, "lat": 35.2826983, "lon": -3.0038989}, {"type": "node", "id": 3133279370, "lat": 35.2703684, "lon": -3.0163749}, {"type": "node", "id": 3133279371, "lat": 35.2809138, "lon": -3.0067726}, {"type": "node", "id": 3133279372, "lat": 35.2787899, "lon": -3.0096641}, {"type": "node", "id": 3133279373, "lat": 35.2779425, "lon": -3.0132813}, {"type": "node", "id": 3133279374, "lat": 35.2835281, "lon": -3.0039241}, {"type": "node", "id": 3133279375, "lat": 35.2796898, "lon": -3.0078525}, {"type": "node", "id": 3133279376, "lat": 35.272348, "lon": -3.0145242}, {"type": "node", "id": 3133279377, "lat": 35.2781024, "lon": -3.0053403}, {"type": "node", "id": 3133279378, "lat": 35.2762149, "lon": -3.015066}, {"type": "node", "id": 3133279379, "lat": 35.2719889, "lon": -3.015125}, {"type": "node", "id": 3133279380, "lat": 35.2772615, "lon": -3.0069872}, {"type": "node", "id": 3133279381, "lat": 35.2781155, "lon": -3.0090847}, {"type": "node", "id": 3133279382, "lat": 35.2774717, "lon": -3.0104794}, {"type": "node", "id": 3133279383, "lat": 35.2706355, "lon": -3.0157741}, {"type": "node", "id": 3133279384, "lat": 35.2800686, "lon": -3.0065259}, {"type": "node", "id": 3133279385, "lat": 35.2773382, "lon": -3.0084318}, {"type": "node", "id": 3133279386, "lat": 35.2789125, "lon": -3.0086126}, {"type": "node", "id": 3133279387, "lat": 35.2778943, "lon": -3.0081636}, {"type": "node", "id": 3133279389, "lat": 35.2706487, "lon": -3.0141916}, {"type": "node", "id": 3133279390, "lat": 35.2804628, "lon": -3.0064239}, {"type": "node", "id": 3133279391, "lat": 35.2801059, "lon": -3.0059159}, {"type": "node", "id": 3133279392, "lat": 35.279749, "lon": -3.0147066}, {"type": "node", "id": 3133279393, "lat": 35.2824115, "lon": -3.0064561}, {"type": "node", "id": 3133279394, "lat": 35.2781987, "lon": -3.008618}, {"type": "node", "id": 3133279395, "lat": 35.2780717, "lon": -3.0150338}, {"type": "node", "id": 3133279396, "lat": 35.2797008, "lon": -3.0111124}, {"type": "node", "id": 3133279397, "lat": 35.280373, "lon": -3.0066616}, {"type": "node", "id": 3133279398, "lat": 35.2758032, "lon": -3.0132421}, {"type": "node", "id": 3133279399, "lat": 35.2834712, "lon": -3.0037471}, {"type": "node", "id": 3133279400, "lat": 35.2722254, "lon": -3.0147871}, {"type": "node", "id": 3133279401, "lat": 35.2826742, "lon": -3.006027}, {"type": "node", "id": 3133279402, "lat": 35.2789213, "lon": -3.0138429}, {"type": "node", "id": 3133279403, "lat": 35.2783783, "lon": -3.0051901}, {"type": "node", "id": 3133279404, "lat": 35.2795394, "lon": -3.0121431}, {"type": "node", "id": 3133279405, "lat": 35.2788425, "lon": -3.0052706}, {"type": "node", "id": 3133279406, "lat": 35.2708721, "lon": -3.016037}, {"type": "node", "id": 3133279407, "lat": 35.2793154, "lon": -3.008854}, {"type": "node", "id": 3133279408, "lat": 35.2794643, "lon": -3.0052491}, {"type": "node", "id": 3133279409, "lat": 35.2801431, "lon": -3.0164393}, {"type": "node", "id": 3133279410, "lat": 35.2795891, "lon": -3.0087001}, {"type": "node", "id": 3133279411, "lat": 35.2805591, "lon": -3.0062416}, {"type": "node", "id": 3133279412, "lat": 35.280235, "lon": -3.0043104}, {"type": "node", "id": 3133279413, "lat": 35.2792322, "lon": -3.0083176}, {"type": "node", "id": 3133279414, "lat": 35.2789081, "lon": -3.0122658}, {"type": "node", "id": 3133279415, "lat": 35.2830902, "lon": -3.0048414}, {"type": "node", "id": 3133279416, "lat": 35.2707363, "lon": -3.0141219}, {"type": "node", "id": 3133279417, "lat": 35.2794774, "lon": -3.0159512}, {"type": "node", "id": 3133279418, "lat": 35.2781943, "lon": -3.009251}, {"type": "node", "id": 3133279420, "lat": 35.2807671, "lon": -3.0075574}, {"type": "node", "id": 3133279421, "lat": 35.2791818, "lon": -3.0106098}, {"type": "node", "id": 3133279422, "lat": 35.277244, "lon": -3.0077275}, {"type": "node", "id": 3133279423, "lat": 35.2773644, "lon": -3.0099714}, {"type": "node", "id": 3133279424, "lat": 35.2761886, "lon": -3.0161496}, {"type": "node", "id": 3133279425, "lat": 35.2706662, "lon": -3.0143633}, {"type": "node", "id": 3133279426, "lat": 35.279438, "lon": -3.0082103}, {"type": "node", "id": 3133279427, "lat": 35.2771871, "lon": -3.0153342}, {"type": "node", "id": 3133279428, "lat": 35.2748967, "lon": -3.0148836}, {"type": "node", "id": 3133279729, "lat": 35.279311, "lon": -3.0109354}, {"type": "node", "id": 3133279730, "lat": 35.27639, "lon": -3.0130115}, {"type": "node", "id": 3133279731, "lat": 35.2771433, "lon": -3.006483}, {"type": "node", "id": 3133279732, "lat": 35.278652, "lon": -3.0130667}, {"type": "node", "id": 3133279733, "lat": 35.2839354, "lon": -3.0029585}, {"type": "node", "id": 3133279734, "lat": 35.279946, "lon": -3.0147442}, {"type": "node", "id": 3133279735, "lat": 35.2789782, "lon": -3.0137035}, {"type": "node", "id": 3133279736, "lat": 35.2791972, "lon": -3.0119493}, {"type": "node", "id": 3133279737, "lat": 35.2768805, "lon": -3.0159887}, {"type": "node", "id": 3133279738, "lat": 35.269291, "lon": -3.0139502}, {"type": "node", "id": 3133279739, "lat": 35.2751813, "lon": -3.0145296}, {"type": "node", "id": 3133279740, "lat": 35.2729786, "lon": -3.0148085}, {"type": "node", "id": 3133279742, "lat": 35.276898, "lon": -3.0067297}, {"type": "node", "id": 3133279743, "lat": 35.2771827, "lon": -3.0062147}, {"type": "node", "id": 3133279744, "lat": 35.2800205, "lon": -3.0063006}, {"type": "node", "id": 3133279745, "lat": 35.2775593, "lon": -3.0138966}, {"type": "node", "id": 3133279746, "lat": 35.2781768, "lon": -3.0089077}, {"type": "node", "id": 3133279747, "lat": 35.2769944, "lon": -3.0112144}, {"type": "node", "id": 3133279748, "lat": 35.2832829, "lon": -3.0040582}, {"type": "node", "id": 3133279750, "lat": 35.2794161, "lon": -3.0049916}, {"type": "node", "id": 3133279751, "lat": 35.2788446, "lon": -3.0088825}, {"type": "node", "id": 3133279752, "lat": 35.2695538, "lon": -3.0163964}, {"type": "node", "id": 3133279753, "lat": 35.2777827, "lon": -3.0155113}, {"type": "node", "id": 3133279754, "lat": 35.2801781, "lon": -3.0041977}, {"type": "node", "id": 3133279755, "lat": 35.2711961, "lon": -3.0159512}, {"type": "node", "id": 3133279756, "lat": 35.2775418, "lon": -3.0061289}, {"type": "node", "id": 3133279757, "lat": 35.2691683, "lon": -3.0145993}, {"type": "node", "id": 3133279758, "lat": 35.2781374, "lon": -3.0146422}, {"type": "node", "id": 3133279759, "lat": 35.2832829, "lon": -3.0054262}, {"type": "node", "id": 3133279760, "lat": 35.2796657, "lon": -3.0115201}, {"type": "node", "id": 3133279761, "lat": 35.2798847, "lon": -3.0151358}, {"type": "node", "id": 3133279762, "lat": 35.2771739, "lon": -3.007132}, {"type": "node", "id": 3133279763, "lat": 35.2794643, "lon": -3.016096}, {"type": "node", "id": 3133279764, "lat": 35.281921, "lon": -3.0070462}, {"type": "node", "id": 3133279765, "lat": 35.2804255, "lon": -3.0040438}, {"type": "node", "id": 3133279766, "lat": 35.280835, "lon": -3.0072393}, {"type": "node", "id": 3133279767, "lat": 35.2746908, "lon": -3.0149748}, {"type": "node", "id": 3133279768, "lat": 35.2794993, "lon": -3.0159941}, {"type": "node", "id": 3133279769, "lat": 35.2768105, "lon": -3.0114021}, {"type": "node", "id": 3133279770, "lat": 35.2789738, "lon": -3.0088379}, {"type": "node", "id": 3133279772, "lat": 35.2791797, "lon": -3.0050453}, {"type": "node", "id": 3133279773, "lat": 35.2817546, "lon": -3.0045142}, {"type": "node", "id": 3133279774, "lat": 35.2712093, "lon": -3.0134245}, {"type": "node", "id": 3133279775, "lat": 35.2773141, "lon": -3.0103507}, {"type": "node", "id": 3133279776, "lat": 35.2711436, "lon": -3.0147763}, {"type": "node", "id": 3133279777, "lat": 35.2795388, "lon": -3.0158546}, {"type": "node", "id": 3133279778, "lat": 35.2696545, "lon": -3.0139502}, {"type": "node", "id": 3133279779, "lat": 35.2721947, "lon": -3.0140951}, {"type": "node", "id": 3133279780, "lat": 35.2712019, "lon": -3.0131292}, {"type": "node", "id": 3133279782, "lat": 35.2800161, "lon": -3.0081727}, {"type": "node", "id": 3133279783, "lat": 35.2706925, "lon": -3.014948}, {"type": "node", "id": 3133279784, "lat": 35.2767404, "lon": -3.0117669}, {"type": "node", "id": 3133279785, "lat": 35.2764054, "lon": -3.0161459}, {"type": "node", "id": 3133279786, "lat": 35.2765389, "lon": -3.0128452}, {"type": "node", "id": 3133279787, "lat": 35.280743, "lon": -3.0046698}, {"type": "node", "id": 3133279788, "lat": 35.2696151, "lon": -3.0148246}, {"type": "node", "id": 3133279789, "lat": 35.2790351, "lon": -3.0123194}, {"type": "node", "id": 3133279790, "lat": 35.2788862, "lon": -3.0053779}, {"type": "node", "id": 3133279791, "lat": 35.2708195, "lon": -3.0133548}, {"type": "node", "id": 3133279792, "lat": 35.2797271, "lon": -3.0063488}, {"type": "node", "id": 3133279793, "lat": 35.2794512, "lon": -3.015699}, {"type": "node", "id": 3133279794, "lat": 35.2733509, "lon": -3.0148783}, {"type": "node", "id": 3133279795, "lat": 35.2828888, "lon": -3.0041333}, {"type": "node", "id": 3133279796, "lat": 35.2773623, "lon": -3.0101629}, {"type": "node", "id": 3133279797, "lat": 35.2797183, "lon": -3.0059948}, {"type": "node", "id": 3133279798, "lat": 35.2790001, "lon": -3.0094763}, {"type": "node", "id": 3133279799, "lat": 35.2766572, "lon": -3.0126306}, {"type": "node", "id": 3133279800, "lat": 35.2800489, "lon": -3.0060822}, {"type": "node", "id": 3133279801, "lat": 35.2692165, "lon": -3.0145671}, {"type": "node", "id": 3133279802, "lat": 35.2762017, "lon": -3.01299}, {"type": "node", "id": 3133279803, "lat": 35.2763025, "lon": -3.0131026}, {"type": "node", "id": 3133279804, "lat": 35.2799548, "lon": -3.0086716}, {"type": "node", "id": 3133279806, "lat": 35.2836463, "lon": -3.003393}, {"type": "node", "id": 3133279807, "lat": 35.2793636, "lon": -3.0161872}, {"type": "node", "id": 3133279808, "lat": 35.27759, "lon": -3.0137142}, {"type": "node", "id": 3133279809, "lat": 35.2802307, "lon": -3.0070623}, {"type": "node", "id": 3133279810, "lat": 35.2797511, "lon": -3.0074019}, {"type": "node", "id": 3133279811, "lat": 35.2700988, "lon": -3.0150623}, {"type": "node", "id": 3133279812, "lat": 35.2811021, "lon": -3.0077758}, {"type": "node", "id": 3133279813, "lat": 35.2816429, "lon": -3.0043066}, {"type": "node", "id": 3133279814, "lat": 35.2771083, "lon": -3.006027}, {"type": "node", "id": 3133279815, "lat": 35.2742923, "lon": -3.014653}, {"type": "node", "id": 3133279816, "lat": 35.2803774, "lon": -3.0078149}, {"type": "node", "id": 3133279817, "lat": 35.270966, "lon": -3.0139572}, {"type": "node", "id": 3133279818, "lat": 35.2775112, "lon": -3.0085536}, {"type": "node", "id": 3133279819, "lat": 35.2796789, "lon": -3.0052706}, {"type": "node", "id": 3133279820, "lat": 35.2771958, "lon": -3.0080064}, {"type": "node", "id": 3133279821, "lat": 35.2777367, "lon": -3.0083031}, {"type": "node", "id": 3133279822, "lat": 35.2773272, "lon": -3.0108389}, {"type": "node", "id": 3133279823, "lat": 35.2798913, "lon": -3.0087698}, {"type": "node", "id": 3133279824, "lat": 35.2800029, "lon": -3.0049541}, {"type": "node", "id": 3133279825, "lat": 35.2810496, "lon": -3.0074807}, {"type": "node", "id": 3133279826, "lat": 35.2770469, "lon": -3.0085161}, {"type": "node", "id": 3133279827, "lat": 35.2766791, "lon": -3.012078}, {"type": "node", "id": 3133279828, "lat": 35.2794424, "lon": -3.0144545}, {"type": "node", "id": 3133280029, "lat": 35.2815794, "lon": -3.0076417}, {"type": "node", "id": 3133280030, "lat": 35.2795431, "lon": -3.0112251}, {"type": "node", "id": 3133280031, "lat": 35.2773798, "lon": -3.0058231}, {"type": "node", "id": 3133280032, "lat": 35.2695187, "lon": -3.0159351}, {"type": "node", "id": 3133280033, "lat": 35.2799154, "lon": -3.0053457}, {"type": "node", "id": 3665687738, "lat": 35.2685637, "lon": -3.014053}, {"type": "way", "id": 308048366, "nodes": [3133279424, 3133279785, 3133279737, 3133279427, 3133279753, 3133279395, 3133279758, 3133279745, 3133279808, 3133279373, 3133279340, 3133279793, 3133279777, 3133279417, 3133279768, 3133279763, 3133279807, 3133279409, 3133274903, 3133279761, 3133279734, 3133279392, 3133279350, 3133279828, 3133274905, 3133279402, 3133279735, 3133279732, 3133279414, 3133279789, 3133279736, 3133279404, 3132751683, 3133279760, 3133279366, 3133279396, 3133280030, 3133279729, 3133274912, 3133274907, 3133279421, 3133274920, 3133279372, 3133279798, 3133279751, 3133279770, 3133279386, 3133279413, 3133279426, 3133279410, 3133279407, 3133279362, 3133279823, 3133279804, 3133279375, 3133274902, 3133279810, 3133279782, 3133279816, 3133279332, 3133279420, 3133279809, 3133279397, 3133279384, 3133279744, 3133279792, 3133274913, 3133279797, 3133279800, 3133279391, 3133279358, 3133279411, 3133279390, 3133279371, 3133279766, 3133279825, 3133274919, 3133279812, 3133280029, 3133279764, 3133279393, 3133279401, 3133279359, 3133274917, 3133279759, 3133274904, 3133279334, 3133279415, 3133279374, 1967092320, 1967089871, 1967090440, 1967092389, 1967084809, 1967088150, 3133279733, 3133279806, 3133279399, 3133279748, 3133279349, 3133279795, 3133279369, 3133279773, 3133279813, 3133279341, 3133279348, 3133279787, 3133279765, 3133279754, 3133279412, 3133274918, 3133279824, 3133280033, 3133279819, 3133279408, 3133279750, 3133279772, 3133274923, 3133279790, 3133279405, 3133279403, 3133279377, 3133274921, 3133279756, 3133280031, 3133279814, 3133279743, 3133274910, 3133279731, 3133279742, 3133279762, 3133279380, 3133279343, 3133279422, 3133279356, 3133279335, 3133279820, 3133279826, 3133279367, 3133279385, 3133279818, 3133279821, 3133279387, 3133279338, 3133279394, 3133274908, 3133279746, 3133279381, 3133279418, 3133274909, 3133279423, 3133279796, 3133279775, 3133279382, 3133279822, 3133279346, 3133279331, 3133279357, 3133279747, 3133279364, 3133279769, 3133279784, 3133279342, 3133279827, 3133274916, 3133279799, 3133279786, 3133279730, 3133279803, 3133279802, 3133279398, 3133279353, 3133279368, 3133279363, 3132624593, 3132623900, 3132624536, 3132624605, 3132623905, 3132623868, 3132624560, 3133279779, 3133279329, 3133279774, 3133279780, 3133057429, 3133057205, 3133279791, 3133279817, 3133274927, 3133279416, 3133279389, 3133279425, 3133279361, 3133279778, 3133279344, 3133279738, 3133274925, 3665687738, 3133279801, 3133279757, 3133274911, 3133279788, 3133274899, 3133280032, 3133279752, 3133279370, 3133274922, 3133279811, 3133279337, 3133279383, 3133279406, 3133279755, 3133274901, 3133279351, 3133279352, 3133279355, 3133279783, 3133279776, 3133279347, 3133279360, 3133279379, 3133279400, 3133279376, 3133279333, 3133279740, 3133274906, 3133279794, 3133279330, 3133279815, 3133274928, 3133279767, 3133279428, 3133279739, 3133279339, 3133279365, 3133279354, 3133279378, 3133279424], "tags": {"landuse": "residential", "place": "town"}}]}