{"version": 0.6, "generator": "Overpass API 0.7.62.4 2390de5a", "osm3s": {"timestamp_osm_base": "2025-01-08T06:28:44Z", "copyright": "The data included in this document is from www.openstreetmap.org. The data is made available under ODbL."}, "elements": [{"type": "node", "id": 572549095, "lat": 34.7333334, "lon": 36.7166667, "tags": {"name": "\u062d\u0645\u0635", "name:ar": "\u062d\u0645\u0635", "name:arc": "\u071a\u0721\u0728", "name:az": "H\u00fcms", "name:azb": "\u062d\u0645\u0635", "name:ckb": "\u062d\u0648\u0645\u0633", "name:cnr": "Homs", "name:cs": "Homs", "name:da": "Homs", "name:de": "Homs", "name:el": "\u03a7\u03bf\u03bc\u03c2", "name:en": "Homs", "name:es": "Homs", "name:et": "Homs", "name:eu": "Homs", "name:fa": "\u062d\u0645\u0635", "name:fr": "Homs", "name:grc": "\u1f1c\u03bc\u03b5\u03c3\u03b1", "name:he": "\u05d7\u05d5\u05de\u05e1", "name:hi": "\u0939\u094c\u092e\u094d\u0938", "name:hr": "Homs", "name:hu": "Homsz", "name:hy": "\u0540\u0578\u0574\u057d", "name:ja": "\u30db\u30e0\u30b9", "name:ko": "\ud638\ubbc0\uc2a4", "name:ku": "Hims", "name:lt": "Homsas", "name:ml": "\u0d39\u0d4a\u0d02\u0d38\u0d4d", "name:pa": "\u0a39\u0a4b\u0a2e\u0a38", "name:ru": "\u0425\u043e\u043c\u0441", "name:sk": "Homs", "name:sr": "\u0425\u043e\u043c\u0441", "name:sv": "Homs", "name:syc": "\u071a\u0721\u0728", "name:te": "\u0c39\u0c2e\u0c4d\u0c38\u0c4d", "name:tr": "Humus", "name:uk": "\u0425\u043e\u043c\u0441", "name:ur": "\u062d\u0645\u0635", "name:zh": "\u970d\u59c6\u65af", "old_name": "Emesa", "old_name:el": "\u0388\u03bc\u03b5\u03c3\u03b1", "old_name:fr": "\u00c9m\u00e8se", "old_name:la": "Emesa", "place": "city", "population": "652609", "population:date": "2004", "source:population": "\u0627\u0644\u0645\u0643\u062a\u0628 \u0627\u0644\u0645\u0631\u0643\u0632\u064a \u0644\u0644\u0625\u062d\u0635\u0627\u0621", "wikipedia": "ar:\u062d\u0645\u0635"}}, {"type": "node", "id": 572550381, "lat": 34.8214266, "lon": 36.6974294, "tags": {"name": "\u0627\u0644\u063a\u0646\u0637\u0648", "name:ar": "\u0627\u0644\u063a\u0646\u0637\u0648", "name:de": "al-Ganto", "name:en": "Al-Ghanto", "name:fr": "Al-Ghanto", "name:he": "\u05d0\u05dc-\u05e2\u05f3\u05e0\u05d8\u05d5", "name:ja": "\u30a2\u30eb\u30a0\u30ac\u30f3\u30c8\u30fc", "name:ko": "\uc54c\uac04\ud1a0", "name:ml": "\u0d05\u0d7d-\u0d17\u0d28\u0d4d\u0d24\u0d4b", "name:ru": "\u0410\u043b\u044c-\u0413\u0430\u043d\u0442\u043e", "place": "town", "population": "9412", "population:date": "2004", "source:population": "\u0627\u0644\u0645\u0643\u062a\u0628 \u0627\u0644\u0645\u0631\u0643\u0632\u064a \u0644\u0644\u0625\u062d\u0635\u0627\u0621"}}, {"type": "node", "id": 572550680, "lat": 34.8021883, "lon": 36.7078793, "tags": {"name": "\u062a\u064a\u0631 \u0645\u0639\u0644\u0629", "name:ar": "\u062a\u064a\u0631 \u0645\u0639\u0644\u0629", "name:de": "Tir Malla", "name:en": "Tir Ma'lla", "name:fr": "Tir Malla", "name:he": "\u05ea\u05d9\u05e8 \u05de\u05e2\u05dc\u05d4", "name:ja": "\u30c6\u30a3\u30fc\u30eb\u30fb\u30de\u30fc\u30e9", "name:ko": "\ud2f0\ub974\ub9c8\uc54c\ub77c", "name:ml": "\u0d24\u0d40\u0d7c \u0d2e\u0d3e\u0d32", "name:ru": "\u0422\u0438\u0440-\u041c\u0430\u043b\u043b\u0430", "place": "town", "population": "7728", "population:date": "2004", "source:population": "\u0627\u0644\u0645\u0643\u062a\u0628 \u0627\u0644\u0645\u0631\u0643\u0632\u064a \u0644\u0644\u0625\u062d\u0635\u0627\u0621"}}, {"type": "node", "id": 572550743, "lat": 34.7901702, "lon": 36.6810306, "tags": {"name": "\u0627\u0644\u062f\u0627\u0631 \u0627\u0644\u0643\u0628\u064a\u0631\u0629", "name:ar": "\u0627\u0644\u062f\u0627\u0631 \u0627\u0644\u0643\u0628\u064a\u0631\u0629", "name:de": "ad-Dar al-Kabira", "name:en": "Ad-Dar al-Kabira", "name:fr": "Ad-Dar al-Kabira", "name:he": "\u05d0-\u05d3\u05d0\u05e8 \u05d0\u05dc-\u05db\u05d1\u05d9\u05e8\u05d4", "name:ja": "\u30a2\u30c3\u30a0\u30c0\u30fc\u30eb\u30fb\u30a2\u30eb\u30a0\u30ab\u30d3\u30fc\u30e9", "name:ko": "\uc544\ub2e4\ub974\uc54c\uce74\ube44\ub77c", "name:ml": "\u0d05\u0d26\u0d4d\u0d26\u0d3e\u0d7c \u0d05\u0d7d-\u0d15\u0d2c\u0d40\u0d31", "name:ru": "\u0410\u0434-\u0414\u0430\u0440-\u0430\u043b\u044c-\u041a\u0430\u0431\u0438\u0440\u0430", "place": "town", "population": "7280", "population:date": "2004", "source:population": "\u0627\u0644\u0645\u0643\u062a\u0628 \u0627\u0644\u0645\u0631\u0643\u0632\u064a \u0644\u0644\u0625\u062d\u0635\u0627\u0621"}}, {"type": "node", "id": 572550801, "lat": 34.6474589, "lon": 36.6287134, "tags": {"name": "\u0642\u0637\u064a\u0646\u0629", "name:ar": "\u0642\u0637\u064a\u0646\u0629", "name:de": "Kuteina", "name:en": "Quteina", "name:fr": "Quteina", "name:he": "\u05e7\u05d8\u05d9\u05e0\u05d4", "name:ja": "\u30af\u30c6\u30a4\u30ca", "name:ko": "\ucfe0\ud14c\uc774\ub098", "name:ru": "\u041a\u0443\u0442\u0435\u0439\u043d\u0430", "place": "town", "population": "6018", "population:date": "2004", "source:population": "\u0627\u0644\u0645\u0643\u062a\u0628 \u0627\u0644\u0645\u0631\u0643\u0632\u064a \u0644\u0644\u0625\u062d\u0635\u0627\u0621"}}, {"type": "node", "id": 573532521, "lat": 34.4520897, "lon": 36.5575234, "tags": {"name": "\u0631\u0628\u0644\u0629", "name:ar": "\u0631\u0628\u0644\u0629", "name:de": "Rabla", "name:en": "Rabla", "name:fr": "Rabla", "name:ml": "\u0d31\u0d2c\u0d4d\u0d32", "name:ru": "\u0420\u0430\u0431\u043b\u0430", "place": "town", "population": "5328", "population:date": "2004", "source:population": "\u0627\u0644\u0645\u0643\u062a\u0628 \u0627\u0644\u0645\u0631\u0643\u0632\u064a \u0644\u0644\u0625\u062d\u0635\u0627\u0621"}}, {"type": "node", "id": 573532906, "lat": 34.4104265, "lon": 36.7594586, "tags": {"name": "\u062d\u0633\u064a\u0627\u0621", "name:ar": "\u062d\u0633\u064a\u0627\u0621", "name:de": "Hasja", "name:en": "Hasya", "name:fr": "Hasia", "name:he": "\u05d7\u05e1\u05d9\u05d0", "name:ja": "\u30cf\u30b9\u30e4\u30fc", "name:ko": "\ud558\uc2a4\uc57c", "name:ml": "\u0d39\u0d38\u0d4d\u0d2f", "name:ru": "\u0425\u0430\u0441\u044f", "place": "town", "population": "5425", "population:date": "2004", "source:population": "\u0627\u0644\u0645\u0643\u062a\u0628 \u0627\u0644\u0645\u0631\u0643\u0632\u064a \u0644\u0644\u0625\u062d\u0635\u0627\u0621"}}, {"type": "node", "id": 573532935, "lat": 34.5107184, "lon": 36.576892, "tags": {"name": "\u0627\u0644\u0642\u0635\u064a\u0631", "name:ar": "\u0627\u0644\u0642\u0635\u064a\u0631", "name:de": "al-Kuseir", "name:en": "Al-Qusair", "name:fr": "Al-Qusa\u00efr", "name:he": "\u05e7\u05d5\u05e1\u05d9\u05d9\u05e8", "name:ja": "\u30a2\u30eb\u30a0\u30af\u30b5\u30a4\u30fc\u30eb", "name:ko": "\uc54c\ucfe0\uc0ac\uc774\ub974", "name:ml": "\u0d05\u0d7d-\u0d16\u0d41\u0d38\u0d48\u0d7c", "name:nl": "Al-Qusayr", "name:pl": "Al-Kusajr", "name:ru": "\u0410\u043b\u044c-\u041a\u0443\u0441\u0430\u0439\u0440", "name:uk": "\u0410\u043b\u044c-\u041a\u0443\u0441\u0435\u0439\u0440", "place": "town", "population": "29818", "population:date": "2004", "source:population": "\u0627\u0644\u0645\u0643\u062a\u0628 \u0627\u0644\u0645\u0631\u0643\u0632\u064a \u0644\u0644\u0625\u062d\u0635\u0627\u0621", "wikidata": "Q195410", "wikipedia": "ar:\u0627\u0644\u0642\u0635\u064a\u0631 (\u0633\u0648\u0631\u064a\u0627)"}}, {"type": "node", "id": 2931017228, "lat": 34.7029893, "lon": 36.7572754, "tags": {"name": "\u0641\u064a\u0631\u0648\u0632\u0629", "name:ar": "\u0641\u064a\u0631\u0648\u0632\u0629", "name:de": "Fairusa", "name:en": "Fairuza", "name:fr": "Fa\u00efrouza", "name:he": "\u05e4\u05d9\u05e8\u05d5\u05d6\u05d4", "name:ja": "\u30d5\u30a1\u30a4\u30eb\u30fc\u30b6", "name:ko": "\ud30c\uc774\ub8e8\uc790", "name:ml": "\u0d2b\u0d48\u0d31\u0d42\u0d38", "name:ru": "\u0424\u0430\u0439\u0440\u0443\u0437\u0430", "place": "town", "population": "6456", "population:date": "2004", "source:population": "\u0627\u0644\u0645\u0643\u062a\u0628 \u0627\u0644\u0645\u0631\u0643\u0632\u064a \u0644\u0644\u0625\u062d\u0635\u0627\u0621", "wikidata": "Q3210520", "wikipedia": "ar:\u0641\u064a\u0631\u0648\u0632\u0629 (\u062d\u0645\u0635)"}}, {"type": "node", "id": 3528661616, "lat": 34.7033251, "lon": 36.6625632}, {"type": "node", "id": 3528661617, "lat": 34.7712981, "lon": 36.7451409}, {"type": "node", "id": 3528661618, "lat": 34.7148623, "lon": 36.7605246}, {"type": "node", "id": 3528661619, "lat": 34.7447148, "lon": 36.654348}, {"type": "node", "id": 3528661620, "lat": 34.6978044, "lon": 36.6635788}, {"type": "node", "id": 3739065435, "lat": 34.7562892, "lon": 36.6552278}, {"type": "node", "id": 3739065436, "lat": 34.7384641, "lon": 36.6500136}, {"type": "node", "id": 3739065437, "lat": 34.7421405, "lon": 36.6550669}, {"type": "node", "id": 3739065438, "lat": 34.7639136, "lon": 36.6666433}, {"type": "node", "id": 3739065439, "lat": 34.7624593, "lon": 36.6619655}, {"type": "node", "id": 3739065440, "lat": 34.7737316, "lon": 36.6894743}, {"type": "node", "id": 3739065441, "lat": 34.7758643, "lon": 36.691502}, {"type": "node", "id": 3739065442, "lat": 34.7744278, "lon": 36.7004499}, {"type": "node", "id": 3739065443, "lat": 34.7711141, "lon": 36.702027}, {"type": "node", "id": 3739065444, "lat": 34.7714138, "lon": 36.7104277}, {"type": "node", "id": 3739065445, "lat": 34.7764723, "lon": 36.7083356}, {"type": "node", "id": 3739065446, "lat": 34.7798576, "lon": 36.7093801}, {"type": "node", "id": 3739065447, "lat": 34.7836133, "lon": 36.7130467}, {"type": "node", "id": 3739065448, "lat": 34.7863921, "lon": 36.7163594}, {"type": "node", "id": 3739065449, "lat": 34.79169, "lon": 36.7169143}, {"type": "node", "id": 3739065450, "lat": 34.7917912, "lon": 36.7246046}, {"type": "node", "id": 3739065451, "lat": 34.7932486, "lon": 36.7340573}, {"type": "node", "id": 3739065452, "lat": 34.7812141, "lon": 36.7347967}, {"type": "node", "id": 3739065453, "lat": 34.7802525, "lon": 36.7417353}, {"type": "node", "id": 3739065454, "lat": 34.7650168, "lon": 36.7457037}, {"type": "node", "id": 3739065455, "lat": 34.7688943, "lon": 36.7588536}, {"type": "node", "id": 3739065456, "lat": 34.7706356, "lon": 36.765521}, {"type": "node", "id": 3739065457, "lat": 34.7684286, "lon": 36.7709806}, {"type": "node", "id": 3739065458, "lat": 34.7663836, "lon": 36.7730017}, {"type": "node", "id": 3739065460, "lat": 34.7576766, "lon": 36.7757381}, {"type": "node", "id": 3739065461, "lat": 34.7552437, "lon": 36.7646874}, {"type": "node", "id": 3739065462, "lat": 34.750466, "lon": 36.7612327}, {"type": "node", "id": 3739065463, "lat": 34.742814, "lon": 36.7597736}, {"type": "node", "id": 3739065464, "lat": 34.7335742, "lon": 36.7609537}, {"type": "node", "id": 3739065465, "lat": 34.7242805, "lon": 36.7596019}, {"type": "node", "id": 3739065466, "lat": 34.7303471, "lon": 36.7611254}, {"type": "node", "id": 3739065467, "lat": 34.727596, "lon": 36.7610396}, {"type": "node", "id": 3739065468, "lat": 34.7292008, "lon": 36.7647732}, {"type": "node", "id": 3739065469, "lat": 34.7268024, "lon": 36.7662538}, {"type": "node", "id": 3739065470, "lat": 34.7282662, "lon": 36.7667473}, {"type": "node", "id": 3739065471, "lat": 34.722464, "lon": 36.7584217}, {"type": "node", "id": 3739065472, "lat": 34.7123047, "lon": 36.7694081}, {"type": "node", "id": 3739065473, "lat": 34.6956521, "lon": 36.7676056}, {"type": "node", "id": 3739065474, "lat": 34.6890889, "lon": 36.7665757}, {"type": "node", "id": 3739065475, "lat": 34.6880656, "lon": 36.7600525}, {"type": "node", "id": 3739065486, "lat": 34.6670138, "lon": 36.7691077}, {"type": "node", "id": 3739065487, "lat": 34.6812195, "lon": 36.7588509}, {"type": "node", "id": 3739065488, "lat": 34.6588599, "lon": 36.7298401}, {"type": "node", "id": 3739065489, "lat": 34.6583304, "lon": 36.7564691}, {"type": "node", "id": 3739065490, "lat": 34.6595306, "lon": 36.7706312}, {"type": "node", "id": 3739065491, "lat": 34.663103, "lon": 36.7026542}, {"type": "node", "id": 3739065492, "lat": 34.6641631, "lon": 36.7266207}, {"type": "node", "id": 3739065493, "lat": 34.6763461, "lon": 36.7011972}, {"type": "node", "id": 3739065494, "lat": 34.6772832, "lon": 36.6919133}, {"type": "node", "id": 3739065495, "lat": 34.6816254, "lon": 36.6735352}, {"type": "node", "id": 3739065496, "lat": 34.6805137, "lon": 36.6675914}, {"type": "node", "id": 3739065497, "lat": 34.6863541, "lon": 36.6589011}, {"type": "node", "id": 3739065498, "lat": 34.6835134, "lon": 36.6549958}, {"type": "node", "id": 3739065499, "lat": 34.6744258, "lon": 36.6681064}, {"type": "node", "id": 3739065500, "lat": 34.674567, "lon": 36.6570772}, {"type": "node", "id": 3739065501, "lat": 34.6746729, "lon": 36.6504253}, {"type": "node", "id": 3739065502, "lat": 34.6824017, "lon": 36.6478504}, {"type": "node", "id": 3739065503, "lat": 34.6945759, "lon": 36.6672266}, {"type": "node", "id": 11649642060, "lat": 34.7241559, "lon": 36.7732334, "tags": {"name": "\u0632\u064a\u062f\u0644", "name:ar": "\u0632\u064a\u062f\u0644", "name:de": "Seidal", "name:en": "Zaidal", "name:fr": "Za\u00efdal", "name:he": "\u05d6\u05d9\u05d3\u05dc", "name:ja": "\u30b6\u30a4\u30c0\u30eb", "name:ko": "\uc790\uc774\ub2ec", "name:ml": "\u0d38\u0d48\u0d26\u0d7d", "name:ru": "\u0417\u0430\u0439\u0434\u0430\u043b\u044c", "place": "town", "population": "5710", "population:date": "2004", "source:population": "\u0627\u0644\u0645\u0643\u062a\u0628 \u0627\u0644\u0645\u0631\u0643\u0632\u064a \u0644\u0644\u0625\u062d\u0635\u0627\u0621"}}, {"type": "node", "id": 12374362246, "lat": 34.6845831, "lon": 36.690729, "tags": {"name": "\u0643\u0641\u0631 \u0639\u0627\u064a\u0627", "name:ar": "\u0643\u0641\u0631 \u0639\u0627\u064a\u0627", "name:de": "Kafr Aaja", "name:en": "Kafr Aaya", "name:fr": "Kafr Aaaia", "name:he": "\u05db\u05e4\u05e8 \u05e2\u05d0\u05d9\u05d0", "name:ja": "\u30ab\u30d5\u30eb\u30fb\u30a2\u30fc\u30e4", "name:ko": "\uce74\ud504\ub974\uc544\uc57c", "name:ml": "\u0d15\u0d2b\u0d7c \u0d06\u0d2f", "name:ru": "\u041a\u0430\u0444\u0440-\u0410\u0430\u044f", "place": "town", "population": "6918", "population:date": "2004", "source:population": "\u0627\u0644\u0645\u0643\u062a\u0628 \u0627\u0644\u0645\u0631\u0643\u0632\u064a \u0644\u0644\u0625\u062d\u0635\u0627\u0621"}}, {"type": "way", "id": 346328397, "nodes": [3528661619, 3739065435, 3739065439, 3739065438, 3739065440, 3739065441, 3739065442, 3739065443, 3739065444, 3739065445, 3739065446, 3739065447, 3739065448, 3739065449, 3739065450, 3739065451, 3739065452, 3739065453, 3528661617, 3739065454, 3739065455, 3739065456, 3739065457, 3739065458, 3739065460, 3739065461, 3739065462, 3739065463, 3739065464, 3739065466, 3739065468, 3739065470, 3739065469, 3739065467, 3739065465, 3739065471, 3528661618, 3739065472, 3739065473, 3739065474, 3739065475, 3739065487, 3739065486, 3739065490, 3739065489, 3739065488, 3739065492, 3739065491, 3739065493, 3739065494, 3739065495, 3739065496, 3739065499, 3739065500, 3739065501, 3739065502, 3739065498, 3739065497, 3739065503, 3528661620, 3528661616, 3739065436, 3739065437, 3528661619]}, {"type": "relation", "id": 18373200, "members": [{"type": "way", "ref": 346328397, "role": "outer"}, {"type": "node", "ref": 572549095, "role": "admin_centre"}], "tags": {"name": "\u062d\u0645\u0635", "name:ar": "\u062d\u0645\u0635", "name:arc": "\u071a\u0721\u0728", "name:azb": "\u062d\u0645\u0635", "name:ckb": "\u062d\u0648\u0645\u0633", "name:cs": "Homs", "name:da": "Homs", "name:de": "Homs", "name:el": "\u03a7\u03bf\u03bc\u03c2", "name:en": "Homs", "name:es": "Homs", "name:et": "Homs", "name:eu": "Homs", "name:fr": "Homs", "name:grc": "\u1f1c\u03bc\u03b5\u03c3\u03b1", "name:he": "\u05d7\u05d5\u05de\u05e1", "name:hi": "\u0939\u094c\u092e\u094d\u0938", "name:hr": "Homs", "name:hu": "Homsz", "name:ja": "\u30db\u30e0\u30b9", "name:ko": "\ud638\ubbc0\uc2a4", "name:ku": "Hims", "name:lt": "Homsas", "name:ml": "\u0d39\u0d4a\u0d02\u0d38\u0d4d", "name:pa": "\u0a39\u0a4b\u0a2e\u0a38", "name:ru": "\u0425\u043e\u043c\u0441", "name:sk": "Homs", "name:sv": "Homs", "name:syc": "\u071a\u0721\u0728", "name:te": "\u0c39\u0c2e\u0c4d\u0c38\u0c4d", "name:tr": "Humus", "name:uk": "\u0425\u043e\u043c\u0441", "name:ur": "\u062d\u0645\u0635", "name:zh": "\u970d\u59c6\u65af", "old_name": "Emesa", "old_name:el": "\u0388\u03bc\u03b5\u03c3\u03b1", "old_name:fr": "\u00c9m\u00e8se", "old_name:la": "Emesa", "place": "city", "population": "652609", "population:date": "2004", "source:population": "\u0627\u0644\u0645\u0643\u062a\u0628 \u0627\u0644\u0645\u0631\u0643\u0632\u064a \u0644\u0644\u0625\u062d\u0635\u0627\u0621", "type": "multipolygon", "wikidata": "Q131301", "wikipedia": "ar:\u062d\u0645\u0635"}}]}