{"version": 0.6, "generator": "Overpass API 0.7.62.4 2390de5a", "osm3s": {"timestamp_osm_base": "2025-01-08T06:29:44Z", "copyright": "The data included in this document is from www.openstreetmap.org. The data is made available under ODbL."}, "elements": [{"type": "node", "id": 270795187, "lat": 34.897273, "lon": 36.1343419, "tags": {"name": "\u062f\u0631\u064a\u0643\u064a\u0634", "name:ar": "\u062f\u0631\u064a\u0643\u064a\u0634", "name:de": "Dureikisch", "name:en": "Dureikish", "name:fr": "Dure\u00efkiche", "name:he": "\u05d3\u05e8\u05d9\u05db\u05d9\u05e9", "name:ja": "\u30c7\u30ec\u30a4\u30ad\u30b7", "name:ko": "\ub450\ub808\uc774\ud0a4\uc288", "name:ml": "\u0d26\u0d41\u0d31\u0d48\u0d15\u0d4d\u0d15\u0d3f\u0d37\u0d4d", "name:ru": "\u0414\u0443\u0440\u0435\u0439\u043a\u0438\u0448", "place": "town", "population": "13244", "population:date": "2004", "source:population": "\u0627\u0644\u0645\u0643\u062a\u0628 \u0627\u0644\u0645\u0631\u0643\u0632\u064a \u0644\u0644\u0625\u062d\u0635\u0627\u0621"}}, {"type": "node", "id": 567191649, "lat": 34.9123735, "lon": 36.4939763, "tags": {"name": "\u062a\u0644 \u0630\u0647\u0628", "name:ar": "\u062a\u0644 \u0630\u0647\u0628", "name:de": "Tell Dahab", "name:en": "Tell Dahab", "name:fr": "Tell Dahab", "name:he": "\u05ea\u05dc \u05d3\u05f3\u05d4\u05d1", "name:ja": "\u30bf\u30c3\u30eb\u30fb\u30c0\u30cf\u30d6", "name:ko": "\ud0c8\ub2e4\ud558\ube0c", "name:ml": "\u0d24\u0d7d \u0d26\u0d39\u0d2c\u0d4d", "name:ru": "\u0422\u0430\u043b\u043b\u044c-\u0414\u0430\u0445\u0430\u0431", "place": "town", "population": "12055", "population:date": "2004", "source:population": "\u0627\u0644\u0645\u0643\u062a\u0628 \u0627\u0644\u0645\u0631\u0643\u0632\u064a \u0644\u0644\u0625\u062d\u0635\u0627\u0621"}}, {"type": "node", "id": 567191650, "lat": 34.9364084, "lon": 36.4586941, "tags": {"name": "\u0639\u0642\u0631\u0628", "name:ar": "\u0639\u0642\u0631\u0628", "name:de": "Akrab", "name:en": "Aqrab", "name:fr": "Aqrab", "name:he": "\u05e2\u05e7\u05e8\u05d1", "name:ja": "\u30a2\u30af\u30e9\u30d6", "name:ko": "\uc544\ud06c\ub77c\ube0c", "name:ml": "\u0d05\u0d16\u0d4d\u0d31\u0d2c\u0d4d", "name:ru": "\u0410\u043a\u0440\u0430\u0431", "place": "town", "population": "8422", "population:date": "2004", "source:population": "\u0627\u0644\u0645\u0643\u062a\u0628 \u0627\u0644\u0645\u0631\u0643\u0632\u064a \u0644\u0644\u0625\u062d\u0635\u0627\u0621"}}, {"type": "node", "id": 567192316, "lat": 34.9448792, "lon": 36.4115243, "tags": {"name": "\u0628\u0639\u0631\u064a\u0646", "name:ar": "\u0628\u0639\u0631\u064a\u0646", "name:de": "Barin", "name:en": "Ba'rin", "name:fr": "Barine", "name:he": "\u05d1\u05e2\u05e8\u05d9\u05df", "name:ja": "\u30d0\u30fc\u30ea\u30fc\u30f3", "name:ko": "\ubc14\ub9b0", "name:ml": "\u0d2c\u0d3e\u0d31\u0d40\u0d7b", "name:ru": "\u0411\u0430\u0440\u0438\u043d", "place": "town", "population": "5559", "population:date": "2004", "source:population": "\u0627\u0644\u0645\u0643\u062a\u0628 \u0627\u0644\u0645\u0631\u0643\u0632\u064a \u0644\u0644\u0625\u062d\u0635\u0627\u0621"}}, {"type": "node", "id": 567192319, "lat": 34.8958656, "lon": 36.495954, "tags": {"name": "\u0643\u0641\u0631 \u0644\u0627\u0647\u0627", "name:ar": "\u0643\u0641\u0631 \u0644\u0627\u0647\u0627", "name:de": "Kafr Laha", "name:en": "Kafr Laha", "name:fr": "Kafr Laha", "name:he": "\u05db\u05e4\u05e8 \u05dc\u05d0\u05d4\u05d0", "name:ja": "\u30ab\u30d5\u30eb\u30fb\u30e9\u30fc\u30cf\u30fc", "name:ko": "\uce74\ud504\ub97c\ub77c\ud558", "name:ml": "\u0d15\u0d2b\u0d7c \u0d32\u0d39", "name:ru": "\u041a\u0430\u0444\u0440-\u041b\u0430\u0445\u0430", "place": "town", "population": "20041", "population:date": "2004", "source:population": "\u0627\u0644\u0645\u0643\u062a\u0628 \u0627\u0644\u0645\u0631\u0643\u0632\u064a \u0644\u0644\u0625\u062d\u0635\u0627\u0621"}}, {"type": "node", "id": 567192375, "lat": 34.9099637, "lon": 36.4542143, "tags": {"name": "\u0642\u0631\u0645\u0635", "name:ar": "\u0642\u0631\u0645\u0635", "name:de": "Kurmus", "name:en": "Qurmos", "name:fr": "Qormos", "name:he": "\u05e7\u05d5\u05e8\u05de\u05d5\u05e1", "name:ja": "\u30af\u30eb\u30e0\u30b9", "name:ko": "\ucfe0\ub974\ubb34\uc2a4", "name:ml": "\u0d16\u0d41\u0d7c\u0d2e\u0d41\u0d38\u0d4d", "name:ru": "\u041a\u0443\u0440\u043c\u0443\u0441", "place": "town", "population": "5331", "population:date": "2004", "source:population": "\u0627\u0644\u0645\u0643\u062a\u0628 \u0627\u0644\u0645\u0631\u0643\u0632\u064a \u0644\u0644\u0625\u062d\u0635\u0627\u0621"}}, {"type": "node", "id": 567193197, "lat": 34.8470663, "lon": 36.405609, "tags": {"name": "\u0641\u0627\u062d\u0644", "name:ar": "\u0641\u0627\u062d\u0644", "name:de": "Fahel", "name:en": "Fahel", "name:fr": "Fah\u00e9l", "name:he": "\u05e4\u05d0\u05d7\u05dc", "name:ja": "\u30d5\u30a1\u30fc\u30d8\u30eb", "name:ko": "\ud30c\ud5ec", "name:ru": "\u0424\u0430\u0445\u0435\u043b\u044c", "place": "town", "population": "5775", "population:date": "2004", "source:population": "\u0627\u0644\u0645\u0643\u062a\u0628 \u0627\u0644\u0645\u0631\u0643\u0632\u064a \u0644\u0644\u0625\u062d\u0635\u0627\u0621"}}, {"type": "node", "id": 567200726, "lat": 35.0646383, "lon": 36.3407993, "tags": {"name": "\u0645\u0635\u064a\u0627\u0641", "name:ar": "\u0645\u0635\u064a\u0627\u0641", "name:de": "Masjaf", "name:en": "Masyaf", "name:fr": "Masiaf", "name:he": "\u05de\u05e1\u05d9\u05d0\u05e3", "name:ja": "\u30de\u30b9\u30e4\u30fc\u30d5", "name:ko": "\ub9c8\uc2a4\uc57c\ud504", "name:ku": "Misyaf", "name:lt": "Masjafas", "name:ml": "\u0d2e\u0d38\u0d4d\u0d2f\u0d3e\u0d2b\u0d4d", "name:pl": "Masjaf", "name:ru": "\u041c\u0430\u0441\u044f\u0430\u0301\u0444", "name:uk": "\u041c\u0430\u0441\u0456\u0430\u0444", "name:zh": "\u9081\u65af\u4e9e\u592b", "place": "town", "population": "22508", "population:date": "2004", "source:population": "\u0627\u0644\u0645\u0643\u062a\u0628 \u0627\u0644\u0645\u0631\u0643\u0632\u064a \u0644\u0644\u0625\u062d\u0635\u0627\u0621", "wikidata": "Q825818", "wikipedia": "ar:\u0645\u0635\u064a\u0627\u0641"}}, {"type": "node", "id": 572551105, "lat": 34.820683, "lon": 36.1177283, "tags": {"name": "\u0635\u0627\u0641\u064a\u062a\u0627", "name:ar": "\u0635\u0627\u0641\u064a\u062a\u0627", "name:de": "Safita", "name:en": "Safita", "name:fr": "Safita", "name:he": "\u05e1\u05d0\u05e4\u05d9\u05ea\u05d0", "name:ja": "\u30b5\u30d5\u30a3\u30fc\u30bf", "name:ko": "\uc0ac\ud53c\ud0c0", "name:lt": "Safita", "name:ml": "\u0d38\u0d3e\u0d2b\u0d40\u0d24\u0d4d\u0d24", "name:ru": "\u0421\u0430\u0444\u0438\u0442\u0430", "name:uk": "\u0421\u0430\u0444\u0456\u0442\u0430", "name:zh": "\u85a9\u83f2\u6cf0", "place": "town", "population": "20301", "population:date": "2004", "source:population": "\u0627\u0644\u0645\u0643\u062a\u0628 \u0627\u0644\u0645\u0631\u0643\u0632\u064a \u0644\u0644\u0625\u062d\u0635\u0627\u0621", "wikidata": "Q1002557", "wikipedia": "ar:\u0635\u0627\u0641\u064a\u062a\u0627"}}, {"type": "node", "id": 572555563, "lat": 35.1985703, "lon": 36.488342, "tags": {"name": "\u0623\u0635\u064a\u0644\u0629", "name:ar": "\u0623\u0635\u064a\u0644\u0629", "name:de": "Asila", "name:en": "Asila", "name:fr": "Asila", "name:he": "\u05d0\u05e6\u05d9\u05dc\u05d4", "name:ja": "\u30a2\u30b9\u30a3\u30fc\u30e9", "name:ko": "\uc544\uc2e4\ub77c", "name:ru": "\u0410\u0441\u0438\u043b\u0430", "place": "town", "population": "5790", "population:date": "2004", "source:population": "\u0627\u0644\u0645\u0643\u062a\u0628 \u0627\u0644\u0645\u0631\u0643\u0632\u064a \u0644\u0644\u0625\u062d\u0635\u0627\u0621"}}, {"type": "node", "id": 572556611, "lat": 34.9920957, "lon": 36.0795901, "tags": {"name": "\u0627\u0644\u0634\u064a\u062e \u0628\u062f\u0631", "name:ar": "\u0627\u0644\u0634\u064a\u062e \u0628\u062f\u0631", "name:de": "asch-Scheich Badr", "name:en": "Ash-Sheikh Badr", "name:fr": "Ach-Cheikh Badr", "name:he": "\u05d0-\u05e9\u05d9\u05d7\u05f3 \u05d1\u05d3\u05e8", "name:ja": "\u30a2\u30c3\u30a0\u30b8\u30a7\u30a4\u30d5\u30fb\u30d0\u30c9\u30eb", "name:ko": "\uc544\uc0e4\uc774\ud06c\ubc14\ub4dc\ub974", "name:ml": "\u0d05\u0d37\u0d4d-\u0d37\u0d46\u0d2f\u0d4d\u0d16\u0d4d \u0d2c\u0d26\u0d7c", "name:ru": "\u0410\u0448-\u0428\u0435\u0439\u0445-\u0411\u0430\u0434\u0440", "place": "town", "population": "9486", "population:date": "2004", "source:population": "\u0627\u0644\u0645\u0643\u062a\u0628 \u0627\u0644\u0645\u0631\u0643\u0632\u064a \u0644\u0644\u0625\u062d\u0635\u0627\u0621"}}, {"type": "node", "id": 1836846817, "lat": 34.8768768, "lon": 36.5234123, "tags": {"name": "\u062a\u0644\u062f\u0648", "name:ar": "\u062a\u0644\u062f\u0648", "name:de": "Taldu", "name:en": "Taldu", "name:fr": "Taldo", "name:he": "\u05ea\u05dc\u05d3\u05d5", "name:ja": "\u30bf\u30eb\u30c9\u30a5", "name:ko": "\ud0c8\ub450", "name:ml": "\u0d24\u0d7d\u0d26\u0d42", "name:ru": "\u0422\u0430\u043b\u0434\u0443", "place": "town", "population": "15727", "population:date": "2004", "source:population": "\u0627\u0644\u0645\u0643\u062a\u0628 \u0627\u0644\u0645\u0631\u0643\u0632\u064a \u0644\u0644\u0625\u062d\u0635\u0627\u0621", "wikidata": "Q7679097"}}, {"type": "node", "id": 3887032458, "lat": 35.1003277, "lon": 36.1610851, "tags": {"name": "\u0627\u0644\u0642\u062f\u0645\u0648\u0633", "name:ar": "\u0627\u0644\u0642\u062f\u0645\u0648\u0633", "name:de": "al-Kadmus", "name:en": "Al-Qadmous", "name:fr": "Al-Qadmouse", "name:he": "\u05d0\u05dc-\u05e7\u05d3\u05de\u05d5\u05e1", "name:ja": "\u30a2\u30eb\u30a0\u30ab\u30c9\u30e0\u30fc\u30b9", "name:ko": "\uc54c\uce74\ub4dc\ubb34\uc2a4", "name:ml": "\u0d05\u0d7d-\u0d16\u0d26\u0d4d\u0d2e\u0d42\u0d38\u0d4d", "name:ru": "\u0410\u043b\u044c-\u041a\u0430\u0434\u043c\u0443\u0441", "place": "town", "population": "5551", "population:date": "2004", "source:population": "\u0627\u0644\u0645\u0643\u062a\u0628 \u0627\u0644\u0645\u0631\u0643\u0632\u064a \u0644\u0644\u0625\u062d\u0635\u0627\u0621"}}, {"type": "node", "id": 4310483095, "lat": 34.8260844, "lon": 36.0536656, "tags": {"name": "\u0631\u0623\u0633 \u0627\u0644\u062e\u0634\u0648\u0641\u0629", "name:ar": "\u0631\u0623\u0633 \u0627\u0644\u062e\u0634\u0648\u0641\u0629", "name:de": "Ras al-Chaschofa", "name:en": "Ras al-Khashoufa", "name:fr": "Ras al-Khachoufa", "name:he": "\u05e8\u05d0\u05e1 \u05d0\u05dc-\u05d7\u05f3\u05e9\u05d5\u05e4\u05d4", "name:ja": "\u30e9\u30fc\u30b9\u30fb\u30a2\u30eb\u30a0\u30cf\u30b7\u30e5\u30fc\u30d5\u30a1", "name:ko": "\ub77c\uc2a4\uc54c\uce74\uc288\ud30c", "name:ru": "\u0420\u0430\u0441-\u0430\u043b\u044c-\u0425\u0430\u0448\u0443\u0444\u0430", "place": "town", "population": "5499", "population:date": "2004", "source:population": "\u0627\u0644\u0645\u0643\u062a\u0628 \u0627\u0644\u0645\u0631\u0643\u0632\u064a \u0644\u0644\u0625\u062d\u0635\u0627\u0621"}}, {"type": "node", "id": 12382484546, "lat": 35.1572158, "lon": 36.4061511, "tags": {"name": "\u0645\u062d\u0631\u0648\u0633\u0629", "name:ar": "\u0645\u062d\u0631\u0648\u0633\u0629", "name:de": "Mahrusa", "name:en": "Mahrusa", "name:fr": "Mahrousa", "name:he": "\u05de\u05d7\u05e8\u05d5\u05e1\u05d4", "name:ja": "\u30de\u30d8\u30eb\u30fc\u30b5", "name:ko": "\ub9c8\ud750\ub8e8\uc0ac", "name:ru": "\u041c\u0430\u0445\u0440\u0443\u0441\u0430", "place": "town", "population": "6579", "population:date": "2004", "source:population": "\u0627\u0644\u0645\u0643\u062a\u0628 \u0627\u0644\u0645\u0631\u0643\u0632\u064a \u0644\u0644\u0625\u062d\u0635\u0627\u0621"}}]}