{"version": 0.6, "generator": "Overpass API 0.7.62.4 2390de5a", "osm3s": {"timestamp_osm_base": "2025-01-08T06:26:38Z", "copyright": "The data included in this document is from www.openstreetmap.org. The data is made available under ODbL."}, "elements": [{"type": "node", "id": 914484895, "lat": 24.5039738, "lon": 55.4880997, "tags": {"name": "\u0646\u0627\u0647\u0644", "name:ar": "\u0646\u0627\u0647\u0644", "name:en": "Nahil", "place": "town"}}, {"type": "node", "id": 914493080, "lat": 24.4676071, "lon": 55.3393223, "tags": {"alt_name": "Siw\u0113\u1e29\u0101n, Swaihan", "description": "In The national atlas of the United Arab Emirates: Siw\u0113\u1e29\u0101n", "name": "\u0633\u0648\u064a\u062d\u0627\u0646", "name:ar": "\u0633\u0648\u064a\u062d\u0627\u0646", "name:en": "Sweihan", "name:es": "Sweihan", "name:fr": "Sweihan", "name:he": "\u05e1\u05d5\u05d5\u05d9\u05d7\u05d0\u05df", "name:ml": "\u0d38\u0d4d\u0d35\u0d40\u0d39\u0d3e\u0d7b", "place": "town", "source": "The national atlas of the United Arab Emirates", "wikidata": "Q4118478", "wikimedia_commons": "Category:Swaihan", "wikipedia": "en:Sweihan"}}, {"type": "node", "id": 2518533888, "lat": 24.716533, "lon": 55.6216238, "tags": {"alt_name:en": "Al Faqa'", "name": "\u0627\u0644\u0641\u0642\u0639", "name:ar": "\u0627\u0644\u0641\u0642\u0639", "name:de": "Fiqa", "name:en": "Al Faqa'", "name:ml": "\u0d05\u0d7d-\u0d2b\u0d16", "place": "town"}}, {"type": "node", "id": 6279392590, "lat": 24.5361046, "lon": 55.2572822, "tags": {"name": "\u0627\u0644\u0639\u062c\u0628\u0627\u0646", "name:ar": "\u0627\u0644\u0639\u062c\u0628\u0627\u0646", "name:en": "Al 'Ajban", "place": "town"}}]}