{"version": 0.6, "generator": "Overpass API 0.7.62.4 2390de5a", "osm3s": {"timestamp_osm_base": "2025-01-08T07:30:54Z", "copyright": "The data included in this document is from www.openstreetmap.org. The data is made available under ODbL."}, "elements": [{"type": "node", "id": 9026659039, "lat": 8.2296251, "lon": 46.3244172, "tags": {"alt_name": "Bohotle", "name": "Buuhoodle \u0628\u0648\u0648\u0647\u0648\u062f\u0644 \u1266\u1206\u1275\u1208", "name:ar": "\u0628\u0648\u0648\u0647\u0648\u062f\u0644", "name:ca": "Buuhoodle", "name:de": "Buhoodle", "name:en": "Buuhoodle", "name:fr": "Buuhoodle", "name:hr": "Buuhoodle", "name:it": "Buhoodle", "name:ko": "\ubd80\ud6c4\ub4e4", "name:pl": "Buuhoodle", "name:ru": "\u0411\u0443\u0445\u043e\u0434\u043b\u0435", "name:sv": "Buuhoodle", "name:uk": "\u0411\u0443\u0445\u043e\u0434\u043b\u0435", "name:ur": "\u0628\u0648\u0648\u06c1\u0648\u062f\u0644", "name:zh": "\u5e03\u4faf\u5fb7\u5217", "name:zu": "Buuhoodle", "pcode": "NC-3815-T29-001", "place": "city", "source": "UNDP - 2006, GTZ - 2002, UNDP - 1997", "wikidata": "Q1002700", "wikipedia": "so:Buuhoodle"}}]}