{"version": 0.6, "generator": "Overpass API 0.7.62.4 2390de5a", "osm3s": {"timestamp_osm_base": "2025-01-08T07:17:42Z", "copyright": "The data included in this document is from www.openstreetmap.org. The data is made available under ODbL."}, "elements": [{"type": "node", "id": 26756132, "lat": 33.2433309, "lon": -8.49884, "tags": {"capital": "5", "int_name": "El Jadida \u2d4d\u2d4a\u2d30\u2d37\u2d49\u2d37\u2d30 \u0627\u0644\u062c\u062f\u064a\u062f\u0629", "name": "El Jadida \u2d4a\u2d37\u2d49\u2d37\u2d30 \u0627\u0644\u062c\u062f\u064a\u062f\u0629", "name:ar": "\u0627\u0644\u062c\u062f\u064a\u062f\u0629", "name:ber": "\u2d4a\u2d37\u2d49\u2d37\u2d30", "name:de": "El Jadida", "name:en": "El Jadida", "name:es": "El-Yadida", "name:et": "El Jadida", "name:fr": "El Jadida", "name:he": "\u05d0\u05dc-\u05d2'\u05d3\u05d9\u05d3\u05d4", "name:hi": "\u090f\u0932 \u091c\u093e\u0926\u093f\u0926\u093e", "name:kab": "Mazagen", "name:ml": "\u0d05\u0d7d-\u0d1c\u0d26\u0d40\u0d26", "name:pl": "Al-D\u017cadida", "name:ru": "\u042d\u043b\u044c-\u0414\u0436\u0430\u0434\u0438\u0434\u0430", "name:zgh": "\u2d4a\u2d37\u2d49\u2d37\u2d30", "place": "city", "population": "194934", "source:population": "2014 Moroccan census", "wikidata": "Q219583", "wikipedia": "en:El Jadida"}}, {"type": "node", "id": 1043792946, "lat": 33.229519, "lon": -8.550912, "tags": {"int_name": "Sidi Bouzid", "name": "Sidi Bouzid \u2d59\u2d49\u2d37\u2d49 \u2d31\u2d53\u2d63\u2d49\u2d37 \u0633\u064a\u062f\u064a \u0628\u0648\u0632\u064a\u062f", "name:ar": "\u0633\u064a\u062f\u064a \u0628\u0648\u0632\u064a\u062f", "name:ber": "\u2d59\u2d49\u2d37\u2d49 \u2d31\u2d53\u2d63\u2d49\u2d37", "name:en": "Sidi Bouzid", "name:fr": "Sidi Bouzid", "place": "town", "wikidata": "Q3483209", "wikimedia_commons": "Category:Sidi Bouzid (Morocco)", "wikipedia": "ar:\u0633\u064a\u062f\u064a \u0628\u0648\u0632\u064a\u062f (\u0627\u0644\u0645\u063a\u0631\u0628)"}}, {"type": "node", "id": 1865136226, "lat": 33.288141, "lon": -8.343206, "tags": {"capital": "6", "name": "Azemmour \u2d30\u2d63\u2d4e\u2d4e\u2d53\u2d54 \u0623\u0632\u0645\u0648\u0631", "name:ar": "\u0623\u0632\u0645\u0648\u0631", "name:ber": "\u2d30\u2d63\u2d4e\u2d4e\u2d53\u2d54", "name:en": "Azemmour", "name:fr": "Azemmour", "name:kab": "Azemmur", "place": "town", "population": "40920", "wikidata": "Q178172", "wikipedia": "en:Azemmour"}}, {"type": "node", "id": 2161697637, "lat": 33.3063826, "lon": -8.3547988, "tags": {"capital": "7", "int_name": "Haouzia", "name": "Haouzia \u2d43\u2d30\u2d61\u2d63\u2d49\u2d62\u2d30 \u062d\u0648\u0632\u064a\u0629", "name:ar": "\u062d\u0648\u0632\u064a\u0629", "name:ber": "\u2d43\u2d30\u2d61\u2d63\u2d49\u2d62\u2d30", "name:en": "Haouzia", "name:fr": "Haouzia", "name:zgh": "\u2d43\u2d30\u2d61\u2d63\u2d49\u2d62\u2d30", "place": "town"}}, {"type": "node", "id": 2698765571, "lat": 33.2861897, "lon": -8.3263607, "tags": {"capital": "7", "int_name": "Sidi Ali Ben Hamdouche", "name": "Sidi Ali Ben Hamdouche \u2d59\u2d49\u2d37\u2d49 \u2d44\u2d4d\u2d49 \u2d31\u2d4f \u2d43\u2d4e\u2d37\u2d53\u2d5b \u0633\u064a\u062f\u064a \u0639\u0644\u064a \u0628\u0646 \u062d\u0645\u062f\u0648\u0634", "name:ar": "\u0633\u064a\u062f\u064a \u0639\u0644\u064a \u0628\u0646 \u062d\u0645\u062f\u0648\u0634", "name:ber": "\u2d59\u2d49\u2d37\u2d49 \u2d44\u2d4d\u2d49 \u2d31\u2d4f \u2d43\u2d4e\u2d37\u2d53\u2d5b", "name:en": "Sidi Ali Ben Hamdouche", "name:fr": "Sidi Ali Ben Hamdouche", "place": "town", "population": "28685", "population:date": "2004", "wikidata": "Q12217698", "wikipedia": "fr:Sidi Ali Ben Hamdouche"}}, {"type": "node", "id": 11635454200, "lat": 33.2043351, "lon": -8.5020233, "tags": {"name": "Douar Ouled Saad", "name:ary": "\u062f\u0648\u0627\u0631 \u0623\u0648\u0644\u0627\u062f \u0633\u0639\u062f", "place": "town"}}, {"type": "node", "id": 11635454207, "lat": 33.1879055, "lon": -8.4899283, "tags": {"name": "Douar Tikni", "name:ary": "\u062f\u0648\u0627\u0631 \u062a\u0643\u0646\u064a", "place": "town"}}, {"type": "node", "id": 11635520069, "lat": 33.1907963, "lon": -8.4436653, "tags": {"name": "Riad Al Jadida", "name:fr": "\u0631\u064a\u0627\u0636 \u0627\u0644\u062c\u062f\u064a\u062f\u0629", "place": "town"}}]}