{"version": 0.6, "generator": "Overpass API 0.7.62.4 2390de5a", "osm3s": {"timestamp_osm_base": "2025-01-08T06:28:44Z", "copyright": "The data included in this document is from www.openstreetmap.org. The data is made available under ODbL."}, "elements": [{"type": "node", "id": 3586518225, "lat": 36.58357, "lon": 38.2994556, "tags": {"name": "\u0635\u0631\u064a\u0646", "name:ar": "\u0635\u0631\u064a\u0646", "name:de": "Sarin", "name:en": "Sarin", "name:fr": "Sarine", "name:he": "\u05e1\u05e8\u05d9\u05df", "name:ja": "\u30b5\u30ea\u30fc\u30f3", "name:ko": "\uc0ac\ub9b0", "name:ku": "Sir\u00een", "name:ml": "\u0d38\u0d3f\u0d31\u0d3f\u0d7b", "name:ru": "\u0421\u0430\u0440\u0438\u043d", "place": "town", "population": "6104", "population:date": "2004", "source:population": "\u0627\u0644\u0645\u0643\u062a\u0628 \u0627\u0644\u0645\u0631\u0643\u0632\u064a \u0644\u0644\u0625\u062d\u0635\u0627\u0621"}}, {"type": "node", "id": 3586518721, "lat": 36.8886218, "lon": 38.3535094, "tags": {"alt_name": "\u0643\u0648\u0628\u0627\u0646\u064a\u200e", "alt_name:ar": "\u0643\u0648\u0628\u0627\u0646\u064a\u200e", "alt_name:az": "Kobani", "alt_name:de": "Kobani", "alt_name:en": "Kobani", "alt_name:fr": "Kobani", "alt_name:he": "\u05e7\u05d5\u05d1\u05d0\u05e0\u05d9", "alt_name:hr": "Kobani", "alt_name:ja": "\u30b3\u30d0\u30fc\u30cb", "alt_name:ko": "\ucf54\ubc14\ub2c8", "alt_name:ml": "\u0d15\u0d4a\u0d2c\u0d3e\u0d28\u0d3f", "alt_name:ru": "\u041a\u043e\u0431\u0430\u043d\u0438", "alt_name:sr": "\u041a\u043e\u0431\u0430\u043d\u0438", "alt_name:uk": "\u041a\u043e\u0431\u0430\u043d\u0435", "name": "\u0639\u064a\u0646 \u0627\u0644\u0639\u0631\u0628", "name:ar": "\u0639\u064a\u0646 \u0627\u0644\u0639\u0631\u0628", "name:az": "Eyn \u00fcl-\u018fr\u0259b", "name:ckb": "\u06a9\u06c6\u0628\u0627\u0646\u06cc", "name:de": "Ein al-Arab", "name:en": "Ain al-Arab", "name:es": "Kobane", "name:eu": "Kobane", "name:fa": "\u0643\u0648\u0628\u0627\u0646\u064a", "name:fr": "A\u00efn al-Arab", "name:glk": "\u0643\u0648\u0628\u0627\u0646\u064a\u200e", "name:he": "\u05e2\u05d9\u05df \u05d0\u05dc-\u05e2\u05e8\u05d1", "name:hr": "Ajn al-Arab", "name:ja": "\u30a2\u30a4\u30f3\u30fb\u30a2\u30eb\u30a0\u30a2\u30e9\u30d6", "name:ko": "\uc544\uc778\uc54c\uc544\ub77c\ube0c", "name:ku": "Koban\u00ee", "name:ml": "\u0d10\u0d7b \u0d05\u0d7d-\u0d05\u0d31\u0d2c\u0d4d", "name:mzn": "\u0643\u0648\u0628\u0627\u0646\u064a\u200e", "name:ru": "\u0410\u0439\u043d-\u0430\u043b\u044c-\u0410\u0440\u0430\u0431", "name:sr": "\u0410\u0458\u043d \u0435\u043b \u0410\u0440\u0430\u0431", "name:tr": "Arapp\u0131nar\u0131", "name:uk": "\u0410\u0439\u043d-\u0435\u043b\u044c-\u0410\u0440\u0430\u0431", "name:ur": "\u0643\u0648\u0628\u0627\u0646\u064a\u200e", "name:zh": "\u827e\u56e0\u963f\u62c9\u4f2f/\u79d1\u5df4\u5c3c", "place": "town", "population": "44821", "population:date": "2004", "source:population": "\u0627\u0644\u0645\u0643\u062a\u0628 \u0627\u0644\u0645\u0631\u0643\u0632\u064a \u0644\u0644\u0625\u062d\u0635\u0627\u0621", "wikidata": "Q126415", "wikipedia": "ar:\u0639\u064a\u0646 \u0627\u0644\u0639\u0631\u0628", "wikipedia:en": "Kobani"}}, {"type": "node", "id": 3586671398, "lat": 36.7229845, "lon": 38.1268196, "tags": {"name": "\u0642\u0646\u0627\u064a\u0629", "name:ar": "\u0642\u0646\u0627\u064a\u0629", "name:de": "Kanaja", "name:en": "Qanaya", "name:fr": "Qanaia", "name:he": "\u05e7\u05e0\u05d0\u05d9\u05d4", "name:ja": "\u30ab\u30ca\u30e4", "name:ko": "\uce74\ub098\uc57c", "name:ku": "Qenaya", "name:ml": "\u0d16\u0d28\u0d3e\u0d2f", "name:ru": "\u041a\u0430\u043d\u0430\u044f", "place": "town", "population": "5975", "population:date": "2004", "source:population": "\u0627\u0644\u0645\u0643\u062a\u0628 \u0627\u0644\u0645\u0631\u0643\u0632\u064a \u0644\u0644\u0625\u062d\u0635\u0627\u0621"}}, {"type": "node", "id": 3741143596, "lat": 36.5715841, "lon": 38.3063751}, {"type": "node", "id": 3741143597, "lat": 36.5724093, "lon": 38.3068704}, {"type": "node", "id": 3741143598, "lat": 36.5734778, "lon": 38.3053684}, {"type": "node", "id": 3741143599, "lat": 36.5733843, "lon": 38.3041828}, {"type": "node", "id": 3741143670, "lat": 36.5705999, "lon": 38.3010554}, {"type": "node", "id": 3741143671, "lat": 36.5706171, "lon": 38.3015489}, {"type": "node", "id": 3741143672, "lat": 36.5734433, "lon": 38.3013344}, {"type": "node", "id": 3741143673, "lat": 36.5719958, "lon": 38.2982445}, {"type": "node", "id": 3741143674, "lat": 36.5708756, "lon": 38.2994032}, {"type": "node", "id": 3741143675, "lat": 36.5723059, "lon": 38.302021}, {"type": "node", "id": 3741143676, "lat": 36.5732365, "lon": 38.3018493}, {"type": "node", "id": 3741143677, "lat": 36.5717028, "lon": 38.3037805}, {"type": "node", "id": 3827085557, "lat": 36.5718801, "lon": 38.3032247}, {"type": "way", "id": 370412243, "nodes": [3827085557, 3741143675, 3741143676, 3741143672, 3741143673, 3741143674, 3741143670, 3741143671, 3827085557], "tags": {"landuse": "residential", "name": "\u0635\u0631\u064a\u0646", "place": "city"}}, {"type": "way", "id": 379397294, "nodes": [3741143677, 3741143596, 3741143597, 3741143598, 3741143599, 3741143677], "tags": {"landuse": "residential", "name": "\u0635\u0631\u064a\u0646", "place": "city"}}]}