{"version": 0.6, "generator": "Overpass API 0.7.62.4 2390de5a", "osm3s": {"timestamp_osm_base": "2025-01-08T06:27:42Z", "copyright": "The data included in this document is from www.openstreetmap.org. The data is made available under ODbL."}, "elements": [{"type": "node", "id": 299944872, "lat": 31.3443293, "lon": 34.3095897, "tags": {"name": "\u062e\u0627\u0646 \u064a\u0648\u0646\u0633", "name:ar": "\u062e\u0627\u0646 \u064a\u0648\u0646\u0633", "name:bn": "\u0996\u09be\u09a8 \u0987\u0989\u09a8\u09c1\u09b8", "name:cs": "Ch\u00e1n J\u00fanis", "name:da": "Khan Younis", "name:de": "Chan Yunis", "name:el": "\u03a7\u03b1\u03bd \u0393\u03b9\u03bf\u03c5\u03bd\u03af\u03c2", "name:en": "Khan Yunis", "name:es": "Jan Yunis", "name:et": "Kh\u0101n Y\u016bnis", "name:eu": "Khan Yunis", "name:fa": "\u062e\u0627\u0646\u200c\u06cc\u0648\u0646\u0633", "name:fi": "Han Junis", "name:fr": "Khan Youn\u00e8s", "name:he": "\u05d7'\u05d0\u05df \u05d9\u05d5\u05e0\u05e1", "name:hi": "\u0916\u093e\u0928 \u092f\u0942\u0928\u093f\u0938", "name:hr": "Han Junis", "name:ja": "\u30cf\u30fc\u30f3\u30fb\u30e6\u30fc\u30cb\u30b9", "name:ko": "\ud55c \uc720\ub2c8\uc2a4", "name:ks": "\u062e\u0627\u0646 \u06cc\u0648\u0646\u0633", "name:ml": "\u0d16\u0d3e\u0d7b \u0d2f\u0d42\u0d28\u0d3f\u0d38\u0d4d", "name:pl": "Chan Junus", "name:pnb": "\u062e\u0627\u0646 \u06cc\u0648\u0646\u0633", "name:ps": "\u062e\u0627\u0646 \u064a\u0648\u0646\u0633", "name:ru": "\u0425\u0430\u043d-\u042e\u043d\u0438\u0441", "name:uk": "\u0425\u0430\u043d-\u042e\u043d\u0456\u0441", "name:ur": "\u062e\u0627\u0646 \u06cc\u0648\u0646\u0633", "place": "city", "population": "205125", "population:date": "2017", "source:population": "wikipedia", "wikidata": "Q309348", "wikipedia": "ar:\u062e\u0627\u0646 \u064a\u0648\u0646\u0633", "wikipedia:ar": "\u062e\u0627\u0646 \u064a\u0648\u0646\u0633", "wikipedia:en": "Khan Yunis"}}, {"type": "node", "id": 322022888, "lat": 31.2752047, "lon": 34.2558269, "tags": {"name": "\u0631\u0641\u062d", "name:ar": "\u0631\u0641\u062d", "name:arz": "\u0631\u0641\u062d", "name:azb": "\u0631\u0641\u062d", "name:bg": "\u0420\u0430\u0444\u0430\u0445", "name:bn": "\u09b0\u09be\u09ab\u09be\u09b9", "name:cs": "Rafah", "name:de": "Rafah", "name:el": "\u03a1\u03ac\u03c6\u03b1", "name:en": "Rafah", "name:es": "Rafah", "name:et": "Rafa\u1e29", "name:eu": "Rafah", "name:fa": "\u0631\u0641\u062d", "name:fr": "Rafah", "name:grc": "\u1fec\u03b1\u03c6\u03af\u03b1", "name:he": "\u05e8\u05e4\u05d9\u05d7", "name:hi": "\u0930\u0947\u092b\u093c\u093e", "name:hr": "Rafa", "name:ja": "\u30e9\u30d5\u30a1", "name:ku": "Refah", "name:ml": "\u0d31\u0d2b", "name:nl": "Rafah", "name:os": "\u0420\u0430\u0444\u0430\u0445", "name:ota": "\u0631\u0641\u062d", "name:pnb": "\u0631\u0641\u062d", "name:pt": "Rafa", "name:ru": "\u0420\u0430\u0444\u0430\u0445", "name:sr": "\u0420\u0430\u0444\u0430", "name:sv": "Rafah", "name:ta": "\u0bb0\u0baa\u0bbe", "name:uk": "\u0420\u0430\u0444\u0430\u0445", "name:ur": "\u0631\u0641\u062d", "place": "city", "population": "126305", "wikidata": "Q172343", "wikipedia": "ar:\u0631\u0641\u062d (\u0641\u0644\u0633\u0637\u064a\u0646)", "wikipedia:ar": "\u0631\u0641\u062d (\u0641\u0644\u0633\u0637\u064a\u0646)"}}, {"type": "node", "id": 326040099, "lat": 31.3238491, "lon": 34.3497101, "tags": {"name": "\u0639\u0628\u0633\u0627\u0646 \u0627\u0644\u0643\u0628\u064a\u0631\u0629", "name:ar": "\u0639\u0628\u0633\u0627\u0646 \u0627\u0644\u0643\u0628\u064a\u0631\u0629", "name:de": "Abasan al-Kabira", "name:en": "Abasan al-Kabira", "name:es": "Abasan al-Kabira", "name:eu": "Abasan al-Kabira", "name:fr": "Abasan al-Kabera", "name:he": "\u05e2\u05d1\u05d0\u05e1\u05df \u05d0\u05dc-\u05db\u05d1\u05d9\u05e8\u05d4", "name:hr": "Abasan al-Kabira", "name:ko": "\uc544\ubc14\uc0b0 \uc54c \uce74\ube44\ub77c", "name:ml": "\u0d05\u0d2c\u0d38\u0d3e\u0d7b \u0d05\u0d7d-\u0d15\u0d2c\u0d40\u0d31", "name:pl": "Abasan al-Kabira", "place": "town", "population": "19000", "wikidata": "Q3303148", "wikipedia": "en:Abasan al-Kabira", "wikipedia:en": "Abasan al-Kabira"}}, {"type": "node", "id": 329769893, "lat": 31.3401107, "lon": 34.3222778, "tags": {"name": "\u0628\u0646\u064a \u0633\u0647\u064a\u0644\u0627", "name:ar": "\u0628\u0646\u064a \u0633\u0647\u064a\u0644\u0627", "name:de": "Bani Suheila", "name:en": "Bani Suheila", "name:es": "Bani Suheila", "name:eu": "Bani Suheila", "name:fr": "Bani Suheila", "name:he": "\u05d1\u05e0\u05d9 \u05e1\u05d5\u05d4\u05d9\u05dc\u05d4", "name:hr": "Bani Suheila", "name:ja": "\u30d0\u30cb\u30fc\u30fb\u30b9\u30d8\u30a4\u30e9", "name:ko": "\ubc14\ub2c8 \uc218\ud5e4\uc77c\ub77c", "name:pl": "Bani Suhajla", "place": "town", "population": "41439", "population:date": "2017", "source:population": "wikipedia", "source_ref": "http://en.wikipedia.org/wiki/Bani_Suheila", "wikidata": "Q1983186", "wikipedia": "ar:\u0628\u0646\u064a \u0633\u0647\u064a\u0644\u0627", "wikipedia:ar": "\u0628\u0646\u064a \u0633\u0647\u064a\u0644\u0627"}}, {"type": "node", "id": 503991719, "lat": 31.54977, "lon": 34.5024697, "tags": {"alt_name:de": "Beit Lahia", "alt_name:en": "Bayt Lahiya", "name": "\u0628\u064a\u062a \u0644\u0627\u0647\u064a\u0627", "name:ar": "\u0628\u064a\u062a \u0644\u0627\u0647\u064a\u0627", "name:bn": "\u09ac\u09c7\u0987\u09a4 \u09b2\u09be\u09b9\u09bf\u09af\u09bc\u09be", "name:cs": "Bajt Lah\u00edja", "name:de": "Bait Lahiya", "name:el": "\u039c\u03c0\u03b5\u0390\u03c4 \u039b\u03b5\u03c7\u03af\u03b3\u03b9\u03b1", "name:en": "Beit Lahiya", "name:es": "Beit Lahia", "name:eu": "Beit Lahia", "name:fr": "Beit Lahiya", "name:he": "\u05d1\u05d9\u05ea \u05dc\u05d4\u05d9\u05d9\u05d4", "name:hr": "Bejt Lahija", "name:ja": "\u30d9\u30a4\u30c8\u30fb\u30e9\u30d2\u30e4", "name:ko": "\ubca0\uc774\ud2b8 \ub77c\ud788\uc57c", "name:ml": "\u0d2c\u0d46\u0d2f\u0d4d\u0d24\u0d4d\u0d24\u0d4d \u0d32\u0d39\u0d4d\u0d2f", "name:ru": "\u0411\u0435\u0439\u0442-\u041b\u0430\u0445\u0438\u044f", "place": "town", "population": "59500", "source": "UN ocha", "wikidata": "Q803986", "wikipedia": "ar:\u0628\u064a\u062a \u0644\u0627\u0647\u064a\u0627", "wikipedia:ar": "\u0628\u064a\u062a \u0644\u0627\u0647\u064a\u0627"}}, {"type": "node", "id": 503998551, "lat": 31.539022, "lon": 34.5384182, "tags": {"name": "\u0628\u064a\u062a \u062d\u0627\u0646\u0648\u0646", "name:ar": "\u0628\u064a\u062a \u062d\u0627\u0646\u0648\u0646", "name:azb": "\u0628\u06cc\u062a \u062d\u0627\u0646\u0648\u0646", "name:de": "Beit Hanun", "name:en": "Beit Hanoun", "name:es": "Bait Hanun", "name:eu": "Beit Hanoun", "name:fa": "\u0628\u06cc\u062a \u062d\u0627\u0646\u0648\u0646", "name:fr": "Beit Hanoun", "name:he": "\u05d1\u05d9\u05ea \u05d7\u05d0\u05e0\u05d5\u05df", "name:hi": "\u092c\u0940\u091f \u0939\u0928\u094c\u0902", "name:hr": "Bejt Hanun", "name:ja": "\u30d9\u30a4\u30c8\u30fb\u30cf\u30cc\u30fc\u30f3", "name:ko": "\ubca0\uc774\ud2b8 \ud558\ub208", "name:ks": "\u0628\u06cc\u062a \u062d\u0627\u0646\u0648\u0646", "name:ml": "\u0d2c\u0d46\u0d2f\u0d4d\u0d24\u0d4d\u0d24\u0d4d \u0d39\u0d3e\u0d28\u0d42\u0d7b", "name:ota": "\u0628\u06cc\u062a \u062d\u0627\u0646\u0648\u0646", "name:ru": "\u0411\u0435\u0439\u0442-\u0425\u0430\u043d\u0443\u043d", "name:ur": "\u0628\u06cc\u062a \u062d\u0627\u0646\u0648\u0646", "place": "town", "population": "30000", "wikidata": "Q74176", "wikipedia": "ar:\u0628\u064a\u062a \u062d\u0627\u0646\u0648\u0646", "wikipedia:ar": "\u0628\u064a\u062a \u062d\u0627\u0646\u0648\u0646"}}, {"type": "node", "id": 504266619, "lat": 31.5128679, "lon": 34.4581358, "tags": {"long_name": "\u0645\u062f\u064a\u0646\u0629 \u063a\u0632\u0629", "long_name:ar": "\u0645\u062f\u064a\u0646\u0629 \u063a\u0632\u0629", "long_name:de": "Gaza-Stadt", "name": "\u063a\u0632\u0629", "name:af": "Gasa", "name:ar": "\u063a\u0632\u0629", "name:az": "Q\u0259zza", "name:ba": "\u0492\u04d9\u0437\u0437\u04d9", "name:be": "\u0413\u0430\u0437\u0430", "name:bg": "\u0413\u0430\u0437\u0430", "name:bn": "\u0997\u09be\u099c\u09be", "name:br": "Gaza", "name:bs": "Gaza", "name:ca": "Gaza", "name:ce": "\u0413\u04c0\u0430\u0437\u0430\u0442", "name:ckb": "\u063a\u06d5\u0632\u0632\u06d5", "name:cs": "Gaza", "name:cy": "Gaza", "name:da": "Gaza", "name:de": "Gaza", "name:el": "\u0393\u03ac\u03b6\u03b1", "name:en": "Gaza", "name:eo": "Gaza-urbo", "name:es": "Gaza", "name:et": "Gaza", "name:eu": "Gaza", "name:fa": "\u063a\u0632\u0647", "name:fi": "Aaza", "name:fr": "Gaza", "name:gd": "G\u00e0sa", "name:gl": "Gaza", "name:he": "\u05e2\u05d6\u05d4", "name:hi": "\u0917\u093c\u091c\u093c\u093e", "name:hr": "Gaza", "name:hu": "G\u00e1za", "name:hy": "\u0542\u0561\u0566\u0561", "name:id": "Gaza", "name:it": "Gaza", "name:ja": "\u30ac\u30b6", "name:ka": "\u10e6\u10d0\u10d6\u10d0", "name:kl": "Gaza", "name:kmr": "\u062e\u06d5\u0632\u06d5", "name:kn": "\u0c97\u0cbe\u0c9d\u0cbe", "name:ko": "\uac00\uc790", "name:ku": "Xeze", "name:ku-Arab": "\u062e\u06d5\u0632\u06d5", "name:ky": "\u0413\u0430\u0437\u0430", "name:la": "Gaza", "name:lt": "Gaza", "name:lv": "Gaza", "name:mk": "\u0413\u0430\u0437\u0430", "name:ml": "\u0d17\u0d38\u0d4d\u0d38 \u0d28\u0d17\u0d30\u0d02", "name:mr": "\u0917\u093e\u091d\u093e", "name:ms": "Gaza", "name:mzn": "\u063a\u0632\u0647", "name:nb": "Gaza", "name:ne": "\u0917\u093e\u091c\u093e \u0936\u0939\u0930", "name:nl": "Gaza", "name:nn": "Gaza by", "name:no": "Gaza", "name:os": "\u0413\u0430\u0437\u00e6", "name:pa": "\u0a17\u0a3c\u0a1c\u0a3c\u0a3e \u0a38\u0a3c\u0a39\u0a3f\u0a30", "name:pl": "Gaza", "name:pnb": "\u063a\u0632\u06c1", "name:ps": "\u063a\u0632\u0647", "name:pt": "Gaza", "name:ro": "Gaza", "name:ru": "\u0413\u0430\u0437\u0430", "name:sk": "Gaza", "name:sr": "\u0413\u0430\u0437\u0430", "name:sv": "Gaza", "name:sw": "Gaza", "name:ta": "\u0b95\u0bbe\u0b9a\u0bbe", "name:tr": "Gazze", "name:tt": "\u0413\u0430\u0437\u0437\u04d9", "name:uk": "\u0490\u0430\u0437\u0430", "name:ur": "\u063a\u0632\u06c1", "name:uz": "G\u02bbazza", "name:vi": "Gaza", "name:yi": "\u05e2\u05d6\u05d4", "name:zh": "\u52a0\u6c99\u5730\u533a", "place": "city", "population": "410000", "wikidata": "Q47492", "wikipedia": "ar:\u063a\u0632\u0629", "wikipedia:ar": "\u063a\u0632\u0629"}}, {"type": "node", "id": 505015391, "lat": 31.4418553, "lon": 34.4032131, "tags": {"name": "\u0627\u0644\u0628\u0631\u064a\u062c", "name:ar": "\u0627\u0644\u0628\u0631\u064a\u062c", "name:de": "Bureidsch", "name:en": "Bureij", "name:eu": "Bureij", "name:fr": "Bureij", "name:he": "\u05d0\u05dc-\u05d1\u05d5\u05e8\u05d9\u05d9\u05d2'", "name:hr": "Burejd\u017e", "name:ja": "\u30d6\u30ec\u30a4\u30b8", "name:ko": "\uc54c \ubd80\ub808\uc774\uc9c0", "name:ml": "\u0d2c\u0d41\u0d31\u0d48\u0d1c\u0d4d", "name:ru": "\u0411\u0443\u0440\u0435\u0439\u0434\u0436", "place": "town", "population": "30000"}}, {"type": "node", "id": 505017364, "lat": 31.4734539, "lon": 34.40416}, {"type": "node", "id": 505025218, "lat": 31.4751928, "lon": 34.4019501}, {"type": "node", "id": 505035532, "lat": 31.4183455, "lon": 34.3502476, "tags": {"name": "\u062f\u064a\u0631 \u0627\u0644\u0628\u0644\u062d", "name:ar": "\u062f\u064a\u0631 \u0627\u0644\u0628\u0644\u062d", "name:cs": "Dajr al-Balah", "name:cy": "Deir al-Balah", "name:de": "Dair al-Balah", "name:en": "Deir el-Balah", "name:eo": "Deir el-Balah", "name:es": "Dair Al Balah", "name:eu": "Deir al-Balah", "name:fr": "Deir el-Balah", "name:he": "\u05d3\u05d9\u05e8 \u05d0\u05dc-\u05d1\u05dc\u05d0\u05d7", "name:hi": "\u0926\u0940\u0930 \u0905\u0932 \u092c\u093e\u0932\u093e", "name:hr": "Deir al-Balah", "name:it": "Dayr al-Balah", "name:ja": "\u30c7\u30a4\u30eb\u30fb\u30a2\u30eb\u30fb\u30d0\u30e9", "name:ko": "\ub370\uc774\ub974 \uc54c \ubc1c\ub77c\ud750", "name:ml": "\u0d26\u0d46\u0d2f\u0d4d\u0d7c \u0d05\u0d7d-\u0d2c\u0d32", "name:nl": "Dayr al-Balah", "name:no": "Deir al-Balah", "name:pl": "Dajr al-Balah", "name:pt": "Deir al-Balah", "name:ru": "\u0414\u0435\u0439\u0440-\u044d\u043b\u044c-\u0411\u0430\u043b\u0430\u0445", "name:sco": "Deir al-Balah", "name:tr": "Deir al Balah", "name:uk": "\u0414\u0435\u0439\u0440 \u0430\u043b\u044c-\u0411\u0430\u043b\u0430\u0445", "name:ur": "\u062f\u06cc\u0631 \u0627\u0644\u0628\u0644\u062d", "place": "city", "population": "49751", "wikidata": "Q557383", "wikipedia": "ar:\u062f\u064a\u0631 \u0627\u0644\u0628\u0644\u062d", "wikipedia:ar": "\u062f\u064a\u0631 \u0627\u0644\u0628\u0644\u062d"}}, {"type": "node", "id": 505041929, "lat": 31.4737752, "lon": 34.4003929}, {"type": "node", "id": 505042007, "lat": 31.4672522, "lon": 34.4097598, "tags": {"alt_name": "\u0623\u0628\u0648 \u0645\u062f\u064a\u0646", "alt_name:ar": "\u0623\u0628\u0648 \u0645\u062f\u064a\u0646", "alt_name:de": "Abu Middein", "alt_name:en": "Abu Middein", "alt_name:es": "Abu Midein", "alt_name:he": "\u05d0\u05dc-\u05de\u05d5\u05d7\u05e8\u05d0\u05e7\u05d4", "alt_name:ko": "\uc544\ubd80 \ubc0b\ub370\uc778", "name": "\u0627\u0644\u0645\u063a\u0631\u0627\u0642\u0629", "name:ar": "\u0627\u0644\u0645\u063a\u0631\u0627\u0642\u0629", "name:de": "Al-Mughraqa", "name:en": "Al-Mughraqa", "name:es": "Al-Mughraqa", "name:eu": "Al-Mughraqa", "name:fr": "Al-Mughraqa", "name:he": "\u05d0\u05dc-\u05de\u05d5\u05e2'\u05e8\u05d0\u05e7\u05d4", "name:hr": "Al-Mugraka", "name:ko": "\uc54c \ubb34\uadf8\ub77c\uae4c", "name:no": "Al-Mughraqa", "place": "town", "population": "5075", "wikidata": "Q573785", "wikipedia": "ar:\u0627\u0644\u0645\u063a\u0631\u0627\u0642\u0629", "wikipedia:ar": "\u0627\u0644\u0645\u063a\u0631\u0627\u0642\u0629"}}, {"type": "node", "id": 505115716, "lat": 31.3782508, "lon": 34.3355147, "tags": {"name": "\u0627\u0644\u0642\u0631\u0627\u0631\u0629", "name:ar": "\u0627\u0644\u0642\u0631\u0627\u0631\u0629", "name:de": "al-Qarara", "name:en": "al-Qarara", "name:es": "Al Qarara", "name:eu": "Al Qarara", "name:fr": "Al Qarara", "name:he": "\u05d0\u05dc-\u05e7\u05e8\u05d0\u05e8\u05d4", "name:ja": "\u30a2\u30eb\u30fb\u30ab\u30e9\u30e9", "name:ko": "\uc54c \uae4c\ub77c\ub77c", "name:no": "Al-Qarara", "name:pl": "Al-Karara", "name:ur": "\u0627\u0644\u0642\u0631\u0627\u0631\u06c1", "place": "town", "population": "16918", "source": "http://en.wikipedia.org/wiki/Al-Qarara", "wikidata": "Q1814845", "wikipedia": "en:Al-Qarara", "wikipedia:en": "Al-Qarara"}}, {"type": "node", "id": 776438083, "lat": 31.4280377, "lon": 34.3653001, "tags": {"name": "\u0627\u0644\u0632\u0648\u0627\u064a\u062f\u0647", "name:ar": "\u0627\u0644\u0632\u0648\u0627\u064a\u062f\u0647", "name:en": "Az-Zawayda", "name:es": "Az-Zawayda", "name:fr": "Az Zaw\u00e2ydah", "name:he": "\u05d0-\u05d6\u05d0\u05d5\u05d5\u05d0\u05d9\u05d3\u05d4", "name:hr": "Az-Zavajda", "name:ko": "\uc557 \uc790\uc640\uc774\ub2e4", "name:ru": "\u0410\u043b\u044c-\u0417\u0430\u0432\u0430\u0439\u0434\u0430", "place": "town", "wikidata": "Q59623"}}, {"type": "node", "id": 2327396454, "lat": 31.4705587, "lon": 34.3968645}, {"type": "node", "id": 2327396456, "lat": 31.4730004, "lon": 34.4046573}, {"type": "node", "id": 2327396458, "lat": 31.4687889, "lon": 34.3999583}, {"type": "node", "id": 2393473142, "lat": 31.4701638, "lon": 34.3975631}, {"type": "node", "id": 3007045042, "lat": 31.5282137, "lon": 34.4831674, "tags": {"name": "\u062c\u0628\u0627\u0644\u064a\u0627", "name:ar": "\u062c\u0628\u0627\u0644\u064a\u0627", "name:de": "Dschabaliya", "name:en": "Jabalia", "name:es": "Jabalia", "name:eu": "Jabalia", "name:fr": "Jabaliya", "name:he": "\u05d2'\u05d1\u05d0\u05dc\u05d9\u05d4", "name:hr": "D\u017eabalija", "name:ja": "\u30b8\u30e3\u30d0\u30ea\u30e4", "name:ko": "\uc790\ubc1c\ub9ac\uc57c", "name:ml": "\u0d1c\u0d2c\u0d32\u0d3f\u0d2f", "name:pl": "D\u017cabalija", "name:ru": "\u0414\u0436\u0430\u0431\u0430\u043b\u0438\u044f", "name:tr": "Cebaliye", "name:uk": "\u0414\u0436\u0430\u0431\u0430\u043b\u0456\u044f", "place": "city", "population": "110000", "wikidata": "Q1015472", "wikipedia": "en:Jabalia", "wikipedia:en": "Jabalia"}}, {"type": "node", "id": 3027140623, "lat": 31.4691483, "lon": 34.4007366}, {"type": "node", "id": 3027140650, "lat": 31.4692268, "lon": 34.4008566}, {"type": "node", "id": 3171088317, "lat": 31.4742328, "lon": 34.4031628}, {"type": "node", "id": 3171088318, "lat": 31.4747676, "lon": 34.4024817}, {"type": "node", "id": 8236983638, "lat": 31.4734963, "lon": 34.4018182, "tags": {"name": "\u0627\u0644\u0632\u0647\u0631\u0627\u0621\u200e", "name:ar": "\u0627\u0644\u0632\u0647\u0631\u0627\u0621\u200e", "name:de": "Az-Zahra", "name:en": "Az-Zahra", "name:es": "Azahr\u00e1", "name:eu": "Az-Zahra", "name:fr": "Az-Zahra", "name:he": "\u05d0-\u05d6\u05d4\u05e8\u05d0\u05d0", "name:hr": "Az-Zahra", "name:ko": "\uc557 \uc790\ud750\ub77c", "place": "town"}}, {"type": "node", "id": 8237029171, "lat": 31.4217012, "lon": 34.3847246, "tags": {"name": "\u0627\u0644\u0645\u063a\u0627\u0632\u0650\u064a", "name:ar": "\u0627\u0644\u0645\u063a\u0627\u0632\u0650\u064a", "name:en": "al-Maghazi", "name:fr": "Al-Maazi", "name:he": "\u05d0\u05dc-\u05de\u05e2'\u05d0\u05d6\u05d9", "name:ja": "\u30de\u30ac\u30b8", "name:ko": "\uc54c \ub9c8\uac00\uc9c0", "name:ml": "\u0d2e\u0d17\u0d3e\u0d38\u0d3f", "place": "town"}}, {"type": "node", "id": 8237029172, "lat": 31.4490893, "lon": 34.3930673, "tags": {"name": "\u0627\u0644\u0646\u0635\u064a\u0631\u0627\u062a", "name:ar": "\u0627\u0644\u0646\u0635\u064a\u0631\u0627\u062a", "name:de": "Nuseirat", "name:en": "Nuseirat", "name:es": "Nuseirat", "name:fr": "Nuseirat", "name:he": "\u05e0\u05d5\u05e1\u05d9\u05e8\u05d0\u05ea", "name:hr": "Nusejrat", "name:ja": "\u30cc\u30bb\u30a4\u30e9\u30c8", "name:ko": "\uc548 \ub204\uc11c\uc774\ub77c\ud2b8", "name:ml": "\u0d28\u0d41\u0d38\u0d48\u0d31\u0d3e\u0d24\u0d4d\u0d24\u0d4d", "name:ru": "\u041d\u0443\u0441\u0435\u0439\u0440\u0430\u0442", "place": "town", "wikidata": "Q2918829"}}, {"type": "node", "id": 8869626459, "lat": 31.4742804, "lon": 34.4009471}, {"type": "node", "id": 8869626461, "lat": 31.4712496, "lon": 34.3976224}, {"type": "node", "id": 8869626465, "lat": 31.4695915, "lon": 34.4012825}, {"type": "node", "id": 8869626467, "lat": 31.469351, "lon": 34.3991585}, {"type": "node", "id": 8869626468, "lat": 31.4746769, "lon": 34.4013733}, {"type": "node", "id": 8869626942, "lat": 31.4715775, "lon": 34.4032487}, {"type": "node", "id": 8869626943, "lat": 31.4710079, "lon": 34.4026847}, {"type": "node", "id": 8869630178, "lat": 31.4699009, "lon": 34.3981099}, {"type": "node", "id": 9468499603, "lat": 31.469116, "lon": 34.3994334}, {"type": "node", "id": 11386816901, "lat": 31.4694448, "lon": 34.4011435}, {"type": "node", "id": 11386816902, "lat": 31.4693173, "lon": 34.4009627}, {"type": "way", "id": 223889204, "nodes": [2327396454, 2393473142, 8869630178, 8869626467, 9468499603, 2327396458, 3027140623, 3027140650, 11386816902, 11386816901, 8869626465, 8869626943, 8869626942, 2327396456, 505017364, 3171088317, 3171088318, 505025218, 8869626468, 8869626459, 505041929, 8869626461, 2327396454], "tags": {"name": "\u0627\u0644\u0632\u0647\u0631\u0629 \u0645\u062f\u064a\u0646\u0629", "name:ar": "\u0627\u0644\u0632\u0647\u0631\u0629 \u0645\u062f\u064a\u0646\u0629", "name:en": "Al-Zahra", "name:fr": "Az-Zahra", "place": "town"}}]}