{"version": 0.6, "generator": "Overpass API 0.7.62.4 2390de5a", "osm3s": {"timestamp_osm_base": "2025-01-08T06:29:44Z", "copyright": "The data included in this document is from www.openstreetmap.org. The data is made available under ODbL."}, "elements": [{"type": "node", "id": 573514405, "lat": 32.6762645, "lon": 35.9833573, "tags": {"alt_name": "\u0623\u0628\u0648 \u0642\u0646\u0637\u0631\u0629", "alt_name:ar": "\u0623\u0628\u0648 \u0642\u0646\u0637\u0631\u0629", "alt_name:de": "Abu Kentara", "alt_name:en": "Abu Qantara", "alt_name:fr": "Abou Qantara", "name": "\u062a\u0644 \u0634\u0647\u0627\u0628", "name:ar": "\u062a\u0644 \u0634\u0647\u0627\u0628", "name:de": "Tell Schihab", "name:en": "Tell Shihab", "name:fr": "Tell Chihab", "name:he": "\u05ea\u05dc \u05e9\u05d4\u05d0\u05d1", "name:ja": "\u30bf\u30c3\u30eb\u30fb\u30b7\u30cf\u30fc\u30d6", "name:ko": "\ud0c8\uc2dc\ud558\ube0c", "name:ru": "\u0422\u0430\u043b\u043b\u044c-\u0428\u0438\u0445\u0430\u0431", "place": "town", "population": "9430", "population:date": "2004", "source:population": "\u0627\u0644\u0645\u0643\u062a\u0628 \u0627\u0644\u0645\u0631\u0643\u0632\u064a \u0644\u0644\u0625\u062d\u0635\u0627\u0621"}}, {"type": "node", "id": 573514757, "lat": 32.6756191, "lon": 36.0569421, "tags": {"name": "\u0627\u0644\u064a\u0627\u062f\u0648\u062f\u0629", "name:ar": "\u0627\u0644\u064a\u0627\u062f\u0648\u062f\u0629", "name:de": "al-Jaduda", "name:en": "Al-Yaduda", "name:fr": "Al-Yaduda", "name:he": "\u05d0\u05dc-\u05d9\u05d0\u05d3\u05d5\u05d3\u05d4", "name:ja": "\u30a2\u30eb\u30a0\u30e4\u30c9\u30a5\u30fc\u30c0", "name:ko": "\uc54c\uc57c\ub450\ub2e4", "name:ru": "\u0410\u043b\u044c-\u042f\u0434\u0443\u0434\u0430", "place": "town", "population": "8967", "population:date": "2004", "source:population": "\u0627\u0644\u0645\u0643\u062a\u0628 \u0627\u0644\u0645\u0631\u0643\u0632\u064a \u0644\u0644\u0625\u062d\u0635\u0627\u0621"}}, {"type": "node", "id": 573515006, "lat": 32.711093, "lon": 36.0269289, "tags": {"name": "\u0645\u0632\u064a\u0631\u064a\u0628", "name:ar": "\u0645\u0632\u064a\u0631\u064a\u0628", "name:de": "Meseireb", "name:en": "Mezeireb", "name:fr": "Mezeireb", "name:he": "\u05de\u05d6\u05d9\u05e8\u05d9\u05d1", "name:ja": "\u30e1\u30bc\u30a4\u30ec\u30d6", "name:ko": "\uba54\uc81c\uc774\ub808\ube0c", "name:ml": "\u0d2e\u0d41\u0d38\u0d48\u0d31\u0d3f\u0d2c\u0d4d", "name:ru": "\u041c\u0435\u0437\u0435\u0439\u0440\u0435\u0431", "place": "town", "population": "12640", "population:date": "2004", "source:population": "\u0627\u0644\u0645\u0643\u062a\u0628 \u0627\u0644\u0645\u0631\u0643\u0632\u064a \u0644\u0644\u0625\u062d\u0635\u0627\u0621", "wikidata": "Q6944401", "wikipedia": "ar:\u0627\u0644\u0645\u0632\u064a\u0631\u064a\u0628"}}, {"type": "node", "id": 3823795773, "lat": 32.5086069, "lon": 36.00517}, {"type": "node", "id": 3823795774, "lat": 32.5131082, "lon": 35.9831176}, {"type": "node", "id": 3823795775, "lat": 32.5269235, "lon": 36.0143624}, {"type": "node", "id": 3823795776, "lat": 32.5305237, "lon": 36.0440242}, {"type": "node", "id": 3823795777, "lat": 32.5308451, "lon": 35.9888945}, {"type": "node", "id": 3823795778, "lat": 32.5460157, "lon": 35.9765418}, {"type": "node", "id": 3823795779, "lat": 32.5739718, "lon": 35.9759318}, {"type": "node", "id": 3823795780, "lat": 32.5744353, "lon": 36.042752}, {"type": "node", "id": 3823795781, "lat": 32.5830957, "lon": 35.9806594}, {"type": "node", "id": 3823795782, "lat": 32.5818634, "lon": 36.0334127}, {"type": "node", "id": 3823795783, "lat": 32.5887496, "lon": 35.9983497}, {"type": "node", "id": 5758978345, "lat": 32.5808034, "lon": 36.0389353}, {"type": "node", "id": 5758978352, "lat": 32.5761994, "lon": 36.0414828}, {"type": "node", "id": 5903234027, "lat": 32.5320544, "lon": 35.9879099}, {"type": "node", "id": 6848887836, "lat": 32.6394347, "lon": 35.9895072, "tags": {"name": "\u0627\u0644\u0637\u0631\u0647", "name:ceb": "A\u0163 \u0162urrah", "name:en": "Al-Turah", "name:es": "At-Turrah", "name:fr": "At Turrah", "name:ml": "\u0d05\u0d24\u0d4d\u0d24\u0d41\u0d31", "name:sv": "A\u0163 \u0162urrah", "place": "town"}}, {"type": "node", "id": 6947432624, "lat": 32.5346399, "lon": 36.043905}, {"type": "node", "id": 6960008234, "lat": 32.5747711, "lon": 36.0425104}, {"type": "node", "id": 6960008236, "lat": 32.5748471, "lon": 36.0424557}, {"type": "node", "id": 9647063460, "lat": 32.5826206, "lon": 36.0295529}, {"type": "way", "id": 379035377, "nodes": [3823795781, 3823795779, 3823795778, 5903234027, 3823795777, 3823795774, 3823795773, 3823795775, 3823795776, 6947432624, 3823795780, 6960008234, 6960008236, 5758978352, 5758978345, 3823795782, 9647063460, 3823795783, 3823795781], "tags": {"int_name": "Ar Ramth\u0101; Al Ramtha; Al Remtha", "is_in": "Jordan, \u0627\u0644\u0623\u0631\u062f\u0646", "name": "\u0627\u0644\u0631\u0645\u062b\u0627", "name:ar": "\u0627\u0644\u0631\u0645\u062b\u0627", "name:de": "Al Ramtha", "name:en": "Al Ramtha", "name:fr": "Al Ramtha", "name:ru": "\u042d\u0440-\u0420\u0430\u043c\u0442\u0430", "place": "town", "wikidata": "Q31594", "wikipedia": "en:Ar Ramtha"}}]}