{"version": 0.6, "generator": "Overpass API 0.7.62.4 2390de5a", "osm3s": {"timestamp_osm_base": "2025-01-08T06:26:38Z", "copyright": "The data included in this document is from www.openstreetmap.org. The data is made available under ODbL."}, "elements": [{"type": "node", "id": 10652051592, "lat": 26.0172021, "lon": 56.1300253, "tags": {"alt_name": "\u1e24\u0101rat Al Awalah;Al Awalah;Harat Al Awalah", "name": "Harat Al Awalah - \u062d\u0627\u0631\u0629 \u0639\u0648\u0627\u0644\u064a", "name:ar": "\u062d\u0627\u0631\u0629 \u0639\u0648\u0627\u0644\u064a", "name:en": "\u1e28\u0101rat \u2018Aw\u0101l\u012b", "name:es": "Harat Awali", "name:fr": "H\u00e2rat Aw\u00e2l\u00ee", "place": "town", "source": "https://ae.geoview.info/harat_%60awali;388439;The national atlas of the United Arab Emirates;https://www.agda.ae/en/catalogue/tna/fco/18/1861/n/1", "wikidata": "Q5654283"}}, {"type": "node", "id": 10690305763, "lat": 25.7937833, "lon": 56.2056049, "tags": {"GNS:id": "140933", "alt_name": "Sabtan;Sab\u0163\u0101n;Sibtan;Sib\u1e6d\u0101n, Subtan, Sub\u0163\u0101n;sbtan;\u0633\u0628\u0637\u0627\u0646", "name": "Sabtan", "name:en": "Sub\u0163\u0101n", "name:es": "Sub\u0163\u0101n", "place": "town", "source": "https://om.geoview.info/subtan;390028;https://www.mindat.org/feature-390028.html"}}, {"type": "node", "id": 10690410987, "lat": 25.7559787, "lon": 56.1699809, "tags": {"alt_name": "Bahar, Al Bahar, Al-Bahr", "name": "Bahar", "name:ar": "\u062f\u064a\u0631\u0629 \u0627\u0644\u0628\u0647\u0631", "name:de": "Bahar", "name:en": "Bahar", "name:es": "Bahar", "name:fr": "Bahar", "place": "town", "source": "local knowledge"}}, {"type": "node", "id": 10694779544, "lat": 25.8459436, "lon": 56.1718255, "tags": {"GNS:id": "140899", "alt_name": "D\u0435\u0304rat '\u0415\u0304n\u012b;'Ini;Aini, Ayni;Ayn\u012b;ayny;\u0623\u064a\u0646\u064a;\u2019\u012an\u012b", "description": "Alternative Names:\tD\u0435\u0304rat '\u0415\u0304n\u012b, 'Ini, Aini, Ayni, Ayn\u012b, ayny, \u0623\u064a\u0646\u064a, \u2019\u012an\u012b", "name": "Aini", "name:en": "Aini", "name:es": "Aini", "name:fr": "Aini", "place": "town", "source": "https://om.geoview.info/aini;https://www.mindat.org/feature-390009.html;https://www.agda.ae/en/catalogue/tna/fco/18/1863;The national atlas of the United Arab Emirates", "wikidata": "Q125536436"}}, {"type": "node", "id": 10758835612, "lat": 25.8652503, "lon": 56.2832774, "tags": {"description": "Alternative Names:\tAr Rawdah, Ar Raw\u1e0dah, Ar Raw\u1e11ah, Rawdah, Raw\u1e11ah, alrwdt, \u0627\u0644\u0631\u0651\u0648\u0636\u0629.See also Ar Rawdah Airstrip", "name": "Ar Rawdah \u0627\u0644\u0631\u0651\u0648\u0636\u0629", "name:ar": "\u0627\u0644\u0631\u0651\u0648\u0636\u0629", "name:de": "Ar Rawda", "name:en": "Ar Rawdah", "name:es": "Ar Rawda", "name:fr": "Ar Rawda", "place": "town", "source": "https://www.mindat.org/feature-286763.html"}}, {"type": "node", "id": 10784806559, "lat": 25.9671251, "lon": 56.206236, "tags": {"alt_name": "Ra`lat al Yas, Ra\u2018lat al Y\u0101s, \u0631\u0639\u0644\u0629 \u0627\u0644\u064a\u0627\u0633", "name": "\u0631\u0639\u0644\u0629 \u0627\u0644\u064a\u0627\u0633", "name:ar": "\u0631\u0639\u0644\u0629 \u0627\u0644\u064a\u0627\u0633", "name:de": "Ra'lat al Yas", "name:en": "Ra'lat al Yas", "name:es": "Ra'lat al Yas", "name:fr": "Ra'lat al Yas", "place": "town", "source": "https://www.mindat.org/feature-11763542.html"}}, {"type": "node", "id": 10784855265, "lat": 25.995499, "lon": 56.2165616, "tags": {"name": "\u0627\u0644\u0631\u0651\u0643\u0628\u0629", "name:ar": "\u0627\u0644\u0631\u0651\u0643\u0628\u0629", "name:de": "Ar Rakba", "name:en": "Ar Rakbah", "name:es": "Ar Rakba", "name:fr": "Ar Rakba", "place": "town", "source": "https://www.mindat.org/feature-11763471.html"}}, {"type": "node", "id": 10784886796, "lat": 25.9930706, "lon": 56.2118632, "tags": {"alt_name": "As Say\u1e25;As Say\u1e29;alsyh;\u0627\u0644\u0633\u0651\u064a\u062d", "name": "\u0627\u0644\u0633\u0651\u064a\u062d", "name:ar": "\u0627\u0644\u0633\u0651\u064a\u062d", "name:de": "As Sayh", "name:en": "As Sayh", "name:es": "As Sayh", "name:fr": "As Sayh", "place": "town", "source": "https://www.mindat.org/feature-11763548.html"}}, {"type": "node", "id": 10784892409, "lat": 25.9973094, "lon": 56.2117022, "tags": {"alt_name": "Al Mas'adah, Al Masa'dah, Al Masa\u2019dah, Al Mas\u2019adah, almsadt, \u0627\u0644\u0645\u0633\u0623\u062f\u0629", "name": "\u0627\u0644\u0645\u0633\u0623\u062f\u0629", "name:ar": "\u0627\u0644\u0645\u0633\u0623\u062f\u0629", "name:de": "Al Mas'ada", "name:en": "Al Mas'adah", "name:es": "Al Mas'ada", "name:fr": "Al Mas'ada", "place": "town", "source": "https://www.mindat.org/feature-11763549.html"}}, {"type": "node", "id": 10811370710, "lat": 25.9036406, "lon": 56.2051206, "tags": {"alt_name": "Al Jannur, Al Jann\u016br, aljnwr, \u0627\u0644\u062c\u0646\u0651\u0648\u0631", "name": "Al Jannur", "place": "town", "source": "https://www.mindat.org/feature-11763490.html"}}, {"type": "node", "id": 10811392135, "lat": 25.8633714, "lon": 56.2182313, "tags": {"alt_name": "Salhad, Sal\u1e25ad, Sal\u1e29ad, slhd, \u0633\u0644\u062d\u062f", "description": "Map of Trucial States, Muscat and Oman - Rams - Scale 1:100 000 - Published by D Survey, Ministry of Defence, United Kingdom (1971) - Edition 3-GSGS - The National Archives, London, England", "is_in:country": "Oman", "name": "Salhad - \u0633\u0644\u062d\u062f", "name:ar": "\u0633\u0644\u062d\u062f", "name:de": "Salhad", "name:en": "Sal\u1e25ad", "name:es": "Salhad", "name:fr": "Salhad", "place": "town", "source": "https://www.mindat.org/feature-390037.html;The national atlas of the United Arab Emirates"}}, {"type": "node", "id": 10811392576, "lat": 25.8655557, "lon": 56.2352408, "tags": {"alt_name": "Al Asmat, Al Asma\u0163, Al Asma\u1e6d, alasmt, \u0627\u0644\u0623\u0633\u0645\u0637", "name": "Al Asmat", "place": "town", "source": "https://www.mindat.org/feature-11763496.html"}}, {"type": "node", "id": 10819947880, "lat": 25.7964799, "lon": 56.1963875, "tags": {"GNS:id": "14423448", "alt_name": "Bayn `Aynayn;Bayn \u2018Aynayn;\u0628\u064a\u0646 \u0639\u064a\u0646\u064a\u0646", "description": "Alternative Names:\tBayn `Aynayn, Bayn \u2018Aynayn, \u0628\u064a\u0646 \u0639\u064a\u0646\u064a\u0646", "name": "Bayn \u2018Aynayn", "name:en": "Bayn \u2018Aynayn", "name:es": "Bayn \u2018Aynayn", "name:fr": "Bayn \u2018Aynayn", "place": "town", "source": "https://www.mindat.org/feature-11763509.html"}}, {"type": "node", "id": 10819959224, "lat": 25.7934689, "lon": 56.1951984, "tags": {"alt_name": "Hadbayn;hdbyn;\u062d\u062f\u0628\u064a\u0646;\u1e24adbayn;\u1e28adbayn", "name": "Hadbayn", "name:en": "Hadbayn", "name:es": "Hadbayn", "name:fr": "Hadbayn", "place": "town", "source": "https://www.mindat.org/feature-11763510.html"}}, {"type": "node", "id": 10819960225, "lat": 25.7801324, "lon": 56.2137322, "tags": {"GNS:id": "14423453", "alt_name": "Wa`ab `Abdah;Wa\u2018ab \u2018Abdah;\u0639\u0628 \u0639\u0628\u062f\u0629", "description": "Alternative Names:\tWa`ab `Abdah, Wa\u2018ab \u2018Abdah, \u0648\u0639\u0628 \u0639\u0628\u062f\u0629", "int_name": "Wa`ab `Abdah", "name": "Wa`ab `Abdah", "name:ar": "\u0648\u0639\u0628 \u0639\u0628\u062f\u0629", "name:en": "Wa`ab `Abdah", "name:es": "Wa`ab `Abdah", "name:fr": "Wa`ab `Abdah", "place": "town", "source": "https://www.mindat.org/feature-11763514.html"}}, {"type": "node", "id": 10825234326, "lat": 25.7407869, "lon": 56.1300106, "tags": {"image": "https://commons.wikimedia.org/wiki/File:Silay_al_Khatami_-_2.jpg", "name": "Silay Al Khatami", "name:ar": "\u062f\u064a\u0631\u0629 \u0633\u0644\u064a \u0627\u0644\u062e\u062b\u0639\u0645\u064a", "name:de": "Silay Al Khatami", "name:en": "Silay Al Khatami", "name:es": "Silay Al Khatami", "name:fr": "Silay Al Khatami", "note": "Silay Al Khatami Deira Al-Sali Al-Khathami\u062f\u064a\u0631\u0629 \u0633\u0644\u064a \u0627\u0644\u062e\u062b\u0639\u0645\u064aOn map. FCO 18/1970 - 1959 - Sketch map drawn by Julian Walker for boundary delimitation: Dibba appears under the name of Silail", "place": "town", "source": "The national atlas of the United Arab Emirates;Map. FCO 18/1970 - 1959 - Sketch map drawn by Julian Walker for boundary delimitation: Dibba;survey", "wikidata": "Q124805631", "wikimedia_commons": "Category:Silay al Khatami", "wikipedia": "es:Silay Al Khatami"}}, {"type": "node", "id": 11583736932, "lat": 25.8210303, "lon": 56.1388114, "tags": {"place": "town"}}, {"type": "node", "id": 11586519912, "lat": 25.753526, "lon": 56.1351963, "tags": {"name": "Danam", "name:en": "Danam", "name:es": "Danam", "name:fr": "Danam", "place": "town", "source": "Honour is in contentment : life before oil in Ras al-Khaimah (UAE) and some neighbouring regions. Lancaster", "wikidata": "Q125956154"}}, {"type": "node", "id": 11590955170, "lat": 25.97793, "lon": 56.1253796, "tags": {"name": "Wasideh", "name:en": "Wasideh", "name:es": "Wasideh", "name:fr": "Wasideh", "name:ml": "\u0d35\u0d38\u0d40\u0d26\u0d47", "place": "town", "source": "The national atlas of the United Arab Emirates"}}, {"type": "node", "id": 11594538943, "lat": 25.7507167, "lon": 56.1472024, "tags": {"alt_name": "Qada`a, Qada`ah, Qadda`a, Qada\u2018a, Qada\u2018ah, Qadda\u2018a, Kida'ah", "description": "Alternative names: Kida'ah, Qada`a, Qada`ah, Qadda`a, Qada\u2018a, Qada\u2018ah, Qadda\u2018a", "image": "https://commons.wikimedia.org/wiki/File:Qada%C2%B4ah_Village_-_1.jpg", "int_name": "Kida'a", "is_in": "UAE", "name": "Qada'ah", "name:en": "Qada'ah", "name:es": "Qada'ah", "name:fr": "Qada'ah", "place": "town", "source": "The national atlas of the United Arab Emirates;local knowledge", "wikimedia_commons": "Category:Qada'ah"}}, {"type": "node", "id": 11607539089, "lat": 25.754645, "lon": 56.2005525, "tags": {"alt_name": "Al Maqam, Al Maq\u0101m, almqam, \u0627\u0644\u0645\u0642\u0627\u0645", "int_name": "Al Maqam", "name": "Al Maqam", "name:ar": "\u0627\u0644\u0645\u0642\u0627\u0645", "name:en": "Al Maqam", "name:es": "Al Maqam", "name:fr": "Al Maqam", "place": "town", "source": "https://www.mindat.org/feature-11763522.html"}}, {"type": "node", "id": 11607685890, "lat": 25.7700606, "lon": 56.2052322, "tags": {"alt_name": "Ad Da`nah, Ad Danah, Ad Da\u2018nah, Ad D\u0101nah, Dana, aldant, \u0627\u0644\u062f\u0651\u0627\u0646\u0629", "description": "Alternative Names:\tAd Da`nah, Ad Danah, Ad Da\u2018nah, Ad D\u0101nah, Dana, aldant, \u0627\u0644\u062f\u0651\u0627\u0646\u0629", "int_name": "Ad Danah", "name": "Ad Danah", "name:ar": "\u0627\u0644\u062f\u0651\u0627\u0646\u0629", "name:en": "Ad Danah", "name:es": "Ad Danah", "name:fr": "Ad Danah", "place": "town", "source": "https://www.mindat.org/feature-396366.html"}}, {"type": "node", "id": 11608027588, "lat": 25.7874086, "lon": 56.2087578, "tags": {"alt_name": "Ar Rakbah, alrkbt, \u0627\u0644\u0631\u0651\u0643\u0628\u0629", "description": "Alternative Names:\tAr Rakbah, alrkbt, \u0627\u0644\u0631\u0651\u0643\u0628\u0629", "int_name": "Ar Rakbah", "is_in": "Oman", "name": "Ar Rakbah", "name:ar": "\u0627\u0644\u0631\u0651\u0643\u0628\u0629", "name:en": "Ar Rakbah", "name:es": "Ar Rakbah", "name:fr": "Ar Rakbah", "place": "town", "source": "https://www.mindat.org/feature-11763513.html"}}, {"type": "node", "id": 11723044958, "lat": 25.8314256, "lon": 56.3559728, "tags": {"alt_name": "Ash Sharyah al `Aqqah, Ash Sharyah al `Uqqah, Ash Sharyah al \u2018Aqqah, Ash Sharyah al \u2018Uqqah, \u0627\u0644\u0634\u0651\u0631\u064a\u0629 \u0627\u0644\u0639\u0642\u0651\u0629", "name": "Ash Sharyah al \u2018Aqqah", "name:en": "Ash Sharyah al \u2018Aqqah", "name:es": "Ash Sharyah al \u2018Aqqah", "name:fr": "Ash Sharyah al \u2018Aqqah", "place": "town", "source": "https://www.mindat.org/feature-11773459.html"}}, {"type": "node", "id": 11822065492, "lat": 25.8322566, "lon": 56.237043, "tags": {"name": "Majjah", "name:en": "Majjah", "name:es": "Majjah", "name:fr": "Majjah", "place": "town", "source": "https://www.mindat.org/feature-11763505.html"}}, {"type": "node", "id": 11822086724, "lat": 25.8168933, "lon": 56.1871849, "tags": {"GNS:id": "14423472", "alt_name": "\u1e28afil", "name": "Hafil", "name:en": "Hafil", "name:es": "Hafil", "name:fr": "Hafil", "place": "town", "source": "https://www.mindat.org/feature-11763532.html"}}, {"type": "node", "id": 11828816888, "lat": 25.8475556, "lon": 56.3607991, "tags": {"alt_name": "Ash Sharyah al Hulwah", "description": "Alternative Names:\tAsh Sharyah al Hulwah, Ash Sharyah al \u1e24ulwah, Ash Sharyah al \u1e28ulwah, Sharyah, alshryt alhlwt, \u0627\u0644\u0634\u0651\u0631\u064a\u0629 \u0627\u0644\u062d\u0644\u0648\u0629", "name": "Ash Sharyah al \u1e28ulwah", "name:en": "Ash Sharyah al \u1e28ulwah", "name:es": "Ash Sharyah al \u1e28ulwah", "name:fr": "Ash Sharyah al \u1e28ulwah", "place": "town", "source": "https://www.mindat.org/feature-407220.html"}}, {"type": "node", "id": 11828910506, "lat": 25.8289744, "lon": 56.1378433, "tags": {"place": "town"}}, {"type": "node", "id": 11832607336, "lat": 25.8299334, "lon": 56.178589, "tags": {"place": "town"}}, {"type": "node", "id": 11851040609, "lat": 26.0551052, "lon": 56.1500798, "tags": {"place": "town"}}, {"type": "node", "id": 11902496716, "lat": 25.7570818, "lon": 56.3187239, "tags": {"alt_name": "Haffah, hft, \u062d\u0641\u0651\u0629, \u1e24affah, \u1e28affah", "name": "\u1e28affah", "name:en": "\u1e28affah", "name:es": "\u1e28affah", "name:fr": "\u1e28affah", "name:ml": "\u0d39\u0d2b\u0d4d\u0d2b", "place": "town", "source": "https://www.mindat.org/feature-288179.html"}}, {"type": "node", "id": 11902529278, "lat": 25.7445444, "lon": 56.2656617, "tags": {"GNS:id": "14427639", "alt_name": "Al Mahyab al A`la;Al Ma\u1e25yab al A\u2018l\u00e1;Al Muhayb al A`la;Al Mu\u1e29ayb al A\u2018l\u00e1, \u0627\u0644\u0645\u062d\u064a\u0628 \u0627\u0644\u0623\u0639\u0644\u0649", "name": "Al Mu\u1e29ayb al A\u2018l\u00e1", "name:ar": "\u0627\u0644\u0645\u062d\u064a\u0628 \u0627\u0644\u0623\u0639\u0644\u0649", "name:en": "Al Mu\u1e29ayb al A\u2018l\u00e1", "name:es": "Al Mu\u1e29ayb al A\u2018l\u00e1", "name:fr": "Al Mu\u1e29ayb al A\u2018l\u00e1", "place": "town", "source": "https://www.mindat.org/feature-11764742.html"}}]}