{"version": 0.6, "generator": "Overpass API 0.7.62.4 2390de5a", "osm3s": {"timestamp_osm_base": "2025-01-08T06:23:32Z", "copyright": "The data included in this document is from www.openstreetmap.org. The data is made available under ODbL."}, "elements": [{"type": "node", "id": 1719551118, "lat": 23.98, "lon": 55.84, "tags": {"alt_name": "\u062d\u0641\u064a\u062a", "int_name": "\u1e28af\u012bt, Hafit", "name": "\u062d\u0641\u064a\u062a", "name:ar": "\u062d\u0641\u064a\u062a", "name:ar1": "\u062d\u0641\u064a\u062a", "name:de": "Hafit", "name:en": "Hafit", "name:fr": "Hafit", "name:uk": "\u0425\u0430\u0444\u0456\u0442", "place": "town"}}, {"type": "node", "id": 11954429193, "lat": 23.6067616, "lon": 55.9539865, "tags": {"alt_name": "As Sunaynah, Sunainah, Sunaynah, alsnynt, \u0627\u0644\u0633\u0646\u064a\u0646\u0629", "name": "As Sunaynah", "name:en": "As Sunaynah", "name:es": "As Sunaynah", "name:fr": "As Sunaynah", "place": "town", "source": "https://www.mindat.org/feature-288958.html"}}, {"type": "node", "id": 11954453014, "lat": 23.6212381, "lon": 55.9534578, "tags": {"alt_name": "Ar Rayhani, Ar Rihani, Ar R\u0101y\u1e25\u0101n\u012b, Ar R\u0101y\u1e29\u0101n\u012b, Ar R\u012b\u1e29\u0101n\u012b, Rihani, alryhany, \u0627\u0644\u0631\u064a\u062d\u0627\u0646\u064a", "name": "Ar Rayhani", "name:de": "Ar Rayhani", "name:en": "Ar Rayhani", "name:es": "Ar Rayhani", "name:fr": "Ar Rayhani", "place": "town", "source": "https://www.mindat.org/feature-289014.html"}}, {"type": "node", "id": 11954469748, "lat": 23.6035592, "lon": 55.9292683, "tags": {"alt_name": "Al Harmouzi, Al Harmuzi, Al Harm\u016bz\u012b, Harmuzi, Harm\u016bz\u012b, alhrmwzy, \u0627\u0644\u0647\u0631\u0645\u0648\u0632\u064a", "name": "Al Harmuzi", "name:en": "Al Harmuzi", "name:es": "Al Harmuzi", "name:fr": "Al Harmuzi", "place": "town", "source": "https://www.mindat.org/feature-289271.html"}}]}