{"version": 0.6, "generator": "Overpass API 0.7.62.4 2390de5a", "osm3s": {"timestamp_osm_base": "2025-01-08T07:29:58Z", "copyright": "The data included in this document is from www.openstreetmap.org. The data is made available under ODbL."}, "elements": [{"type": "node", "id": 1404225503, "lat": 3.851941, "lon": 45.565115, "tags": {"alt_name": "Buulobarde, Buloburte, Buloburde", "name": "Bulo Burto \u0628\u0648\u0644\u0648 \u0628\u0648\u0631\u062a\u064a", "name:ar": "\u0628\u0648\u0644\u0648 \u0628\u0648\u0631\u062a\u064a", "name:de": "Buulobarde", "name:en": "Bulo Burto", "name:eo": "Buuloburde", "name:fr": "Buloburde", "name:it": "Bulo Burti", "name:pl": "Buuloburde", "name:ro": "Buulaburte", "name:ru": "\u0411\u0443\u043b\u043e-\u0411\u0443\u0440\u0442\u0438", "name:so": "Buulo Burde", "name:sw": "Buulobarde", "name:ur": "\u0628\u0648\u0644\u0648\u0628\u0648\u0631\u062f", "pcode": "NA-3803-D13-001", "place": "town", "source": "UNDP - 2006, UNDP - 1997, FSAU", "wikidata": "Q1018265", "wikipedia": "en:Buloburde"}}, {"type": "node", "id": 8963311141, "lat": 3.8623171, "lon": 45.5752265, "tags": {"place": "town"}}]}