{"version": 0.6, "generator": "Overpass API 0.7.62.4 2390de5a", "osm3s": {"timestamp_osm_base": "2025-01-08T06:24:35Z", "copyright": "The data included in this document is from www.openstreetmap.org. The data is made available under ODbL."}, "elements": [{"type": "node", "id": 1719474135, "lat": 24.429492, "lon": 56.6102575, "tags": {"alt_name": "\u0641\u0644\u062c \u0627\u0644\u0642\u0628\u0627\u0626\u0644", "int_name": "Falaj al Qab\u0101il, Falaj al Qabail", "name": "\u0641\u0644\u062c \u0627\u0644\u0642\u0628\u0627\u0626\u0644", "name:ar": "\u0641\u0644\u062c \u0627\u0644\u0642\u0628\u0627\u0626\u0644", "name:ar1": "\u0641\u0644\u062c \u0627\u0644\u0642\u0628\u0627\u0626\u0644", "name:de": "Falaj al Qabail", "name:en": "Falaj al Qabail", "name:fr": "Falaj al Qabail", "name:ml": "\u0d2b\u0d32\u0d1c\u0d4d \u0d05\u0d7d-\u0d16\u0d41\u0d2c\u0d48\u0d7d", "place": "town"}}, {"type": "node", "id": 1719474165, "lat": 24.4704883, "lon": 56.6031114, "tags": {"alt_name": "\u063a\u0636\u0641\u0627\u0646", "int_name": "Gha\u1e11f\u0101n, Ghadfan", "name": "\u063a\u0636\u0641\u0627\u0646", "name:ar": "\u063a\u0636\u0641\u0627\u0646", "name:ar1": "\u063a\u0636\u0641\u0627\u0646", "name:de": "Ghadfan", "name:en": "Ghadfan", "name:fr": "Ghadfan", "place": "town"}}, {"type": "node", "id": 1719474278, "lat": 24.457285, "lon": 56.6511158, "tags": {"alt_name": "\u0645\u062c\u064a\u0633", "int_name": "Maj\u012bs, Majis", "name": "\u0645\u062c\u064a\u0633", "name:ar": "\u0645\u062c\u064a\u0633", "name:ar1": "\u0645\u062c\u064a\u0633", "name:de": "Majis", "name:en": "Majis", "name:fr": "Majis", "place": "town"}}, {"type": "node", "id": 11874865262, "lat": 24.4311086, "lon": 56.3995671, "tags": {"alt_name": "Luhsayyah, Lu\u1e25\u1e63ayyah, Lu\u1e29\u015fayyah, lhsyt, \u0644\u062d\u0635\u064a\u0651\u0629", "name": "Luhsayyah", "name:en": "Luhsayyah", "name:es": "Luhsayyah", "name:fr": "Luhsayyah", "place": "town", "source": "https://www.mindat.org/feature-11800438.html"}}, {"type": "node", "id": 11874948651, "lat": 24.4090991, "lon": 56.3920303, "tags": {"alt_name": "Sidr al Hawajir, Sidr al \u1e24aw\u0101jir, Sidr al \u1e28aw\u0101jir, sdr alhwajr, \u0633\u062f\u0631 \u0627\u0644\u062d\u0648\u0627\u062c\u0631", "name": "Sidr al \u1e28aw\u0101jir", "name:en": "Sidr al \u1e28aw\u0101jir", "name:es": "Sidr al \u1e28aw\u0101jir", "name:fr": "Sidr al \u1e28aw\u0101jir", "place": "town", "source": "https://www.mindat.org/feature-11800440.html"}}, {"type": "node", "id": 11874951581, "lat": 24.4352372, "lon": 56.3563651, "tags": {"alt_name": "Al Jawin, Al Jaw\u012bn, Al Juwayn, aljwyn, \u0627\u0644\u062c\u0648\u064a\u0646", "name": "Al Juwayn", "name:en": "Al Juwayn", "name:es": "Al Juwayn", "name:fr": "Al Juwayn", "place": "town", "source": "https://www.mindat.org/feature-11800429.html"}}, {"type": "node", "id": 11874970537, "lat": 24.3636671, "lon": 56.4290627, "tags": {"alt_name": "Al `Arja', Al \u2018Arj\u0101\u2019, \u0627\u0644\u0639\u0631\u062c\u0627\u0621", "name": "Al `Arja'", "name:en": "Al `Arja'", "name:es": "Al `Arja'", "name:fr": "Al `Arja'", "place": "town", "source": "https://www.mindat.org/feature-11800466.html"}}, {"type": "node", "id": 11874985434, "lat": 24.400624, "lon": 56.409938, "tags": {"alt_name": "Jafr an Nudud, Jafr an Nud\u016bd, Jifar an Nidud, Jifar an Nid\u016bd, jfr alndwd, \u062c\u0641\u0631 \u0627\u0644\u0646\u0651\u062f\u0648\u062f", "name": "Jafr an Nud\u016bd", "name:en": "Jafr an Nud\u016bd", "name:es": "Jafr an Nud\u016bd", "name:fr": "Jafr an Nud\u016bd", "place": "town", "source": "https://www.mindat.org/feature-11800441.html"}}, {"type": "node", "id": 11874990464, "lat": 24.3736161, "lon": 56.4201928, "tags": {"alt_name": "Az Zahir, Az Z\u0101hir, alzahr, \u0627\u0644\u0632\u0651\u0627\u0647\u0631", "name": "Az Zahir", "name:en": "Az Zahir", "name:es": "Az Zahir", "name:fr": "Az Zahir", "place": "town", "source": "https://www.mindat.org/feature-11800443.html"}}, {"type": "node", "id": 12001780519, "lat": 24.4823544, "lon": 56.3182178}, {"type": "node", "id": 12001780520, "lat": 24.4825811, "lon": 56.3189114}, {"type": "node", "id": 12001780521, "lat": 24.4831274, "lon": 56.3197948}, {"type": "node", "id": 12001780522, "lat": 24.4831687, "lon": 56.3200355}, {"type": "node", "id": 12001780523, "lat": 24.4830733, "lon": 56.3203469}, {"type": "node", "id": 12001780524, "lat": 24.4833078, "lon": 56.3206103}, {"type": "node", "id": 12001780525, "lat": 24.4837536, "lon": 56.3202988}, {"type": "node", "id": 12001780526, "lat": 24.4839958, "lon": 56.3199685}, {"type": "node", "id": 12001780527, "lat": 24.4840362, "lon": 56.3195988}, {"type": "node", "id": 12001780528, "lat": 24.4840407, "lon": 56.3191847}, {"type": "node", "id": 12001780529, "lat": 24.4834171, "lon": 56.3192143}, {"type": "node", "id": 12001780530, "lat": 24.4832601, "lon": 56.3186671}, {"type": "node", "id": 12001780531, "lat": 24.4834485, "lon": 56.3182629}, {"type": "node", "id": 12001780532, "lat": 24.4833677, "lon": 56.318041}, {"type": "node", "id": 12001780533, "lat": 24.483112, "lon": 56.3178981}, {"type": "node", "id": 12001780534, "lat": 24.4827127, "lon": 56.3179424}, {"type": "node", "id": 12084404704, "lat": 24.2289318, "lon": 56.3182919, "tags": {"alt_name": "Al Hiwiylat, Al Huwaylat, Al \u1e24iwiyl\u0101t, Al \u1e28uwayl\u0101t, alhwylat, \u0627\u0644\u062d\u0648\u064a\u0644\u0627\u062a", "name": "Al Huwaylat", "name:en": "Al Huwaylat", "name:es": "Al Huwaylat", "name:fr": "Al Huwaylat", "place": "town", "source": "https://www.mindat.org/feature-11813850.html;https://www.agda.ae/en/catalogue/tna/fco/18/1796/n/1"}}, {"type": "node", "id": 12272127603, "lat": 24.4833288, "lon": 56.3194752, "tags": {"alt_name": "Majhal;mjhl;\u0645\u062c\u0647\u0644", "name": "Majhal", "name:en": "Majhal", "name:es": "Majhal", "name:fr": "Majhal", "place": "town", "source": "https://www.mindat.org/feature-287383.html"}}, {"type": "node", "id": 12293973434, "lat": 24.2253184, "lon": 56.3320998, "tags": {"GNS:id": "14492607", "alt_name": "Say\u1e29 Z\u0327ahr al Kh\u0101rij", "name": "Say\u1e25 \u1e92ahar al Kh\u0101rij", "name:ar": "\u0633\u064a\u062d \u0638\u0647\u0631 \u0627\u0644\u062e\u0627\u0631\u062c", "name:en": "Say\u1e25 \u1e92ahar al Kh\u0101rij", "name:es": "Say\u1e25 \u1e92ahar al Kh\u0101rij", "name:fr": "Say\u1e25 \u1e92ahar al Kh\u0101rij", "place": "town"}}, {"type": "way", "id": 1295101646, "nodes": [12001780519, 12001780520, 12001780521, 12001780522, 12001780523, 12001780524, 12001780525, 12001780526, 12001780527, 12001780528, 12001780529, 12001780530, 12001780531, 12001780532, 12001780533, 12001780534, 12001780519], "tags": {"alt_name": "Majhal;mjhl;\u0645\u062c\u0647\u0644", "name": "Majhal", "name:en": "Majhal", "name:es": "Majhal", "name:fr": "Majhal", "place": "town", "source": "https://www.mindat.org/feature-287383.html"}}]}