{"version": 0.6, "generator": "Overpass API 0.7.62.4 2390de5a", "osm3s": {"timestamp_osm_base": "2025-01-08T06:29:44Z", "copyright": "The data included in this document is from www.openstreetmap.org. The data is made available under ODbL."}, "elements": [{"type": "node", "id": 567200880, "lat": 35.2873337, "lon": 36.3999828, "tags": {"name": "\u0639\u0634\u0627\u0631\u0646\u0629", "name:ar": "\u0639\u0634\u0627\u0631\u0646\u0629", "name:de": "Ascharna", "name:en": "Asharna", "name:fr": "Acharna", "name:he": "\u05e2\u05e9\u05d0\u05e8\u05e0\u05d4", "name:ja": "\u30a2\u30b7\u30e3\u30fc\u30eb\u30ca", "name:ko": "\uc544\uc0e4\ub974\ub098", "name:ml": "\u0d05\u0d37\u0d3e\u0d31\u0d3f\u0d28", "name:ru": "\u0410\u0448\u0430\u0440\u043d\u0430", "place": "town", "population": "6347", "population:date": "2004", "source:population": "\u0627\u0644\u0645\u0643\u062a\u0628 \u0627\u0644\u0645\u0631\u0643\u0632\u064a \u0644\u0644\u0625\u062d\u0635\u0627\u0621"}}, {"type": "node", "id": 571173024, "lat": 35.272017, "lon": 36.5033109, "tags": {"name": "\u062a\u0631\u064a\u0645\u0633\u0629", "name:ar": "\u062a\u0631\u064a\u0645\u0633\u0629", "name:de": "Tereimse", "name:en": "Tereimse", "name:fr": "Tera\u00efms\u00e9", "name:he": "\u05ea\u05e8\u05d9\u05de\u05e1\u05d4", "name:ja": "\u30c6\u30ec\u30a4\u30e0\u30bb", "name:ko": "\ud14c\ub808\uc774\ubbc0\uc138", "name:ru": "\u0422\u0435\u0440\u0435\u0439\u043c\u0441\u0435", "place": "town", "population": "6926", "population:date": "2004", "source:population": "\u0627\u0644\u0645\u0643\u062a\u0628 \u0627\u0644\u0645\u0631\u0643\u0632\u064a \u0644\u0644\u0625\u062d\u0635\u0627\u0621"}}, {"type": "node", "id": 571173027, "lat": 35.2644112, "lon": 36.4769072, "tags": {"name": "\u0635\u0641\u0635\u0627\u0641\u064a\u0629", "name:ar": "\u0635\u0641\u0635\u0627\u0641\u064a\u0629", "name:de": "Safsafija", "name:en": "Safsafiya", "name:fr": "Safsafia", "name:ru": "\u0421\u0430\u0444\u0441\u0430\u0444\u0438\u0439\u044f", "place": "town", "population": "5062", "population:date": "2004", "source:population": "\u0627\u0644\u0645\u0643\u062a\u0628 \u0627\u0644\u0645\u0631\u0643\u0632\u064a \u0644\u0644\u0625\u062d\u0635\u0627\u0621"}}, {"type": "node", "id": 572533010, "lat": 35.3656408, "lon": 36.3939071, "tags": {"name": "\u0627\u0644\u0633\u0642\u064a\u0644\u0628\u064a\u0629", "name:ar": "\u0627\u0644\u0633\u0642\u064a\u0644\u0628\u064a\u0629", "name:de": "as-Sukeilabija", "name:en": "As-Suqailabiya", "name:fr": "As-Suqa\u00eflabia", "name:he": "\u05d0-\u05e1\u05e7\u05d9\u05dc\u05d1\u05d9\u05d4", "name:ja": "\u30a2\u30c3\u30a0\u30b9\u30ab\u30a4\u30e9\u30d3\u30e4", "name:ko": "\uc544\uc218\uce74\uc77c\ub77c\ube44\uc57c", "name:ml": "\u0d38\u0d41\u0d16\u0d48\u0d32\u0d2c\u0d3f\u0d2f", "name:ru": "\u0410\u0441-\u0421\u0443\u043a\u0430\u0439\u043b\u0430\u0431\u0438\u0301\u0439\u044f", "place": "town", "population": "13920", "population:date": "2004", "source:population": "\u0627\u0644\u0645\u0643\u062a\u0628 \u0627\u0644\u0645\u0631\u0643\u0632\u064a \u0644\u0644\u0625\u062d\u0635\u0627\u0621"}}, {"type": "node", "id": 572533754, "lat": 35.4319311, "lon": 36.492809, "tags": {"name": "\u0643\u0641\u0631 \u0646\u0628\u0648\u062f\u0629", "name:ar": "\u0643\u0641\u0631 \u0646\u0628\u0648\u062f\u0629", "name:de": "Kafr Nabuda", "name:en": "Kafr Nabuda", "name:fr": "Kafr Nabouda", "name:he": "\u05db\u05e4\u05e8 \u05e0\u05d1\u05d5\u05d3\u05d4", "name:ja": "\u30ab\u30d5\u30eb\u30fb\u30ca\u30d6\u30fc\u30c0", "name:ko": "\uce74\ud504\ub974\ub098\ubd80\ub2e4", "name:ml": "\u0d15\u0d2b\u0d7c \u0d28\u0d2c\u0d42\u0d26", "name:ru": "\u041a\u0430\u0444\u0440-\u041d\u0430\u0431\u0443\u0434\u0430", "place": "town", "population": "13513", "population:date": "2004", "source:population": "\u0627\u0644\u0645\u0643\u062a\u0628 \u0627\u0644\u0645\u0631\u0643\u0632\u064a \u0644\u0644\u0625\u062d\u0635\u0627\u0621"}}, {"type": "node", "id": 572534368, "lat": 35.6580517, "lon": 36.4847984, "tags": {"name": "\u0643\u0646\u0635\u0641\u0631\u0629", "name:ar": "\u0643\u0646\u0635\u0641\u0631\u0629", "name:de": "Kansafra", "name:en": "Kansafra", "name:fr": "Cansafra", "name:he": "\u05db\u05e0\u05e1\u05e4\u05e8\u05d4", "name:ja": "\u30ab\u30f3\u30b5\u30d5\u30e9", "name:ko": "\uce78\uc0ac\ud504\ub77c", "name:ru": "\u041a\u0430\u043d\u0441\u0430\u0444\u0440\u0430", "place": "town", "population": "7496", "population:date": "2004", "source:population": "\u0627\u0644\u0645\u0643\u062a\u0628 \u0627\u0644\u0645\u0631\u0643\u0632\u064a \u0644\u0644\u0625\u062d\u0635\u0627\u0621"}}, {"type": "node", "id": 572535766, "lat": 35.6277078, "lon": 36.4608233, "tags": {"name": "\u0643\u0641\u0631 \u0639\u0648\u064a\u062f", "name:ar": "\u0643\u0641\u0631 \u0639\u0648\u064a\u062f", "name:de": "Kafr Uweid", "name:en": "Kafr Uweid", "name:fr": "Kafr Uoueid", "name:he": "\u05db\u05e4\u05e8 \u05e2\u05d5\u05d9\u05d3", "name:ja": "\u30ab\u30d5\u30eb\u30fb\u30a6\u30a6\u30a7\u30a4\u30c9", "name:ko": "\uce74\ud504\ub974\uc6b0\uc6e8\uc774\ub4dc", "name:ru": "\u041a\u0430\u0444\u0440-\u0423\u0432\u0435\u0439\u0434", "place": "town", "population": "6932", "population:date": "2004", "source:population": "\u0627\u0644\u0645\u0643\u062a\u0628 \u0627\u0644\u0645\u0631\u0643\u0632\u064a \u0644\u0644\u0625\u062d\u0635\u0627\u0621"}}, {"type": "node", "id": 572536078, "lat": 35.389729, "lon": 36.4874446, "tags": {"name": "\u0643\u0631\u0646\u0627\u0632", "name:ar": "\u0643\u0631\u0646\u0627\u0632", "name:de": "Kurnas", "name:en": "Kurnaz", "name:fr": "Kurnaze", "name:he": "\u05db\u05e8\u05e0\u05d0\u05d6", "name:ja": "\u30af\u30eb\u30ca\u30fc\u30ba", "name:ko": "\ucfe0\ub974\ub098\uc988", "name:ml": "\u0d15\u0d41\u0d7c\u0d28\u0d3e\u0d38\u0d4d", "name:ru": "\u041a\u0443\u0440\u043d\u0430\u0437", "place": "town", "population": "14075", "population:date": "2004", "source:population": "\u0627\u0644\u0645\u0643\u062a\u0628 \u0627\u0644\u0645\u0631\u0643\u0632\u064a \u0644\u0644\u0625\u062d\u0635\u0627\u0621"}}, {"type": "node", "id": 572536911, "lat": 35.4444726, "lon": 36.3526479, "tags": {"alt_name": "\u0627\u0644\u0634\u0631\u064a\u0639\u0629", "alt_name:ar": "\u0627\u0644\u0634\u0631\u064a\u0639\u0629", "alt_name:de": "asch-Scharia", "alt_name:en": "Ash-Shari'a", "alt_name:fr": "Ach-Charia", "alt_name:he": "\u05d0-\u05e9\u05e8\u05d9\u05e2\u05d4", "alt_name:ja": "\u30a2\u30c3\u30a0\u30b7\u30e3\u30ea\u30a2", "alt_name:ko": "\uc544\uc0e4\ub9ac\uc544", "alt_name:ru": "\u0410\u0448-\u0428\u0430\u0440\u0438\u0430", "name": "\u062c\u0645\u0627\u0633\u0629 \u0639\u062f\u064a\u0627\u062a", "name:ar": "\u062c\u0645\u0627\u0633\u0629 \u0639\u062f\u064a\u0627\u062a", "name:de": "Dschamasa Udaijat", "name:en": "Jamasa Udaiyat", "name:fr": "Djamasa Odaiat", "name:he": "\u05d2\u05f3\u05de\u05d0\u05e1\u05d4 \u05e2\u05d3\u05d9\u05d0\u05ea", "name:ja": "\u30b8\u30e3\u30de\u30fc\u30b5\u30fb\u30a6\u30c0\u30a4\u30e4\u30c8", "name:ko": "\uc790\ub9c8\uc0ac\uc6b0\ub2e4\uc774\uc57c\ud2b8", "name:ru": "\u0414\u0436\u0430\u043c\u0430\u0441\u0430-\u0423\u0434\u0430\u0438\u0301\u0439\u044f\u0442", "place": "town", "population": "8337", "population:date": "2004", "source:population": "\u0627\u0644\u0645\u0643\u062a\u0628 \u0627\u0644\u0645\u0631\u0643\u0632\u064a \u0644\u0644\u0625\u062d\u0635\u0627\u0621"}}, {"type": "node", "id": 572556837, "lat": 35.25867, "lon": 36.3833737, "tags": {"name": "\u062a\u0644 \u0633\u0644\u062d\u0628", "name:ar": "\u062a\u0644 \u0633\u0644\u062d\u0628", "name:de": "Tell Selhab", "name:en": "Tell Salhab", "name:fr": "Tell Salhab", "name:he": "\u05ea\u05dc \u05e1\u05dc\u05d7\u05d1", "name:ja": "\u30bf\u30eb\u30fb\u30b5\u30eb\u30cf\u30d6", "name:ko": "\ud0c8\uc0b4\ud558\ube0c", "name:ml": "\u0d24\u0d7d \u0d38\u0d7d\u0d39\u0d2c\u0d4d", "name:ru": "\u0422\u0430\u043b\u043b\u044c-\u0421\u0430\u043b\u044c\u0445\u0430\u0431", "place": "town", "population": "15454", "population:date": "2004", "source:population": "\u0627\u0644\u0645\u0643\u062a\u0628 \u0627\u0644\u0645\u0631\u0643\u0632\u064a \u0644\u0644\u0625\u062d\u0635\u0627\u0621"}}, {"type": "node", "id": 572558019, "lat": 35.286386, "lon": 36.0171392, "tags": {"name": "\u0627\u0644\u0642\u0637\u064a\u0644\u0628\u064a\u0629", "name:ar": "\u0627\u0644\u0642\u0637\u064a\u0644\u0628\u064a\u0629", "name:de": "al-Kuteilebija", "name:en": "Al-Qutailebiya", "name:fr": "Al-Qota\u00eflebia", "name:he": "\u05d0\u05dc-\u05e7\u05d8\u05d9\u05dc\u05d1\u05d9\u05d4", "name:ja": "\u30a2\u30eb\u30a0\u30af\u30bf\u30a4\u30ec\u30d3\u30e4", "name:ko": "\uc54c\ucfe0\ud0c0\uc77c\ub808\ube44\uc57c", "name:ml": "\u0d05\u0d7d-\u0d16\u0d41\u0d24\u0d4d\u0d24\u0d48\u0d32\u0d2c\u0d3f\u0d2f", "name:ru": "\u0410\u043b\u044c-\u041a\u0443\u0442\u0430\u0439\u043b\u0435\u0431\u0438\u0301\u0439\u044f", "place": "town", "population": "5566", "population:date": "2004", "source:population": "\u0627\u0644\u0645\u0643\u062a\u0628 \u0627\u0644\u0645\u0631\u0643\u0632\u064a \u0644\u0644\u0625\u062d\u0635\u0627\u0621"}}, {"type": "node", "id": 2619799995, "lat": 35.5052803, "lon": 36.2437207, "tags": {"name": "\u0634\u0637\u062d\u0629 \u0627\u0644\u062a\u062d\u062a\u0627", "name:ar": "\u0634\u0637\u062d\u0629 \u0627\u0644\u062a\u062d\u062a\u0627", "name:de": "Schateha at-Tahta", "name:en": "Shat'ha at-Tahta", "name:fr": "Chateha at-Tahta", "name:he": "\u05e9\u05d8\u05d7\u05d4 \u05d0-\u05ea\u05d7\u05ea\u05d0", "name:ja": "\u30b7\u30e3\u30bf\u30cf\u30fb\u30a2\u30c3\u30a0\u30bf\u30d8\u30bf", "name:ko": "\uc0e4\ud2b8\ud558\uc544\ud0c0\ud750\ud0c0", "name:ru": "\u0428\u0430\u0442\u0445\u0430-\u0430\u0442-\u0422\u0430\u0445\u0442\u0430", "place": "town", "population": "8076", "population:date": "2004", "source:population": "\u0627\u0644\u0645\u0643\u062a\u0628 \u0627\u0644\u0645\u0631\u0643\u0632\u064a \u0644\u0644\u0625\u062d\u0635\u0627\u0621"}}, {"type": "node", "id": 3478625992, "lat": 35.4146503, "lon": 36.3911849, "tags": {"alt_name": "Kalaat al-Madik;Qal'at al-Madiq", "name": "\u0642\u0644\u0639\u0629 \u0627\u0644\u0645\u0636\u064a\u0642", "name:ar": "\u0642\u0644\u0639\u0629 \u0627\u0644\u0645\u0636\u064a\u0642", "name:de": "Qal'at al-Mudiq", "name:en": "Qalaat al-Madiq", "name:fr": "Qalaat al-Madiq", "name:he": "\u05e7\u05dc\u05e2\u05ea \u05d0\u05dc-\u05de\u05d3\u05d9\u05e7", "name:ja": "\u30ab\u30eb\u30a2\u30c8\u30fb\u30a2\u30eb\u30a0\u30de\u30c7\u30a3\u30fc\u30af", "name:ko": "\uce7c\ub77c\uc544\ud2c0\ub9c8\ub514\ud06c", "name:ml": "\u0d16\u0d32\u0d3e\u0d24\u0d4d\u0d24\u0d4d \u0d05\u0d7d-\u0d2e\u0d26\u0d40\u0d16\u0d4d", "name:ru": "\u041a\u0430\u043b\u044c\u0430\u0442-\u0430\u043b\u044c-\u041c\u0430\u0434\u0438\u043a", "place": "town", "population": "12925", "population:date": "2004", "source:population": "\u0627\u0644\u0645\u0643\u062a\u0628 \u0627\u0644\u0645\u0631\u0643\u0632\u064a \u0644\u0644\u0625\u062d\u0635\u0627\u0621"}}, {"type": "node", "id": 3713915334, "lat": 35.4554539, "lon": 36.0590684, "tags": {"name": "\u0627\u0644\u0642\u0631\u062f\u0627\u062d\u0629", "name:ar": "\u0627\u0644\u0642\u0631\u062f\u0627\u062d\u0629", "name:de": "al-Kardaha", "name:en": "Al-Qardaha", "name:fr": "Al-Qardaha", "name:he": "\u05d0\u05dc-\u05e7\u05e8\u05d3\u05d0\u05d7\u05d4", "name:ja": "\u30a2\u30eb\u30a0\u30ab\u30eb\u30c0\u30fc\u30cf", "name:ko": "\uc54c\uce74\ub974\ub2e4\ud558", "name:ml": "\u0d05\u0d7d-\u0d16\u0d7c\u0d26\u0d3e\u0d39", "name:ru": "\u0410\u043b\u044c-\u041a\u0430\u0440\u0434\u0430\u0445\u0430", "place": "town", "population": "8671", "population:date": "2004", "source:population": "\u0627\u0644\u0645\u0643\u062a\u0628 \u0627\u0644\u0645\u0631\u0643\u0632\u064a \u0644\u0644\u0625\u062d\u0635\u0627\u0621", "wikipedia": "ar:\u0627\u0644\u0642\u0631\u062f\u0627\u062d\u0629"}}, {"type": "node", "id": 3723275893, "lat": 35.3166315, "lon": 36.1238733, "tags": {"alt_name": "\u0639\u064a\u0646 \u0642\u064a\u0637\u0629", "alt_name:ar": "\u0639\u064a\u0646 \u0642\u064a\u0637\u0629", "alt_name:de": "Ein Keita", "alt_name:en": "Ain Qaita", "alt_name:fr": "A\u00efn Qa\u00efta", "alt_name:he": "\u05e2\u05d9\u05df \u05e7\u05d9\u05d8\u05d4", "alt_name:ja": "\u30a2\u30a4\u30f3\u30fb\u30ab\u30a4\u30bf", "alt_name:ko": "\uc544\uc778\uce74\uc774\ud0c0", "alt_name:ru": "\u0410\u0439\u043d-\u041a\u0430\u0439\u0442\u0430", "name": "\u0628\u064a\u062a \u064a\u0627\u0634\u0648\u0637", "name:ar": "\u0628\u064a\u062a \u064a\u0627\u0634\u0648\u0637", "name:de": "Beit Jaschut", "name:en": "Beit Yashut", "name:fr": "Beit Ychoute", "name:he": "\u05d1\u05d9\u05ea \u05d9\u05d0\u05e9\u05d5\u05d8", "name:ja": "\u30d9\u30fc\u30c8\u30fb\u30e4\u30fc\u30b7\u30e5\u30fc\u30c8", "name:ko": "\ubca0\uc774\ud2b8\uc57c\uc288\ud2b8", "name:ru": "\u0411\u0435\u0439\u0442-\u042f\u0448\u0443\u0442", "place": "town", "population": "6115", "population:date": "2004", "source:population": "\u0627\u0644\u0645\u0643\u062a\u0628 \u0627\u0644\u0645\u0631\u0643\u0632\u064a \u0644\u0644\u0625\u062d\u0635\u0627\u0621"}}]}