{"version": 0.6, "generator": "Overpass API 0.7.62.4 2390de5a", "osm3s": {"timestamp_osm_base": "2025-01-08T06:59:15Z", "copyright": "The data included in this document is from www.openstreetmap.org. The data is made available under ODbL."}, "elements": [{"type": "node", "id": 462012535, "lat": 35.9445854, "lon": 8.1369011, "tags": {"name": "Ouenza", "name:ar": "\u0627\u0644\u0648\u0646\u0632\u0629", "name:ber": "\u2d61\u2d3b\u2d4f\u2d63\u2d30", "name:fr": "Ouenza", "name:kab": "Wenza", "place": "town", "population": "52737", "postal_code": "12003", "ref:ONS": "1219", "wikidata": "Q2215410", "wikimedia_commons": "Category:Ouenza", "wikipedia": "fr:Ouenza"}}, {"type": "node", "id": 462012537, "lat": 35.6480159, "lon": 8.2603257, "tags": {"name": "Ain Zerga", "name:ar": "\u0639\u064a\u0646 \u0627\u0644\u0632\u0631\u0642\u0627\u0621", "name:ber": "\u2d44\u2d49\u2d4f \u2d63\u2d63\u2d3b\u2d54\u2d33\u2d30", "name:en": "Ain Zerga", "name:fr": "A\u00efn Zerga", "name:kab": "\u0190in Zzerga", "place": "town", "population": "20170", "wikidata": "Q2876398", "wikimedia_commons": "Category:A\u00efn Zerga", "wikipedia": "fr:A\u00efn Zerga"}}, {"type": "node", "id": 501803032, "lat": 35.7672773, "lon": 8.3438119, "tags": {"name": "\u0642\u0644\u0639\u0629 \u0633\u0646\u0627\u0646", "name:ar": "\u0642\u0644\u0639\u0629 \u0633\u0646\u0627\u0646", "name:en": "Kalaat es Senam", "name:fr": "Kalaat Senan", "name:ru": "\u041a\u0430\u043b\u044a\u0430\u0442-\u044d\u0441-\u0421\u0435\u043d\u0430\u043c", "place": "town", "population": "8145", "population:date": "2014", "postal_code": "7130", "wikidata": "Q3100254", "wikipedia": "ar:\u0642\u0644\u0639\u0629 \u0633\u0646\u0627\u0646"}}, {"type": "node", "id": 674434208, "lat": 35.6654639, "lon": 8.5877785, "tags": {"name": "\u0627\u0644\u0642\u0644\u0639\u0629 \u0627\u0644\u062e\u0635\u0628\u0629", "name:ar": "\u0627\u0644\u0642\u0644\u0639\u0629 \u0627\u0644\u062e\u0635\u0628\u0629", "name:en": "Kal\u00e2at Khasba", "name:fr": "Kal\u00e2at Khasba", "old_name": "\u0627\u0644\u0642\u0644\u0639\u0629 \u0627\u0644\u062c\u0631\u062f\u0629", "old_name:ar": "\u0627\u0644\u0642\u0644\u0639\u0629 \u0627\u0644\u062c\u0631\u062f\u0629", "place": "town", "population": "2871", "population:date": "2014", "postal_code": "7113", "wikidata": "Q3105864", "wikipedia": "ar:\u0627\u0644\u0642\u0644\u0639\u0629 \u0627\u0644\u062e\u0635\u0628\u0629"}}, {"type": "node", "id": 1195202561, "lat": 35.8912484, "lon": 8.5426548}, {"type": "node", "id": 1195202856, "lat": 35.8890716, "lon": 8.559882}, {"type": "node", "id": 1195202935, "lat": 35.8828987, "lon": 8.5517056}, {"type": "node", "id": 1195202966, "lat": 35.8898677, "lon": 8.5583046}, {"type": "node", "id": 1195203149, "lat": 35.8837585, "lon": 8.560642}, {"type": "node", "id": 1195203170, "lat": 35.8991132, "lon": 8.558766}, {"type": "node", "id": 1195203183, "lat": 35.8957266, "lon": 8.5440976}, {"type": "node", "id": 1195203209, "lat": 35.8840447, "lon": 8.5501058}, {"type": "node", "id": 1195203210, "lat": 35.8818436, "lon": 8.5589553}, {"type": "node", "id": 1195203217, "lat": 35.8844619, "lon": 8.5427244}, {"type": "node", "id": 1195203223, "lat": 35.8904663, "lon": 8.5457396}, {"type": "node", "id": 1195203225, "lat": 35.9000503, "lon": 8.5512825}, {"type": "node", "id": 1195203251, "lat": 35.8876557, "lon": 8.5424147}, {"type": "node", "id": 1195203254, "lat": 35.8821892, "lon": 8.5447905}, {"type": "node", "id": 1899226322, "lat": 35.8913691, "lon": 8.5530477, "tags": {"name": "\u062a\u0627\u062c\u0631\u0648\u064a\u0646", "name:ar": "\u062a\u0627\u062c\u0631\u0648\u064a\u0646", "name:en": "Tajerouine", "name:fr": "Tajerouine", "name:ru": "\u0422\u0430\u0434\u0436\u0435\u0440\u0432\u0438\u043d", "place": "town", "population": "30659", "population:date": "2004", "wikidata": "Q3175916", "wikimedia_commons": "Category:Tajerouine", "wikipedia": "ar:\u062a\u0627\u062c\u0631\u0648\u064a\u0646", "wikipedia:ar": "\u062a\u0627\u062c\u0631\u0648\u064a\u0646"}}, {"type": "node", "id": 1899226323, "lat": 35.8796626, "lon": 8.5534306}, {"type": "node", "id": 1899226324, "lat": 35.8799287, "lon": 8.5511046}, {"type": "node", "id": 1899226325, "lat": 35.8814253, "lon": 8.5578089}, {"type": "node", "id": 1899226327, "lat": 35.8838309, "lon": 8.5540463}, {"type": "node", "id": 1899226335, "lat": 35.8933195, "lon": 8.5392421}, {"type": "node", "id": 1899226339, "lat": 35.8946385, "lon": 8.5577542}, {"type": "node", "id": 1899226340, "lat": 35.895237, "lon": 8.5399809}, {"type": "node", "id": 1899226341, "lat": 35.8986176, "lon": 8.5502016}, {"type": "node", "id": 1899226343, "lat": 35.8991606, "lon": 8.5449476}, {"type": "way", "id": 103510660, "nodes": [1195203170, 1899226339, 1195202966, 1195202856, 1195203149, 1195203210, 1899226325, 1899226327, 1899226323, 1899226324, 1195202935, 1195203209, 1195203254, 1195203217, 1195203251, 1195203223, 1195202561, 1899226335, 1899226340, 1195203183, 1899226343, 1899226341, 1195203225, 1195203170], "tags": {"name": "\u062a\u0627\u062c\u0631\u0648\u064a\u0646", "name:ar": "\u062a\u0627\u062c\u0631\u0648\u064a\u0646", "name:en": "Tajerouine", "name:fr": "Tajerouine", "name:ru": "\u0422\u0430\u0434\u0436\u0435\u0440\u0432\u0438\u043d", "place": "town"}}]}