{"version": 0.6, "generator": "Overpass API 0.7.62.4 2390de5a", "osm3s": {"timestamp_osm_base": "2025-01-08T06:55:15Z", "copyright": "The data included in this document is from www.openstreetmap.org. The data is made available under ODbL."}, "elements": [{"type": "node", "id": 277399044, "lat": 32.4345861, "lon": 13.6350687, "tags": {"name": "\u062a\u0631\u0647\u0648\u0646\u0629", "name:ar": "\u062a\u0631\u0647\u0648\u0646\u0629", "name:az": "Tarhuna", "name:be": "\u0422\u0430\u0440\u0445\u0443\u043d\u0430", "name:cs": "Tarh\u00fana", "name:en": "Tarhuna", "name:eo": "Tarhuna", "name:es": "Tarhuna", "name:fi": "Tarhuna", "name:fr": "Tarhounah", "name:it": "Tarhuna", "name:ka": "\u10e2\u10d0\u10e0\u10f0\u10e3\u10d0\u10dc\u10d0", "name:kab": "Tarhuna", "name:lt": "Tarhuna", "name:nb": "Tarhuna", "name:pl": "Tarhuna", "name:pt": "Taruna", "name:ro": "Tarhoona", "name:ru": "\u0422\u0430\u0440\u0445\u0443\u043d\u0430", "name:sv": "Tarhuna", "name:vi": "Tarhuna", "name:vo": "T\u00e4rhun\u00e4", "name:zu": "Tarhuna", "place": "city", "population": "120000", "wikidata": "Q1642670", "wikipedia": "en:Tarhuna"}}, {"type": "node", "id": 7821172286, "lat": 32.3018488, "lon": 13.2694179, "tags": {"name": "\u0627\u0644\u0639\u0648\u0627\u062a\u0629", "name:ar": "\u0627\u0644\u0639\u0648\u0627\u062a\u0629", "name:en": "Al Awata", "name:fr": "Al Awata", "place": "town"}}]}