{"version": 0.6, "generator": "Overpass API 0.7.62.4 2390de5a", "osm3s": {"timestamp_osm_base": "2025-01-08T07:03:25Z", "copyright": "The data included in this document is from www.openstreetmap.org. The data is made available under ODbL."}, "elements": [{"type": "node", "id": 299619085, "lat": 35.5544613, "lon": 6.176799, "tags": {"capital": "4", "name": "Batna \u2d5c\u2d31\u2d30\u2d5c\u2d3b\u2d4f\u2d5c \u0628\u0627\u062a\u0646\u0629", "name:ar": "\u0628\u0627\u062a\u0646\u0629", "name:azb": "\u0628\u0627\u062a\u0646\u0647", "name:ber": "\u2d5c\u2d31\u2d30\u2d5c\u2d3b\u2d4f\u2d5c", "name:el": "\u039c\u03c0\u03ac\u03c4\u03bd\u03b1", "name:en": "Batna", "name:eo": "Batna", "name:es": "Batna", "name:eu": "Batna", "name:fa": "\u0628\u0627\u062a\u0646\u0647", "name:fr": "Batna", "name:ja": "\u30d0\u30c8\u30ca", "name:kab": "Tabatent", "name:ko": "\ubc14\ud2b8\ub098", "name:lt": "Batna", "name:pnb": "\u0628\u0627\u062a\u0646\u06c1", "name:ru": "\u0411\u0430\u0442\u043d\u0430", "name:uk": "\u0411\u0430\u0442\u043d\u0430", "name:ur": "\u0628\u0627\u062a\u0646\u06c1", "name:zh": "\u5df4\u7279\u7eb3", "place": "city", "population": "320281", "population:date": "2011", "ref:ONS": "0501", "wikidata": "Q338844", "wikipedia": "ar:\u0628\u0627\u062a\u0646\u0629"}}, {"type": "node", "id": 455555458, "lat": 35.6925612, "lon": 6.1850558, "tags": {"name": "Seriana", "name:ar": "\u0633\u0631\u064a\u0627\u0646\u0629", "name:ber": "\u2d59\u2d3b\u2d54\u2d62\u2d30\u2d4f\u2d30", "name:el": "\u03a3\u03b5\u03c1\u03b9\u03ac\u03bd\u03b1", "name:en": "Seriana", "name:fr": "Seriana", "name:kab": "Taseryant", "old_name": "Pasteur", "place": "town", "population": "15445", "wikidata": "Q2214722", "wikimedia_commons": "Category:Seriana", "wikipedia": "fr:Seriana"}}, {"type": "node", "id": 1337015384, "lat": 35.8953079, "lon": 6.3925749, "tags": {"name": "Souk Naamane", "name:ar": "\u0633\u0648\u0642 \u0646\u0639\u0645\u0627\u0646", "name:ber": "\u2d59\u2d53\u2d47 \u2d4f\u2d3b\u2d44\u2d4e\u2d30\u2d4f", "name:el": "\u03a3\u03bf\u03c5\u03ba \u039d\u03b1\u03b1\u03bc\u03b1\u03bd\u03ad", "name:en": "Souk Naamane", "name:fr": "Souk Na\u00e2mane", "name:kab": "Suq Ne\u025bman", "place": "town", "population": "23988", "wikidata": "Q3491587", "wikimedia_commons": "Category:Souk Naamane", "wikipedia": "fr:Souk Naamane"}}, {"type": "node", "id": 1405079756, "lat": 35.6258746, "lon": 6.3706722, "tags": {"name": "El Madher", "name:ar": "\u0627\u0644\u0645\u0639\u0630\u0631", "name:ber": "\u2d5c\u2d30\u2d43\u2d3b\u2d4e\u2d4e\u2d30\u2d4e\u2d5c", "name:el": "\u0395\u03bb \u039c\u03b1\u03bd\u03c4\u03ad\u03c1", "name:en": "El Madher", "name:fr": "El Madher", "name:kab": "Lme\u025b\u1e0der", "old_name": "A\u00efn El Ksar", "old_name:la": "Casae", "place": "town", "population": "18502", "wikidata": "Q2214701", "wikimedia_commons": "Category:El Madher", "wikipedia": "fr:El Madher"}}]}