{"version": 0.6, "generator": "Overpass API 0.7.62.4 2390de5a", "osm3s": {"timestamp_osm_base": "2025-01-08T06:30:42Z", "copyright": "The data included in this document is from www.openstreetmap.org. The data is made available under ODbL."}, "elements": [{"type": "node", "id": 3248398021, "lat": 32.7254932, "lon": 47.6773754, "tags": {"is_in:country": "Iran", "name": "\u0645\u0648\u0631\u0645\u0648\u0631\u06cc", "name:ckb": "\u0645\u0648\u0631\u0645\u0648\u0631\u06cc", "name:en": "Murmuri", "name:fa": "\u0645\u0648\u0631\u0645\u0648\u0631\u06cc", "name:fr": "Murmuri", "name:ja": "\u30e0\u30fc\u30eb\u30e0\u30fc\u30ea\u30fc", "name:ku": "Murmur\u00ee", "place": "town", "population": "3768", "population:date": "2016", "source:population": "amar.org.ir", "wikidata": "Q862390"}}, {"type": "node", "id": 3262222723, "lat": 32.898466, "lon": 47.5728997, "tags": {"is_in:country": "Iran", "name": "\u0633\u0631\u0627\u0628 \u0628\u0627\u063a", "name:ckb": "\u0633\u06d5\u0631\u0627\u0648\u0628\u0627\u062e", "name:en": "Sarab Bagh", "name:fr": "Sarabbagh", "name:ku": "Serawbax", "place": "town", "population": "2659", "population:date": "2016", "source:population": "amar.org.ir", "wikidata": "Q4370969"}}, {"type": "node", "id": 3262252847, "lat": 32.9419468, "lon": 47.466519, "tags": {"is_in:country": "Iran", "name": "\u0634\u0647\u0631\u06a9 \u0647\u0632\u0627\u0631\u0627\u0646\u06cc", "name:en": "Shahrak-e Hezarani", "place": "town", "wikidata": "Q6503837", "wikipedia": "en:Shahrak-e Hezarani"}}, {"type": "node", "id": 4431559565, "lat": 32.6914932, "lon": 47.2674712, "tags": {"alt_name:ckb": "\u062f\u06ce\u0644\u0631\u0648", "name": "\u062f\u0647\u0644\u0631\u0627\u0646", "name:ckb": "\u062f\u06ce\u0644\u0648\u0695\u0627\u0646", "name:en": "Dehloran", "name:fa": "\u062f\u0647\u0644\u0631\u0627\u0646", "name:fr": "Dehloran", "name:ku": "D\u00ealuran", "place": "town", "population": "32941", "population:date": "2016", "source:population": "amar.org.ir", "wikidata": "Q862457"}}, {"type": "node", "id": 4917635364, "lat": 32.9901681, "lon": 47.4221887, "tags": {"alt_name:ckb": "\u0626\u0627\u0648\u06d5\u0646\u0627\u0646", "name": "\u0622\u0628\u062f\u0627\u0646\u0627\u0646", "name:ckb": "\u0626\u0627\u0648\u062f\u0627\u0646\u0627\u0646", "name:en": "Abdanan", "name:fa": "\u0622\u0628\u062f\u0627\u0646\u0627\u0646", "name:fr": "Abdanan", "name:ku": "Awdanan", "place": "town", "population": "23946", "population:date": "2016", "source:population": "amar.org.ir", "wikidata": "Q862554"}}]}