{"version": 0.6, "generator": "Overpass API 0.7.62.4 2390de5a", "osm3s": {"timestamp_osm_base": "2025-01-08T06:31:42Z", "copyright": "The data included in this document is from www.openstreetmap.org. The data is made available under ODbL."}, "elements": [{"type": "node", "id": 2480224376, "lat": 32.0534921, "lon": 45.1413864, "tags": {"alt_name": "N\u0101\u1e29iyat Nafar, \u0646\u0627\u062d\u064a\u0629 \u0646\u0641\u0631, Nahiyat Nafar, \u0646\u0627\u062d\u064a\u0629 \u0646\u0641\u0631", "capital": "7", "int_name": "Nafar - \u0646\u0641\u0631", "is_in": "Iraq , \u062c\u0645\u0647\u0648\u0631\u064a\u0629 \u0627\u0644\u0639\u0631\u0627\u0642", "name": "\u0646\u0641\u0631", "name:ar": "\u0646\u0641\u0631", "name:de": "Nafar", "name:en": "Nafar", "name:fr": "Nafar", "name:ml": "\u0d28\u0d2b\u0d7c", "place": "town"}}, {"type": "node", "id": 2482339420, "lat": 32.064304, "lon": 45.247434, "tags": {"alt_name": "\u0639\u0641\u0643", "capital": "6", "int_name": "Afak, Afag, Afaq, Sok el Afej, \u0639\u0641\u0643, Afak, Afag, Afaq, Sok el Afej, \u0639\u0641\u0643", "is_in": "Iraq , \u062c\u0645\u0647\u0648\u0631\u064a\u0629 \u0627\u0644\u0639\u0631\u0627\u0642", "name": "\u0639\u0641\u0643", "name:ar": "\u0639\u0641\u0643", "name:ar1": "\u0639\u0641\u0643", "name:ckb": "\u0639\u06d5\u0641\u06d5\u06a9", "name:de": "Afak", "name:en": "Afak", "name:fr": "Afak", "name:ku": "Efek", "name:ml": "\u0d05\u0d2b\u0d15\u0d4d\u0d15\u0d4d", "name:ru": "\u0410\u0444\u0430\u043a", "place": "town", "wikidata": "Q1029650", "wikipedia": "en:Afak"}}, {"type": "node", "id": 4391476644, "lat": 31.9722638, "lon": 45.4062409, "tags": {"alt_name:ar": "\u0646\u0627\u062d\u064a\u0629 \u0627\u0644\u0628\u062f\u064a\u0631", "alt_name:en": "Nahya Al-Badair", "capital": "7", "name": "\u0627\u0644\u0628\u062f\u064a\u0631", "name:ar": "\u0627\u0644\u0628\u062f\u064a\u0631", "name:en": "Al-Badair", "name:ml": "\u0d05\u0d7d-\u0d2c\u0d26\u0d48\u0d7c", "place": "town"}}]}