{"version": 0.6, "generator": "Overpass API 0.7.62.4 2390de5a", "osm3s": {"timestamp_osm_base": "2025-01-08T07:08:34Z", "copyright": "The data included in this document is from www.openstreetmap.org. The data is made available under ODbL."}, "elements": [{"type": "node", "id": 264023963, "lat": 35.5415407, "lon": 2.6037738, "tags": {"name": "Chahbounia", "name:ar": "\u0627\u0644\u0634\u0647\u0628\u0648\u0646\u064a\u0629", "name:ber": "\u2d5b\u2d5b\u2d3b\u2d40\u2d31\u2d53\u2d4f\u2d49\u2d62\u2d30", "name:en": "Chahbounia", "name:fr": "Chahbounia", "name:kab": "Ccehbuniya", "place": "town", "population": "13617", "wikidata": "Q2947598", "wikimedia_commons": "Category:Chahbounia", "wikipedia": "fr:Chahbounia"}}, {"type": "node", "id": 581240873, "lat": 35.2143453, "lon": 2.3129403, "tags": {"name": "Ksar Chellala", "name:ar": "\u0642\u0635\u0631 \u0627\u0644\u0634\u0644\u0627\u0644\u0629", "name:ber": "\u2d47\u2d5a\u2d3b\u2d54 \u2d5b\u2d3b\u2d4d\u2d4d\u2d30\u2d4d\u2d30", "name:en": "Ksar Chellala", "name:fr": "Ksar Chellala", "name:kab": "Q\u1e63er Cellala", "place": "town", "population": "52753", "wikidata": "Q1648944", "wikimedia_commons": "Category:Ksar Chellala", "wikipedia": "fr:Ksar Chellala"}}, {"type": "node", "id": 4241795233, "lat": 35.4381272, "lon": 2.5157705, "tags": {"name": "Sidi Ladjel", "name:ar": "\u0633\u064a\u062f\u064a \u0644\u0639\u062c\u0627\u0644", "name:ber": "\u2d59\u2d49\u2d37\u2d49 \u2d4d\u2d3b\u2d44\u2d35\u2d30\u2d4d", "name:en": "Sidi Ladjel", "name:fr": "Sidi Ladjel", "name:it": "Sidi Ladjel", "name:kab": "Sidi Le\u025b\u01e7al", "name:pt": "Sidi Ladjel", "place": "town", "population": "13661", "wikidata": "Q11222139", "wikipedia": "fr:Sidi Ladjel"}}]}