{"version": 0.6, "generator": "Overpass API 0.7.62.4 2390de5a", "osm3s": {"timestamp_osm_base": "2025-01-08T07:02:18Z", "copyright": "The data included in this document is from www.openstreetmap.org. The data is made available under ODbL."}, "elements": [{"type": "node", "id": 455555446, "lat": 35.9767593, "lon": 5.8083856, "tags": {"name": "Hammam Sokhna", "name:ar": "\u062d\u0645\u0627\u0645 \u0627\u0644\u0633\u062e\u0646\u0629", "name:ber": "\u2d43\u2d3b\u2d4e\u2d4e\u2d30\u2d4e \u2d59\u2d59\u2d53\u2d45\u2d4f\u2d30", "name:en": "Hammam Sokhna", "name:fr": "Hammam Sokhna", "name:kab": "\u1e24emmam Ssuxna", "place": "town", "population": "13439", "wikidata": "Q3126503", "wikipedia": "fr:Hammam Soukhna"}}, {"type": "node", "id": 455555450, "lat": 35.8596869, "lon": 6.0012835, "tags": {"name": "A\u00efn Djasser", "name:ar": "\u0639\u064a\u0646 \u062c\u0627\u0633\u0631", "name:ber": "\u2d59\u2d59\u2d3b\u2d31\u2d5c \u2d31\u2d53\u2d56\u2d63\u2d30\u2d4d", "name:en": "Ain Djasser", "name:fr": "A\u00efn Djasser", "name:kab": "\u0190in \u01e6aser", "place": "town", "population": "15704", "wikidata": "Q2214604", "wikimedia_commons": "Category:A\u00efn Djasser", "wikipedia": "fr:A\u00efn Djasser"}}, {"type": "node", "id": 460895922, "lat": 35.6320555, "lon": 5.913138, "tags": {"name": "Merouana", "name:ar": "\u0645\u0631\u0648\u0627\u0646\u0629", "name:ber": "\u2d5c\u2d30\u2d4e\u2d3b\u2d54\u2d61\u2d30\u2d4f\u2d5c", "name:en": "Merouana", "name:fr": "Merouana", "name:kab": "Tamerwant", "name:ru": "\u041c\u0435\u0440\u0443\u0430\u043d\u0430", "place": "town", "population": "38656", "wikidata": "Q3174992", "wikimedia_commons": "Category:Merouana", "wikipedia": "fr:Merouana"}}, {"type": "node", "id": 460895949, "lat": 35.6448731, "lon": 5.9953423, "tags": {"name": "Oued El Ma", "name:ar": "\u0648\u0627\u062f \u0627\u0644\u0645\u0627\u0621", "name:ber": "\u2d49\u2d56\u2d63\u2d3b\u2d54 \u2d4f \u2d61\u2d30\u2d4e\u2d30\u2d4f", "name:en": "Oued El Ma", "name:fr": "Oued El Ma", "name:kab": "Ighzer n Waman", "old_name": "Bernelle", "place": "town", "population": "20288", "wikidata": "Q2215250", "wikimedia_commons": "Category:Oued El Ma", "wikipedia": "fr:Oued El Ma"}}, {"type": "node", "id": 460974275, "lat": 35.6758524, "lon": 5.6515672, "tags": {"alt_name:kab": "Ras Le\u025byun", "name": "Ras El A\u00efoun", "name:ar": "\u0631\u0623\u0633 \u0627\u0644\u0639\u064a\u0648\u0646", "name:ber": "\u2d30\u2d47\u2d3b\u2d54\u2d54\u2d53 \u2d4f \u2d5c\u2d4d\u2d49\u2d61\u2d30", "name:en": "Ras El Aioun", "name:fr": "Ras El Aioun", "name:kab": "Ixf n Talawin", "place": "town", "population": "22551", "wikidata": "Q982735", "wikimedia_commons": "Category:Ras El Aioun", "wikipedia": "fr:Ras El Aioun"}}, {"type": "node", "id": 460974323, "lat": 35.5547284, "lon": 5.6108516, "tags": {"ele": "756", "name": "N'Gaous", "name:ar": "\u0646\u0642\u0627\u0648\u0633", "name:ber": "\u2d4f\u2d33\u2d30\u2d61\u2d3b\u2d59", "name:en": "N'Gaous", "name:fr": "N'Gaous", "name:kab": "Ngawes", "place": "town", "population": "29504", "wikidata": "Q3178467", "wikimedia_commons": "Category:N'Gaous", "wikipedia": "fr:N'Gaous"}}, {"type": "node", "id": 1430981350, "lat": 35.61043, "lon": 5.6322042, "tags": {"name": "Ouled Si Slimane", "name:ar": "\u0623\u0648\u0644\u0627\u062f \u0633\u064a \u0633\u0644\u064a\u0645\u0627\u0646", "name:ber": "\u2d30\u2d62\u2d5c \u2d59\u2d49 \u2d59\u2d4d\u2d49\u2d4e\u2d30\u2d4f", "name:en": "Ouled Si Slimane", "name:fr": "Ouled Si Slimane", "name:kab": "At Si Sliman", "place": "town", "population": "12473", "wikidata": "Q2215183", "wikipedia": "fr:Ouled Si Slimane"}}]}