{"version": 0.6, "generator": "Overpass API 0.7.62.4 2390de5a", "osm3s": {"timestamp_osm_base": "2025-01-08T06:54:15Z", "copyright": "The data included in this document is from www.openstreetmap.org. The data is made available under ODbL."}, "elements": [{"type": "node", "id": 5431087789, "lat": 32.3745923, "lon": 15.0905803, "tags": {"alt_name:cs": "Misr\u00e1ta", "alt_name:de": "Misurata;Misratah", "alt_name:en": "Misurata;Misratah", "alt_name:sk": "Misr\u00e1ta", "name": "\u0645\u0635\u0631\u0627\u062a\u0629", "name:ar": "\u0645\u0635\u0631\u0627\u062a\u0629", "name:cs": "Misur\u00e1ta", "name:de": "Misrata", "name:el": "\u039c\u03b9\u03c3\u03c1\u03ac\u03c4\u03b1", "name:en": "Misrata", "name:es": "Misurata", "name:et": "Mi\u015fr\u0101tah", "name:eu": "Misratah", "name:fi": "Al Misratah", "name:fr": "Misrata", "name:it": "Misurata", "name:kab": "Mi\u1e63rata", "name:ro": "Misrata", "name:ru": "\u041c\u0438\u0441\u0443\u0440\u0430\u0442\u0430", "name:sk": "Misur\u00e1ta", "name:zh": "\u7c73\u82cf\u62c9\u5854", "name:zh-Hans": "\u7c73\u82cf\u62c9\u5854", "place": "city", "population": "600000", "population:date": "2018-01-01", "tourism": "attraction", "wikidata": "Q131323", "wikipedia": "ar:\u0645\u0635\u0631\u0627\u062a\u0629"}}]}