{"version": 0.6, "generator": "Overpass API 0.7.62.4 2390de5a", "osm3s": {"timestamp_osm_base": "2025-01-08T07:00:15Z", "copyright": "The data included in this document is from www.openstreetmap.org. The data is made available under ODbL."}, "elements": [{"type": "node", "id": 274946937, "lat": 35.2133123, "lon": 4.1809702, "tags": {"alt_name": "Bousaada", "alt_name:fr": "Bousaada", "name": "Bou Sa\u00e2da \u2d31\u2d53\u2d59\u2d44\u2d30\u2d37\u2d30 \u0628\u0648\u0633\u0639\u0627\u062f\u0629", "name:ar": "\u0628\u0648\u0633\u0639\u0627\u062f\u0629", "name:ber": "\u2d31\u2d53\u2d59\u2d44\u2d30\u2d37\u2d30", "name:de": "Bou Saada", "name:el": "\u039c\u03c0\u03bf\u03c5 \u03a3\u03b1\u03ac\u03bd\u03c4\u03b1", "name:en": "Bou Saada", "name:es": "Bou Saada", "name:fr": "Bou Sa\u00e2da", "name:it": "Bou Saada", "name:kab": "Bus\u025bada", "name:ro": "Bou Saada", "name:ru": "\u0411\u0443-\u0421\u0430\u0430\u0434\u0430", "name:zh": "\u5e03\u8428\u8fbe", "place": "city", "population": "125573", "wikidata": "Q401741", "wikipedia": "fr:Bou Sa\u00e2da"}}, {"type": "node", "id": 462549388, "lat": 35.3814589, "lon": 3.9068512, "tags": {"name": "Sidi Ameur", "name:ar": "\u0633\u064a\u062f\u064a \u0639\u0627\u0645\u0631", "name:ber": "\u2d59\u2d49\u2d37\u2d49 \u2d44\u2d30\u2d4e\u2d3b\u2d54", "name:en": "Sidi Ameur", "name:fr": "Sidi Ameur", "name:kab": "Sidi \u0190amer", "place": "town"}}, {"type": "node", "id": 489290386, "lat": 35.1308796, "lon": 4.0879174, "tags": {"name": "El Hamel", "name:ar": "\u0627\u0644\u0647\u0627\u0645\u0644", "name:ber": "\u2d4d\u2d40\u2d30\u2d4e\u2d3b\u2d4d", "name:el": "\u0395\u03bb \u03a7\u03b1\u03bc\u03ad\u03bb", "name:fr": "El Hamel", "name:kab": "Lhamel", "place": "town", "wikidata": "Q3049938", "wikimedia_commons": "Category:El Hamel", "wikipedia": "ar:\u0627\u0644\u0647\u0627\u0645\u0644"}}, {"type": "node", "id": 1561676303, "lat": 35.300042, "lon": 4.1704228, "tags": {"name": "A\u00efn Eddis", "name:ar": "\u0639\u064a\u0646 \u0627\u0644\u062f\u064a\u0633", "name:ber": "\u2d44\u2d49\u2d4f \u2d37\u2d49\u2d59", "name:el": "\u0391\u0390\u03bd \u0395\u03bd\u03c4\u03af\u03c2", "name:en": "Ain Eddis", "name:fr": "A\u00efn Eddis", "name:kab": "\u0190in Dis", "place": "town", "population": "10716"}}]}