{"version": 0.6, "generator": "Overpass API 0.7.62.4 2390de5a", "osm3s": {"timestamp_osm_base": "2025-01-08T06:31:42Z", "copyright": "The data included in this document is from www.openstreetmap.org. The data is made available under ODbL."}, "elements": [{"type": "node", "id": 288763386, "lat": 34.2738201, "lon": 45.1666986, "tags": {"alt_name:ckb": "\u062c\u06d5\u0644\u06d5\u0648\u0644\u0627", "capital": "7", "name": "\u062c\u0644\u0648\u0644\u0627\u0621", "name:ar": "\u062c\u0644\u0648\u0644\u0627\u0621", "name:ckb": "\u06af\u0648\u06b5\u0627\u06b5\u06d5", "name:en": "Gulala", "name:fr": "Gulala", "name:ku": "Gullalle", "name:ml": "\u0d17\u0d41\u0d32\u0d32", "place": "town", "wikidata": "Q3160754", "wikipedia": "ar:\u062c\u0644\u0648\u0644\u0627\u0621"}}, {"type": "node", "id": 288765264, "lat": 34.1863032, "lon": 45.1182834, "tags": {"alt_name": "Sadiyah, Sadiye, Sadiyeh, Sadiyah, Sadiye, Sadiyeh, Saadiyah", "capital": "7", "int_name": "Sadiyah, \u0633\u0639\u062f\u064a\u0629", "name": "\u0633\u0639\u062f\u064a\u0629", "name:ar": "\u0633\u0639\u062f\u064a\u0629", "name:ckb": "\u0633\u06d5\u0639\u062f\u06cc\u06cc\u06d5", "name:de": "Sadiyah", "name:en": "Sadiyah", "name:fr": "Sadiyah", "name:ru": "\u042d\u0441-\u0421\u0430\u0430\u0434\u0438\u044f", "old_name:ckb": "\u062e\u06d5\u0633\u0631\u06d5\u0648 \u0626\u0627\u0628\u0627\u062f", "place": "town", "wikidata": "Q12198999", "wikipedia": "en:Sadiyah"}}, {"type": "node", "id": 3521162045, "lat": 33.993356, "lon": 45.497316, "tags": {"alt_name": "Naft Khaneh;Naft-i-Shah;Naftshahr;Naft Kaneh;Naft-e Shah;Naft Shah", "alt_name:en": "Naft Khaneh;Naft-i-Shah;Naftshahr;Naft Kaneh;Naft-e Shah;Naft Shah", "is_in:country": "Iran", "is_in:state": "Kermanshah", "name": "\u0646\u0641\u062a \u0634\u0647\u0631", "name:en": "Naft Shahr", "place": "town", "source:name": "GNS", "wikidata": "Q6958218", "wikipedia": "en:Naft shahr"}}]}