{"version": 0.6, "generator": "Overpass API 0.7.62.4 2390de5a", "osm3s": {"timestamp_osm_base": "2025-01-08T06:30:42Z", "copyright": "The data included in this document is from www.openstreetmap.org. The data is made available under ODbL."}, "elements": [{"type": "node", "id": 480459383, "lat": 35.1808, "lon": 46.2544, "tags": {"alt_name:en": "Navdesheh", "is_in:country": "Iran", "is_in:state": "Kermanshah", "name": "\u0646\u0648\u062f\u0634\u0647", "name:ckb": "\u0646\u06c6\u062f\u0634\u06d5", "name:en": "Nowdeshah", "name:fa": "\u0646\u0648\u062f\u0634\u0647", "name:fr": "Nowdeshah", "name:ku": "Nod\u015fe", "name:ru": "\u041d\u043e\u0443\u0434\u0435\u0448\u0430\u0445", "place": "town", "population": "3683", "population:date": "2016", "source:name": "GNS", "source:population": "amar.org.ir", "wikidata": "Q972102", "wikipedia": "fa:\u0646\u0648\u062f\u0634\u0647"}}, {"type": "node", "id": 480459390, "lat": 35.0458307, "lon": 46.3622191, "tags": {"is_in": "Kermanshah,Iran", "is_in:country": "Iran", "is_in:state": "Kermanshah", "name": "\u067e\u0627\u0648\u0647", "name:ckb": "\u067e\u0627\u0648\u06d5", "name:en": "Paveh", "name:fa": "\u067e\u0627\u0648\u0647", "name:fr": "Paveh", "name:ku": "Pawe", "name:uk": "\u041f\u0430\u0432\u0435", "place": "town", "population": "25771", "population:date": "2016", "source:population": "amar.org.ir", "wikidata": "Q720608"}}, {"type": "node", "id": 2267717709, "lat": 35.1612676, "lon": 46.2042463, "tags": {"is_in:country": "Iran", "is_in:state": "Kermanshah", "name": "\u0646\u0648\u0633\u0648\u062f", "name:ckb": "\u0646\u06d5\u0648\u0633\u0648\u0648\u062f", "name:en": "Nowsud", "name:fa": "\u0646\u0648\u0633\u0648\u062f", "name:fr": "Nowsud", "name:ku": "Nos\u00fbde", "name:uk": "\u041d\u043e\u0443\u0441\u0443\u0434", "place": "town", "population": "1949", "population:date": "2016", "source:name:uk": "https://1drv.ms/b/s!Ar-WXIFaX7UdgQs-x7Qj83y_IvGR", "source:population": "amar.org.ir", "wikidata": "Q3667163", "wikipedia": "en:Nowsud"}}, {"type": "node", "id": 2480123639, "lat": 35.199444, "lon": 46.186111, "tags": {"name": "\u062a\u06d5\u0648\u06ce\u06b5\u06d5", "name:ar": "\u062a\u0648\u06cc\u0644\u06d5", "name:ckb": "\u062a\u06d5\u0648\u06ce\u06b5\u06d5", "name:en": "Tawela", "name:hac": "\u062a\u06d5\u06cb\u06ce\u06b5\u06ce", "name:ku": "Tew\u00eale", "place": "town", "wikidata": "Q5990184", "wikipedia": "ckb:\u062a\u06d5\u0648\u06ce\u06b5\u06d5"}}, {"type": "node", "id": 3072860833, "lat": 34.970525, "lon": 46.3600038, "tags": {"alt_name": "\u0628\u0627\u0646\u0648\u0631\u0647", "alt_name:en": "Banureh", "name": "\u0628\u0627\u0646\u0647 \u0648\u0631\u0647", "name:ckb": "\u0628\u0627\u0646\u06d5\u0648\u0695\u06ce", "name:en": "Baneh Verdeh", "name:ku": "Banewr\u00ea", "place": "town", "population": "3187", "population:date": "2016", "source:name": "GNS", "source:population": "amar.org.ir"}}, {"type": "node", "id": 3072860834, "lat": 34.9657939, "lon": 46.35964}, {"type": "node", "id": 3072860835, "lat": 34.966105, "lon": 46.3611901}, {"type": "node", "id": 3072860836, "lat": 34.9669346, "lon": 46.3610003}, {"type": "node", "id": 3072860837, "lat": 34.9677771, "lon": 46.3609528}, {"type": "node", "id": 3072860838, "lat": 34.9682567, "lon": 46.361807}, {"type": "node", "id": 3072860839, "lat": 34.9683993, "lon": 46.3632305}, {"type": "node", "id": 3072860840, "lat": 34.9682308, "lon": 46.364575}, {"type": "node", "id": 3072860841, "lat": 34.9683993, "lon": 46.3656347}, {"type": "node", "id": 3072860842, "lat": 34.9696565, "lon": 46.3655398}, {"type": "node", "id": 3072860843, "lat": 34.9701491, "lon": 46.3646857}, {"type": "node", "id": 3072860844, "lat": 34.970849, "lon": 46.3646382}, {"type": "node", "id": 3072860845, "lat": 34.9711601, "lon": 46.3636892}, {"type": "node", "id": 3072860846, "lat": 34.9713674, "lon": 46.3623289}, {"type": "node", "id": 3072860847, "lat": 34.9720803, "lon": 46.3612692}, {"type": "node", "id": 3072860848, "lat": 34.9730913, "lon": 46.360589}, {"type": "node", "id": 3072860849, "lat": 34.973182, "lon": 46.3594186}, {"type": "node", "id": 3072860850, "lat": 34.9735708, "lon": 46.3584695}, {"type": "node", "id": 3072860851, "lat": 34.9737263, "lon": 46.3572516}, {"type": "node", "id": 3072860852, "lat": 34.9734023, "lon": 46.3562235}, {"type": "node", "id": 3072860853, "lat": 34.9728061, "lon": 46.3555117}, {"type": "node", "id": 3072860854, "lat": 34.9726376, "lon": 46.3543571}, {"type": "node", "id": 3072860855, "lat": 34.9720025, "lon": 46.354626}, {"type": "node", "id": 3072860856, "lat": 34.97151, "lon": 46.3557964}, {"type": "node", "id": 3072860857, "lat": 34.970188, "lon": 46.3565082}, {"type": "node", "id": 3072860858, "lat": 34.9689437, "lon": 46.3562868}, {"type": "node", "id": 3072860859, "lat": 34.9678549, "lon": 46.3568087}, {"type": "node", "id": 3072860860, "lat": 34.9680623, "lon": 46.3575047}, {"type": "node", "id": 3072860861, "lat": 34.9676475, "lon": 46.358169}, {"type": "node", "id": 3072860862, "lat": 34.9668827, "lon": 46.3589282}, {"type": "node", "id": 3072860863, "lat": 34.966118, "lon": 46.3592446}, {"type": "node", "id": 3072864834, "lat": 34.9713868, "lon": 46.3623}, {"type": "node", "id": 3520078545, "lat": 34.828, "lon": 46.3578, "tags": {"alt_name": "Shervineh", "alt_name:en": "Shervineh", "is_in:country": "Iran", "is_in:state": "Kermanshah", "name": "\u0634\u0631\u0648\u06cc\u0646\u0647", "name:en": "Shervenineh", "place": "town", "source:name": "GNS"}}, {"type": "node", "id": 3524794988, "lat": 34.9813, "lon": 46.2709, "tags": {"alt_name": "Bayengan", "alt_name:ckb": "\u0628\u0627\u06cc\u06d5\u0646\u06af\u0627\u0646", "alt_name:en": "Bayengan", "alt_name:ku": "Bayengan", "is_in:country": "Iran", "is_in:state": "Kermanshah", "name": "\u0628\u0627\u06cc\u0646\u06af\u0627\u0646", "name:ckb": "\u0628\u0627\u06cc\u0646\u06af\u0627\u0646", "name:en": "Bayangan", "name:fa": "\u0628\u0627\u06cc\u0646\u06af\u0627\u0646", "name:fr": "Bayangan", "name:ku": "Bayingan", "place": "town", "source:name": "GNS", "wikidata": "Q4357667", "wikipedia": "en:Bayangan"}}, {"type": "node", "id": 9294490069, "lat": 34.9717637, "lon": 46.3617399}, {"type": "node", "id": 10062748896, "lat": 34.808461, "lon": 46.4930805, "tags": {"name": "\u062c\u0648\u0627\u0646\u0631\u0648\u062f", "place": "town"}}, {"type": "way", "id": 302990047, "nodes": [3072860834, 3072860835, 3072860836, 3072860837, 3072860838, 3072860839, 3072860840, 3072860841, 3072860842, 3072860843, 3072860844, 3072860845, 3072860846, 3072864834, 9294490069, 3072860847, 3072860848, 3072860849, 3072860850, 3072860851, 3072860852, 3072860853, 3072860854, 3072860855, 3072860856, 3072860857, 3072860858, 3072860859, 3072860860, 3072860861, 3072860862, 3072860863, 3072860834], "tags": {"admin_level": "7", "boundary": "administrative", "name": "\u0628\u0627\u0646\u0647\u200c\u0648\u0631\u0647", "name:en": "Banevreh", "place": "town"}}]}