{"version": 0.6, "generator": "Overpass API 0.7.62.4 2390de5a", "osm3s": {"timestamp_osm_base": "2025-01-08T07:29:58Z", "copyright": "The data included in this document is from www.openstreetmap.org. The data is made available under ODbL."}, "elements": [{"type": "node", "id": 34684808, "lat": 2.0349312, "lon": 45.3419183, "tags": {"admin_level": "2", "alt_name": "Xamar", "alt_name:ar": "\u0645\u0642\u062f\u0634\u0648;\u0645\u064e\u0642\u0652\u062f\u064e\u0634\u064f\u0648", "capital": "yes", "ele": "9", "name": "Muqdisho \u0645\u0642\u062f\u064a\u0634\u0648", "name:ace": "Mogadishu", "name:af": "Mogadisjoe", "name:am": "\u121e\u1243\u12f2\u123e", "name:an": "Mogadixo", "name:ar": "\u0645\u0642\u062f\u064a\u0634\u0648", "name:az": "Moqadi\u015fo", "name:azb": "\u0645\u0648\u0642\u0627\u062f\u06cc\u0634\u0648", "name:bcl": "Mogadishu", "name:be": "\u041c\u0430\u0433\u0430\u0434\u044b\u0448\u0430", "name:be-tarask": "\u041c\u0430\u0433\u0430\u0434\u0437\u0456\u0448\u0443", "name:bg": "\u041c\u043e\u0433\u0430\u0434\u0438\u0448\u0443", "name:bn": "\u09ae\u09cb\u0997\u09be\u09a6\u09bf\u09b6\u09c1", "name:bo": "\u0f58\u0f7c\u0f0b\u0f42\u0f0b\u0f51\u0f72\u0f0b\u0f64\u0f74\u0f0d", "name:br": "Muqdisho", "name:bs": "Mogadi\u0161", "name:ca": "Mogadixo", "name:ckb": "\u0645\u06c6\u06af\u0627\u062f\u06cc\u0634\u0648", "name:cs": "Mogadi\u0161u", "name:cy": "Mogadishu", "name:da": "Mogadishu", "name:de": "Mogadischu", "name:el": "\u039c\u03bf\u03b3\u03ba\u03b1\u03bd\u03c4\u03af\u03c3\u03bf\u03c5", "name:en": "Mogadishu", "name:eo": "Mogadi\u015do", "name:es": "Mogadiscio", "name:et": "Muqdisho", "name:eu": "Muqdisho", "name:fa": "\u0645\u0648\u06af\u0627\u062f\u06cc\u0634\u0648", "name:fi": "Mogadishu", "name:fo": "Mogadishu", "name:fr": "Mogadiscio", "name:fy": "Mogadisj\u00fb", "name:ga": "Mogaidisi\u00fa", "name:gd": "Mogadishu", "name:gl": "Mogadixo", "name:grc": "\u039c\u03bf\u03b3\u03b1\u03b4\u03b9\u03c3\u03bf\u03c5\u0390\u03b1", "name:he": "\u05de\u05d5\u05d2\u05d3\u05d9\u05e9\u05d5", "name:hi": "\u092e\u094b\u0917\u093e\u0926\u0940\u0936\u0942", "name:hif": "Mogadishu", "name:hr": "Mogadi\u0161u", "name:ht": "Moukdicho", "name:hu": "Mogadishu", "name:hy": "\u0544\u0578\u0563\u0561\u0564\u056b\u0577\u0578", "name:id": "Mogadishu", "name:ie": "Mogadishu", "name:io": "Mogadishu", "name:is": "M\u00f3gadisj\u00fa", "name:it": "Mogadiscio", "name:ja": "\u30e2\u30ac\u30c7\u30a3\u30b7\u30e5", "name:jv": "Mogadishu", "name:ka": "\u10db\u10dd\u10d2\u10d0\u10d3\u10d8\u10e8\u10dd", "name:kab": "Mugadiccu", "name:kk": "\u041c\u043e\u0433\u0430\u0434\u0438\u0448\u043e \u049b\u0430\u043b\u0430\u0441\u044b", "name:kn": "\u0cae\u0cca\u0c97\u0ca6\u0cbf\u0cb6\u0cc1", "name:ko": "\ubaa8\uac00\ub514\uc288", "name:ku": "Mogad\u00ee\u015fu", "name:ky": "\u041c\u043e\u0433\u0430\u0434\u0438\u0448\u043e", "name:la": "Mogadiscio", "name:lij": "Mogadiscio", "name:lmo": "Mugadiss", "name:lt": "Mogadi\u0161as", "name:lv": "Mogad\u012b\u0161o", "name:mk": "\u041c\u043e\u0433\u0430\u0434\u0438\u0448\u0443", "name:ml": "\u0d2e\u0d4a\u0d17\u0d3e\u0d26\u0d3f\u0d37\u0d41", "name:mr": "\u092e\u094b\u0917\u093e\u0926\u093f\u0936\u0942", "name:ms": "Mogadishu", "name:nan": "Mogadishu", "name:nl": "Mogadishu", "name:nn": "Mogadishu", "name:no": "Mogadishu", "name:nov": "Mogadishu", "name:oc": "Mogadisho", "name:pa": "\u0a2e\u0a15\u0a26\u0a40\u0a38\u0a3c\u0a42", "name:pap": "Mogadishu", "name:pl": "Mogadiszu", "name:pms": "Mogadiss", "name:pnb": "\u0645\u0648\u06af\u0627\u062f\u06cc\u0634\u0648", "name:pt": "Mogad\u00edscio", "name:ro": "Mogadishu", "name:ru": "\u041c\u043e\u0433\u0430\u0434\u0438\u0448\u043e", "name:ru:word_stress": "\u041c\u043e\u0433\u0430\u0434\u0438\u0301\u0448\u043e", "name:rw": "Mogadishu", "name:sco": "Mogadishu", "name:sh": "Mogadishu", "name:simple": "Mogadishu", "name:sk": "Mogadi\u0161o", "name:sl": "Mogadi\u0161", "name:so": "Muqdisho", "name:sr": "\u041c\u043e\u0433\u0430\u0434\u0438\u0448\u0443", "name:sv": "Mogadishu", "name:sw": "Mogadishu", "name:ta": "\u0bae\u0bca\u0b95\u0b9f\u0bbf\u0b9a\u0bc1", "name:tg": "\u041c\u043e\u0433\u0430\u0434\u0438\u0448\u043e", "name:th": "\u0e42\u0e21\u0e01\u0e32\u0e14\u0e34\u0e0a\u0e39", "name:tl": "Mogadishu", "name:tr": "Mogadi\u015fu", "name:udm": "\u041c\u043e\u0433\u0430\u0434\u0438\u0448\u043e", "name:uk": "\u041c\u043e\u0491\u0430\u0434\u0456\u0448\u043e", "name:ur": "\u0645\u0648\u063a\u0627\u062f\u06cc\u0634\u0648", "name:vec": "Mogadiscio", "name:vi": "Mogadishu", "name:war": "Mogadishu", "name:wo": "Mogadisu", "name:yo": "Mogadishu", "name:zh": "\u6469\u52a0\u8fea\u6c99", "place": "city", "population": "2610000", "population:date": "2023", "wikidata": "Q2449", "wikipedia": "ar:\u0645\u0642\u062f\u064a\u0634\u0648"}}, {"type": "node", "id": 36161072, "lat": 2.1460287, "lon": 45.1190379, "tags": {"name": "Afgooye \u0623\u0641\u062c\u0648\u064a", "name:ar": "\u0623\u0641\u062c\u0648\u064a", "name:de": "Afgooye", "name:en": "Afgooye", "name:es": "Afgooye", "name:fr": "Afgooye", "place": "city", "wikidata": "Q383218", "wikipedia": "ar:\u0623\u0641\u062c\u0648\u064a"}}, {"type": "node", "id": 1404225678, "lat": 1.9836267, "lon": 44.9880837, "tags": {"name": "Afgoi", "pcode": "NA-3810-A33-003", "place": "town"}}, {"type": "node", "id": 11960200725, "lat": 2.1339112, "lon": 45.3202973, "tags": {"name": "Daru-Salaam City", "note": "Area misssing", "place": "city"}}]}