{"version": 0.6, "generator": "Overpass API 0.7.62.4 2390de5a", "osm3s": {"timestamp_osm_base": "2025-01-08T05:57:59Z", "copyright": "The data included in this document is from www.openstreetmap.org. The data is made available under ODbL."}, "elements": [{"type": "node", "id": 768595872, "lat": 30.6043775, "lon": 32.2770825, "tags": {"alt_name:ar": "\u0625\u0633\u0645\u0627\u0639\u064a\u0644\u064a\u0629", "alt_name:en": "Al Ism\u0101\u2018\u012bl\u012bya;Al Ismailiya", "alt_name:tr": "\u0130smailiye", "capital": "4", "name": "\u0627\u0644\u0625\u0633\u0645\u0627\u0639\u064a\u0644\u064a\u0629", "name:ar": "\u0627\u0644\u0625\u0633\u0645\u0627\u0639\u064a\u0644\u064a\u0629", "name:azb": "\u0627\u06cc\u0633\u0645\u0627\u0639\u06cc\u0644\u06cc\u0647", "name:ckb": "\u0626\u06cc\u0633\u0645\u0627\u0639\u06cc\u0644\u06cc\u06d5", "name:de": "Al Ismailiya", "name:en": "Al Ismailiya", "name:eo": "Ismailija", "name:es": "Ismail\u00eda", "name:et": "Al-Ism\u0101\u2019\u012bl\u012byah", "name:eu": "Ismailia", "name:fa": "\u0627\u0633\u0645\u0627\u0639\u06cc\u0644\u06cc\u0647", "name:fr": "Al Ismailiya", "name:he": "\u05d0\u05d9\u05e1\u05de\u05e2\u05d9\u05dc\u05d9\u05d4", "name:hi": "\u0907\u0938\u094d\u092e\u093e\u0907\u0932\u093f\u092f\u093e", "name:hr": "Ismailija", "name:hu": "el-Iszm\u00e1ilijja", "name:kab": "Isma\u025bileyya", "name:ml": "\u0d07\u0d38\u0d4d\u0d2e\u0d2f\u0d3f\u0d32\u0d3f\u0d2f", "name:nl": "Isma\u00eflia", "name:pl": "Ismailia", "name:pnb": "\u0627\u0633\u0645\u0627\u0639\u06cc\u0644\u06cc\u06c1", "name:ru": "\u0418\u0441\u043c\u0430\u0438\u043b\u0438\u044f", "name:tr": "\u0130sm\u00e2iliye", "name:uk": "\u0406\u0441\u043c\u0430\u0457\u043b\u0456\u044f", "name:ur": "\u0627\u0633\u0645\u0627\u0639\u06cc\u0644\u06cc\u06c1", "place": "city", "population": "352000", "population:date": "2010", "wikidata": "Q217156", "wikipedia": "ar:\u0627\u0644\u0625\u0633\u0645\u0627\u0639\u064a\u0644\u064a\u0629 (\u0645\u062f\u064a\u0646\u0629)"}}, {"type": "node", "id": 1051468629, "lat": 30.631747, "lon": 31.9392545, "tags": {"name": "\u0627\u0644\u0635\u0627\u0644\u062d\u064a\u0629 \u0627\u0644\u062c\u062f\u064a\u062f\u0629", "name:ar": "\u0627\u0644\u0635\u0627\u0644\u062d\u064a\u0629 \u0627\u0644\u062c\u062f\u064a\u062f\u0629", "name:en": "Al-Salheya Al-Gedida", "name:fr": "El Salahaia El Gadeda", "name:ml": "\u0d05\u0d7d-\u0d38\u0d3e\u0d32\u0d39\u0d3f\u0d2f \u0d05\u0d7d-\u0d17\u0d26\u0d40\u0d26", "place": "town"}}, {"type": "node", "id": 3783957266, "lat": 30.3284806, "lon": 32.3007771, "tags": {"name": "\u0641\u0627\u064a\u062f", "name:ar": "\u0641\u0627\u064a\u062f", "name:de": "Fayid", "name:en": "Fayed", "name:fr": "Fayid", "name:ml": "\u0d2b\u0d3e\u0d2f\u0d3f\u0d26\u0d4d", "name:pl": "Fajid", "place": "town", "population": "81000", "wikidata": "Q1383404", "wikimedia_commons": "Category:Fayid", "wikipedia": "de:Fayed (\u00c4gypten)"}}]}