{"version": 0.6, "generator": "Overpass API 0.7.62.4 2390de5a", "osm3s": {"timestamp_osm_base": "2025-01-08T06:22:27Z", "copyright": "The data included in this document is from www.openstreetmap.org. The data is made available under ODbL."}, "elements": [{"type": "node", "id": 1219223549, "lat": 15.712331, "lon": 43.649252, "tags": {"GNS:dsg_code": "PPLA2", "GNS:dsg_name": "captial of a second-order administrative division", "GNS:id": "-3191776", "alt_name": "Suq Shiras; S\u016bq Shiras", "int_name": "Sharas", "name": "\u0634\u0631\u0633", "name:ar": "\u0634\u0631\u0633", "name:de": "Sharas", "name:en": "Sharas", "name:fr": "Sharas", "place": "town", "population": "42", "population:date": "2004-12-17", "source:name": "GNS", "source:population": "YCSO2004:17-19-21-1"}}, {"type": "node", "id": 1219224697, "lat": 15.6162214, "lon": 43.705877, "tags": {"GNS:dsg_code": "PPLA2", "GNS:dsg_name": "captial of a second-order administrative division", "GNS:id": "-3185584", "alt_name": "Bayt \u2018Idh\u0101qah; Bayt `Idhaqah; Idha", "int_name": "Bayt \u2018Adh\u0101qah", "name": "\u0628\u064a\u062a \u0639\u0630\u0627\u0642\u0629", "name:ar": "\u0628\u064a\u062a \u0639\u0630\u0627\u0642\u0629", "name:ar1": "\u0628\u064a\u062a \u0639\u0630\u0627\u0642\u0629", "name:de": "Bayt `Adhaqah", "name:en": "Bayt `Adhaqah", "name:fr": "Bayt `Adhaqah", "place": "town", "population": "1566", "population:date": "2004-12-17", "source:name": "GNS", "source:population": "YCSO2004:29-16-24-1", "wikidata": "Q4874927"}}, {"type": "node", "id": 1219226870, "lat": 15.49498, "lon": 43.740043, "tags": {"GNS:dsg_code": "PPLA2", "GNS:dsg_name": "captial of a second-order administrative division", "GNS:id": "-3193435", "alt_name": "Et-Tawilah; Tuwiia; Tawila; E\u1e6d-\u1e6caw\u012blah; Taw\u012blah; Tawilah", "int_name": "A\u0163 \u0162aw\u012blah", "name": "\u0627\u0644\u0637\u0648\u064a\u0644\u0629", "name:ar": "\u0627\u0644\u0637\u0648\u064a\u0644\u0629", "name:de": "At Tawilah", "name:en": "At Tawilah", "name:fr": "At Tawilah", "place": "town", "population": "7542", "population:date": "2004-12-17", "source:name": "GNS", "source:population": "YCSO2004:27-2-21-1"}}, {"type": "node", "id": 1222651844, "lat": 15.470072, "lon": 43.544812, "tags": {"GNS:dsg_code": "PPLA", "GNS:dsg_name": "captial of a first-order administrative division", "GNS:id": "-3183514", "alt_name": "El-Ma\u1e29w\u012bt; Mahwit; El-Mahwit; Ma\u1e29w\u012bt; Mahweit; Mahwait", "capital": "4", "int_name": "Al Ma\u1e29w\u012bt", "name": "\u0627\u0644\u0645\u062d\u0648\u064a\u062a", "name:ar": "\u0627\u0644\u0645\u062d\u0648\u064a\u062a", "name:cs": "Mahv\u00edt", "name:de": "Al Mahwit", "name:en": "Al Mahwit", "name:fr": "Al Mahwit", "name:ru": "\u041c\u0430\u0445\u0432\u0438\u0442", "place": "town", "population": "12817", "population:date": "2004-12-17", "source:name": "GNS", "source:population": "YCSO2004:27-8-21-1", "wikidata": "Q310622"}}, {"type": "node", "id": 1222653668, "lat": 15.6203206, "lon": 43.5268808, "tags": {"GNS:dsg_code": "PPLA2", "GNS:dsg_name": "captial of a second-order administrative division", "GNS:id": "-3184520", "alt_name": "Ash Sha`adirah; Ash Shaf\u0101dirah; Ash Shafadirah; Ash Sha\u2018\u0101dirah", "int_name": "Ash Shagh\u0101dirah", "name": "\u0627\u0644\u0634\u063a\u0627\u062f\u0631\u0629", "name:ar": "\u0627\u0644\u0634\u063a\u0627\u062f\u0631\u0629", "name:de": "Ash Shaghadirah", "name:en": "Ash Shaghadirah", "name:fr": "Ash Shaghadirah", "place": "town", "population": "2891", "population:date": "2004-12-17", "source:name": "GNS", "source:population": "YCSO2004:17-25-25-1"}}, {"type": "node", "id": 1224186975, "lat": 15.694247, "lon": 43.605821, "tags": {"GNS:dsg_code": "PPLA", "GNS:dsg_name": "captial of a first-order administrative division", "GNS:id": "-3187195", "alt_name": "Hajje; Hajja; Haggiah; \u1e24aggiah; Haggah; Hage; \u1e24age; \u1e24aggah", "capital": "4", "int_name": "\u1e28ajjah", "name": "\u062d\u062c\u0629", "name:ar": "\u062d\u062c\u0629", "name:cs": "Had\u017ea", "name:de": "Hajja", "name:en": "Hajja", "name:fr": "Hajja", "name:ru": "\u0425\u0430\u0434\u0434\u0436\u0430", "place": "town", "population": "34136", "population:date": "2004-12-17", "source:name": "GNS", "source:population": "YCSO2004:17-28-21-1", "wikidata": "Q1770704"}}, {"type": "node", "id": 1224189464, "lat": 15.581187, "lon": 43.587271, "tags": {"GNS:dsg_code": "PPLA2", "GNS:dsg_name": "captial of a second-order administrative division", "GNS:id": "10646065", "alt_name:ar": "\u0628\u0646\u064a \u0627\u0644\u0639\u0648\u0627\u0645", "int_name": "Ban\u012b al \u2018Aww\u0101m", "name": "\u0646\u0639\u0645\u0627\u0646", "name:ar": "\u0646\u0639\u0645\u0627\u0646", "name:de": "Bani al `Awwam", "name:en": "Bani al `Awwam", "name:fr": "Bani al `Awwam", "place": "town", "population": "92", "population:date": "2004-12-17", "source:name": "GNS", "source:population": "YCSO2004:17-27-26-1", "wikidata": "Q20299003"}}, {"type": "node", "id": 1224192387, "lat": 15.37897, "lon": 43.421209, "tags": {"GNS:dsg_code": "PPLA2", "GNS:dsg_name": "captial of a second-order administrative division", "GNS:id": "-3184634", "alt_name": "As Safqayn; A\u015f \u015eafqayn", "int_name": "A\u015f \u015eafaqayn", "name": "\u0627\u0644\u0635\u0641\u0642\u064a\u0646", "name:ar": "\u0627\u0644\u0635\u0641\u0642\u064a\u0646", "name:de": "As Safaqayn", "name:en": "As Safaqayn", "name:fr": "As Safaqayn", "place": "town", "population": "1624", "population:date": "2004-12-17", "source:name": "GNS", "source:population": "YCSO2004:27-6-21-1"}}, {"type": "node", "id": 1224759247, "lat": 15.710726, "lon": 43.48321, "tags": {"GNS:dsg_code": "PPLA2", "GNS:dsg_name": "captial of a second-order administrative division", "GNS:id": "-3778692", "alt_name": "Wazrah; Waz\u0327rah", "int_name": "Wa\u1e11arah", "name": "\u0648\u0636\u0631\u0629", "name:ar": "\u0648\u0636\u0631\u0629", "name:de": "Wadarah", "name:en": "Wadarah", "name:fr": "Wadarah", "place": "town", "population": "920", "population:date": "2004-12-17", "source:name": "GNS", "source:population": "YCSO2004:17-23-25-2"}}, {"type": "node", "id": 1227108030, "lat": 15.737726, "lon": 43.557007, "tags": {"GNS:dsg_code": "PPLA2", "GNS:dsg_name": "captial of a second-order administrative division", "GNS:id": "226548", "int_name": "Mabyan", "name": "\u0645\u0628\u064a\u0646", "name:ar": "\u0645\u0628\u064a\u0646", "name:de": "Mabyan", "name:en": "Mabyan", "name:fr": "Mabyan", "place": "town", "population": "1849", "population:date": "2004-12-17", "source:name": "GNS", "source:population": "YCSO2004:17-20-21-1"}}, {"type": "node", "id": 8013473128, "lat": 15.6364841, "lon": 43.5412136, "tags": {"name": "\u0646\u062c\u0631\u0629 (\u0645\u062d\u0645\u0648\u062f)", "name:ar": "\u0646\u062c\u0631\u0629 (\u0645\u062d\u0645\u0648\u062f)", "name:en": "Najrah (Mahmoud)", "place": "town", "population": "892", "population:date": "2004-12-17", "source:population": "YCSO2004:17-26-25-1"}}]}