{"version": 0.6, "generator": "Overpass API 0.7.62.4 2390de5a", "osm3s": {"timestamp_osm_base": "2025-01-08T06:26:38Z", "copyright": "The data included in this document is from www.openstreetmap.org. The data is made available under ODbL."}, "elements": [{"type": "node", "id": 262479317, "lat": 25.7737705, "lon": 55.938232, "tags": {"name": "\u0631\u0623\u0633 \u0627\u0644\u062e\u064a\u0645\u0629", "name:ar": "\u0631\u0623\u0633 \u0627\u0644\u062e\u064a\u0645\u0629", "name:bn": "\u09b0\u09be\u09b8 \u0986\u09b2-\u0996\u09be\u0987\u09ae\u09be", "name:cs": "R\u00e1s al-Chajma", "name:de": "Ra\u2019s al-Chaima", "name:en": "Ras Al Khaimah", "name:es": "Ras al-Jaima", "name:et": "Ra\u2019s al-Khaymah", "name:fa": "\u0631\u0623\u0633\u200c\u0627\u0644\u062e\u06cc\u0645\u0647", "name:fr": "Ras al-Kha\u00efma", "name:he": "\u05e8\u05d0\u05e1 \u05d0\u05dc-\u05d7\u05d9\u05d9\u05de\u05d4", "name:hi": "\u0930\u093e\u0938 \u0905\u0932 \u0916\u0948\u092e\u093e", "name:kn": "\u0cb0\u0c83\u0cb8\u0ccd \u0c85\u0cb2\u0ccd \u0c96\u0cc8\u0cae\u0cbe", "name:ko": "\ub77c\uc2a4\uc54c\uce74\uc774\ub9c8", "name:ml": "\u0d31\u0d3e\u0d38\u0d7d \u0d16\u0d48\u0d2e", "name:pnb": "\u0631\u0627\u0633 \u0627\u0644\u062e\u06cc\u0645\u06c1", "name:ru": "\u0420\u0430\u0441-\u044d\u043b\u044c-\u0425\u0430\u0439\u043c\u0430", "name:ta": "\u0bb0\u0b83\u0bb8\u0bcd \u0b85\u0bb2\u0bcd \u0b95\u0bc8\u0bae\u0bbe", "name:uk": "\u0420\u0430\u0441-\u0435\u043b\u044c-\u0425\u0430\u0439\u043c\u0430", "name:ur": "\u0631\u0627\u0633 \u0627\u0644\u062e\u06cc\u0645\u06c1", "name:zh": "\u54c8\u4f0a\u99ac\u89d2", "official_name": "\u0645\u062f\u064a\u0646\u0629 \u0631\u0623\u0633 \u0627\u0644\u062e\u064a\u0645\u0629", "official_name:ar": "\u0645\u062f\u064a\u0646\u0629 \u0631\u0623\u0633 \u0627\u0644\u062e\u064a\u0645\u0629", "place": "city", "population": "241000", "ref": "RAK", "wikidata": "Q2126436", "wikipedia": "ar:\u0631\u0623\u0633 \u0627\u0644\u062e\u064a\u0645\u0629", "wikipedia:ar": "\u0631\u0623\u0633 \u0627\u0644\u062e\u064a\u0645\u0629 (\u0645\u062f\u064a\u0646\u0629)"}}, {"type": "node", "id": 2920346050, "lat": 26.074714, "lon": 56.0988312}, {"type": "node", "id": 2920346051, "lat": 26.07543, "lon": 56.0993826}, {"type": "node", "id": 2920346052, "lat": 26.0758123, "lon": 56.0996463}, {"type": "node", "id": 2920346053, "lat": 26.078294, "lon": 56.1004974}, {"type": "node", "id": 2920346054, "lat": 26.0794568, "lon": 56.100803}, {"type": "node", "id": 2920346055, "lat": 26.0799073, "lon": 56.100848}, {"type": "node", "id": 2920346056, "lat": 26.0801187, "lon": 56.1009017}, {"type": "node", "id": 2920346057, "lat": 26.0801672, "lon": 56.1010815}, {"type": "node", "id": 2920346058, "lat": 26.0800272, "lon": 56.1012673}, {"type": "node", "id": 2920346059, "lat": 26.0798011, "lon": 56.101549}, {"type": "node", "id": 2920346060, "lat": 26.0797365, "lon": 56.1021783}, {"type": "node", "id": 2920346061, "lat": 26.0799357, "lon": 56.1030834}, {"type": "node", "id": 2920346062, "lat": 26.0799518, "lon": 56.1033411}, {"type": "node", "id": 2920346063, "lat": 26.079252, "lon": 56.1040843}, {"type": "node", "id": 2920346064, "lat": 26.0789774, "lon": 56.1040483}, {"type": "node", "id": 2920346065, "lat": 26.0788967, "lon": 56.104354}, {"type": "node", "id": 2920346066, "lat": 26.078314, "lon": 56.104678}, {"type": "node", "id": 2920346067, "lat": 26.0768804, "lon": 56.1065512}, {"type": "node", "id": 2920346068, "lat": 26.0749975, "lon": 56.1041251}, {"type": "node", "id": 2920346069, "lat": 26.0746339, "lon": 56.103592}, {"type": "node", "id": 2920346070, "lat": 26.0744211, "lon": 56.1034538}, {"type": "node", "id": 2920346071, "lat": 26.0734811, "lon": 56.1020815}, {"type": "node", "id": 2920346072, "lat": 26.0738624, "lon": 56.100107}, {"type": "node", "id": 5759499172, "lat": 26.0288628, "lon": 56.0857749, "tags": {"GNS:id": "-782369", "name": "Sha'am - \u0634\u0639\u0645", "name:ar": "\u0634\u0639\u0645", "name:en": "Sha'am", "name:es": "Sha'am", "name:fr": "Sha'am", "name:ml": "\u0d37\u0d3e\u0d02", "place": "city", "source": "The national atlas of the United Arab Emirates", "wikidata": "Q3696195", "wikipedia": "en:Sha'am"}}, {"type": "node", "id": 5759499173, "lat": 26.035673, "lon": 56.0979187, "tags": {"alt_name": "Al Jir;Al Jeer;Al J\u012br;Al-Jir", "name": "Al Jeer \u0627\u0644\u062c\u064a\u0631", "name:ar": "\u0627\u0644\u062c\u064a\u0631", "name:azb": "\u0627\u0644\u0642\u06cc\u0631", "name:en": "Al Jeer", "name:es": "Al Jeer", "name:fa": "\u0627\u0644\u0642\u06cc\u0631", "name:fr": "Al Jeer", "name:pnb": "\u0627\u0644\u0642\u06cc\u0631", "name:ur": "\u0627\u0644\u0642\u06cc\u0631", "place": "city", "source": "The national atlas of the United Arab Emirates", "wikidata": "Q4704646", "wikipedia": "en:Al Jeer"}}, {"type": "node", "id": 5759509856, "lat": 25.9974973, "lon": 56.0742868, "tags": {"alt_name": "Ghal\u012blah;\u0627\u0644\u062c\u0644\u064a\u0644", "alt_name:ar": "\u0627\u0644\u062c\u0644\u064a\u0644", "name": "\u063a\u0644\u064a\u0644\u0629", "name:ar": "\u063a\u0644\u064a\u0644\u0629", "name:de": "Ghalila", "name:en": "Ghalilah", "name:es": "Ghalilah", "name:fa": "\u063a\u0644\u06cc\u0644\u0647", "name:fr": "Ghalila", "name:ml": "\u0d17\u0d32\u0d40\u0d32", "place": "city", "source": "https://www.mindat.org/feature-292119.html", "wikidata": "Q5555284", "wikipedia": "fa:\u063a\u0644\u06cc\u0644\u0647"}}, {"type": "node", "id": 7015304054, "lat": 25.9658776, "lon": 56.0543258, "tags": {"alt_name": "Khawr Khuwayr;Khor Khuwair;Khuwair", "name": "Khor Khwair \u062e\u0648\u0631 \u062e\u0648\u064a\u0631", "name:ar": "\u062e\u0648\u0631 \u062e\u0648\u064a\u0631", "name:de": "Khor Khwair", "name:en": "Khor Khwair", "name:es": "Khor Khwair", "name:fa": "\u062e\u0648\u0631 \u062e\u0648\u06cc\u0631", "name:fr": "Khor Khwair", "name:ml": "\u0d16\u0d4b\u0d7c \u0d16\u0d41\u0d35\u0d48\u0d7c", "place": "city", "source": "https://www.mindat.org/feature-291693.html", "wikidata": "Q6401069", "wikipedia": "en:Khor Khwair"}}, {"type": "node", "id": 8143186353, "lat": 25.8175473, "lon": 56.023364, "tags": {"alt_name": "Shamal", "alt_name:ar": "\u0634\u0645\u0627\u0644 \u062c\u0644\u0641\u0627\u0631", "name": "\u0634\u0645\u0627\u0644", "name:ar": "\u0634\u0645\u0627\u0644", "name:en": "Shimal", "name:es": "Shimal", "name:fr": "Shimal", "place": "town", "source": "The national atlas of the United Arab Emirates: Shamal", "wikimedia_commons": "Category:Shimal, Ra's Al-Khaimah"}}, {"type": "node", "id": 10693071427, "lat": 25.7674967, "lon": 56.0676333, "tags": {"alt_name": "Gargaha, Ghaghah, Gh\u0101ghah", "name": "Gargaha", "name:en": "Gargaha", "name:es": "Gargaha", "name:fr": "Gargaha", "place": "town", "source": "https://www.mindat.org/feature-292123.html;https://ae.geoview.info/ghaghah;Map FCO 18-785 1971 Trucial States"}}, {"type": "node", "id": 10807644030, "lat": 25.8761894, "lon": 56.0778864, "tags": {"description": "Map FCO 18/1920 - 1962 - Boundaries of the Northern Trucial States: prepared and drawn from sketch maps and information supplied by Julian Walker; preliminary edition. The National Archives. London", "name": "Sal Dhayah", "name:en": "Sal Dhayah", "name:es": "Sal Dhayah", "name:fr": "Sal Dhayah", "place": "town", "source": "Map FCO 18/1932 - 1958 Sketch map drawn by Julian Walker for boundary delimitation: Ras Al Khaimah. The National Archives. London;The national atlas of the United Arab Emirates;https://whc.unesco.org/en/tentativelists/6463/"}}, {"type": "node", "id": 10825243260, "lat": 25.7491206, "lon": 56.0929052, "tags": {"alt_name": "Deira Al Sal, Sal, Sall", "description": "Type:\tCultivated area - an area under cultivation", "name": "Sal", "name:en": "Sal", "name:es": "Sal", "name:fr": "Sal", "place": "town", "source": "https://www.mindat.org/feature-290936.html"}}, {"type": "node", "id": 10840124200, "lat": 26.0382154, "lon": 56.1092976, "tags": {"alt_name": "Qaf\u2019ah", "name": "\u0642\u0641\u0639\u0629", "name:ar": "\u0642\u0641\u0639\u0629", "name:en": "Qaf'a", "name:es": "Qaf'a", "name:fr": "Qaf'a", "place": "town", "source": "https://www.mindat.org/feature-388444.html"}}, {"type": "node", "id": 10840128311, "lat": 26.0242085, "lon": 56.1101655, "tags": {"alt_name": "Rumayl\u012b", "name": "Rumayli \u0631\u0645\u064a\u0644\u064a", "name:ar": "\u0631\u0645\u064a\u0644\u064a", "name:de": "Rumayli", "name:en": "Rumayl\u012b", "name:es": "Rumayli", "name:fr": "Rumayli", "place": "town", "source": "https://www.mindat.org/feature-291032.html"}}, {"type": "node", "id": 10840139323, "lat": 25.9962307, "lon": 56.0832357, "tags": {"name": "\u0627\u0644\u062c\u062f\u0629", "name:ar": "\u0627\u0644\u062c\u062f\u0629", "name:de": "Algida", "name:en": "Al Jaddah", "name:es": "Algida", "name:fr": "Algida", "place": "town", "source": "https://www.mindat.org/feature-292869.html"}}, {"type": "node", "id": 10840173354, "lat": 26.0431126, "lon": 56.1080106, "tags": {"name": "\u0634\u0631\u064a\u0627\u062a", "name:ar": "\u0634\u0631\u064a\u0627\u062a", "name:de": "Sharyat", "name:en": "Shary\u0101t", "name:es": "Sharyat", "name:fr": "Sharyat", "place": "town", "source": "https://www.mindat.org/feature-388445.html"}}, {"type": "node", "id": 11548762329, "lat": 25.7345342, "lon": 56.0991996, "tags": {"alt_name": "Yafnah, Yifnah", "name": "Al Yafnah", "name:en": "Al Yafnah", "name:es": "Al Yafnah", "name:fr": "Al Yafnah", "place": "town", "source": "https://www.mindat.org/feature-290480.html;The National Atlas of the United Arab Emirates;https://www.agda.ae/en/catalogue/tna/fco/18/1863/n/1"}}, {"type": "node", "id": 11584419721, "lat": 25.8175812, "lon": 56.1169891, "tags": {"name": "Atmar", "name:en": "Atmar", "name:es": "Atmar", "name:fr": "Atmar", "place": "town"}}, {"type": "node", "id": 11594633201, "lat": 25.7605022, "lon": 56.1171404, "tags": {"alt_name": "Mak Sik\u0113k", "int_name": "Mak Sikek", "name": "Mak Sikek", "name:en": "Mak Sikek", "name:es": "Mak Sikek", "name:fr": "Mak Sikek", "place": "town", "source": "The national atlas of the United Arab Emirates", "wikidata": "Q124811186", "wikimedia_commons": "Category:Mak Sikek"}}, {"type": "node", "id": 11640138056, "lat": 25.8036875, "lon": 56.0945565, "tags": {"alt_name": "Al Mi\u1e25\u0435\u0304rb\u0101n\u012b", "name": "Al Miherbani", "name:en": "Al Miherbani", "name:es": "Al Miherbani", "name:fr": "Al Miherbani", "place": "town", "source": "The national atlas of the United Arab Emirates"}}, {"type": "node", "id": 11795284219, "lat": 26.0501053, "lon": 56.0894052, "tags": {"GNS:id": "14448345", "alt_name": "Ras Al Dahrah;Ra'alat Ad D\u0101rah;Ras Al Dahrah", "name": "Ra'alat Ad Darah", "name:en": "Ra'alat Ad Darah", "name:es": "Ra'alat Ad Darah", "name:fr": "Ra'alat Ad Darah", "name:ml": "\u0d31\u0d3e\u0d32\u0d24\u0d4d\u0d24\u0d4d \u0d05\u0d26\u0d4d\u0d26\u0d31", "place": "town", "source": "The national atlas of the United Arab Emirates", "wikidata": "Q26200594"}}, {"type": "node", "id": 12167720943, "lat": 25.8845737, "lon": 56.0807949}, {"type": "node", "id": 12167720944, "lat": 25.8825145, "lon": 56.0830183}, {"type": "node", "id": 12167720945, "lat": 25.8811025, "lon": 56.0837213}, {"type": "node", "id": 12167720946, "lat": 25.8786461, "lon": 56.0836559}, {"type": "node", "id": 12167720947, "lat": 25.8760278, "lon": 56.0853725}, {"type": "node", "id": 12167720948, "lat": 25.8741891, "lon": 56.0818902}, {"type": "node", "id": 12167720949, "lat": 25.871556, "lon": 56.079912}, {"type": "node", "id": 12167720950, "lat": 25.8692465, "lon": 56.0781627}, {"type": "node", "id": 12167720951, "lat": 25.8684668, "lon": 56.0753998}, {"type": "node", "id": 12167720952, "lat": 25.8700702, "lon": 56.0747785}, {"type": "node", "id": 12167720953, "lat": 25.8759689, "lon": 56.0761682}, {"type": "node", "id": 12167720954, "lat": 25.8821909, "lon": 56.0775578}, {"type": "node", "id": 12167720955, "lat": 25.8847663, "lon": 56.0797667}, {"type": "node", "id": 12167720956, "lat": 25.8785143, "lon": 56.0767366}, {"type": "node", "id": 12171314735, "lat": 26.0779819, "lon": 56.1053102}, {"type": "node", "id": 12237429437, "lat": 25.8880136, "lon": 56.0578977, "tags": {"GNS:id": "-782786", "alt_name": "Dhayah;Dayah;Dhaiah;Dhaiyah;Zayah", "name": "Dhaya", "name:en": "Dhaya", "name:es": "Dhaya", "name:fr": "Dhaya", "place": "town", "source": "https://www.mindat.org/feature-292266.html"}}, {"type": "node", "id": 12288689808, "lat": 25.7980557, "lon": 56.1024195, "tags": {"alt_name": "Al Hila;Hila;Al Hay\u012blah;Hiyaila", "elevation": "136", "name": "Al Hayilah", "name:ar": "\u062d\u064a\u064a\u0644\u0647", "name:en": "Al Hayilah", "name:es": "Al Hayilah", "name:fr": "Al Hayilah", "place": "town", "wikidata": "Q130644823", "wikimedia_commons": "Category:Al Hayilah"}}, {"type": "node", "id": 12323371754, "lat": 25.7640773, "lon": 55.9343224, "tags": {"alt_name": "Khuz\u0101m", "name": "Khuzam", "name:en": "Khuzam", "name:es": "Khuzam", "name:fr": "Khuzam", "place": "city", "source": "The national atlas of the United Arab Emirates"}}, {"type": "way", "id": 288478712, "nodes": [2920346050, 2920346051, 2920346052, 2920346053, 2920346054, 2920346055, 2920346056, 2920346057, 2920346058, 2920346059, 2920346060, 2920346061, 2920346062, 2920346063, 2920346064, 2920346065, 2920346066, 12171314735, 2920346067, 2920346068, 2920346069, 2920346070, 2920346071, 2920346072, 2920346050], "tags": {"name": "Tibat", "name:en": "Tibat", "name:es": "Tibat", "name:fr": "Tibat", "place": "town", "source": "https://www.mindat.org/feature-286119.html"}}, {"type": "way", "id": 1314588967, "nodes": [12167720943, 12167720944, 12167720945, 12167720946, 12167720947, 12167720948, 12167720949, 12167720950, 12167720951, 12167720952, 12167720953, 12167720956, 12167720954, 12167720955, 12167720943], "tags": {"alt_name": "Sal \u1e0c\u0101yah, Sal Dayah, Sal Dhayah", "name": "Sal Dhayah", "name:en": "Sal Dhayah", "name:es": "Sal Dhayah", "name:fr": "Sal Dhayah", "place": "town", "source": "Map FCO 18/1932 - 1958 Sketch map drawn by Julian Walker for boundary delimitation: Ras Al Khaimah. The National Archives. London;The national atlas of the United Arab Emirates;https://whc.unesco.org/en/tentativelists/6463/", "wikidata": "Q21737909"}}]}