{"version": 0.6, "generator": "Overpass API 0.7.62.4 2390de5a", "osm3s": {"timestamp_osm_base": "2025-01-08T07:18:43Z", "copyright": "The data included in this document is from www.openstreetmap.org. The data is made available under ODbL."}, "elements": [{"type": "node", "id": 26756035, "lat": 33.8984131, "lon": -5.5321582, "tags": {"capital": "5", "name": "Mekn\u00e8s \u2d30\u2d4e\u2d3d\u2d4f\u2d30\u2d59 \u0645\u0643\u0646\u0627\u0633", "name:ar": "\u0645\u0643\u0646\u0627\u0633", "name:be": "\u041c\u0435\u043a\u043d\u0435\u0441", "name:be-tarask": "\u041c\u044d\u043a\u043d\u044d\u0441", "name:ber": "\u2d30\u2d4e\u2d3d\u2d4f\u2d30\u2d59", "name:cs": "Meknes", "name:de": "Meknes", "name:el": "\u039c\u03b5\u03ba\u03bd\u03ad\u03c2", "name:en": "Meknes", "name:es": "Mequinez", "name:et": "Mekn\u00e8s", "name:eu": "Meknes", "name:fa": "\u0645\u06a9\u0646\u0627\u0633", "name:fr": "Mekn\u00e8s", "name:he": "\u05de\u05e7\u05e0\u05e1", "name:hi": "\u092e\u0947\u0915\u0928\u0947\u0938", "name:kab": "Ameknas", "name:ml": "\u0d2e\u0d46\u0d15\u0d4d\u0d28\u0d3e\u0d38\u0d4d", "name:pl": "Meknes", "name:ro": "Meknes", "name:ru": "\u041c\u0435\u043a\u043d\u0435\u0441", "name:sr": "\u041c\u0435\u043a\u043d\u0435\u0441", "name:tr": "Mikn\u00e2s", "name:uk": "\u041c\u0435\u043a\u043d\u0435\u0441", "name:ur": "\u0645\u06a9\u0646\u0627\u0633", "name:zh": "\u30e1\u30af\u30cd\u30b9", "place": "city", "population": "835695", "population:date": "2014", "wikidata": "Q178663", "wikipedia": "ar:\u0645\u0643\u0646\u0627\u0633"}}, {"type": "node", "id": 1017801605, "lat": 34.055188, "lon": -5.525518, "tags": {"capital": "6", "name": "Moulay Idriss Zerhoun \u2d4e\u2d53\u2d4d\u2d30\u2d62 \u2d37\u2d54\u2d49\u2d59 \u2d63\u2d55\u2d40\u2d53\u2d4f \u0645\u0648\u0644\u0627\u064a \u0625\u062f\u0631\u064a\u0633", "name:ar": "\u0645\u0648\u0644\u0627\u064a \u0625\u062f\u0631\u064a\u0633", "name:ber": "\u2d4e\u2d53\u2d4d\u2d30\u2d62 \u2d37\u2d54\u2d49\u2d59 \u2d63\u2d55\u2d40\u2d53\u2d4f", "name:en": "Moulay Idriss Zerhoun", "name:fr": "Moulay Idriss Zerhoun", "place": "town", "wikidata": "Q593222", "wikimedia_commons": "Category:Moulay Idriss", "wikipedia": "fr:Moulay Idriss Zerhoun"}}, {"type": "node", "id": 1108873396, "lat": 33.903146, "lon": -5.376872, "tags": {"capital": "6", "name": "Sabaa Aiyoun \u2d59\u2d31\u2d44 \u2d44\u2d62\u2d53\u2d4f \u0633\u0628\u0639 \u0639\u064a\u0648\u0646", "name:ar": "\u0633\u0628\u0639 \u0639\u064a\u0648\u0646", "name:azb": "\u0633\u0628\u0639 \u0639\u06cc\u0648\u0646", "name:ber": "\u2d59\u2d31\u2d44 \u2d44\u2d62\u2d53\u2d4f", "name:en": "Sabaa Aiyoun", "name:fa": "\u0633\u0628\u0639 \u0639\u06cc\u0648\u0646", "name:fr": "Sabaa Aiyoun", "name:ur": "\u0633\u0628\u0639 \u0639\u06cc\u0648\u0646", "name:zgh": "\u2d59\u2d31\u2d44 \u2d44\u2d62\u2d53\u2d4f", "place": "town", "wikidata": "Q3460453", "wikipedia": "ar:\u0633\u0628\u0639 \u0639\u064a\u0648\u0646", "wikipedia:ar": "\u0633\u0628\u0639 \u0639\u064a\u0648\u0646"}}, {"type": "node", "id": 1863737102, "lat": 33.940302, "lon": -5.208052, "tags": {"capital": "6", "name": "Ain Taoujdate \u2d44\u2d49\u2d4f \u2d5c\u2d30\u2d61\u2d4a\u2d5f\u2d30\u2d5c \u0639\u064a\u0646 \u062a\u0627\u0648\u062c\u062f\u0627\u062a", "name:ar": "\u0639\u064a\u0646 \u062a\u0627\u0648\u062c\u062f\u0627\u062a", "name:ber": "\u2d44\u2d49\u2d4f \u2d5c\u2d30\u2d61\u2d4a\u2d5f\u2d30\u2d5c", "name:en": "Ain Taoujdate", "name:fr": "Ain Taoujdate", "name:ml": "\u0d0e\u0d2f\u0d4d\u0d7b \u0d24\u0d3e\u0d35\u0d1c\u0d26\u0d3e\u0d24\u0d4d\u0d24\u0d4d", "name:zgh": "\u2d44\u2d49\u2d4f \u2d5c\u2d30\u2d61\u2d4a\u2d5f\u2d30\u2d5c", "place": "town", "wikidata": "Q2828136", "wikipedia": "fr:Ain Taoujdate"}}, {"type": "node", "id": 2001846441, "lat": 33.8915022, "lon": -5.5623057, "tags": {"capital": "6", "name": "Al Machouar Stinia \u2d4d\u2d4e\u2d5b\u2d61\u2d55 \u2d59\u2d5c\u2d5c\u2d49\u2d4f\u2d62\u2d62\u2d30 \u0627\u0644\u0645\u0634\u0648\u0631 \u0627\u0644\u0633\u062a\u064a\u0646\u064a\u0629", "name:ar": "\u0627\u0644\u0645\u0634\u0648\u0631 \u0627\u0644\u0633\u062a\u064a\u0646\u064a\u0629", "name:ber": "\u2d4d\u2d4e\u2d5b\u2d61\u2d55 \u2d59\u2d5c\u2d5c\u2d49\u2d4f\u2d62\u2d62\u2d30", "name:en": "Al Machouar Stinia", "name:fr": "Al Machouar Stinia", "name:zgh": "\u2d4d\u2d4e\u2d5b\u2d61\u2d55 \u2d59\u2d5c\u2d5c\u2d49\u2d4f\u2d62\u2d62\u2d30", "place": "town", "population": "5387", "population:date": "2004"}}, {"type": "node", "id": 2009112724, "lat": 33.9373089, "lon": -5.4666399, "tags": {"capital": "7", "name": "Dkhissa \u2d37\u2d45\u2d49\u2d59\u2d30 \u0627\u0644\u062f\u062e\u064a\u0633\u0629", "name:ar": "\u0627\u0644\u062f\u062e\u064a\u0633\u0629", "name:ber": "\u2d37\u2d45\u2d49\u2d59\u2d30", "name:en": "Dkhissa", "name:fr": "Dkhissa", "name:zgh": "\u2d37\u2d45\u2d49\u2d59\u2d30", "place": "town"}}, {"type": "node", "id": 2009112726, "lat": 33.9106742, "lon": -5.4865526, "tags": {"capital": "6", "name": "Ouislane \u2d61\u2d49\u2d59\u2d4d\u2d30\u2d4f \u0648\u064a\u0633\u0644\u0627\u0646", "name:ar": "\u0648\u064a\u0633\u0644\u0627\u0646", "name:ber": "\u2d61\u2d49\u2d59\u2d4d\u2d30\u2d4f", "name:en": "Ouislane", "name:fr": "Ouislane", "name:zgh": "\u2d61\u2d49\u2d59\u2d4d\u2d30\u2d4f", "place": "town", "population": "47824", "population:date": "2004", "wikidata": "Q3358142", "wikimedia_commons": "Category:Ouislane", "wikipedia": "fr:Ouislane"}}, {"type": "node", "id": 2017305245, "lat": 33.8167388, "lon": -5.2749377, "tags": {"capital": "7", "name": "Ait Boubidmane \u2d30\u2d62\u2d5c \u2d31\u2d53\u2d31\u2d53\u2d37\u2d4e\u2d30\u2d4f \u0622\u064a\u062a \u0628\u0648\u0628\u064a\u062f\u0645\u0627\u0646", "name:ar": "\u0622\u064a\u062a \u0628\u0648\u0628\u064a\u062f\u0645\u0627\u0646", "name:ber": "\u2d30\u2d62\u2d5c \u2d31\u2d53\u2d31\u2d53\u2d37\u2d4e\u2d30\u2d4f", "name:en": "Ait Boubidmane", "name:fr": "Ait Boubidmane", "name:zgh": "\u2d30\u2d62\u2d5c \u2d31\u2d53\u2d31\u2d53\u2d37\u2d4e\u2d30\u2d4f", "place": "town"}}]}