{"version": 0.6, "generator": "Overpass API 0.7.62.4 2390de5a", "osm3s": {"timestamp_osm_base": "2025-01-08T07:08:34Z", "copyright": "The data included in this document is from www.openstreetmap.org. The data is made available under ODbL."}, "elements": [{"type": "node", "id": 288417925, "lat": 36.265344, "lon": 2.766957, "tags": {"capital": "4", "name": "M\u00e9d\u00e9a \u2d4d\u2d3b\u2d4e\u2d37\u2d49\u2d62\u2d30 \u0627\u0644\u0645\u062f\u064a\u0629", "name:ar": "\u0627\u0644\u0645\u062f\u064a\u0629", "name:ber": "\u2d4d\u2d3b\u2d4e\u2d37\u2d49\u2d62\u2d30", "name:el": "\u039c\u03b5\u03bd\u03c4\u03ad\u03b1", "name:en": "Medea", "name:es": "M\u00e9d\u00e9a", "name:fr": "M\u00e9d\u00e9a", "name:it": "M\u00e9d\u00e9a", "name:ja": "\u30e1\u30c7\u30a2", "name:kab": "Lemdiya", "name:lt": "Med\u0117ja", "name:ru": "\u041c\u0435\u0434\u0435\u0430", "name:zh": "\u9ea6\u8fea\u4e9a", "place": "city", "population": "138355", "population:date": "2008", "ref:ONS": "2601", "website": "http://www.wilayamedea.dz/", "wikidata": "Q1982137", "wikipedia": "fr:M\u00e9d\u00e9a"}}, {"type": "node", "id": 394180413, "lat": 36.4622287, "lon": 2.7409097, "tags": {"name": "Chiffa", "name:ar": "\u0627\u0644\u0634\u0641\u0629", "name:ber": "\u2d5b\u2d5b\u2d49\u2d3c\u2d3b\u2d5d", "name:en": "Chiffa", "name:fr": "Chiffa", "name:kab": "Ccife\u1e6f", "place": "town", "population": "34268", "wikidata": "Q2963503", "wikimedia_commons": "Category:Chiffa", "wikipedia": "fr:Chiffa"}}, {"type": "node", "id": 394180743, "lat": 36.4674416, "lon": 2.6879953, "tags": {"name": "Mouzaia", "name:ar": "\u0645\u0648\u0632\u0627\u064a\u0629", "name:ber": "\u2d4e\u2d53\u2d63\u2d30\u2d62\u2d30", "name:en": "Mouzaia", "name:fr": "Mouza\u00efa", "name:kab": "Muzaya", "old_name": "Mouza\u00efaville", "place": "town", "population": "52555", "wikidata": "Q1649746", "wikimedia_commons": "Category:Mouzaia", "wikipedia": "fr:Mouzaia"}}, {"type": "node", "id": 394180829, "lat": 36.46975, "lon": 2.6267421, "tags": {"name": "El Affroun", "name:ar": "\u0627\u0644\u0639\u0641\u0631\u0648\u0646", "name:ber": "\u2d4d\u2d44\u2d3b\u2d3c\u2d55\u2d53\u2d4f", "name:en": "El Affroun", "name:fr": "El Affroun", "name:kab": "L\u025bef\u1e5bun", "place": "town", "population": "42465", "wikidata": "Q3049687", "wikimedia_commons": "Category:El Affroun", "wikipedia": "fr:El Affroun"}}, {"type": "node", "id": 443042310, "lat": 36.2483226, "lon": 2.2973227, "tags": {"name": "A\u00efn Soltane", "name:ar": "\u0639\u064a\u0646 \u0627\u0644\u0633\u0644\u0637\u0627\u0646", "name:ber": "\u2d49\u2d4f \u2d59\u2d3b\u2d4d\u2d5f\u2d30\u2d4f", "name:fr": "A\u00efn Soltane", "name:kab": "\u0190in Ssel\u1e6dan", "place": "town", "population": "21565", "population:date": "2008"}}, {"type": "node", "id": 443042469, "lat": 36.2192263, "lon": 2.4153796, "tags": {"name": "Djendel", "name:ar": "\u062c\u0646\u062f\u0644", "name:ber": "\u2d35\u2d3b\u2d4f\u2d37\u2d3b\u2d4d", "name:en": "Djendel", "name:fr": "Djendel", "name:kab": "\u01e6endel", "old_name": "Lavigerie", "place": "town", "population": "30170", "wikidata": "Q1649075", "wikimedia_commons": "Category:Djendel", "wikipedia": "fr:Djendel"}}, {"type": "node", "id": 443042584, "lat": 36.2317529, "lon": 2.56547, "tags": {"name": "Ouamri", "name:ar": "\u0648\u0627\u0645\u0631\u064a", "name:ber": "\u2d61\u2d30\u2d4e\u2d54\u2d49", "name:en": "Ouamri", "name:fr": "Ouamri", "name:kab": "Wamri", "old_name": "Borely-la-Sapie", "place": "town", "population": "18000", "wikidata": "Q3357921", "wikimedia_commons": "Category:Ouamri", "wikipedia": "fr:Ouamri"}}, {"type": "node", "id": 1019348170, "lat": 36.1655491, "lon": 2.5546056, "tags": {"name": "Oued Chorfa", "name:ar": "\u0648\u0627\u062f\u064a \u0627\u0644\u0634\u0631\u0641\u0627\u0621", "name:azb": "\u0648\u0627\u062f\u06cc \u0634\u0631\u0641\u0627\u0621", "name:ber": "\u2d61\u2d3b\u2d37 \u2d5b\u2d5b\u2d3b\u2d54\u2d3c\u2d30", "name:de": "Wadi asch-Schurfaa", "name:en": "Oued Chorfa", "name:fa": "\u0648\u0627\u062f\u06cc \u0634\u0631\u0641\u0627\u0621", "name:fr": "Oued Chorfa", "name:kab": "Wad Ccerfa", "place": "town", "population": "13353", "population:date": "2008", "ref:ONS": "4413", "wikidata": "Q2215749", "wikimedia_commons": "Category:Oued Chorfa", "wikipedia": "ar:\u0648\u0627\u062f \u0627\u0644\u0634\u0631\u0641\u0627\u0621"}}, {"type": "node", "id": 3028201605, "lat": 36.3047698, "lon": 2.226821, "tags": {"name": "Miliana", "name:ar": "\u0645\u0644\u064a\u0627\u0646\u0629", "name:ber": "\u2d4e\u2d3b\u2d4d\u2d62\u2d30\u2d4f\u2d30", "name:en": "Miliana", "name:es": "Miliana", "name:fr": "Miliana", "name:kab": "Tamelyant", "place": "town", "population": "44201", "postal_code": "44003", "wikidata": "Q48468", "wikimedia_commons": "Category:Miliana", "wikipedia": "fr:Miliana"}}, {"type": "node", "id": 3224632592, "lat": 36.3700317, "lon": 2.4732963, "tags": {"name": "Boumedfaa", "name:ar": "\u0628\u0648\u0645\u062f\u0641\u0639", "name:ber": "\u2d31\u2d53\u2d4e\u2d3b\u2d37\u2d3c\u2d30\u2d44", "name:en": "Boumedfaa", "name:fr": "Boumedfaa", "name:kab": "Bumedfe\u025b", "place": "town", "population": "21509", "wikidata": "Q1649043", "wikipedia": "fr:Boumedfaa"}}]}