{"version": 0.6, "generator": "Overpass API 0.7.62.4 2390de5a", "osm3s": {"timestamp_osm_base": "2025-01-08T07:32:50Z", "copyright": "The data included in this document is from www.openstreetmap.org. The data is made available under ODbL."}, "elements": [{"type": "node", "id": 27565085, "lat": 11.5936903, "lon": 43.1472724, "tags": {"GNS:dsg_code": "PPLC", "GNS:dsg_name": "populated place", "GNS:id": "-2034412", "GNS:modify_date": "2018-04-11", "admin_level": "2", "alt_name:ar": "\u062f\u062c\u0628\u062a;\u063a\u0625\u0628\u062a;\u062c\u0628\u062a;\u062c\u0628\u0648\u062a;\u062c\u064a\u0628\u0648\u062a\u064a;\u062c\u064a\u0628\u0648\u062a\u0649;\u062f\u062c\u064a\u0628\u0648\u062a\u064a;\u0645\u062f\u064a\u0646\u0629 \u062c\u064a\u0628\u0648\u062a\u064a", "capital": "yes", "capital_ISO3166-1": "yes", "is_capital": "country", "name": "Djibouti \u062c\u064a\u0628\u0648\u062a\u064a", "name:ace": "Djibouti", "name:af": "Djiboeti", "name:am": "\u1305\u1261\u1272", "name:an": "Chibuti", "name:ar": "\u062c\u064a\u0628\u0648\u062a\u064a", "name:arz": "\u062c\u064a\u0628\u0648\u062a\u064a", "name:ast": "Xibuti", "name:az": "Cibuti", "name:azb": "\u062c\u06cc\u0628\u0648\u062a\u06cc", "name:ba": "\u0414\u0436\u0438\u0431\u0443\u0442\u0438", "name:bat-smg": "D\u017e\u0117botis", "name:bcl": "Dibouti", "name:be": "\u0414\u0436\u044b\u0431\u0443\u0446\u0456", "name:bg": "\u0414\u0436\u0438\u0431\u0443\u0442\u0438", "name:bjn": "Djibouti", "name:bn": "\u099c\u09bf\u09ac\u09c1\u09a4\u09bf", "name:bo": "\u0f47\u0f72\u0f0b\u0f56\u0f60\u0f7c\u0f0b\u0f4a\u0f72\u0f0d", "name:bpy": "\u09a1\u09bf\u099c\u09bf\u09ac\u09cb\u099f\u09bf", "name:br": "Djibouti", "name:bs": "Djibouti", "name:bxr": "\u0414\u0436\u0438\u0431\u0443\u0442\u0438", "name:ca": "Djibouti", "name:ce": "\u0414\u0436\u0438\u0431\u0443\u0442\u0438", "name:ceb": "Yibuti", "name:ckb": "\u062c\u06cc\u0628\u0648\u0648\u062a\u06cc", "name:crh": "Cibuti", "name:cs": "D\u017e\u00edbut\u00ed", "name:cv": "\u0414\u0436\u0438\u0431\u0443\u0442\u0438", "name:cy": "Djibouti", "name:da": "Djibouti", "name:de": "Dschibuti", "name:diq": "Cibuti", "name:dv": "\u0796\u07a8\u0784\u07aa\u078c\u07a9", "name:ee": "Djibouti", "name:el": "\u03a4\u03b6\u03b9\u03bc\u03c0\u03bf\u03c5\u03c4\u03af", "name:en": "Djibouti", "name:eo": "\u011cibutio", "name:es": "Yibuti", "name:et": "Djibouti", "name:eu": "Djibuti", "name:ext": "Yibuti", "name:fa": "\u062c\u06cc\u0628\u0648\u062a\u06cc", "name:fi": "Djibouti", "name:fr": "Djibouti", "name:frp": "Dj\u00b7iboti", "name:fy": "Dzjib\u00fbty", "name:ga": "Diob\u00fait\u00ed", "name:gag": "Cibuti", "name:gd": "Djibouti", "name:gl": "Xibut\u00ed", "name:gv": "Djibouti", "name:he": "\u05d2'\u05d9\u05d1\u05d5\u05d8\u05d9", "name:hi": "\u091c\u0940\u092c\u0942\u0924\u0940", "name:hif": "Djibouti", "name:hr": "Djibouti", "name:hsb": "D\u017aibuti", "name:ht": "Djibouti", "name:hu": "Dzsibuti", "name:hy": "\u054b\u056b\u0562\u0578\u0582\u0569\u056b", "name:ia": "Djibouti", "name:id": "Djibouti", "name:ie": "Djibouti", "name:ilo": "Djibouti", "name:io": "Djibuti", "name:is": "Dj\u00edb\u00fat\u00ed", "name:it": "Gibuti", "name:ja": "\u30b8\u30d6\u30c1\u5e02", "name:jv": "Djibouti", "name:ka": "\u10ef\u10d8\u10d1\u10e3\u10e2\u10d8", "name:kab": "Jibuti", "name:kab-Arab": "\u062c\u064a\u0628\u0648\u062a\u064a", "name:kg": "Djibuti", "name:ki": "Djibouti", "name:kk": "\u0414\u0436\u0438\u0431\u0443\u0442\u0438", "name:kk-Arab": "\u062f\u062c\u0649\u064a\u0628\u06cb\u062a\u0649\u064a", "name:kmr": "\u062c\u06cc\u0628\u0648\u0648\u062a\u06cc", "name:kn": "\u0c9c\u0cbf\u0cac\u0cc2\u0ca4\u0cc0", "name:ko": "\uc9c0\ubd80\ud2f0", "name:ks": "\u062c\u06cc\u0628\u0648\u062a\u06cc", "name:ku": "C\u00eeb\u00fbt\u00ee", "name:ku-Arab": "\u062c\u06cc\u0628\u0648\u0648\u062a\u06cc", "name:kw": "Sita Jibouti", "name:ky": "\u0416\u0438\u0431\u0443\u0442\u0438 \u0448\u0430\u0430\u0440\u044b", "name:la": "Urbs Dzibutum", "name:lb": "Dschibuti", "name:li": "Djibouti", "name:lij": "Gibuti", "name:lmo": "Djibouti", "name:ln": "Djibuti", "name:lrc": "\u062c\u06cc\u0628\u06ca\u062a\u06cc", "name:lt": "D\u017eibutis", "name:lv": "D\u017eibuti", "name:lzh": "\u5409\u5e03\u5730", "name:mg": "Jibotia", "name:min": "Djibouti", "name:mk": "\u040f\u0438\u0431\u0443\u0442\u0438", "name:ml": "\u0d1c\u0d3f\u0d2c\u0d42\u0d1f\u0d4d\u0d1f\u0d3f", "name:mr": "\u091c\u093f\u092c\u0942\u0924\u0940", "name:mrj": "\u0414\u0436\u0438\u0431\u0443\u0442\u0438", "name:ms": "Djibouti", "name:mt": "\u0120ibuti", "name:my": "\u1002\u103b\u102e\u1018\u1030\u1010\u102e\u1014\u102d\u102f\u1004\u103a\u1004\u1036", "name:mzn": "\u062c\u06cc\u0628\u0648\u062a\u06cc", "name:na": "Djibuti", "name:nah": "Yibuti", "name:nan": "Djibouti", "name:nds": "Dschibuti", "name:ne": "\u091c\u093f\u092c\u0941\u091f\u0940", "name:nl": "Djibouti", "name:nn": "Djibouti", "name:no": "Djibouti", "name:nov": "Djibuti", "name:nso": "Djibouti", "name:nv": "Jib\u00f3tii", "name:oc": "Jiboti", "name:om": "Jibuutii", "name:or": "\u0b21\u0b3f\u0b1c\u0b3f\u0b2c\u0b4b\u0b07\u0b1f\u0b3f", "name:os": "\u0414\u0436\u0438\u0431\u0443\u0442\u0438", "name:pa": "\u0a1c\u0a3f\u0a2c\u0a42\u0a24\u0a40", "name:pam": "Djibouti", "name:pdc": "Tschibuti", "name:pih": "Jibuuti", "name:pl": "D\u017cibuti", "name:pms": "Djibouti", "name:pnb": "\u062c\u0628\u0648\u062a\u06cc", "name:ps": "\u062c\u06d0\u0628\u0648\u062a\u064a", "name:pt": "Djibouti", "name:qu": "Yiwuti", "name:ro": "Djibouti", "name:ru": "\u0414\u0436\u0438\u0431\u0443\u0442\u0438", "name:rue": "\u0414\u0436\u0456\u0431\u0443\u0442\u044c\u0441\u043a\u043e", "name:rw": "Jibuti", "name:sa": "\u091c\u093f\u092c\u0942\u091f\u0940", "name:sah": "\u0414\u044c\u0438\u0431\u0443\u0442\u0438", "name:sc": "Gibuti", "name:scn": "Gibbuti", "name:sco": "Djibouti", "name:sd": "\u062c\u0628\u0648\u062a\u064a", "name:se": "Djibouti", "name:sg": "Dibut\u00f9ii", "name:sh": "Djibouti", "name:simple": "Djibouti", "name:sk": "D\u017eibuti", "name:sl": "D\u017eibuti", "name:sn": "Djibouti", "name:so": "Jabuuti", "name:sq": "Xhibuti", "name:sr": "\u040f\u0438\u0431\u0443\u0442\u0438", "name:ss": "IJibhuthi", "name:stq": "Dschibuti", "name:su": "Djibouti", "name:sv": "Djibouti", "name:sw": "Jibuti", "name:ta": "\u0b9a\u0bc0\u0baa\u0bc2\u0ba4\u0bcd\u0ba4\u0bc0", "name:te": "\u0c1c\u0c3f\u0c2c\u0c4c\u0c1f\u0c3f", "name:tg": "\u04b6\u0438\u0431\u0443\u0442\u0438", "name:th": "\u0e08\u0e34\u0e1a\u0e39\u0e15\u0e35", "name:ti": "\u1302\u1261\u1272", "name:tk": "Jibuti", "name:tl": "Djibouti", "name:tr": "Cibuti", "name:ts": "Djibouti", "name:tt": "\u0496\u0438\u0431\u0443\u0442\u0438", "name:udm": "\u0414\u0436\u0438\u0431\u0443\u0442\u0438", "name:ug": "\u062c\u0649\u0628\u06c7\u062a\u0649", "name:uk": "\u0414\u0436\u0438\u0431\u0443\u0442\u0456", "name:ur": "\u062c\u0628\u0648\u062a\u06cc", "name:uz": "Jibuti", "name:vec": "Gibuti", "name:vi": "Djibouti", "name:vo": "Cibut\u00e4n", "name:vro": "Djibouti", "name:war": "Djibouti", "name:wo": "Jibuti", "name:xal": "\u0496\u0438\u0431\u0443\u0434\u0438\u043d", "name:yi": "\u05d3\u05d6\u05e9\u05d9\u05d1\u05d5\u05d8\u05d9", "name:yo": "Djibouti", "name:yue": "\u5409\u5e03\u63d0", "name:zh": "\u5409\u5e03\u5730\u5e02", "name:zu": "IJibuthi", "place": "city", "population": "475332", "wikidata": "Q3604", "wikipedia": "ar:\u062c\u064a\u0628\u0648\u062a\u064a (\u0645\u062f\u064a\u0646\u0629)", "wikipedia:ar": "\u062c\u064a\u0628\u0648\u062a\u064a (\u0645\u062f\u064a\u0646\u0629)"}}, {"type": "node", "id": 832062911, "lat": 11.3095718, "lon": 42.927777, "tags": {"GNS:dsg_code": "PPL", "GNS:dsg_name": "populated place", "GNS:id": "-2035639", "GNS:modify_date": "2000-11-15", "alt_name": "Hol Holl;Holl-Holl;Holhol", "alt_name:ar": "\u0647\u0648\u0644 \u0647\u0648\u0644\u0651;\u0647\u0648\u0644\u0647\u0648\u0644", "alt_name:en": "Holhol", "name": "Holl-Holl \u0647\u0644\u0647\u0648\u0644", "name:ar": "\u0647\u0644\u0647\u0648\u0644", "name:en": "Holl-Holl", "name:fr": "Holl-Holl", "place": "town"}}, {"type": "node", "id": 3605170673, "lat": 11.556014, "lon": 43.112817, "tags": {"name": "Balbala \u0628\u0644\u0628\u0627\u0644\u0627", "name:ar": "\u0628\u0644\u0628\u0627\u0644\u0627", "name:fr": "Balbala", "place": "town", "wikidata": "Q804669"}}, {"type": "node", "id": 6780700082, "lat": 11.2938926, "lon": 42.8976141}, {"type": "node", "id": 6780700083, "lat": 11.2890777, "lon": 42.9119934}, {"type": "node", "id": 6780700084, "lat": 11.2907973, "lon": 42.9260221}, {"type": "node", "id": 6780705085, "lat": 11.2984496, "lon": 42.9339132}, {"type": "node", "id": 6780705086, "lat": 11.3079932, "lon": 42.9425057}, {"type": "node", "id": 6780705087, "lat": 11.3169346, "lon": 42.9427687}, {"type": "node", "id": 6780705088, "lat": 11.3215772, "lon": 42.9356668}, {"type": "node", "id": 6780705089, "lat": 11.3250161, "lon": 42.9203229}, {"type": "node", "id": 6780705090, "lat": 11.3249301, "lon": 42.9086616}, {"type": "node", "id": 6780705091, "lat": 11.3162468, "lon": 42.8984032}, {"type": "way", "id": 722885976, "nodes": [6780705091, 6780705090, 6780705089, 6780705088, 6780705087, 6780705086, 6780705085, 6780700084, 6780700083, 6780700082, 6780705091]}, {"type": "relation", "id": 10015689, "members": [{"type": "way", "ref": 722885976, "role": "outer"}], "tags": {"admin_level": "8", "boundary": "administrative", "fixme": "raw guess", "name": "Holl-Holl \u0647\u0644\u0647\u0648\u0644", "name:ar": "\u0647\u0644\u0647\u0648\u0644", "name:en": "Holl-Holl", "name:fr": "Holl-Holl", "place": "town", "type": "boundary"}}]}