{"version": 0.6, "generator": "Overpass API 0.7.62.4 2390de5a", "osm3s": {"timestamp_osm_base": "2025-01-08T07:10:30Z", "copyright": "The data included in this document is from www.openstreetmap.org. The data is made available under ODbL."}, "elements": [{"type": "node", "id": 424101403, "lat": 33.5428415, "lon": -0.2750524, "tags": {"addr:city": "\u0627\u0644\u0645\u0634\u0631\u064a\u0629", "alt_name:ar": "\u0645\u0634\u0631\u064a\u0629", "name": "M\u00e9chria \u2d4e\u2d3b\u2d5b\u2d54\u2d49\u2d62\u2d30 \u0627\u0644\u0645\u0634\u0631\u064a\u0629", "name:ar": "\u0627\u0644\u0645\u0634\u0631\u064a\u0629", "name:azb": "\u0645\u0634\u0631\u06cc\u0647", "name:ber": "\u2d4e\u2d3b\u2d5b\u2d54\u2d49\u2d62\u2d30", "name:de": "Mecheria", "name:el": "\u039c\u03b5\u03c4\u03c3\u03b5\u03c1\u03af\u03b1", "name:en": "Mecheria", "name:es": "Mesheria", "name:fa": "\u0645\u0634\u0631\u06cc\u0647", "name:fr": "M\u00e9chria", "name:kab": "Mecriya", "name:pl": "Al-Maszrijja", "place": "city", "population": "102359", "wikidata": "Q2606114", "wikimedia_commons": "Category:M\u00e9cheria", "wikipedia": "ar:\u0627\u0644\u0645\u0634\u0631\u064a\u0629"}}]}