{"version": 0.6, "generator": "Overpass API 0.7.62.4 2390de5a", "osm3s": {"timestamp_osm_base": "2025-01-08T06:10:29Z", "copyright": "The data included in this document is from www.openstreetmap.org. The data is made available under ODbL."}, "elements": [{"type": "node", "id": 32441763, "lat": 26.3039999, "lon": 50.1960237, "tags": {"GNS:dsg_code": "PPL", "GNS:dsg_name": "populated place", "GNS:id": "-3092086", "alt_name": "Al Khobar;Khobar", "capital": "6", "int_name": "Al Khubar", "name": "\u0627\u0644\u062e\u0628\u0631", "name:ar": "\u0627\u0644\u062e\u0628\u0631", "name:ckb": "\u062e\u0648\u0628\u06d5\u0631", "name:cs": "Al-Khubar", "name:de": "al-Chubar", "name:en": "Al Khobar", "name:es": "Al Kobhar", "name:fr": "Khobar", "name:he": "\u05d0\u05dc \u05e7\u05d5\u05d1\u05e8", "name:hi": "\u0905\u0932 \u0916\u094b\u092c\u0930", "name:hr": "Hubar", "name:ku": "Xuber", "name:ml": "\u0d16\u0d4b\u0d2c\u0d3e\u0d7c", "name:ru": "\u042d\u043b\u044c-\u0425\u0443\u0431\u0430\u0440", "name:uk": "\u0415\u043b\u044c-\u0425\u0443\u0431\u0430\u0440", "place": "city", "population": "219679", "population:date": "2010", "source:population": "stats.gov.sa", "wikidata": "Q311266", "wikipedia": "en:Khobar"}}, {"type": "node", "id": 315862374, "lat": 26.0484553, "lon": 50.4869845, "tags": {"fixme": "name, name:ar mismatch.", "int_name": "Zallaq", "name": "\u0627\u0644\u0632\u0644\u0627\u0642", "name:ar": "\u0627\u0644\u0632\u0644\u0627\u0642", "name:cs": "Zallak", "name:en": "Zallaq", "name:ko": "\uc54c\uc798\ub77c\ud06c", "name:ml": "\u0d38\u0d32\u0d4d\u0d32\u0d16\u0d4d", "place": "town", "source": "Kaart Ground Survey 2017", "wikidata": "Q4117781", "wikipedia": "ar:\u0627\u0644\u0632\u0644\u0627\u0642"}}, {"type": "node", "id": 436105720, "lat": 26.3063089, "lon": 50.0960067}, {"type": "node", "id": 436105721, "lat": 26.306532, "lon": 50.0960496}, {"type": "node", "id": 436105722, "lat": 26.3105791, "lon": 50.101311}, {"type": "node", "id": 436105723, "lat": 26.3105098, "lon": 50.1016973}, {"type": "node", "id": 436105724, "lat": 26.312918, "lon": 50.1058086}, {"type": "node", "id": 436105725, "lat": 26.3131411, "lon": 50.1059116}, {"type": "node", "id": 436105726, "lat": 26.3154569, "lon": 50.1099628}, {"type": "node", "id": 436105727, "lat": 26.3153147, "lon": 50.1103674}, {"type": "node", "id": 436105728, "lat": 26.3107791, "lon": 50.1091645}, {"type": "node", "id": 436105729, "lat": 26.304193, "lon": 50.1106837}, {"type": "node", "id": 436105730, "lat": 26.304193, "lon": 50.1107867}, {"type": "node", "id": 436105731, "lat": 26.3024386, "lon": 50.1112159}, {"type": "node", "id": 436105732, "lat": 26.3026387, "lon": 50.1117566}, {"type": "node", "id": 436105733, "lat": 26.3027156, "lon": 50.1121772}, {"type": "node", "id": 436105734, "lat": 26.302731, "lon": 50.1126321}, {"type": "node", "id": 436105735, "lat": 26.3025848, "lon": 50.1192411}, {"type": "node", "id": 436105736, "lat": 26.3027387, "lon": 50.1197646}, {"type": "node", "id": 436105737, "lat": 26.3031234, "lon": 50.1201509}, {"type": "node", "id": 436105738, "lat": 26.3034543, "lon": 50.1205028}, {"type": "node", "id": 436105739, "lat": 26.3037621, "lon": 50.1210778}, {"type": "node", "id": 436105740, "lat": 26.3039621, "lon": 50.1215499}, {"type": "node", "id": 436105741, "lat": 26.3042622, "lon": 50.1215156}, {"type": "node", "id": 436105742, "lat": 26.3044007, "lon": 50.1217645}, {"type": "node", "id": 436105743, "lat": 26.3041776, "lon": 50.1221164}, {"type": "node", "id": 436105744, "lat": 26.3041776, "lon": 50.1225627}, {"type": "node", "id": 436105745, "lat": 26.3042776, "lon": 50.1232408}, {"type": "node", "id": 436105746, "lat": 26.3044623, "lon": 50.1237472}, {"type": "node", "id": 436105747, "lat": 26.3048777, "lon": 50.1240374}, {"type": "node", "id": 436105748, "lat": 26.3066243, "lon": 50.1233352}, {"type": "node", "id": 436105749, "lat": 26.3065782, "lon": 50.1232064}, {"type": "node", "id": 436105750, "lat": 26.3071937, "lon": 50.1224082}, {"type": "node", "id": 436105751, "lat": 26.3074091, "lon": 50.1226485}, {"type": "node", "id": 436105752, "lat": 26.3080862, "lon": 50.1246141}, {"type": "node", "id": 436105753, "lat": 26.308217, "lon": 50.1245626}, {"type": "node", "id": 436105754, "lat": 26.3083478, "lon": 50.1249402}, {"type": "node", "id": 436105755, "lat": 26.3081708, "lon": 50.1251119}, {"type": "node", "id": 436105756, "lat": 26.3081632, "lon": 50.1258243}, {"type": "node", "id": 436105757, "lat": 26.3088787, "lon": 50.1258844}, {"type": "node", "id": 436105758, "lat": 26.3089095, "lon": 50.1260903}, {"type": "node", "id": 436105760, "lat": 26.3090172, "lon": 50.1261933}, {"type": "node", "id": 436105761, "lat": 26.3090033, "lon": 50.1268945}, {"type": "node", "id": 436105762, "lat": 26.309525, "lon": 50.127189}, {"type": "node", "id": 436105764, "lat": 26.3095045, "lon": 50.1301364}, {"type": "node", "id": 436105765, "lat": 26.3093403, "lon": 50.131326}, {"type": "node", "id": 436105766, "lat": 26.3093326, "lon": 50.1327079}, {"type": "node", "id": 436105767, "lat": 26.3090326, "lon": 50.1327336}, {"type": "node", "id": 436105768, "lat": 26.3088248, "lon": 50.1329139}, {"type": "node", "id": 436105769, "lat": 26.3088341, "lon": 50.1339498}, {"type": "node", "id": 436105786, "lat": 26.308689, "lon": 50.1393833}, {"type": "node", "id": 436105787, "lat": 26.3079791, "lon": 50.1398469}, {"type": "node", "id": 436105788, "lat": 26.3057021, "lon": 50.1423191}, {"type": "node", "id": 436105789, "lat": 26.3002457, "lon": 50.1423123}, {"type": "node", "id": 436105791, "lat": 26.2919584, "lon": 50.1351688}, {"type": "node", "id": 436105793, "lat": 26.2899345, "lon": 50.1312745}, {"type": "node", "id": 436105794, "lat": 26.2897806, "lon": 50.1310943}, {"type": "node", "id": 436105795, "lat": 26.2739657, "lon": 50.1163142}, {"type": "node", "id": 436105797, "lat": 26.284109, "lon": 50.1018088}, {"type": "node", "id": 436105798, "lat": 26.2832009, "lon": 50.0989764}, {"type": "node", "id": 436105799, "lat": 26.2845708, "lon": 50.0983842}, {"type": "node", "id": 436105800, "lat": 26.2819388, "lon": 50.0944102}, {"type": "node", "id": 436105801, "lat": 26.2890341, "lon": 50.0934318}, {"type": "node", "id": 436105803, "lat": 26.2939898, "lon": 50.0911143}, {"type": "node", "id": 436105804, "lat": 26.2948747, "lon": 50.0901616}, {"type": "node", "id": 436105805, "lat": 26.2952903, "lon": 50.0896037}, {"type": "node", "id": 436105806, "lat": 26.2974679, "lon": 50.0853894}, {"type": "node", "id": 436105807, "lat": 26.2977295, "lon": 50.0851319}, {"type": "node", "id": 436105808, "lat": 26.2981758, "lon": 50.085089}, {"type": "node", "id": 436105810, "lat": 26.2985529, "lon": 50.085192}, {"type": "node", "id": 436105812, "lat": 26.2990069, "lon": 50.0855697}, {"type": "node", "id": 436105813, "lat": 26.3011152, "lon": 50.0877669}, {"type": "node", "id": 436105814, "lat": 26.3019539, "lon": 50.0884536}, {"type": "node", "id": 436105815, "lat": 26.3034081, "lon": 50.0893806}, {"type": "node", "id": 436105816, "lat": 26.3027618, "lon": 50.0900157}, {"type": "node", "id": 436105817, "lat": 26.3034697, "lon": 50.0909598}, {"type": "node", "id": 436105818, "lat": 26.3034697, "lon": 50.0911487}, {"type": "node", "id": 436105820, "lat": 26.3030542, "lon": 50.091595}, {"type": "node", "id": 436771354, "lat": 26.3062479, "lon": 50.0948602}, {"type": "node", "id": 436771355, "lat": 26.3061786, "lon": 50.0951606}, {"type": "node", "id": 436771356, "lat": 26.3079944, "lon": 50.0973321}, {"type": "node", "id": 436771357, "lat": 26.3081714, "lon": 50.0974952}, {"type": "node", "id": 436771358, "lat": 26.3084253, "lon": 50.0975209}, {"type": "node", "id": 436771359, "lat": 26.3086099, "lon": 50.097478}, {"type": "node", "id": 436771360, "lat": 26.3098025, "lon": 50.0963021}, {"type": "node", "id": 436771361, "lat": 26.3099179, "lon": 50.0964309}, {"type": "node", "id": 436771362, "lat": 26.3087023, "lon": 50.0976411}, {"type": "node", "id": 436771363, "lat": 26.3085715, "lon": 50.0977355}, {"type": "node", "id": 436771364, "lat": 26.3082714, "lon": 50.0977613}, {"type": "node", "id": 436771365, "lat": 26.3080175, "lon": 50.0976325}, {"type": "node", "id": 436771366, "lat": 26.3066403, "lon": 50.0958902}, {"type": "node", "id": 436771367, "lat": 26.3063787, "lon": 50.0958387}, {"type": "node", "id": 436771368, "lat": 26.3059939, "lon": 50.0954009}, {"type": "node", "id": 436771369, "lat": 26.3058785, "lon": 50.0955039}, {"type": "node", "id": 436771370, "lat": 26.3056862, "lon": 50.0949289}, {"type": "node", "id": 436771371, "lat": 26.3067711, "lon": 50.0937873}, {"type": "node", "id": 436771372, "lat": 26.3062094, "lon": 50.0931178}, {"type": "node", "id": 436771373, "lat": 26.306471, "lon": 50.0928689}, {"type": "node", "id": 436771374, "lat": 26.307025, "lon": 50.0935212}, {"type": "node", "id": 436773062, "lat": 26.3076646, "lon": 50.0933776}, {"type": "node", "id": 436773063, "lat": 26.3074261, "lon": 50.0930944}, {"type": "node", "id": 436786553, "lat": 26.309011, "lon": 50.1271863}, {"type": "node", "id": 436786566, "lat": 26.3077723, "lon": 50.1341901}, {"type": "node", "id": 436786628, "lat": 26.3077877, "lon": 50.1345506}, {"type": "node", "id": 436801971, "lat": 26.3077723, "lon": 50.1350999}, {"type": "node", "id": 436805310, "lat": 26.308334, "lon": 50.134027}, {"type": "node", "id": 436805317, "lat": 26.3078492, "lon": 50.134027}, {"type": "node", "id": 436805320, "lat": 26.3078492, "lon": 50.1342159}, {"type": "node", "id": 440636070, "lat": 26.3093583, "lon": 50.130248}, {"type": "node", "id": 440636073, "lat": 26.3093566, "lon": 50.1303509}, {"type": "node", "id": 440636075, "lat": 26.3095045, "lon": 50.1304883}, {"type": "node", "id": 440636078, "lat": 26.3094661, "lon": 50.1313123}, {"type": "node", "id": 447805356, "lat": 26.2966528, "lon": 50.1202146, "tags": {"GNS:dsg_code": "PPL", "GNS:dsg_name": "populated place", "GNS:id": "-3093628", "int_name": "Az\u0327 Z\u0327ahr\u0101n", "name": "\u0627\u0644\u0638\u0647\u0631\u0627\u0646", "name:ar": "\u0627\u0644\u0638\u0647\u0631\u0627\u0646", "name:be": "\u0414\u0430\u0445\u0440\u0430\u043d", "name:bn": "\u099c\u09be\u09b9\u09b0\u09be\u09a8", "name:ca": "Dhahran", "name:ce": "\u0417\u0430\u0445\u04c0\u0440\u0430\u043d", "name:ceb": "Dhahran", "name:ckb": "\u0632\u06d5\u06be\u0695\u0627\u0646", "name:cs": "Dahr\u00e1n", "name:de": "Dhahran", "name:el": "\u039d\u03c4\u03b1\u03c7\u03c1\u03ac\u03bd", "name:en": "Dhahran", "name:eo": "Dahran", "name:es": "Dhahran", "name:eu": "Dahran", "name:fa": "\u0638\u0647\u0631\u0627\u0646", "name:fi": "Dhahran", "name:fr": "Az Zahran", "name:he": "\u05d3\u05d4\u05e8\u05d0\u05df", "name:hi": "\u0921\u093e\u0939\u0930\u093e\u0928", "name:hr": "Dahran", "name:id": "Dhahran", "name:it": "Dhahran", "name:ja": "\u30c0\u30fc\u30e9\u30f3", "name:ka": "\u10d3\u10d0\u10f0\u10e0\u10d0\u10dc\u10d8", "name:ko": "\ub2e4\ub780", "name:ku": "Zehran", "name:lt": "Dahranas", "name:ml": "\u0d26\u0d39\u0d4d\u0d31\u0d3e\u0d7b", "name:ms": "Dhahran", "name:mzn": "\u0638\u0647\u0631\u0627\u0646", "name:ne": "\u0926\u0939\u0930\u093e\u0928", "name:nl": "Dhahraan", "name:no": "Dhahran", "name:pl": "Az-Zahran", "name:pt": "Dar\u00e3", "name:ru": "\u0414\u0430\u0445\u0440\u0430\u043d", "name:sco": "Dhahran", "name:sk": "Dahr\u00e1n", "name:sq": "Dhahran", "name:su": "Zhahran", "name:sv": "Dhahran", "name:tl": "Dhahran", "name:tr": "Zahran", "name:uk": "\u0414\u0430\u0445\u0440\u0430\u043d", "name:ur": "\u0638\u06c1\u0631\u0627\u0646", "name:uz": "Dahron", "name:vi": "Dhahran", "name:zh": "\u5bb0\u8d6b\u5170", "place": "city", "population": "120521", "population:date": "2010", "source:population": "stats.gov.sa", "wikidata": "Q268915", "wikipedia": "en:Dhahran"}}, {"type": "node", "id": 659277749, "lat": 26.0651104, "lon": 50.5122187, "tags": {"int_name": "Dar Kulayb", "name": "\u062f\u0627\u0631 \u0643\u0644\u064a\u0628", "name:ar": "\u062f\u0627\u0631 \u0643\u0644\u064a\u0628", "name:cs": "D\u00e1r Kulajb", "name:en": "Dar Kulayb", "name:ml": "\u0d26\u0d3e\u0d7c \u0d15\u0d41\u0d32\u0d48\u0d2c\u0d4d", "place": "town", "wikidata": "Q5221908"}}, {"type": "node", "id": 659360718, "lat": 26.1267463, "lon": 50.4983356, "tags": {"alt_name:en": "Madinat Hamad", "int_name": "Madinat Hamad", "name": "\u0645\u062f\u064a\u0646\u0629 \u062d\u0645\u062f", "name:ar": "\u0645\u062f\u064a\u0646\u0629 \u062d\u0645\u062f", "name:cs": "Mad\u00ednat Hamad", "name:de": "Hamad", "name:en": "Hamad Town", "name:es": "Madinat Hamad", "name:fr": "Hamad Town", "name:ml": "\u0d39\u0d2e\u0d26\u0d4d \u0d1f\u0d57\u0d7a", "place": "town", "population": "133350", "wikidata": "Q2088687", "wikipedia": "en:Hamad Town"}}, {"type": "node", "id": 659462987, "lat": 26.1138329, "lon": 50.4809962, "tags": {"int_name": "Karzakkan", "name": "\u0643\u0631\u0632\u0643\u0627\u0646", "name:ar": "\u0643\u0631\u0632\u0643\u0627\u0646", "name:cs": "Karzakan", "name:de": "Karzakan", "name:en": "Karzakan", "name:es": "Karzakan", "name:fr": "Karzakan", "place": "town", "wikidata": "Q985377"}}, {"type": "node", "id": 1236774099, "lat": 26.260217, "lon": 50.20486, "tags": {"GNS:dsg_code": "PPLX", "GNS:dsg_name": "section of populated place", "GNS:id": "-3093433", "alt_name": "Al Thaqbah; Thuqba", "int_name": "Ath Thuqbah", "name": "\u0627\u0644\u062b\u0642\u0628\u0629", "name:ar": "\u0627\u0644\u062b\u0642\u0628\u0629", "name:de": "Ath Thuqbah", "name:en": "Ath Thuqbah", "name:fr": "Ath Thuqbah", "name:ml": "\u0d05\u0d7d-\u0d24\u0d41\u0d16\u0d4d\u0d2c", "place": "town", "population": "238066", "population:date": "2010", "source:name": "GNS", "source:population": "stats.gov.sa", "wikidata": "Q601130"}}, {"type": "node", "id": 2141284320, "lat": 26.1544539, "lon": 50.5273639, "tags": {"name": "\u0639\u0627\u0644\u064a", "name:ar": "\u0639\u0627\u0644\u064a", "name:cs": "\u00c1l\u00ed", "name:de": "A'ali", "name:en": "A'ali", "name:es": "A'ali", "name:fr": "A'ali", "name:ml": "\u0d06\u0d32\u0d3f", "place": "city", "population": "100553", "wikidata": "Q2351767"}}, {"type": "node", "id": 2189162638, "lat": 26.0834264, "lon": 50.5489052, "tags": {"int_name": "Awali", "name": "\u0639\u0648\u0627\u0644\u064a", "name:ar": "\u0639\u0648\u0627\u0644\u064a", "name:en": "Awali", "name:fr": "Awali", "name:ml": "\u0d05\u0d35\u0d3e\u0d32\u0d3f", "place": "town", "wikidata": "Q4115261", "wikipedia": "en:Awali"}}, {"type": "node", "id": 2189166838, "lat": 26.1315261, "lon": 50.5503431, "tags": {"name": "\u0627\u0644\u0631\u0641\u0627\u0639", "name:ar": "\u0627\u0644\u0631\u0641\u0627\u0639", "name:cs": "ar-Riff\u00e1", "name:de": "Ar-Riffa", "name:en": "Riffa", "name:es": "Riffa", "name:fa": "\u0631\u0641\u0627\u0639", "name:fr": "Riffa", "name:he": "\u05e8\u05d9\u05e4\u05d4", "name:ks": "\u0631\u0641\u0627\u0639", "name:ml": "\u0d31\u0d3f\u0d2b\u0d3e", "name:ru": "\u042d\u0440-\u0420\u0438\u0444\u0430", "name:ur": "\u0631\u0641\u0627\u0639", "place": "city", "population": "121566", "wikidata": "Q1771398", "wikipedia": "ar:\u0627\u0644\u0631\u0641\u0627\u0639"}}, {"type": "node", "id": 2189168653, "lat": 26.2156292, "lon": 50.4523545, "tags": {"name": "\u0627\u0644\u0628\u062f\u064a\u0639", "name:ar": "\u0627\u0644\u0628\u062f\u064a\u0639", "name:en": "Budaiya", "name:fr": "Boudaya", "name:ml": "\u0d2c\u0d41\u0d26\u0d48\u0d2f", "place": "town", "population": "30702"}}, {"type": "node", "id": 2363170274, "lat": 26.1741995, "lon": 50.5473432, "tags": {"int_name": "Madinat 'Isa", "name": "\u0645\u062f\u064a\u0646\u0629 \u0639\u064a\u0633\u0649", "name:ar": "\u0645\u062f\u064a\u0646\u0629 \u0639\u064a\u0633\u0649", "name:en": "Isa Town", "name:ml": "\u0d08\u0d38 \u0d1f\u0d57\u0d7a", "place": "town", "population": "36876", "wikidata": "Q1017673", "wikipedia": "en:Isa Town"}}, {"type": "node", "id": 2363180279, "lat": 26.2163449, "lon": 50.5407172, "tags": {"int_name": "Jid Hafs", "name": "\u062c\u062f \u062d\u0641\u0635", "name:ar": "\u062c\u062f \u062d\u0641\u0635", "name:cs": "D\u017eidd Hafs", "name:en": "Jid Hafs", "name:ml": "\u0d1c\u0d3f\u0d26\u0d4d \u0d39\u0d2b\u0d38\u0d4d", "place": "town"}}, {"type": "node", "id": 5312345232, "lat": 26.2707563, "lon": 50.1072162}, {"type": "node", "id": 5312450069, "lat": 26.2953712, "lon": 50.1381247}, {"type": "node", "id": 5312450138, "lat": 26.2905227, "lon": 50.1327275}, {"type": "node", "id": 5312450139, "lat": 26.281337, "lon": 50.1232029}, {"type": "node", "id": 5312759572, "lat": 26.2771187, "lon": 50.1192608}, {"type": "node", "id": 8717733242, "lat": 26.1898256, "lon": 50.4941714, "tags": {"name": "\u0633\u0627\u0631", "name:ar": "\u0633\u0627\u0631", "name:az-Arab": "\u0633\u0627\u0631", "name:azb": "\u0633\u0627\u0631", "name:de": "Saar", "name:en": "Saar", "name:fa": "\u0633\u0627\u0631", "name:ks": "\u0633\u0627\u0631", "name:ml": "\u0d38\u0d3e\u0d7c", "name:ur": "\u0633\u0627\u0631", "place": "town", "population": "6000"}}, {"type": "node", "id": 8717747963, "lat": 26.1846, "lon": 50.5253883, "tags": {"name": "\u0633\u0644\u0645\u0627\u0628\u0627\u062f", "name:ar": "\u0633\u0644\u0645\u0627\u0628\u0627\u062f", "name:de": "Salmabad", "name:en": "Salmabad", "name:fa": "\u0633\u0644\u0645\u200c\u0622\u0628\u0627\u062f", "name:ml": "\u0d38\u0d7d\u0d2e\u0d3e\u0d2c\u0d3e\u0d26\u0d4d", "place": "town", "population": "19342", "wikidata": "Q3133688", "wikipedia": "ar:\u0633\u0644\u0645\u0627\u0628\u0627\u062f"}}, {"type": "node", "id": 9373751014, "lat": 26.3027122, "lon": 50.1134805, "tags": {"highway": "speed_camera", "maxspeed": "50"}}, {"type": "node", "id": 10260884759, "lat": 26.3076571, "lon": 50.1401652}, {"type": "way", "id": 37357139, "nodes": [436773062, 436771354, 436771355, 436771356, 436771357, 436771358, 436771359, 436771360, 436771361, 436771362, 436771363, 436771364, 436771365, 436771366, 436771367, 436771368, 436771369, 436105720, 436105721, 436105722, 436105723, 436105724, 436105725, 436105726, 436105727, 436105728, 436105729, 436105730, 436105731, 436105732, 436105733, 436105734, 9373751014, 436105735, 436105736, 436105737, 436105738, 436105739, 436105740, 436105741], "tags": {"barrier": "fence"}}, {"type": "way", "id": 37396731, "nodes": [436105742, 436105743, 436105744, 436105745, 436105746, 436105747, 436105748, 436105749, 436105750, 436105751, 436105752, 436105753, 436105754, 436105755, 436105756, 436105757, 436105758, 436105760, 436105761], "tags": {"barrier": "fence"}}, {"type": "way", "id": 37396732, "nodes": [436105741, 436105742], "tags": {"access": "private", "barrier": "gate", "name": "\u0628\u0648\u0627\u0628\u0629 8", "name:en": "Gate #8", "name:fr": "Porte 8"}}, {"type": "way", "id": 37396751, "nodes": [436773063, 436773062], "tags": {"access": "private", "barrier": "gate", "name": "\u0628\u0648\u0627\u0628\u0629 5", "name:en": "Gate #5", "name:fr": "Porte 5"}}, {"type": "way", "id": 37397369, "nodes": [436786553, 436105762, 436105764, 440636070, 440636073, 440636075, 440636078, 436105765, 436105766, 436105767, 436105768, 436105769, 436805310, 436805317, 436805320, 436786566], "tags": {"barrier": "fence"}}, {"type": "way", "id": 37397370, "nodes": [436105761, 436786553], "tags": {"access": "private", "barrier": "gate", "name": "\u0628\u0648\u0627\u0628\u0629 4", "name:en": "Gate #4", "name:fr": "Porte 4"}}, {"type": "way", "id": 37397371, "nodes": [436786628, 436801971, 436105786, 436105787, 10260884759, 436105788, 436105789, 5312450069, 436105791, 5312450138, 436105793, 436105794, 5312450139, 5312759572, 436105795, 5312345232, 436105797, 436105798, 436105799, 436105800, 436105801, 436105803, 436105804, 436105805, 436105806, 436105807, 436105808, 436105810, 436105812, 436105813, 436105814, 436105815, 436105816, 436105817, 436105818, 436105820, 436771370, 436771371, 436771372, 436771373, 436771374, 436773063], "tags": {"barrier": "fence"}}, {"type": "way", "id": 37397372, "nodes": [436786566, 436786628], "tags": {"access": "private", "barrier": "gate", "name": "\u0628\u0648\u0627\u0628\u0629 6", "name:en": "Gate #6", "name:fr": "Porte 6"}}, {"type": "relation", "id": 2031713, "members": [{"type": "way", "ref": 37357139, "role": "outer"}, {"type": "way", "ref": 37396732, "role": "outer"}, {"type": "way", "ref": 37396731, "role": "outer"}, {"type": "way", "ref": 37397370, "role": "outer"}, {"type": "way", "ref": 37397369, "role": "outer"}, {"type": "way", "ref": 37397372, "role": "outer"}, {"type": "way", "ref": 37397371, "role": "outer"}, {"type": "way", "ref": 37396751, "role": "outer"}], "tags": {"name": "\u0645\u062c\u0645\u0639 \u0627\u0644\u0638\u0647\u0631\u0627\u0646 \u0627\u0644\u0633\u0643\u0646\u064a", "name:en": "Dhahran Compound", "name:fr": "Complexe r\u00e9sidentiel de Dhahran", "place": "city", "type": "multipolygon"}}]}