{"version": 0.6, "generator": "Overpass API 0.7.62.4 2390de5a", "osm3s": {"timestamp_osm_base": "2025-01-08T07:02:18Z", "copyright": "The data included in this document is from www.openstreetmap.org. The data is made available under ODbL."}, "elements": [{"type": "node", "id": 443160401, "lat": 36.3870211, "lon": 5.4134576, "tags": {"name": "Amoucha", "name:ar": "\u0639\u0645\u0648\u0634\u0629", "name:ber": "\u2d44\u2d30\u2d4e\u2d4e\u2d53\u2d5b\u2d30", "name:fr": "Amoucha", "name:kab": "I\u025bemmucen", "place": "town", "population": "13411", "population:date": "2008"}}, {"type": "node", "id": 455517479, "lat": 36.3222697, "lon": 5.0548526, "tags": {"name": "\u1e24emmam Gergur", "name:ar": "\u062d\u0645\u0627\u0645 \u0642\u0631\u0642\u0648\u0631", "name:azb": "\u062d\u0645\u0627\u0645 \u0642\u0631\u0642\u0648\u0631", "name:ber": "\u2d30\u2d40\u2d3b\u2d4e\u2d4e\u2d30\u2d4e \u2d53\u2d33\u2d3b\u2d54\u2d33\u2d53\u2d54", "name:en": "Hammam Guergour", "name:fa": "\u062d\u0645\u0627\u0645 \u0642\u0631\u0642\u0648\u0631", "name:fr": "Hammam Guergour", "name:kab": "\u1e24emmam Gergur", "name:kab-Arab": "\u062d\u0645\u0627\u0645 \u06a4\u0631\u06a4\u0648\u0631", "place": "town", "population": "15853", "wikidata": "Q3126502", "wikimedia_commons": "Category:Hammam Guergour", "wikipedia": "fr:Hammam Guergour", "wikipedia:ar": "\u062d\u0645\u0627\u0645 \u0642\u0631\u0642\u0648\u0631"}}, {"type": "node", "id": 455517483, "lat": 36.3322264, "lon": 5.0895897, "tags": {"name": "Bougaa", "name:ar": "\u0628\u0648\u0642\u0627\u0639\u0629", "name:ber": "\u2d31\u2d53\u2d33\u2d30\u2d44\u2d30", "name:en": "Bougaa", "name:fr": "Bougaa", "name:kab": "Buge\u025b\u025ba", "place": "town", "population": "22490", "population:date": "2008", "wikidata": "Q2921542", "wikimedia_commons": "Category:Bougaa", "wikipedia": "fr:Bougaa"}}, {"type": "node", "id": 455545070, "lat": 36.3000482, "lon": 5.2953337, "tags": {"name": "A\u00efn Abessa", "name:ar": "\u0639\u064a\u0646 \u0639\u0628\u0627\u0633\u0629", "name:ber": "\u2d44\u2d49\u2d4f \u2d44\u2d30\u2d31\u2d31\u2d30\u2d59\u2d30", "name:en": "Ain Abessa", "name:fr": "A\u00efn Abessa", "name:kab": "\u0190in \u0190ebbasa", "place": "town", "population": "16770", "postal_code": "19110", "wikidata": "Q2876247", "wikimedia_commons": "Category:A\u00efn Abessa", "wikipedia": "fr:A\u00efn Abessa"}}, {"type": "node", "id": 455555425, "lat": 36.0908409, "lon": 5.487335, "tags": {"name": "Guijel", "name:ar": "\u0642\u062c\u0627\u0644", "name:en": "Guijel", "name:fr": "Guijel", "name:kab": "Ge\u01e7\u01e7al", "place": "town", "population": "33685"}}, {"type": "node", "id": 465524839, "lat": 36.396686, "lon": 5.0769769, "tags": {"alt_name:ar": "\u0645\u0627\u0648\u0643\u0644\u0627\u0646", "name": "Maoklane", "name:ar": "\u0645\u0648\u0643\u0644\u0627\u0646", "name:ber": "\u2d4e\u2d30\u2d61\u2d3f\u2d4d\u2d30\u2d4f", "name:en": "Maoklane", "name:fr": "Maoklane", "name:kab": "Mawklan", "place": "town", "population": "15715", "wikidata": "Q41325", "wikimedia_commons": "Category:Maoklane", "wikipedia": "ar:\u0645\u0627\u0648\u0643\u0644\u0627\u0646", "wikipedia:ar": "\u0645\u0627\u0648\u0643\u0644\u0627\u0646"}}, {"type": "node", "id": 490604555, "lat": 36.2837674, "lon": 5.4095661, "tags": {"name": "El Ouricia", "name:ar": "\u0627\u0644\u0623\u0648\u0631\u0633\u064a\u0629", "name:ber": "\u2d4d\u2d3b\u2d61\u2d54\u2d49\u2d59\u2d49\u2d62\u2d30", "name:en": "El Ouricia", "name:fr": "El Ouricia", "name:kab": "Wrisya", "place": "town", "population": "18087", "population:date": "2008", "wikidata": "Q3050153", "wikimedia_commons": "Category:El Ouricia", "wikipedia": "fr:El Ouricia"}}, {"type": "node", "id": 490604560, "lat": 36.3648446, "lon": 5.5069356, "tags": {"admin_level": "6", "alt_name:kab": "\u0190in Lekbira", "name": "A\u00efn El Kebira", "name:ar": "\u0639\u064a\u0646 \u0627\u0644\u0643\u0628\u064a\u0631\u0629", "name:ber": "\u2d44\u2d49\u2d4f \u2d4d\u2d3b\u2d3d\u2d31\u2d49\u2d54\u2d30", "name:en": "A\u00efn El Kebira", "name:fr": "A\u00efn El Kebira", "name:kab": "Tase\u1e6d\u1e6daft", "place": "town", "population": "24075", "population:date": "2008", "wikidata": "Q1648920"}}, {"type": "node", "id": 3209842489, "lat": 36.1849367, "lon": 5.3144869, "tags": {"name": "Ain Arnat", "name:ar": "\u0639\u064a\u0646 \u0623\u0631\u0646\u0627\u062a", "name:ber": "\u2d44\u2d49\u2d4f \u2d54\u2d4f\u2d30\u2d5c", "name:el": "\u0391\u0390\u03bd \u0391\u03c1\u03bd\u03ac\u03c4", "name:en": "A\u00efn Arnat", "name:fr": "A\u00efn Arnat", "name:kab": "\u0190in Arnat", "place": "town", "population": "43551", "ref": "2008", "wikidata": "Q2876253", "wikimedia_commons": "Category:A\u00efn Arnat", "wikipedia": "fr:A\u00efn Arnat"}}, {"type": "node", "id": 4306315224, "lat": 36.1893494, "lon": 5.4046876, "tags": {"admin_level": "8", "capital": "4", "name": "S\u00e9tif \u2d5a\u2d5f\u2d49\u2d3c \u0633\u0637\u064a\u0641", "name:ar": "\u0633\u0637\u064a\u0641", "name:az-Arab": "\u0633\u0637\u06cc\u0641", "name:azb": "\u0633\u0637\u06cc\u0641", "name:ber": "\u2d5a\u2d5f\u2d49\u2d3c", "name:de": "S\u00e9tif", "name:el": "\u03a3\u03b5\u03c4\u03af\u03c6", "name:en": "Setif", "name:es": "S\u00e9tif", "name:eu": "Setif", "name:fa": "\u0633\u0637\u06cc\u0641", "name:fr": "S\u00e9tif", "name:he": "\u05e1\u05d8\u05d9\u05e3", "name:hy": "\u054d\u0565\u057f\u056b\u0586", "name:kab": "\u1e62\u1e6dif", "name:kab-Arab": "\u0633\u06d5\u062a\u0649\u064a\u0641", "name:ks": "\u0633\u0637\u06cc\u0641", "name:lt": "Setifas", "name:pnb": "\u0633\u0637\u0641", "name:ru": "\u0421\u0435\u0442\u0438\u0444", "name:uk": "\u0421\u0435\u0442\u0456\u0444", "name:ur": "\u0633\u0637\u06cc\u0641", "place": "city", "population": "288461", "population:date": "2008", "ref:ONS": "1901", "wikidata": "Q244004", "wikipedia": "ar:\u0633\u0637\u064a\u0641", "wikipedia:ar": "\u0633\u0637\u064a\u0641", "wikipedia:es": "S\u00e9tif"}}]}