{"version": 0.6, "generator": "Overpass API 0.7.62.4 2390de5a", "osm3s": {"timestamp_osm_base": "2025-01-08T07:03:25Z", "copyright": "The data included in this document is from www.openstreetmap.org. The data is made available under ODbL."}, "elements": [{"type": "node", "id": 443181342, "lat": 35.258514, "lon": 6.3449818, "tags": {"name": "Arris", "name:ar": "\u0623\u0631\u064a\u0633", "name:ber": "\u2d30\u2d54\u2d54\u2d49\u2d59", "name:en": "Arris", "name:fr": "Arris", "name:kab": "Arris", "place": "town", "population": "30207", "wikidata": "Q1388056", "wikipedia": "fr:Arris"}}, {"type": "node", "id": 443181377, "lat": 35.4860091, "lon": 6.2536097, "tags": {"name": "Tazoult", "name:ar": "\u062a\u0627\u0632\u0648\u0644\u062a", "name:ber": "\u2d5c\u2d30\u2d65\u2d53\u2d4d\u2d5c", "name:en": "Tazoult", "name:fr": "Tazoult", "name:kab": "Ta\u1e93ult", "old_name": "Lamb\u00e8se", "place": "town", "population": "27493", "population:date": "2008", "wikidata": "Q3516526", "wikimedia_commons": "Category:Tazoult", "wikipedia": "fr:Tazoult"}}, {"type": "node", "id": 462231832, "lat": 35.4323373, "lon": 6.4146079, "tags": {"name": "Oued Taga", "name:ar": "\u0648\u0627\u062f\u064a \u0627\u0644\u0637\u0627\u0642\u0629", "name:ber": "\u2d49\u2d56\u2d63\u2d3b\u2d54 \u2d4f \u2d5c\u2d30\u2d33\u2d30", "name:en": "Oued Taga", "name:fr": "Oued Taga", "name:kab": "I\u0263zer n Taqqa", "old_name": "Bouhmar", "old_name:ar": "\u0628\u0648\u062d\u0645\u0627\u0631", "place": "town", "population": "18116", "wikidata": "Q2215821", "wikimedia_commons": "Category:Oued Taga", "wikipedia": "fr:Oued Taga"}}, {"type": "node", "id": 462231837, "lat": 35.4938565, "lon": 6.4705695, "tags": {"alt_name:kab": "Timgad", "name": "Timgad", "name:ar": "\u062a\u064a\u0645\u0642\u0627\u062f", "name:ber": "\u2d5c\u2d30\u2d4e\u2d53\u2d33\u2d30\u2d37\u2d49", "name:en": "Timgad", "name:fr": "Timgad", "name:kab": "Tamugadi", "old_name": "Tamougadi", "old_name:fr": "Tamougadi", "place": "town", "population": "11828", "wikidata": "Q3528992", "wikimedia_commons": "Category:Timgad (Commune)", "wikipedia": "fr:Timgad (Batna)"}}, {"type": "node", "id": 1514794418, "lat": 35.2648362, "lon": 6.0988647, "tags": {"name": "Bouzina", "name:ar": "\u0628\u0648\u0632\u064a\u0646\u0629", "name:ber": "\u2d31\u2d53\u2d63\u2d49\u2d4f\u2d30", "name:en": "Bouzina", "name:fr": "Bouzina", "name:kab": "Buzina", "place": "town", "population": "13383", "wikidata": "Q1649021", "wikimedia_commons": "Category:Bouzina", "wikipedia": "fr:Bouzina"}}, {"type": "node", "id": 1514833483, "lat": 35.3095106, "lon": 6.5100105, "tags": {"name": "Ichemoul", "name:ar": "\u0625\u0634\u0645\u0648\u0644", "name:ber": "\u2d49\u2d5b \u2d4f \u2d53\u2d4d", "name:en": "Ichemoul", "name:fr": "Ichemoul", "name:kab": "Ic Mmul", "place": "town", "population": "10240", "wikidata": "Q2215279", "wikimedia_commons": "Category:Ichemoul", "wikipedia": "fr:Ichmoul"}}]}