{"version": 0.6, "generator": "Overpass API 0.7.62.4 2390de5a", "osm3s": {"timestamp_osm_base": "2025-01-08T06:45:59Z", "copyright": "The data included in this document is from www.openstreetmap.org. The data is made available under ODbL."}, "elements": [{"type": "node", "id": 313799319, "lat": 14.3230481, "lon": 36.6526755, "tags": {"name": "Omhajer \u0623\u0645 \u0647\u0627\u062c\u0631", "name:ar": "\u0623\u0645 \u0647\u0627\u062c\u0631", "name:en": "Omhajer", "name:fr": "Om Ager", "name:it": "Om Ager", "name:pl": "Om Hajer", "name:zu": "Omhajer", "place": "town", "wikidata": "Q3882024", "wikipedia": "en:Omhajer"}}, {"type": "node", "id": 321247208, "lat": 14.2876868, "lon": 36.6088415, "tags": {"alt_name:en": "Himera", "alt_name:ti": "\u1211\u121e\u122b\u1363 \u1215\u121e\u122b", "name": "\u1211\u121e\u122b / Humera", "name:am": "\u1201\u1218\u122b", "name:ar": "\u0627\u0644\u062d\u0645\u0631\u0627", "name:azb": "\u0647\u0648\u0645\u0631\u0627", "name:en": "Humera", "name:fa": "\u0647\u0648\u0645\u0631\u0627", "name:fr": "Humera", "name:it": "Humera", "name:pl": "Humera", "name:ro": "Humera", "name:ti": "\u1215\u121e\u122b", "name:zh": "\u80e1\u6885\u62c9", "name:zu": "Humera", "place": "town", "population": "21653", "wikidata": "Q21501674", "wikipedia": "en:Humera"}}, {"type": "node", "id": 2050780659, "lat": 14.263343, "lon": 36.5403725, "tags": {"name": "\u0648\u062f \u0645\u0632\u0645\u0644", "name:ar": "\u0648\u062f \u0645\u0632\u0645\u0644", "name:en": "Wad Muzammil", "name:fr": "Wad Muzammil", "place": "town"}}]}