{"version": 0.6, "generator": "Overpass API 0.7.62.4 2390de5a", "osm3s": {"timestamp_osm_base": "2025-01-08T06:23:32Z", "copyright": "The data included in this document is from www.openstreetmap.org. The data is made available under ODbL."}, "elements": [{"type": "node", "id": 9976881213, "lat": 24.0238882, "lon": 55.5548571, "tags": {"name": "\u0627\u0644\u0645\u062f\u064a\u0646\u0629 \u0627\u0644\u0635\u0646\u0627\u0639\u064a\u0629", "name:ar": "\u0627\u0644\u0645\u062f\u064a\u0646\u0629 \u0627\u0644\u0635\u0646\u0627\u0639\u064a\u0629", "name:en": "Industrial City", "place": "town"}}, {"type": "node", "id": 9976881214, "lat": 23.9900173, "lon": 55.5319398, "tags": {"name": "\u0627\u0644\u0638\u0627\u0647\u0631\u0629", "name:ar": "\u0627\u0644\u0638\u0627\u0647\u0631\u0629", "name:en": "Al Dhahrah", "place": "town"}}, {"type": "node", "id": 9976881215, "lat": 23.9149206, "lon": 55.4057563, "tags": {"name": "\u0628\u0648 \u0643\u0631\u064a\u0629", "name:ar": "\u0628\u0648 \u0643\u0631\u064a\u0629", "name:en": "Bu Kirayyah", "place": "town"}}, {"type": "node", "id": 9976881216, "lat": 23.8142451, "lon": 55.4122918, "tags": {"name": "\u0627\u0644\u0639\u0631\u0627\u062f", "name:ar": "\u0627\u0644\u0639\u0631\u0627\u062f", "name:en": "Al 'Arad", "place": "town"}}, {"type": "node", "id": 9976937717, "lat": 23.6432668, "lon": 55.4397576, "tags": {"name": "\u0627\u0644\u0648\u0642\u0646", "name:ar": "\u0627\u0644\u0648\u0642\u0646", "name:en": "Al Wiqan", "place": "town"}}]}