{"version": 0.6, "generator": "Overpass API 0.7.62.4 2390de5a", "osm3s": {"timestamp_osm_base": "2025-01-08T05:57:59Z", "copyright": "The data included in this document is from www.openstreetmap.org. The data is made available under ODbL."}, "elements": [{"type": "node", "id": 27565120, "lat": 29.9870753, "lon": 31.2118063, "tags": {"alt_name:eo": "Giza;Gizeh;\u011ciza", "name": "\u0627\u0644\u062c\u064a\u0632\u0629", "name:ar": "\u0627\u0644\u062c\u064a\u0632\u0629", "name:be": "\u0413\u0456\u0437\u0430", "name:ceb": "Al Jizah", "name:cs": "G\u00edza", "name:de": "Giseh", "name:en": "Giza", "name:eo": "Gizo", "name:es": "Guiza", "name:et": "Giza", "name:fi": "Giza", "name:fr": "Gizeh", "name:he": "\u05d2\u05d9\u05d6\u05d4", "name:hi": "\u0917\u0940\u091c\u093c\u093e", "name:hr": "Giza", "name:hu": "G\u00edza", "name:ko": "\uae30\uc790", "name:ml": "\u0d17\u0d3f\u0d38", "name:nl": "Gizeh", "name:oc": "Giza", "name:pl": "Giza", "name:ru": "\u0413\u0438\u0437\u0430", "name:sr": "\u0413\u0438\u0437\u0430", "name:sr-Latn": "Giza", "name:sv": "Giza", "name:uk": "\u0413\u0456\u0437\u0430", "name:ur": "\u062c\u06cc\u0632\u06c1", "name:yue": "\u52a0\u6c99", "name:zh-Hans": "\u5409\u8428", "name:zh-Hant": "\u5409\u85a9", "place": "city", "population": "2681863", "wikidata": "Q81788", "wikipedia": "en:Giza"}}, {"type": "node", "id": 33470550, "lat": 29.9230331, "lon": 31.5642111}, {"type": "node", "id": 33470551, "lat": 29.9234081, "lon": 31.562004}, {"type": "node", "id": 33470560, "lat": 29.933116, "lon": 31.5239605}, {"type": "node", "id": 33470574, "lat": 29.96006, "lon": 31.4833794}, {"type": "node", "id": 33470579, "lat": 29.9627829, "lon": 31.4800794}, {"type": "node", "id": 33470584, "lat": 29.9646538, "lon": 31.4773316}, {"type": "node", "id": 33470772, "lat": 30.0842377, "lon": 31.5049751}, {"type": "node", "id": 33470783, "lat": 30.0862348, "lon": 31.524844}, {"type": "node", "id": 33470791, "lat": 30.0855409, "lon": 31.539377}, {"type": "node", "id": 33470828, "lat": 30.1059087, "lon": 31.6054299}, {"type": "node", "id": 271613766, "lat": 30.0443879, "lon": 31.2357257, "tags": {"admin_level": "2", "alt_name:ml": "\u0d05\u0d7d-\u0d16\u0d3e\u0d39\u0d3f\u0d31", "alt_name:vi": "Cai-r\u00f4", "capital": "yes", "capital_ISO3166-1": "yes", "ele": "68", "int_name": "Cairo", "is_capital": "country", "name": "\u0627\u0644\u0642\u0627\u0647\u0631\u0629", "name:ace": "Al-Qahirah", "name:ady": "\u041a\u0430\u0438\u0440", "name:af": "Ka\u00efro", "name:ak": "Cairo", "name:am": "\u12ab\u12ed\u122e", "name:an": "O Caire", "name:ar": "\u0627\u0644\u0642\u0627\u0647\u0631\u0629", "name:arz": "\u0627\u0644\u0642\u0627\u0647\u0631\u0647", "name:ast": "El Cairu", "name:av": "\u041a\u044a\u0430\u0433\u044c\u0438\u0440\u0430", "name:avk": "Alkaira", "name:awa": "\u0915\u093e\u0907\u0930\u094b", "name:az": "Qahir\u0259", "name:ba": "\u04a0\u04d9\u04bb\u0438\u0440", "name:bat-smg": "Kairs", "name:bcl": "Cairo", "name:be": "\u041a\u0430\u0456\u0440", "name:bg": "\u041a\u0430\u0439\u0440\u043e", "name:bn": "\u0995\u09be\u09af\u09bc\u09b0\u09cb", "name:bo": "\u0f41\u0f0b\u0f61\u0f72\u0f0b\u0f62\u0f7c", "name:br": "Kaero", "name:bs": "Kairo", "name:ca": "el Caire", "name:ce": "\u041a\u044a\u0430\u0445\u04c0\u0438\u0440\u0430", "name:ceb": "Cairo", "name:chy": "Cairo", "name:ckb": "\u0642\u0627\u06be\u06cc\u0631\u06d5", "name:crh": "Qaire", "name:cs": "K\u00e1hira", "name:csb": "Kairo", "name:cv": "\u041a\u0430\u0438\u0440", "name:cy": "Cairo", "name:da": "Kairo", "name:de": "Kairo", "name:diq": "Qahire", "name:dsb": "Kairo", "name:el": "\u039a\u03ac\u03b9\u03c1\u03bf", "name:en": "Cairo", "name:eo": "Kairo", "name:es": "El Cairo", "name:et": "Kairo", "name:eu": "Kairo", "name:ext": "El Cairu", "name:fa": "\u0642\u0627\u0647\u0631\u0647", "name:fi": "Kairo", "name:fo": "Keiro", "name:fr": "Le Caire", "name:frp": "Lo Cayiro", "name:frr": "Kairo", "name:fur": "El Cairo", "name:fy": "Kairo", "name:ga": "Caireo", "name:gd": "Cairo", "name:gl": "O Cairo - \u0627\u0644\u0642\u0627\u0647\u0631\u0629", "name:gn": "K\u00e1iro", "name:gu": "\u0a95\u0ac8\u0ab0\u0acb", "name:gv": "Cairo", "name:ha": "Kairo", "name:hak": "Cairo", "name:he": "\u05e7\u05d4\u05d9\u05e8", "name:hi": "\u0915\u093e\u0939\u093f\u0930\u093e", "name:hif": "Cairo", "name:hr": "Kairo", "name:hsb": "Kairo", "name:ht": "Li K\u00e8", "name:hu": "Kair\u00f3", "name:hy": "\u053f\u0561\u0570\u056b\u0580\u0565", "name:hyw": "\u0533\u0561\u0570\u056b\u0580\u0567", "name:ia": "Cairo", "name:id": "Kairo", "name:ie": "Cairo", "name:ilo": "Cairo", "name:inh": "\u041a\u0430\u0438\u0440", "name:io": "Kairo", "name:is": "Ka\u00edr\u00f3", "name:it": "Il Cairo", "name:ja": "\u30ab\u30a4\u30ed", "name:jv": "Kairo", "name:ka": "\u10d9\u10d0\u10d8\u10e0\u10dd", "name:kaa": "Al-Qahira", "name:kab": "Taqahirt", "name:kk": "\u04d8\u043b-\u049a\u0430\u04bb\u0438\u0440\u0430", "name:kl": "Cairo", "name:kn": "\u0c95\u0cc8\u0cb0\u0ccb", "name:ko": "\uce74\uc774\ub85c", "name:ku": "Qah\u00eere", "name:kv": "\u041a\u0430\u0438\u0440", "name:kw": "Cairo", "name:ky": "\u041a\u0430\u0438\u0440", "name:la": "Cairus", "name:lad": "El Kairo", "name:lb": "Kairo", "name:lbe": "\u041a\u044c\u0430\u0433\u044c\u0438\u0440\u0430", "name:lez": "\u041a\u0430\u0438\u0440", "name:lfn": "Qahira", "name:li": "Ca\u00efro", "name:lij": "O Cairo", "name:lmo": "El Cairo", "name:ln": "Kairo", "name:lt": "Kairas", "name:lv": "Kaira", "name:mad": "Kairo", "name:mai": "\u0915\u093e\u0907\u0930\u094b", "name:mdf": "\u041a\u0430\u0438\u0440", "name:mhr": "\u041a\u0430\u0438\u0440", "name:mi": "Kairo", "name:min": "Kairo", "name:mk": "\u041a\u0430\u0438\u0440\u043e", "name:ml": "\u0d15\u0d46\u0d2f\u0d4d\u0d31\u0d4b", "name:mn": "\u041a\u0430\u0438\u0440", "name:mr": "\u0915\u0948\u0930\u094b", "name:mrj": "\u041a\u0430\u0438\u0440", "name:ms": "Kaherah", "name:mt": "Kajr", "name:mwl": "Cairo", "name:my": "\u1000\u102d\u102f\u1004\u103a\u101b\u102d\u102f\u1019\u103c\u102d\u102f\u1037", "name:myv": "\u041a\u0430\u0438\u0440 \u043e\u0448", "name:mzn": "\u0642\u0627\u0647\u0631\u0647", "name:na": "Cairo", "name:nah": "El Cairo", "name:nan": "Cairo", "name:nap": "Il cairo", "name:nds": "Kairo", "name:new": "\u0915\u093e\u092f\u0930\u094b", "name:nl": "Ca\u00efro", "name:no": "Kairo", "name:ny": "Cairo", "name:oc": "Lo Caire", "name:os": "\u041a\u0430\u0438\u0440", "name:pa": "\u0a15\u0a3e\u0a39\u0a3f\u0a30\u0a3e", "name:pap": "Kairo", "name:pl": "Kair", "name:pms": "\u00cbl C\u00e0iro", "name:pnb": "\u0642\u0627\u06c1\u0631\u06c1", "name:pnt": "\u039a\u03ac\u03b9\u03c1\u03bf\u03bd", "name:ps": "\u0642\u0627\u0647\u0631\u0647", "name:pt": "Cairo", "name:qu": "Qahira", "name:rm": "Cairo", "name:ro": "Cairo", "name:roa-rup": "Cairo", "name:roa-tara": "'U Cairo", "name:ru": "\u041a\u0430\u0438\u0440", "name:rue": "\u041a\u0430\u0433\u0456\u0440\u0430", "name:sah": "\u041a\u0430\u0438\u0440", "name:sc": "Cairo", "name:scn": "Cairu", "name:sco": "Cairo", "name:sd": "\u0642\u0627\u0647\u0631\u0647", "name:se": "Cairo", "name:sh": "Kairo", "name:simple": "Cairo", "name:sk": "K\u00e1hira", "name:sl": "Kairo", "name:smn": "Kairo", "name:sn": "Cairo", "name:so": "Qaahiro", "name:sq": "Kajro", "name:sr": "\u041a\u0430\u0438\u0440\u043e", "name:ss": "Cairo", "name:su": "Kairo", "name:sv": "Kairo", "name:sw": "Kairo", "name:szl": "Kajir", "name:ta": "\u0b95\u0bc6\u0baf\u0bcd\u0bb0\u0bcb", "name:te": "\u0c15\u0c48\u0c30\u0c4b", "name:tg": "\u049a\u043e\u04b3\u0438\u0440\u0430", "name:th": "\u0e44\u0e04\u0e42\u0e23", "name:tk": "Kair", "name:tl": "Cairo", "name:tpi": "Kairo", "name:tr": "Kahire", "name:tt": "\u041a\u0430\u04bb\u0438\u0440\u04d9", "name:tw": "Kairo", "name:udm": "\u041a\u0430\u0438\u0440", "name:ug": "\u0643\u0627\u064a\u0631\u0648", "name:uk": "\u041a\u0430\u0457\u0440", "name:ur": "\u0642\u0627\u06c1\u0631\u06c1", "name:uz": "Qohira", "name:vec": "El Cairo", "name:vep": "Kair", "name:vi": "Cairo", "name:vls": "Ca\u00efro", "name:vo": "Kahir\u00e4", "name:wa": "El Caire", "name:war": "Cairo", "name:wo": "Xayra", "name:wuu": "\u5f00\u7f57", "name:xal": "\u041a\u0430\u0438\u0440 \u0431\u0430\u043b\u04bb\u0441\u043d", "name:xmf": "\u10d9\u10d0\u10d8\u10e0\u10dd", "name:yi": "\u05e7\u05d9\u05d9\u05e8\u05d0", "name:yo": "K\u00e1\u00edr\u00f2", "name:yue": "\u958b\u7f85", "name:zea": "Ca\u00efro", "name:zh": "\u5f00\u7f57", "name:zh-Hans": "\u5f00\u7f57", "name:zh-Hant": "\u958b\u7f85", "name:zu": "Cairo", "note": "reverted to arabic", "old_name:vi": "K\u00ea Th\u00e0nh", "place": "city", "population": "9120350", "rank": "0", "wikidata": "Q85", "wikipedia": "ar:\u0627\u0644\u0642\u0627\u0647\u0631\u0629"}}, {"type": "node", "id": 299523927, "lat": 29.9723458, "lon": 30.9409205, "tags": {"alt_name": "\u0645\u062f\u064a\u0646\u0629 \u0627\u0644\u0633\u0627\u062f\u0633 \u0645\u0646 \u0623\u0643\u062a\u0648\u0628\u0631", "alt_name:hr": "Grad \u0161estog listopada", "alt_name:pl": "Miasto 6. pa\u017adziernika", "alt_name:uk": "\u041c\u0456\u0441\u0442\u043e \u0456\u043c\u0435\u043d\u0456 6 \u0436\u043e\u0432\u0442\u043d\u044f", "int_name": "6th October City", "name": "\u0627\u0644\u0633\u0627\u062f\u0633 \u0645\u0646 \u0623\u0643\u062a\u0648\u0628\u0631", "name:ar": "\u0627\u0644\u0633\u0627\u062f\u0633 \u0645\u0646 \u0623\u0643\u062a\u0648\u0628\u0631", "name:de": "Sechster Oktober", "name:en": "6th of October", "name:eo": "La sesa de oktobro", "name:es": "Seis de Octubre", "name:fr": "Six Octobre", "name:hr": "Madinat as Sadis min Uktubar", "name:ko": "10\uc6d4 6\uc77c", "name:ml": "\u0d12\u0d15\u0d4d\u0d1f\u0d4b\u0d2c\u0d7c \u0d06\u0d31\u0d3e\u0d02 \u0d28\u0d17\u0d30\u0d02", "name:pl": "Sz\u00f3sty pa\u017adziernika", "name:ru": "\u0413\u043e\u0440\u043e\u0434 \u0438\u043c\u0435\u043d\u0438 6 \u043e\u043a\u0442\u044f\u0431\u0440\u044f", "name:sv": "Sj\u00e4tte oktober-staden", "name:uk": "\u041c\u0435\u0434\u0456\u043d\u0430-\u0421\u0456\u0442\u0442\u0430\u0442-\u041e\u043a\u0442\u043e\u0431\u0435\u0440", "place": "city", "population": "184000", "wikipedia": "en:6 October City"}}, {"type": "node", "id": 299569009, "lat": 29.892851, "lon": 31.2672452, "tags": {"name": "\u0627\u0644\u062d\u0648\u0627\u0645\u062f\u064a\u0629", "name:ar": "\u0627\u0644\u062d\u0648\u0627\u0645\u062f\u064a\u0629", "name:de": "al-Hawamidiyya", "name:en": "Al-Hawamidyah", "name:fr": "El Hawamdeya", "name:hr": "Al Havamidija", "place": "town", "population": "113000", "wikidata": "Q337458", "wikipedia": "en:El Hawamdeya"}}, {"type": "node", "id": 299570446, "lat": 30.178875, "lon": 31.206436, "tags": {"name": "\u0642\u0644\u064a\u0648\u0628", "name:ar": "\u0642\u0644\u064a\u0648\u0628", "name:ca": "Kalyub", "name:de": "Qalyub", "name:el": "\u039a\u03b1\u03bb\u03b3\u03b9\u03bf\u03cd\u03bc\u03c0", "name:en": "Qalyub", "name:fa": "\u0642\u0644\u06cc\u0648\u0628", "name:fr": "Kalyoub", "name:kk": "\u041a\u0430\u043b\u044c\u044e\u0431", "name:lt": "Kaljubas", "name:ml": "\u0d16\u0d7d\u0d2f\u0d42\u0d2c\u0d4d", "name:pl": "Kaljub", "name:pt": "Qalyub", "name:ru": "\u041a\u0430\u043b\u044c\u044e\u0431", "name:sr": "\u041a\u0430\u0459\u0443\u0431", "name:sv": "Qalyub", "name:tr": "Kalyub", "name:uk": "\u041a\u0430\u043b\u044c\u044e\u0431", "name:ur": "\u0642\u0644\u06cc\u0648\u0628", "name:zh": "\u84cb\u52d2\u5c24\u535c", "place": "town", "population": "109000", "wikidata": "Q336724", "wikipedia": "ar:\u0642\u0644\u064a\u0648\u0628"}}, {"type": "node", "id": 314638892, "lat": 30.0356866, "lon": 31.6008776}, {"type": "node", "id": 314638893, "lat": 30.0287904, "lon": 31.5995451}, {"type": "node", "id": 330194927, "lat": 30.048347, "lon": 30.9832235, "tags": {"alt_name": "\u0645\u062f\u064a\u0646\u0629 \u0627\u0644\u0634\u064a\u062e \u0632\u0627\u064a\u062f", "name": "\u0627\u0644\u0634\u064a\u062e \u0632\u0627\u064a\u062f", "name:ar": "\u0627\u0644\u0634\u064a\u062e \u0632\u0627\u064a\u062f", "name:en": "Sheikh Zayed", "name:fr": "Cheikh Zayed", "note": "reverted to arabic", "place": "city", "population": "80000", "wikidata": "Q4165945", "wikimedia_commons": "Category:Sheikh Zayed City", "wikipedia": "en:Sheikh Zayed City"}}, {"type": "node", "id": 332502040, "lat": 30.1899301, "lon": 31.4140212}, {"type": "node", "id": 392011011, "lat": 29.9709311, "lon": 31.3679176}, {"type": "node", "id": 392011029, "lat": 29.9604179, "lon": 31.4204138}, {"type": "node", "id": 392011034, "lat": 29.9554388, "lon": 31.4391628}, {"type": "node", "id": 392011037, "lat": 29.9561664, "lon": 31.4465734}, {"type": "node", "id": 392011041, "lat": 29.9661561, "lon": 31.4630386}, {"type": "node", "id": 392011042, "lat": 29.9666069, "lon": 31.4645755}, {"type": "node", "id": 392011043, "lat": 29.9669787, "lon": 31.4664853}, {"type": "node", "id": 600806567, "lat": 29.9230375, "lon": 31.5660868}, {"type": "node", "id": 600822714, "lat": 29.9667533, "lon": 31.472244}, {"type": "node", "id": 600822716, "lat": 29.9660632, "lon": 31.4744729}, {"type": "node", "id": 600822717, "lat": 29.9654773, "lon": 31.4758885}, {"type": "node", "id": 600827487, "lat": 29.9552701, "lon": 31.4426984}, {"type": "node", "id": 600827489, "lat": 29.9564925, "lon": 31.43335}, {"type": "node", "id": 600827501, "lat": 29.9670879, "lon": 31.4676467}, {"type": "node", "id": 600831495, "lat": 29.9651635, "lon": 31.4039567}, {"type": "node", "id": 600833280, "lat": 29.9663277, "lon": 31.3904481}, {"type": "node", "id": 631925765, "lat": 30.0846467, "lon": 31.5109764}, {"type": "node", "id": 707962821, "lat": 30.110406, "lon": 31.6185281}, {"type": "node", "id": 707964434, "lat": 30.117408, "lon": 31.6449049}, {"type": "node", "id": 707964437, "lat": 30.1175969, "lon": 31.646796}, {"type": "node", "id": 707964443, "lat": 30.1133205, "lon": 31.6623803}, {"type": "node", "id": 707981562, "lat": 30.1098803, "lon": 31.6694349}, {"type": "node", "id": 707981563, "lat": 30.1102063, "lon": 31.6899955}, {"type": "node", "id": 707981565, "lat": 30.1103349, "lon": 31.7099186}, {"type": "node", "id": 708011503, "lat": 30.1104841, "lon": 31.7069697}, {"type": "node", "id": 768553824, "lat": 30.1966159, "lon": 31.133908, "tags": {"alt_name": "\u0627\u0644\u0642\u0646\u0627\u0637\u0631 \u0627\u0644\u062e\u064a\u0631\u064a\u0629", "int_name": "El-Qan\u00e2\u1e6dir el-Khair\u00eeya, Al Qanatir al Khairiya", "name": "\u0627\u0644\u0642\u0646\u0627\u0637\u0631 \u0627\u0644\u062e\u064a\u0631\u064a\u0629", "name:ar": "\u0627\u0644\u0642\u0646\u0627\u0637\u0631 \u0627\u0644\u062e\u064a\u0631\u064a\u0629", "name:ar1": "\u0627\u0644\u0642\u0646\u0627\u0637\u0631 \u0627\u0644\u062e\u064a\u0631\u064a\u0629", "name:de": "Al Qanatir al Khairiya", "name:en": "Al Qanatir al Khairiya", "name:fr": "Al Qanatir al Khairiya", "name:ml": "\u0d05\u0d7d-\u0d16\u0d28\u0d3e\u0d24\u0d4d\u0d24\u0d3f\u0d7c \u0d05\u0d7d-\u0d16\u0d2f\u0d4d\u0d31\u0d3f\u0d2f", "place": "town"}}, {"type": "node", "id": 768591737, "lat": 30.1285988, "lon": 31.242218, "tags": {"alt_name": "\u0634\u0628\u0631\u0627 \u0627\u0644\u062e\u064a\u0645\u0629", "int_name": "Shubra al-Khayma, Shubra al Khayma", "name": "\u0634\u0628\u0631\u0627 \u0627\u0644\u062e\u064a\u0645\u0629", "name:ar": "\u0634\u0628\u0631\u0627 \u0627\u0644\u062e\u064a\u0645\u0629", "name:ar1": "\u0634\u0628\u0631\u0627 \u0627\u0644\u062e\u064a\u0645\u0629", "name:de": "Shubra al Khayma", "name:en": "Shubra al Khayma", "name:et": "Shubr\u0101 al-Khaymah", "name:fr": "Shubra al Khayma", "name:hr": "\u0160ubra al Hajma", "name:ko": "\uc288\ube0c\ub77c\uc5d8\ucf00\uc774\ub9c8", "name:ml": "\u0d37\u0d41\u0d2c\u0d4d\u0d30 \u0d05\u0d7d-\u0d16\u0d48\u0d2e", "name:pt": "Shubra El-Kheima", "name:ru": "\u0428\u0443\u0431\u0440\u0430-\u044d\u043b\u044c-\u0425\u0435\u0439\u043c\u0430", "name:sr": "\u0428\u0443\u0431\u0440\u0430 \u0435\u043b \u041a\u0435\u0458\u043c\u0430", "name:sr-Latn": "\u0160ubra el Kejma", "name:uk": "\u0428\u0443\u0431\u0440\u0430-\u0435\u043b\u044c-\u0425\u0435\u0439\u043c\u0430", "place": "city", "population": "1016722", "wikidata": "Q269960", "wikipedia": "en:Shubra El Kheima"}}, {"type": "node", "id": 768775606, "lat": 29.8500001, "lon": 31.333333, "tags": {"alt_name": "\u062d\u0644\u0648\u0627\u0646", "alt_name:pl": "Hulwan", "int_name": "\u1e28elw\u0101n, Helwan", "name": "\u062d\u0644\u0648\u0627\u0646", "name:ar": "\u062d\u0644\u0648\u0627\u0646", "name:de": "Helwan", "name:en": "Helwan", "name:eo": "Hel\u016dan", "name:fr": "Helwan", "name:he": "\u05d4\u05dc\u05d5\u05d5\u05d0\u05df", "name:hi": "\u0939\u0947\u0932\u0935\u093e\u0928", "name:hr": "Helvan", "name:ml": "\u0d39\u0d46\u0d7d\u0d35\u0d3e\u0d7b", "name:pl": "Heluan", "name:uk": "\u0425\u0435\u043b\u0443\u0430\u043d", "place": "city", "population": "643327", "wikidata": "Q771345", "wikipedia": "en:Helwan"}}, {"type": "node", "id": 919759483, "lat": 29.9036651, "lon": 31.2832904}, {"type": "node", "id": 919759493, "lat": 30.0879592, "lon": 31.2305259}, {"type": "node", "id": 919759508, "lat": 29.8889879, "lon": 31.2818312}, {"type": "node", "id": 919759548, "lat": 30.0587127, "lon": 31.2266429}, {"type": "node", "id": 919759567, "lat": 29.8570961, "lon": 31.291337}, {"type": "node", "id": 919759617, "lat": 29.8169014, "lon": 31.2929292}, {"type": "node", "id": 919759647, "lat": 29.9499706, "lon": 31.256125}, {"type": "node", "id": 919759658, "lat": 30.0136286, "lon": 31.2203336}, {"type": "node", "id": 919759867, "lat": 29.7707662, "lon": 31.2891483}, {"type": "node", "id": 919759890, "lat": 29.9239938, "lon": 31.2795246}, {"type": "node", "id": 919759896, "lat": 29.9634304, "lon": 31.2361693}, {"type": "node", "id": 919759928, "lat": 30.0745441, "lon": 31.2247753}, {"type": "node", "id": 919759944, "lat": 29.8762622, "lon": 31.2851143}, {"type": "node", "id": 919760081, "lat": 29.8227605, "lon": 31.2915132}, {"type": "node", "id": 919760100, "lat": 30.033972, "lon": 31.2233376}, {"type": "node", "id": 919760138, "lat": 29.7864666, "lon": 31.2923846}, {"type": "node", "id": 919760165, "lat": 29.9421801, "lon": 31.2710595}, {"type": "node", "id": 919760179, "lat": 29.9807002, "lon": 31.2290807}, {"type": "node", "id": 919760242, "lat": 30.093036, "lon": 31.2311698}, {"type": "node", "id": 919760266, "lat": 29.8955734, "lon": 31.2821746}, {"type": "node", "id": 919760725, "lat": 30.0446529, "lon": 31.2299788}, {"type": "node", "id": 919760737, "lat": 29.8400111, "lon": 31.2920666}, {"type": "node", "id": 919760755, "lat": 29.803002, "lon": 31.2957144}, {"type": "node", "id": 919760772, "lat": 29.9546185, "lon": 31.2495374}, {"type": "node", "id": 919760777, "lat": 30.0013323, "lon": 31.2256765}, {"type": "node", "id": 919760803, "lat": 29.7736904, "lon": 31.2902856}, {"type": "node", "id": 919761072, "lat": 29.9077944, "lon": 31.2836551}, {"type": "node", "id": 919761096, "lat": 29.9678919, "lon": 31.2339163}, {"type": "node", "id": 919761158, "lat": 30.0652499, "lon": 31.2250113}, {"type": "node", "id": 919761175, "lat": 29.8627347, "lon": 31.2893628}, {"type": "node", "id": 919761256, "lat": 29.8271674, "lon": 31.2905216}, {"type": "node", "id": 919761471, "lat": 30.0184965, "lon": 31.2200331}, {"type": "node", "id": 919761508, "lat": 29.7889618, "lon": 31.2924528}, {"type": "node", "id": 919761546, "lat": 29.9286367, "lon": 31.2778978}, {"type": "node", "id": 919761552, "lat": 29.9897735, "lon": 31.2261396}, {"type": "node", "id": 919761594, "lat": 30.0806995, "lon": 31.2275004}, {"type": "node", "id": 919761603, "lat": 29.881788, "lon": 31.2828183}, {"type": "node", "id": 919761751, "lat": 30.0500672, "lon": 31.2295496}, {"type": "node", "id": 919761774, "lat": 29.8453921, "lon": 31.29311}, {"type": "node", "id": 919761824, "lat": 29.8068835, "lon": 31.2948898}, {"type": "node", "id": 919761853, "lat": 29.9453317, "lon": 31.2660706}, {"type": "node", "id": 919761860, "lat": 30.0067165, "lon": 31.2228978}, {"type": "node", "id": 919761914, "lat": 29.9126303, "lon": 31.282947}, {"type": "node", "id": 919762034, "lat": 30.0692983, "lon": 31.2242174}, {"type": "node", "id": 919762055, "lat": 29.8675425, "lon": 31.2878098}, {"type": "node", "id": 919762145, "lat": 29.9570725, "lon": 31.2465119}, {"type": "node", "id": 919762156, "lat": 30.0240702, "lon": 31.2201834}, {"type": "node", "id": 919762234, "lat": 29.7783652, "lon": 31.2919807}, {"type": "node", "id": 919762270, "lat": 29.9340729, "lon": 31.2763595}, {"type": "node", "id": 919762286, "lat": 29.9727806, "lon": 31.2329292}, {"type": "node", "id": 919762357, "lat": 30.0841769, "lon": 31.2293181}, {"type": "node", "id": 919762375, "lat": 29.8853931, "lon": 31.2819279}, {"type": "node", "id": 919762438, "lat": 30.0364426, "lon": 31.225934}, {"type": "node", "id": 919762589, "lat": 29.8304995, "lon": 31.2899208}, {"type": "node", "id": 919762609, "lat": 29.7949953, "lon": 31.2944054}, {"type": "node", "id": 919762631, "lat": 29.9921288, "lon": 31.2263095}, {"type": "node", "id": 919762647, "lat": 29.7659509, "lon": 31.2867206}, {"type": "node", "id": 919762663, "lat": 29.9007447, "lon": 31.2825823}, {"type": "node", "id": 919762734, "lat": 29.8534486, "lon": 31.2924528}, {"type": "node", "id": 919762752, "lat": 29.8127432, "lon": 31.2936916}, {"type": "node", "id": 919762773, "lat": 29.9606977, "lon": 31.241169}, {"type": "node", "id": 919762778, "lat": 30.0103398, "lon": 31.2211704}, {"type": "node", "id": 919762795, "lat": 29.7827232, "lon": 31.2925386}, {"type": "node", "id": 919762812, "lat": 29.9180611, "lon": 31.281445}, {"type": "node", "id": 919762956, "lat": 29.9760516, "lon": 31.2320743}, {"type": "node", "id": 919763024, "lat": 30.071508, "lon": 31.2240028}, {"type": "node", "id": 919763043, "lat": 29.8721708, "lon": 31.2866116}, {"type": "node", "id": 919763082, "lat": 30.0408124, "lon": 31.2292092}, {"type": "node", "id": 919763095, "lat": 29.8333437, "lon": 31.2900972}, {"type": "node", "id": 919763100, "lat": 30.0294968, "lon": 31.2211489}, {"type": "node", "id": 919764148, "lat": 29.7985332, "lon": 31.2955212}, {"type": "node", "id": 919764167, "lat": 29.9396141, "lon": 31.2730873}, {"type": "node", "id": 919764172, "lat": 29.9964589, "lon": 31.2268245}, {"type": "node", "id": 1051383386, "lat": 30.1023616, "lon": 31.7462619}, {"type": "node", "id": 1051383458, "lat": 30.1043481, "lon": 31.7463747}, {"type": "node", "id": 1051383464, "lat": 30.1038092, "lon": 31.7465649}, {"type": "node", "id": 1051383473, "lat": 30.0872025, "lon": 31.7348883}, {"type": "node", "id": 1051383483, "lat": 30.1035043, "lon": 31.7465705}, {"type": "node", "id": 1051383530, "lat": 30.104048, "lon": 31.7465015}, {"type": "node", "id": 1051383581, "lat": 30.1047473, "lon": 31.7458416}, {"type": "node", "id": 1051383635, "lat": 30.104603, "lon": 31.7461621}, {"type": "node", "id": 1051383824, "lat": 30.1020166, "lon": 31.7461106}, {"type": "node", "id": 1134976312, "lat": 29.7917179, "lon": 31.293118}, {"type": "node", "id": 1157594106, "lat": 30.1104885, "lon": 31.7084239}, {"type": "node", "id": 1157594547, "lat": 30.1054907, "lon": 31.7375834}, {"type": "node", "id": 1157594701, "lat": 30.1052997, "lon": 31.6026576}, {"type": "node", "id": 1180240750, "lat": 30.1135925, "lon": 31.6617424}, {"type": "node", "id": 1180240754, "lat": 30.1077879, "lon": 31.6107805}, {"type": "node", "id": 1180240799, "lat": 30.0845617, "lon": 31.5339609}, {"type": "node", "id": 1180240812, "lat": 30.1156397, "lon": 31.6367756}, {"type": "node", "id": 1180240816, "lat": 30.0982463, "lon": 31.5694747}, {"type": "node", "id": 1180241133, "lat": 30.1105383, "lon": 31.6189076}, {"type": "node", "id": 1180241157, "lat": 30.1105886, "lon": 31.666901}, {"type": "node", "id": 1180241281, "lat": 30.1104346, "lon": 31.7029046}, {"type": "node", "id": 1180241336, "lat": 30.1099186, "lon": 31.6848671}, {"type": "node", "id": 1180241350, "lat": 30.0848191, "lon": 31.5309463}, {"type": "node", "id": 1180241407, "lat": 30.0846552, "lon": 31.5347156}, {"type": "node", "id": 1180241536, "lat": 30.1138438, "lon": 31.6258849}, {"type": "node", "id": 1180241558, "lat": 30.1104346, "lon": 31.7091831}, {"type": "node", "id": 1180241591, "lat": 30.1145252, "lon": 31.6584399}, {"type": "node", "id": 1180241659, "lat": 30.1103678, "lon": 31.6985499}, {"type": "node", "id": 1180241668, "lat": 30.1099655, "lon": 31.6686418}, {"type": "node", "id": 1180241683, "lat": 30.1175487, "lon": 31.6457242}, {"type": "node", "id": 1180241685, "lat": 30.0870173, "lon": 31.5213588}, {"type": "node", "id": 1180241692, "lat": 30.0865521, "lon": 31.5193713}, {"type": "node", "id": 1180241819, "lat": 30.1175763, "lon": 31.6463263}, {"type": "node", "id": 1345666374, "lat": 30.0095689, "lon": 31.5812525}, {"type": "node", "id": 1345666396, "lat": 30.1158727, "lon": 31.6534521}, {"type": "node", "id": 1345666518, "lat": 30.0007985, "lon": 31.574777}, {"type": "node", "id": 1345666551, "lat": 30.0088149, "lon": 31.5806226}, {"type": "node", "id": 1676863095, "lat": 30.0481652, "lon": 31.407011}, {"type": "node", "id": 1677096570, "lat": 29.9256817, "lon": 31.5532174}, {"type": "node", "id": 1853280889, "lat": 30.0765063, "lon": 31.4340128}, {"type": "node", "id": 1928071873, "lat": 30.0377315, "lon": 31.2273111}, {"type": "node", "id": 1928072434, "lat": 30.0045561, "lon": 31.2238372}, {"type": "node", "id": 2372943275, "lat": 29.7483062, "lon": 31.9062825}, {"type": "node", "id": 2372943276, "lat": 29.7531396, "lon": 31.329991}, {"type": "node", "id": 2372943277, "lat": 29.7533367, "lon": 31.4642646}, {"type": "node", "id": 2372943278, "lat": 29.7533367, "lon": 31.7985}, {"type": "node", "id": 2372943279, "lat": 29.763494, "lon": 31.3071348}, {"type": "node", "id": 2372943280, "lat": 29.7639738, "lon": 31.5296141}, {"type": "node", "id": 2372943281, "lat": 29.769292, "lon": 31.7317891}, {"type": "node", "id": 2372943282, "lat": 29.9915076, "lon": 31.9090054}, {"type": "node", "id": 2372943288, "lat": 30.2295534, "lon": 31.8713494}, {"type": "node", "id": 3009315566, "lat": 30.1082043, "lon": 31.722667}, {"type": "node", "id": 3123731867, "lat": 30.1311783, "lon": 31.3075229}, {"type": "node", "id": 3123731868, "lat": 30.1553431, "lon": 31.3937649}, {"type": "node", "id": 3123731869, "lat": 30.1573987, "lon": 31.4121895}, {"type": "node", "id": 3123731870, "lat": 30.1584265, "lon": 31.4318028}, {"type": "node", "id": 3123731871, "lat": 30.1666484, "lon": 31.4835106}, {"type": "node", "id": 3123731872, "lat": 30.1721293, "lon": 31.5924734}, {"type": "node", "id": 3123731873, "lat": 30.1889127, "lon": 31.6158508}, {"type": "node", "id": 3123731874, "lat": 30.1979663, "lon": 31.630124}, {"type": "node", "id": 3123731879, "lat": 30.3209168, "lon": 31.8367932}, {"type": "node", "id": 3449824755, "lat": 29.9871733, "lon": 31.3694633}, {"type": "node", "id": 3449824780, "lat": 30.0073307, "lon": 31.3998361}, {"type": "node", "id": 3673973762, "lat": 30.1100361, "lon": 31.6861682}, {"type": "node", "id": 3673973766, "lat": 30.1097798, "lon": 31.6718316}, {"type": "node", "id": 3943458512, "lat": 29.9916034, "lon": 31.3802028}, {"type": "node", "id": 3943458516, "lat": 29.9967864, "lon": 31.3922525}, {"type": "node", "id": 3943492472, "lat": 29.9838483, "lon": 31.366794}, {"type": "node", "id": 3946894271, "lat": 30.0377523, "lon": 31.4044699}, {"type": "node", "id": 3946894410, "lat": 30.0561755, "lon": 31.4134491}, {"type": "node", "id": 3946903802, "lat": 30.0536011, "lon": 31.4113001}, {"type": "node", "id": 3971836227, "lat": 30.1901295, "lon": 31.4044387}, {"type": "node", "id": 4007608866, "lat": 30.0600314, "lon": 31.2262344}, {"type": "node", "id": 4315079521, "lat": 30.0865308, "lon": 31.4923589}, {"type": "node", "id": 4322362465, "lat": 30.0741087, "lon": 31.4320506}, {"type": "node", "id": 4324287381, "lat": 30.1636904, "lon": 31.3932355}, {"type": "node", "id": 4324296587, "lat": 30.1864805, "lon": 31.4039579}, {"type": "node", "id": 4324297410, "lat": 30.1885807, "lon": 31.4040846}, {"type": "node", "id": 4324297532, "lat": 30.1893342, "lon": 31.4085321}, {"type": "node", "id": 4324297555, "lat": 30.1894842, "lon": 31.4072113}, {"type": "node", "id": 4392756237, "lat": 30.093597, "lon": 31.5625838}, {"type": "node", "id": 4392756238, "lat": 30.0937466, "lon": 31.5629154}, {"type": "node", "id": 4392756240, "lat": 30.091704, "lon": 31.5577062}, {"type": "node", "id": 4392756245, "lat": 30.0936754, "lon": 31.5627485}, {"type": "node", "id": 4392756247, "lat": 30.0940683, "lon": 31.5635583}, {"type": "node", "id": 4392756250, "lat": 30.0944468, "lon": 31.5641708}, {"type": "node", "id": 4392756253, "lat": 30.0983759, "lon": 31.5696731}, {"type": "node", "id": 4392756256, "lat": 30.0984998, "lon": 31.5698754}, {"type": "node", "id": 4392756257, "lat": 30.0988469, "lon": 31.570501}, {"type": "node", "id": 4392756258, "lat": 30.1002184, "lon": 31.5746583}, {"type": "node", "id": 4392756261, "lat": 30.1046608, "lon": 31.5981712}, {"type": "node", "id": 4392756266, "lat": 30.0986186, "lon": 31.5700791}, {"type": "node", "id": 4392756267, "lat": 30.0992446, "lon": 31.5713777}, {"type": "node", "id": 4392756269, "lat": 30.1006742, "lon": 31.576276}, {"type": "node", "id": 4392756271, "lat": 30.1011458, "lon": 31.5781698}, {"type": "node", "id": 4392756273, "lat": 30.0989526, "lon": 31.5707158}, {"type": "node", "id": 4392756276, "lat": 30.0987336, "lon": 31.5702883}, {"type": "node", "id": 4392756286, "lat": 30.0995668, "lon": 31.5722932}, {"type": "node", "id": 4392756402, "lat": 30.1003981, "lon": 31.5753426}, {"type": "node", "id": 4392756403, "lat": 30.100539, "lon": 31.5758091}, {"type": "node", "id": 4392756406, "lat": 30.1009245, "lon": 31.5772178}, {"type": "node", "id": 4392756407, "lat": 30.1007996, "lon": 31.5767506}, {"type": "node", "id": 4392756408, "lat": 30.101036, "lon": 31.5776925}, {"type": "node", "id": 4714503773, "lat": 30.0659818, "lon": 31.897245}, {"type": "node", "id": 4899106915, "lat": 30.0594833, "lon": 31.4163844}, {"type": "node", "id": 4899106920, "lat": 30.0656079, "lon": 31.4224971}, {"type": "node", "id": 4899714158, "lat": 30.0442734, "lon": 31.7200101}, {"type": "node", "id": 4899714160, "lat": 29.9448979, "lon": 31.5781541}, {"type": "node", "id": 4899714161, "lat": 29.9246621, "lon": 31.5793962}, {"type": "node", "id": 5056591748, "lat": 29.9766201, "lon": 31.361899}, {"type": "node", "id": 5056591753, "lat": 29.9787055, "lon": 31.3603561}, {"type": "node", "id": 5056591781, "lat": 29.9793334, "lon": 31.3622483}, {"type": "node", "id": 5249993717, "lat": 30.0450544, "lon": 31.6153228}, {"type": "node", "id": 5250090200, "lat": 30.0399342, "lon": 31.6032249}, {"type": "node", "id": 5873095285, "lat": 30.0453315, "lon": 30.9797507, "tags": {"name": "\u0627\u0644\u0634\u064a\u062e \u0632\u0627\u064a\u062f", "name:ar": "\u0627\u0644\u0634\u064a\u062e \u0632\u0627\u064a\u062f", "name:ar-Latn": "A\u0161-\u0160ai\u1e2b Z\u0101yid", "name:arz": "\u0627\u0644\u0634\u064a\u062e \u0632\u0627\u064a\u062f", "name:de": "Asch-Schaich Zayid", "name:en": "Ash Sheikh Zayed", "name:fr": "Cheikh Zayed", "name:hr": "Madinad a\u0161 \u0160ajh Zajid", "name:ml": "\u0d37\u0d46\u0d2f\u0d4d\u0d16\u0d4d \u0d38\u0d3e\u0d2f\u0d3f\u0d26\u0d4d", "name:pl": "Asz-Szajch Zajid", "name:ru": "\u0428\u0435\u0439\u0445\u043e\u0432 \u0417\u0430\u0438\u0434", "name:uk": "\u0435\u0448-\u0428\u0435\u0439\u0445 \u0417\u0430\u0456\u0434", "name:ur": "\u0634\u06cc\u062e \u0632\u0627\u06cc\u062f", "official_name": "\u0645\u062f\u064a\u0646\u0629 \u0627\u0644\u0634\u064a\u062e \u0632\u0627\u064a\u062f", "official_name:ar": "\u0645\u062f\u064a\u0646\u0629 \u0627\u0644\u0634\u064a\u062e \u0632\u0627\u064a\u062f", "official_name:de": "Madinat asch-Schaich Zayid", "official_name:fr": "Ville de Cheikh Zayed", "official_name:pl": "Madinat asz-Szajch Zajid", "official_name:ur": "\u0634\u06cc\u062e \u0632\u0627\u06cc\u062f \u0634\u06c1\u0631", "place": "city", "population": "383000", "population:date": "2021", "wikidata": "Q4165945", "wikimedia_commons": "Category:Sheikh Zayed City", "wikipedia": "ar:\u0645\u062f\u064a\u0646\u0629 \u0627\u0644\u0634\u064a\u062e \u0632\u0627\u064a\u062f"}}, {"type": "node", "id": 6266744996, "lat": 30.1749921, "lon": 31.4181667}, {"type": "node", "id": 6266842155, "lat": 30.16754, "lon": 31.4125771}, {"type": "node", "id": 6266873456, "lat": 30.1746066, "lon": 31.4179025}, {"type": "node", "id": 6273285148, "lat": 30.1612321, "lon": 31.399367}, {"type": "node", "id": 6273321503, "lat": 30.1656946, "lon": 31.3945786}, {"type": "node", "id": 6273346835, "lat": 30.1606756, "lon": 31.4010434}, {"type": "node", "id": 6273346852, "lat": 30.1610733, "lon": 31.3997452}, {"type": "node", "id": 6297181810, "lat": 30.0615811, "lon": 31.418525}, {"type": "node", "id": 6400696874, "lat": 29.9334384, "lon": 31.5229511}, {"type": "node", "id": 6400700069, "lat": 29.9671042, "lon": 31.4690119}, {"type": "node", "id": 6400700098, "lat": 29.9668602, "lon": 31.4657396}, {"type": "node", "id": 6400700183, "lat": 29.9670461, "lon": 31.4702511}, {"type": "node", "id": 6442583012, "lat": 30.0086497, "lon": 31.5805045}, {"type": "node", "id": 6442583363, "lat": 30.0147229, "lon": 31.5874353}, {"type": "node", "id": 6449154485, "lat": 30.0056316, "lon": 31.5783027}, {"type": "node", "id": 6451500684, "lat": 29.9339129, "lon": 31.5221144}, {"type": "node", "id": 6620761129, "lat": 30.1791803, "lon": 31.4144985}, {"type": "node", "id": 6622154025, "lat": 29.8369772, "lon": 31.2912082}, {"type": "node", "id": 6625410933, "lat": 29.8008049, "lon": 31.2958431}, {"type": "node", "id": 6628889379, "lat": 30.1893424, "lon": 31.4103118}, {"type": "node", "id": 6628899393, "lat": 30.1738025, "lon": 31.3996806}, {"type": "node", "id": 6628899406, "lat": 30.1799776, "lon": 31.4034586}, {"type": "node", "id": 6628899412, "lat": 30.1838889, "lon": 31.4038274}, {"type": "node", "id": 6628899419, "lat": 30.1894218, "lon": 31.4041669}, {"type": "node", "id": 6635523202, "lat": 30.1653538, "lon": 31.4088279}, {"type": "node", "id": 6635523408, "lat": 30.1691928, "lon": 31.396754}, {"type": "node", "id": 6636267041, "lat": 30.0618514, "lon": 31.225698}, {"type": "node", "id": 6636267042, "lat": 30.0778029, "lon": 31.2260842}, {"type": "node", "id": 6636267043, "lat": 30.0730679, "lon": 31.2242389}, {"type": "node", "id": 6636457689, "lat": 30.0476248, "lon": 31.2300002}, {"type": "node", "id": 6636457693, "lat": 30.0907813, "lon": 31.2311482}, {"type": "node", "id": 6636457694, "lat": 30.0828348, "lon": 31.2285304}, {"type": "node", "id": 6636659753, "lat": 30.0329178, "lon": 31.2224203}, {"type": "node", "id": 6636824824, "lat": 30.0418063, "lon": 31.229673}, {"type": "node", "id": 6636824898, "lat": 30.0427676, "lon": 31.2298179}, {"type": "node", "id": 6636833847, "lat": 29.9852059, "lon": 31.2271356}, {"type": "node", "id": 6636833848, "lat": 29.9984009, "lon": 31.2266689}, {"type": "node", "id": 6639921602, "lat": 29.9435374, "lon": 31.2694502}, {"type": "node", "id": 6639921603, "lat": 29.9661259, "lon": 31.2345171}, {"type": "node", "id": 6640383258, "lat": 30.1581433, "lon": 31.4264666}, {"type": "node", "id": 6642301273, "lat": 29.9376524, "lon": 31.2745893}, {"type": "node", "id": 6694374549, "lat": 29.9638348, "lon": 31.478582}, {"type": "node", "id": 6924561136, "lat": 30.1899498, "lon": 31.4128277}, {"type": "node", "id": 6924561143, "lat": 30.1894745, "lon": 31.4114329}, {"type": "node", "id": 7051039464, "lat": 30.1593964, "lon": 31.4041106}, {"type": "node", "id": 7142955545, "lat": 30.1102652, "lon": 31.6931156}, {"type": "node", "id": 7142955546, "lat": 30.1099798, "lon": 31.6855444}, {"type": "node", "id": 7142955547, "lat": 30.1098476, "lon": 31.6781997}, {"type": "node", "id": 7142955548, "lat": 30.1097816, "lon": 31.6720029}, {"type": "node", "id": 7142955549, "lat": 30.1097823, "lon": 31.6716992}, {"type": "node", "id": 7142955557, "lat": 30.0867341, "lon": 31.5205107}, {"type": "node", "id": 7142955558, "lat": 30.0865894, "lon": 31.5196045}, {"type": "node", "id": 7142955559, "lat": 30.0842518, "lon": 31.5052217}, {"type": "node", "id": 7142955560, "lat": 30.084258, "lon": 31.5048637}, {"type": "node", "id": 7171848712, "lat": 30.0853965, "lon": 31.5387865}, {"type": "node", "id": 7171848713, "lat": 30.0857181, "lon": 31.5400525}, {"type": "node", "id": 7171848714, "lat": 30.0859415, "lon": 31.5408404}, {"type": "node", "id": 7171848715, "lat": 30.0863027, "lon": 31.5419147}, {"type": "node", "id": 7171848716, "lat": 30.0879977, "lon": 31.5468652}, {"type": "node", "id": 7171848717, "lat": 30.0883769, "lon": 31.5479853}, {"type": "node", "id": 7171848718, "lat": 30.0872257, "lon": 31.5446929}, {"type": "node", "id": 7171848719, "lat": 30.0890456, "lon": 31.5499356}, {"type": "node", "id": 7171848720, "lat": 30.0905553, "lon": 31.5544525}, {"type": "node", "id": 7171848721, "lat": 30.0925876, "lon": 31.5601562}, {"type": "node", "id": 7171848722, "lat": 30.0938219, "lon": 31.5630779}, {"type": "node", "id": 7171848723, "lat": 30.0939031, "lon": 31.563242}, {"type": "node", "id": 7171848724, "lat": 30.0939856, "lon": 31.5634004}, {"type": "node", "id": 7171848725, "lat": 30.0941597, "lon": 31.5637125}, {"type": "node", "id": 7171848726, "lat": 30.0942496, "lon": 31.5638684}, {"type": "node", "id": 7171848727, "lat": 30.0943391, "lon": 31.5640144}, {"type": "node", "id": 7171848728, "lat": 30.0990532, "lon": 31.5709332}, {"type": "node", "id": 7171848729, "lat": 30.09915, "lon": 31.5711521}, {"type": "node", "id": 7171848730, "lat": 30.0993305, "lon": 31.5716015}, {"type": "node", "id": 7171848731, "lat": 30.0994154, "lon": 31.5718311}, {"type": "node", "id": 7171848732, "lat": 30.0994932, "lon": 31.5720592}, {"type": "node", "id": 7171848733, "lat": 30.101247, "lon": 31.5786506}, {"type": "node", "id": 7171848734, "lat": 30.1013385, "lon": 31.5791293}, {"type": "node", "id": 7171848735, "lat": 30.1032049, "lon": 31.5891026}, {"type": "node", "id": 7171848736, "lat": 30.1042364, "lon": 31.5953617}, {"type": "node", "id": 7171848737, "lat": 30.1043438, "lon": 31.5961}, {"type": "node", "id": 7171848739, "lat": 30.1056517, "lon": 31.604579}, {"type": "node", "id": 7171848740, "lat": 30.1057245, "lon": 31.6048465}, {"type": "node", "id": 7171848882, "lat": 30.0847557, "lon": 31.5311934}, {"type": "node", "id": 7171848883, "lat": 30.0847028, "lon": 31.5314395}, {"type": "node", "id": 7171848884, "lat": 30.0846563, "lon": 31.5316874}, {"type": "node", "id": 7171848885, "lat": 30.0846169, "lon": 31.5319353}, {"type": "node", "id": 7171848886, "lat": 30.0845867, "lon": 31.532188}, {"type": "node", "id": 7171848887, "lat": 30.0845644, "lon": 31.5324399}, {"type": "node", "id": 7171848888, "lat": 30.0845449, "lon": 31.5326961}, {"type": "node", "id": 7171848889, "lat": 30.0845288, "lon": 31.5329472}, {"type": "node", "id": 7171848890, "lat": 30.0845276, "lon": 31.5332011}, {"type": "node", "id": 7171848891, "lat": 30.0845307, "lon": 31.5334552}, {"type": "node", "id": 7171848892, "lat": 30.0845368, "lon": 31.5337099}, {"type": "node", "id": 7171848894, "lat": 30.0845868, "lon": 31.534215}, {"type": "node", "id": 7171848895, "lat": 30.0846206, "lon": 31.5344688}, {"type": "node", "id": 7171848897, "lat": 30.0852652, "lon": 31.5381635}, {"type": "node", "id": 7171848916, "lat": 30.1053347, "lon": 31.6029407}, {"type": "node", "id": 7171848917, "lat": 30.1053746, "lon": 31.6032175}, {"type": "node", "id": 7171848918, "lat": 30.1054159, "lon": 31.6034937}, {"type": "node", "id": 7171848919, "lat": 30.1054652, "lon": 31.6037681}, {"type": "node", "id": 7171848920, "lat": 30.1055214, "lon": 31.6040379}, {"type": "node", "id": 7171848921, "lat": 30.1055828, "lon": 31.604311}, {"type": "node", "id": 7171848922, "lat": 30.1058017, "lon": 31.6051076}, {"type": "node", "id": 7171848924, "lat": 30.1067183, "lon": 31.6077171}, {"type": "node", "id": 7201118840, "lat": 30.1899324, "lon": 31.4144706}, {"type": "node", "id": 7203492440, "lat": 30.0816852, "lon": 31.3447578}, {"type": "node", "id": 7216583023, "lat": 30.1107972, "lon": 31.6665322}, {"type": "node", "id": 7216583024, "lat": 30.1106556, "lon": 31.6667762}, {"type": "node", "id": 7216583025, "lat": 30.1105242, "lon": 31.6670276}, {"type": "node", "id": 7216583026, "lat": 30.1107251, "lon": 31.6666532}, {"type": "node", "id": 7216583027, "lat": 30.1108716, "lon": 31.6664132}, {"type": "node", "id": 7216583028, "lat": 30.1099179, "lon": 31.668957}, {"type": "node", "id": 7216583029, "lat": 30.1099395, "lon": 31.668799}, {"type": "node", "id": 7216583030, "lat": 30.1104624, "lon": 31.667156}, {"type": "node", "id": 7216583031, "lat": 30.1103296, "lon": 31.6674367}, {"type": "node", "id": 7216583032, "lat": 30.110394, "lon": 31.667295}, {"type": "node", "id": 7216583033, "lat": 30.1102693, "lon": 31.6675808}, {"type": "node", "id": 7216583034, "lat": 30.1101612, "lon": 31.6678753}, {"type": "node", "id": 7216583035, "lat": 30.1101134, "lon": 31.6680255}, {"type": "node", "id": 7216583036, "lat": 30.1100699, "lon": 31.6681774}, {"type": "node", "id": 7216583037, "lat": 30.1100307, "lon": 31.6683308}, {"type": "node", "id": 7216583038, "lat": 30.1099959, "lon": 31.6684857}, {"type": "node", "id": 7216583039, "lat": 30.1099009, "lon": 31.6691158}, {"type": "node", "id": 7216583040, "lat": 30.1098884, "lon": 31.6692752}, {"type": "node", "id": 7216583041, "lat": 30.1109485, "lon": 31.6662962}, {"type": "node", "id": 7216583042, "lat": 30.1102132, "lon": 31.667727}, {"type": "node", "id": 7216583043, "lat": 30.1131471, "lon": 31.6627291}, {"type": "node", "id": 7216583044, "lat": 30.1128969, "lon": 31.6631677}, {"type": "node", "id": 7216583045, "lat": 30.1137634, "lon": 31.6612122}, {"type": "node", "id": 7216583046, "lat": 30.1137282, "lon": 31.6613478}, {"type": "node", "id": 7216583047, "lat": 30.1137087, "lon": 31.661415}, {"type": "node", "id": 7216583048, "lat": 30.113666, "lon": 31.6615477}, {"type": "node", "id": 7216583049, "lat": 30.1136427, "lon": 31.6616132}, {"type": "node", "id": 7216583050, "lat": 30.1136183, "lon": 31.6616781}, {"type": "node", "id": 7216583051, "lat": 30.113688, "lon": 31.6614816}, {"type": "node", "id": 7216583052, "lat": 30.1137464, "lon": 31.6612802}, {"type": "node", "id": 7216583053, "lat": 30.1175982, "lon": 31.6469385}, {"type": "node", "id": 7216583054, "lat": 30.1175946, "lon": 31.6470091}, {"type": "node", "id": 7216583055, "lat": 30.1175829, "lon": 31.6471508}, {"type": "node", "id": 7216583056, "lat": 30.1175734, "lon": 31.647222}, {"type": "node", "id": 7216583057, "lat": 30.1175632, "lon": 31.6472882}, {"type": "node", "id": 7216583058, "lat": 30.1174357, "lon": 31.6450251}, {"type": "node", "id": 7216583059, "lat": 30.1174595, "lon": 31.6451348}, {"type": "node", "id": 7216583060, "lat": 30.1175051, "lon": 31.6453735}, {"type": "node", "id": 7216583061, "lat": 30.1175221, "lon": 31.645486}, {"type": "node", "id": 7216583062, "lat": 30.1175369, "lon": 31.6456031}, {"type": "node", "id": 7216583063, "lat": 30.1175601, "lon": 31.6458408}, {"type": "node", "id": 7216583064, "lat": 30.1175677, "lon": 31.6459592}, {"type": "node", "id": 7216583065, "lat": 30.1175713, "lon": 31.6460785}, {"type": "node", "id": 7216583066, "lat": 30.1175473, "lon": 31.6473625}, {"type": "node", "id": 7216583067, "lat": 30.1175899, "lon": 31.647082}, {"type": "node", "id": 7216583068, "lat": 30.1175968, "lon": 31.6468687}, {"type": "node", "id": 7216583069, "lat": 30.1174099, "lon": 31.6480283}, {"type": "node", "id": 7216583070, "lat": 30.117574, "lon": 31.6462058}, {"type": "node", "id": 7216583071, "lat": 30.1174828, "lon": 31.6452527}, {"type": "node", "id": 7216583072, "lat": 30.1163194, "lon": 31.6398429}, {"type": "node", "id": 7216583073, "lat": 30.1155283, "lon": 31.6361333}, {"type": "node", "id": 7216583074, "lat": 30.1140281, "lon": 31.6263196}, {"type": "node", "id": 7216583075, "lat": 30.1141017, "lon": 31.6265454}, {"type": "node", "id": 7216583076, "lat": 30.1141363, "lon": 31.6266553}, {"type": "node", "id": 7216583077, "lat": 30.1142055, "lon": 31.6268913}, {"type": "node", "id": 7216583078, "lat": 30.1142586, "lon": 31.6271193}, {"type": "node", "id": 7216583079, "lat": 30.114281, "lon": 31.6272409}, {"type": "node", "id": 7216583080, "lat": 30.1139874, "lon": 31.6262102}, {"type": "node", "id": 7216583081, "lat": 30.1139287, "lon": 31.6260795}, {"type": "node", "id": 7216583082, "lat": 30.1140677, "lon": 31.6264297}, {"type": "node", "id": 7216583083, "lat": 30.1141727, "lon": 31.6267724}, {"type": "node", "id": 7216583084, "lat": 30.1142335, "lon": 31.627002}, {"type": "node", "id": 7216583085, "lat": 30.1142983, "lon": 31.6273609}, {"type": "node", "id": 7216583086, "lat": 30.1106761, "lon": 31.6192902}, {"type": "node", "id": 7216583087, "lat": 30.1108193, "lon": 31.6196691}, {"type": "node", "id": 7216583088, "lat": 30.1109677, "lon": 31.6200454}, {"type": "node", "id": 7216583089, "lat": 30.1111185, "lon": 31.6204154}, {"type": "node", "id": 7216583090, "lat": 30.1114415, "lon": 31.6211561}, {"type": "node", "id": 7216583091, "lat": 30.1116114, "lon": 31.6215156}, {"type": "node", "id": 7216583092, "lat": 30.1117805, "lon": 31.621879}, {"type": "node", "id": 7216583093, "lat": 30.111958, "lon": 31.6222372}, {"type": "node", "id": 7216583094, "lat": 30.1121979, "lon": 31.6227124}, {"type": "node", "id": 7216583095, "lat": 30.1123151, "lon": 31.6229471}, {"type": "node", "id": 7216583096, "lat": 30.1124473, "lon": 31.6231883}, {"type": "node", "id": 7216583097, "lat": 30.1125131, "lon": 31.6233021}, {"type": "node", "id": 7216583098, "lat": 30.1123784, "lon": 31.6230673}, {"type": "node", "id": 7216583099, "lat": 30.1122591, "lon": 31.6228322}, {"type": "node", "id": 7216583100, "lat": 30.1121372, "lon": 31.6225934}, {"type": "node", "id": 7216583101, "lat": 30.1138924, "lon": 31.6259895}, {"type": "node", "id": 7216583102, "lat": 30.1133156, "lon": 31.6247815}, {"type": "node", "id": 7216583103, "lat": 30.1112736, "lon": 31.6207863}, {"type": "node", "id": 7216583104, "lat": 30.1102823, "lon": 31.6181406}, {"type": "node", "id": 7216583105, "lat": 30.1098589, "lon": 31.6168956}, {"type": "node", "id": 7216583108, "lat": 30.1098739, "lon": 31.6696284}, {"type": "node", "id": 7220555891, "lat": 30.1877751, "lon": 31.4147508}, {"type": "node", "id": 7222700058, "lat": 29.9811774, "lon": 31.3650012}, {"type": "node", "id": 7222700059, "lat": 29.9807755, "lon": 31.3645506}, {"type": "node", "id": 7222700060, "lat": 29.9802504, "lon": 31.3638237}, {"type": "node", "id": 7222700061, "lat": 29.9799646, "lon": 31.3633865}, {"type": "node", "id": 7222700062, "lat": 29.979723, "lon": 31.3629413}, {"type": "node", "id": 7245012595, "lat": 30.1098775, "lon": 31.6810086}, {"type": "node", "id": 7247493227, "lat": 29.9649268, "lon": 31.2351018}, {"type": "node", "id": 7504488881, "lat": 30.0316211, "lon": 31.2218109}, {"type": "node", "id": 7737518452, "lat": 30.1683398, "lon": 31.4117201}, {"type": "node", "id": 7750128586, "lat": 30.1874611, "lon": 31.4147542}, {"type": "node", "id": 7750128589, "lat": 30.1881315, "lon": 31.4147286}, {"type": "node", "id": 7750128590, "lat": 30.1854833, "lon": 31.4146855}, {"type": "node", "id": 8204872195, "lat": 30.0180602, "lon": 31.5920091}, {"type": "node", "id": 8204872196, "lat": 30.0192589, "lon": 31.5935477}, {"type": "node", "id": 8204872197, "lat": 30.0198181, "lon": 31.5941774}, {"type": "node", "id": 8204872198, "lat": 30.0204353, "lon": 31.5948018}, {"type": "node", "id": 8204872199, "lat": 30.0207696, "lon": 31.5952121}, {"type": "node", "id": 8204872200, "lat": 30.0215017, "lon": 31.595821}, {"type": "node", "id": 8204872201, "lat": 30.0222533, "lon": 31.5964352}, {"type": "node", "id": 8204872202, "lat": 30.0228766, "lon": 31.5968836}, {"type": "node", "id": 8204872203, "lat": 30.023345, "lon": 31.5971797}, {"type": "node", "id": 8204872204, "lat": 30.0240714, "lon": 31.5976215}, {"type": "node", "id": 8204872205, "lat": 30.0247045, "lon": 31.5980154}, {"type": "node", "id": 8204872206, "lat": 30.0257687, "lon": 31.5985086}, {"type": "node", "id": 8204872207, "lat": 30.0271635, "lon": 31.5990773}, {"type": "node", "id": 8204872208, "lat": 30.0276228, "lon": 31.5992028}, {"type": "node", "id": 8204872209, "lat": 30.0311003, "lon": 31.5998714}, {"type": "node", "id": 8204872210, "lat": 30.0324019, "lon": 31.6001581}, {"type": "node", "id": 8204872211, "lat": 30.0335801, "lon": 31.600347}, {"type": "node", "id": 8204872212, "lat": 30.0341511, "lon": 31.6004453}, {"type": "node", "id": 8204872213, "lat": 30.0346757, "lon": 31.6005764}, {"type": "node", "id": 8204872214, "lat": 30.0368815, "lon": 31.6013836}, {"type": "node", "id": 8204872215, "lat": 30.0381916, "lon": 31.6020445}, {"type": "node", "id": 8204872216, "lat": 30.0389848, "lon": 31.6025242}, {"type": "node", "id": 8204913017, "lat": 30.0410158, "lon": 31.6040056}, {"type": "node", "id": 8204913018, "lat": 30.0447796, "lon": 31.6067148}, {"type": "node", "id": 8204913019, "lat": 30.0121863, "lon": 31.583841}, {"type": "node", "id": 8204913020, "lat": 30.0108574, "lon": 31.5823804}, {"type": "node", "id": 8204913021, "lat": 30.0130873, "lon": 31.5850559}, {"type": "node", "id": 8204913022, "lat": 30.0165226, "lon": 31.5898885}, {"type": "node", "id": 8230989294, "lat": 30.0316317, "lon": 31.2218142}, {"type": "node", "id": 8308471906, "lat": 29.9633106, "lon": 31.4580054}, {"type": "node", "id": 8778966532, "lat": 29.9637695, "lon": 31.4091512}, {"type": "node", "id": 10099454576, "lat": 29.9154093, "lon": 31.2972927}, {"type": "node", "id": 10099454577, "lat": 29.9151697, "lon": 31.2964958}, {"type": "node", "id": 10099454578, "lat": 29.9120264, "lon": 31.2978943}, {"type": "node", "id": 10099454579, "lat": 29.9106733, "lon": 31.2999759}, {"type": "node", "id": 10099454580, "lat": 29.9089394, "lon": 31.3034234}, {"type": "node", "id": 10099454581, "lat": 29.9076426, "lon": 31.3056513}, {"type": "node", "id": 10099454582, "lat": 29.9045273, "lon": 31.3076352}, {"type": "node", "id": 10099454583, "lat": 29.9003405, "lon": 31.3099932}, {"type": "node", "id": 10099454584, "lat": 29.8952935, "lon": 31.3157987}, {"type": "node", "id": 10099454585, "lat": 29.893362, "lon": 31.3189047}, {"type": "node", "id": 10099454586, "lat": 29.8891607, "lon": 31.3243199}, {"type": "node", "id": 10099454587, "lat": 29.8835491, "lon": 31.3279138}, {"type": "node", "id": 10099454588, "lat": 29.8796857, "lon": 31.3297676}, {"type": "node", "id": 10099454589, "lat": 29.8761747, "lon": 31.3370204}, {"type": "node", "id": 10099454590, "lat": 29.8702381, "lon": 31.3502901}, {"type": "node", "id": 10099454591, "lat": 29.8640897, "lon": 31.3595919}, {"type": "node", "id": 10099454592, "lat": 29.8604653, "lon": 31.3620474}, {"type": "node", "id": 10099454593, "lat": 29.8562343, "lon": 31.3619011}, {"type": "node", "id": 10099454594, "lat": 29.8520595, "lon": 31.3601448}, {"type": "node", "id": 10099454595, "lat": 29.847532, "lon": 31.3583885}, {"type": "node", "id": 10099454596, "lat": 29.8452188, "lon": 31.358047}, {"type": "node", "id": 10099454597, "lat": 29.8387144, "lon": 31.3569161}, {"type": "node", "id": 10099454598, "lat": 29.8316488, "lon": 31.3550548}, {"type": "node", "id": 10099454599, "lat": 29.824327, "lon": 31.353201}, {"type": "node", "id": 10099454600, "lat": 29.8176536, "lon": 31.3514122}, {"type": "node", "id": 10099454601, "lat": 29.811135, "lon": 31.3504527}, {"type": "node", "id": 10099454602, "lat": 29.8046725, "lon": 31.3500787}, {"type": "node", "id": 10099454603, "lat": 29.7997054, "lon": 31.3495583}, {"type": "node", "id": 10099454604, "lat": 29.7946392, "lon": 31.348794}, {"type": "node", "id": 10099454605, "lat": 29.7915062, "lon": 31.3471841}, {"type": "node", "id": 10099454606, "lat": 29.7914357, "lon": 31.350534}, {"type": "node", "id": 10099454607, "lat": 29.7899397, "lon": 31.3598033}, {"type": "node", "id": 10099454608, "lat": 29.7902078, "lon": 31.3716582}, {"type": "node", "id": 10099454609, "lat": 29.7902502, "lon": 31.3763254}, {"type": "node", "id": 10099454610, "lat": 29.7949355, "lon": 31.3759513}, {"type": "node", "id": 10099454611, "lat": 29.7979132, "lon": 31.37587}, {"type": "node", "id": 10099454612, "lat": 29.7978144, "lon": 31.382635}, {"type": "node", "id": 10099454613, "lat": 29.7975604, "lon": 31.3961648}, {"type": "node", "id": 10099454614, "lat": 29.8029368, "lon": 31.3958721}, {"type": "node", "id": 10099454615, "lat": 29.809202, "lon": 31.3953355}, {"type": "node", "id": 10099454616, "lat": 29.8235792, "lon": 31.4028973}, {"type": "node", "id": 10099456517, "lat": 29.8235651, "lon": 31.4124755}, {"type": "node", "id": 10099456518, "lat": 29.8269933, "lon": 31.4136789}, {"type": "node", "id": 10099456519, "lat": 29.8347664, "lon": 31.4120527}, {"type": "node", "id": 10099456520, "lat": 29.8437095, "lon": 31.4112071}, {"type": "node", "id": 10099456521, "lat": 29.84969, "lon": 31.4106867}, {"type": "node", "id": 10099456522, "lat": 29.8562343, "lon": 31.4102314}, {"type": "node", "id": 10099456523, "lat": 29.8621012, "lon": 31.409402}, {"type": "node", "id": 10099456524, "lat": 29.8674319, "lon": 31.4092557}, {"type": "node", "id": 10099456525, "lat": 29.8733404, "lon": 31.4092882}, {"type": "node", "id": 10099456526, "lat": 29.8826044, "lon": 31.4090605}, {"type": "node", "id": 10099456527, "lat": 29.8876098, "lon": 31.4090768}, {"type": "node", "id": 10099456528, "lat": 29.8877226, "lon": 31.3990269}, {"type": "node", "id": 10099456529, "lat": 29.888075, "lon": 31.3877575}, {"type": "node", "id": 10099456530, "lat": 29.8884698, "lon": 31.3785532}, {"type": "node", "id": 10099456531, "lat": 29.888498, "lon": 31.3744065}, {"type": "node", "id": 10099456532, "lat": 29.8937991, "lon": 31.3741951}, {"type": "node", "id": 10099456533, "lat": 29.9006224, "lon": 31.3740324}, {"type": "node", "id": 10099456534, "lat": 29.9082346, "lon": 31.3736422}, {"type": "node", "id": 10099456535, "lat": 29.9083615, "lon": 31.3673325}, {"type": "node", "id": 10099456536, "lat": 29.9085448, "lon": 31.3585349}, {"type": "node", "id": 10099456537, "lat": 29.9089676, "lon": 31.3515423}, {"type": "node", "id": 10099456538, "lat": 29.9091791, "lon": 31.3438667}, {"type": "node", "id": 10099456539, "lat": 29.909602, "lon": 31.3325972}, {"type": "node", "id": 10099456540, "lat": 29.9136051, "lon": 31.3331176}, {"type": "node", "id": 10099456541, "lat": 29.9145073, "lon": 31.3348088}, {"type": "node", "id": 10099456542, "lat": 29.9162832, "lon": 31.3345486}, {"type": "node", "id": 10099456543, "lat": 29.9162128, "lon": 31.3244337}, {"type": "node", "id": 10099456544, "lat": 29.917023, "lon": 31.3197364}, {"type": "node", "id": 10099456545, "lat": 29.9166497, "lon": 31.3143676}, {"type": "node", "id": 10099456546, "lat": 29.9164806, "lon": 31.3088711}, {"type": "node", "id": 10099456547, "lat": 29.9157194, "lon": 31.2995531}, {"type": "node", "id": 11049420741, "lat": 30.1899493, "lon": 31.4133857}, {"type": "node", "id": 11612575114, "lat": 30.0776335, "lon": 31.3129344}, {"type": "node", "id": 11612575115, "lat": 30.0740075, "lon": 31.3156286}, {"type": "node", "id": 11612575116, "lat": 30.0699946, "lon": 31.3184487}, {"type": "node", "id": 11612575117, "lat": 30.0671314, "lon": 31.3195051}, {"type": "node", "id": 11612575118, "lat": 30.0634407, "lon": 31.3214132}, {"type": "node", "id": 11612575119, "lat": 30.0600811, "lon": 31.3234772}, {"type": "node", "id": 11612575120, "lat": 30.0583515, "lon": 31.3238526}, {"type": "node", "id": 11612575121, "lat": 30.0556248, "lon": 31.3242763}, {"type": "node", "id": 11612575122, "lat": 30.0530297, "lon": 31.3246386}, {"type": "node", "id": 11612575123, "lat": 30.0520519, "lon": 31.3248896}, {"type": "node", "id": 11612575124, "lat": 30.0521912, "lon": 31.3259981}, {"type": "node", "id": 11612575125, "lat": 30.0522583, "lon": 31.3269863}, {"type": "node", "id": 11612575126, "lat": 30.0514723, "lon": 31.3272018}, {"type": "node", "id": 11612575127, "lat": 30.0505296, "lon": 31.3274152}, {"type": "node", "id": 11612575128, "lat": 30.0496378, "lon": 31.3276112}, {"type": "node", "id": 11612575129, "lat": 30.04845, "lon": 31.3278905}, {"type": "node", "id": 11612575130, "lat": 30.0477167, "lon": 31.3280361}, {"type": "node", "id": 11612575131, "lat": 30.0469037, "lon": 31.3281946}, {"type": "node", "id": 11612575132, "lat": 30.0461986, "lon": 31.328375}, {"type": "node", "id": 11612575133, "lat": 30.0452482, "lon": 31.3286283}, {"type": "node", "id": 11612575134, "lat": 30.0441458, "lon": 31.3288488}, {"type": "node", "id": 11612575135, "lat": 30.0432565, "lon": 31.3290457}, {"type": "node", "id": 11612575136, "lat": 30.0422466, "lon": 31.3292867}, {"type": "node", "id": 11612575137, "lat": 30.0407536, "lon": 31.3295649}, {"type": "node", "id": 11612575138, "lat": 30.04047, "lon": 31.3296214}, {"type": "node", "id": 11612575139, "lat": 30.0397943, "lon": 31.3287648}, {"type": "node", "id": 11612575140, "lat": 30.0391586, "lon": 31.3279396}, {"type": "node", "id": 11612575141, "lat": 30.0389466, "lon": 31.3276321}, {"type": "node", "id": 11612575142, "lat": 30.0380912, "lon": 31.3284245}, {"type": "node", "id": 11612575143, "lat": 30.0372592, "lon": 31.3291911}, {"type": "node", "id": 11612575144, "lat": 30.0365727, "lon": 31.3298031}, {"type": "node", "id": 11612575145, "lat": 30.0358551, "lon": 31.3304378}, {"type": "node", "id": 11612575146, "lat": 30.0348248, "lon": 31.3311052}, {"type": "node", "id": 11612575147, "lat": 30.0340673, "lon": 31.3316582}, {"type": "node", "id": 11612575148, "lat": 30.0335142, "lon": 31.3321807}, {"type": "node", "id": 11612575149, "lat": 30.0328375, "lon": 31.332933}, {"type": "node", "id": 11612575150, "lat": 30.0322852, "lon": 31.3337292}, {"type": "node", "id": 11612575151, "lat": 30.0317868, "lon": 31.334555}, {"type": "node", "id": 11612575152, "lat": 30.0315917, "lon": 31.3348601}, {"type": "node", "id": 11612575153, "lat": 30.0314329, "lon": 31.3350271}, {"type": "node", "id": 11612575154, "lat": 30.0310225, "lon": 31.3351201}, {"type": "node", "id": 11612575155, "lat": 30.0297153, "lon": 31.3352513}, {"type": "node", "id": 11612575156, "lat": 30.0286403, "lon": 31.3355115}, {"type": "node", "id": 11612575157, "lat": 30.0276921, "lon": 31.3357379}, {"type": "node", "id": 11612575158, "lat": 30.0264539, "lon": 31.3360585}, {"type": "node", "id": 11612575159, "lat": 30.0256537, "lon": 31.3362577}, {"type": "node", "id": 11612575160, "lat": 30.0244572, "lon": 31.3365748}, {"type": "node", "id": 11612575161, "lat": 30.0236484, "lon": 31.3367846}, {"type": "node", "id": 11612575162, "lat": 30.0226008, "lon": 31.3370615}, {"type": "node", "id": 11612575163, "lat": 30.0218304, "lon": 31.3372528}, {"type": "node", "id": 11612575164, "lat": 30.020923, "lon": 31.3375484}, {"type": "node", "id": 11612575165, "lat": 30.0198763, "lon": 31.3378616}, {"type": "node", "id": 11612575166, "lat": 30.0193049, "lon": 31.3380452}, {"type": "node", "id": 11612575167, "lat": 30.0184704, "lon": 31.3382465}, {"type": "node", "id": 11612575168, "lat": 30.0151518, "lon": 31.3395018}, {"type": "node", "id": 11612611518, "lat": 30.0791284, "lon": 31.4345304}, {"type": "node", "id": 11612611519, "lat": 30.0785715, "lon": 31.428137}, {"type": "node", "id": 11612611520, "lat": 30.0784041, "lon": 31.4255955}, {"type": "node", "id": 11612611521, "lat": 30.0785182, "lon": 31.4231863}, {"type": "node", "id": 11612611522, "lat": 30.0790331, "lon": 31.4207474}, {"type": "node", "id": 11612611523, "lat": 30.0800164, "lon": 31.4166145}, {"type": "node", "id": 11612611524, "lat": 30.0806336, "lon": 31.413314}, {"type": "node", "id": 11612611525, "lat": 30.0808662, "lon": 31.4103742}, {"type": "node", "id": 11612611526, "lat": 30.0809343, "lon": 31.4067654}, {"type": "node", "id": 11612611527, "lat": 30.0807217, "lon": 31.4030774}, {"type": "node", "id": 11612611528, "lat": 30.0804959, "lon": 31.3994916}, {"type": "node", "id": 11612611529, "lat": 30.0801979, "lon": 31.3947957}, {"type": "node", "id": 11612611530, "lat": 30.0798674, "lon": 31.3897912}, {"type": "node", "id": 11612611531, "lat": 30.0794913, "lon": 31.3839739}, {"type": "node", "id": 11612611532, "lat": 30.0785583, "lon": 31.3786582}, {"type": "node", "id": 11612611533, "lat": 30.0782629, "lon": 31.3762669}, {"type": "node", "id": 11612611534, "lat": 30.0787171, "lon": 31.3713825}, {"type": "node", "id": 11612611535, "lat": 30.0794337, "lon": 31.3643333}, {"type": "node", "id": 11612611536, "lat": 30.0802147, "lon": 31.3587105}, {"type": "node", "id": 11612611537, "lat": 30.0808996, "lon": 31.3516938}, {"type": "node", "id": 11612611538, "lat": 30.0813582, "lon": 31.3468277}, {"type": "node", "id": 11612611539, "lat": 30.0817069, "lon": 31.3445051}, {"type": "node", "id": 11612611540, "lat": 30.0830514, "lon": 31.3416438}, {"type": "node", "id": 11612611541, "lat": 30.084446, "lon": 31.3387371}, {"type": "node", "id": 11612611542, "lat": 30.0858398, "lon": 31.3358566}, {"type": "node", "id": 11612611543, "lat": 30.0864727, "lon": 31.3344929}, {"type": "node", "id": 11612611544, "lat": 30.0849553, "lon": 31.3330202}, {"type": "node", "id": 11612611545, "lat": 30.0845187, "lon": 31.3299349}, {"type": "node", "id": 11612611546, "lat": 30.0841901, "lon": 31.3276198}, {"type": "node", "id": 11612611547, "lat": 30.0840293, "lon": 31.3258647}, {"type": "node", "id": 11612611548, "lat": 30.0845761, "lon": 31.3243457}, {"type": "node", "id": 11612611549, "lat": 30.0848354, "lon": 31.3238021}, {"type": "node", "id": 11612611550, "lat": 30.0831615, "lon": 31.320839}, {"type": "node", "id": 11612611551, "lat": 30.0812632, "lon": 31.3178299}, {"type": "node", "id": 11612611552, "lat": 30.079669, "lon": 31.3158698}, {"type": "node", "id": 11612611553, "lat": 30.0780152, "lon": 31.3136103}, {"type": "node", "id": 11612611554, "lat": 30.0777836, "lon": 31.3132729}, {"type": "node", "id": 11612611555, "lat": 30.0739509, "lon": 31.3161261}, {"type": "node", "id": 11612611556, "lat": 30.0719837, "lon": 31.3175864}, {"type": "node", "id": 11612611557, "lat": 30.0701367, "lon": 31.3188977}, {"type": "node", "id": 11612611558, "lat": 30.0695138, "lon": 31.3192935}, {"type": "node", "id": 11612611559, "lat": 30.0670489, "lon": 31.3201768}, {"type": "node", "id": 11612611560, "lat": 30.065661, "lon": 31.3207722}, {"type": "node", "id": 11612611561, "lat": 30.0628672, "lon": 31.322397}, {"type": "node", "id": 11612611562, "lat": 30.0603771, "lon": 31.3238344}, {"type": "node", "id": 11612611563, "lat": 30.0590633, "lon": 31.3241382}, {"type": "node", "id": 11612611565, "lat": 30.053014, "lon": 31.3250972}, {"type": "node", "id": 11612611566, "lat": 30.0528298, "lon": 31.3251262}, {"type": "node", "id": 11612611567, "lat": 30.0525873, "lon": 31.3254132}, {"type": "node", "id": 11612611568, "lat": 30.0526042, "lon": 31.3258836}, {"type": "node", "id": 11612611869, "lat": 30.0526785, "lon": 31.3266278}, {"type": "node", "id": 11612611870, "lat": 30.0527847, "lon": 31.3272972}, {"type": "node", "id": 11612611871, "lat": 30.0521987, "lon": 31.327353}, {"type": "node", "id": 11612611872, "lat": 30.0510161, "lon": 31.3276101}, {"type": "node", "id": 11612611873, "lat": 30.0497348, "lon": 31.3279076}, {"type": "node", "id": 11612611874, "lat": 30.0475467, "lon": 31.3284128}, {"type": "node", "id": 11612611875, "lat": 30.0455863, "lon": 31.3288656}, {"type": "node", "id": 11612611876, "lat": 30.0441439, "lon": 31.3291928}, {"type": "node", "id": 11612611877, "lat": 30.042982, "lon": 31.3294571}, {"type": "node", "id": 11612611878, "lat": 30.0419046, "lon": 31.3297171}, {"type": "node", "id": 11612611879, "lat": 30.0380003, "lon": 31.3320617}, {"type": "node", "id": 11612611880, "lat": 30.0365126, "lon": 31.3302385}, {"type": "node", "id": 11612611881, "lat": 30.0363238, "lon": 31.3303933}, {"type": "node", "id": 11612611882, "lat": 30.0354103, "lon": 31.3310691}, {"type": "node", "id": 11612611883, "lat": 30.0344733, "lon": 31.3317861}, {"type": "node", "id": 11612611884, "lat": 30.03361, "lon": 31.3325084}, {"type": "node", "id": 11612611885, "lat": 30.0327954, "lon": 31.3334784}, {"type": "node", "id": 11612611886, "lat": 30.032339, "lon": 31.3342732}, {"type": "node", "id": 11612611887, "lat": 30.0319719, "lon": 31.3351376}, {"type": "node", "id": 11612611888, "lat": 30.0305055, "lon": 31.3353268}, {"type": "node", "id": 11612611889, "lat": 30.0282107, "lon": 31.3358576}, {"type": "node", "id": 11612611890, "lat": 30.0220117, "lon": 31.3375442}, {"type": "node", "id": 11612611891, "lat": 30.0200832, "lon": 31.338069}, {"type": "node", "id": 11612611892, "lat": 30.0166244, "lon": 31.3395626}, {"type": "node", "id": 11612611893, "lat": 30.0150793, "lon": 31.340325}, {"type": "node", "id": 11612611894, "lat": 30.0109517, "lon": 31.3419735}, {"type": "node", "id": 11612611895, "lat": 30.0100454, "lon": 31.3412967}, {"type": "node", "id": 11612611896, "lat": 30.0095929, "lon": 31.3405123}, {"type": "node", "id": 11612611897, "lat": 30.0096457, "lon": 31.3435519}, {"type": "node", "id": 11612611898, "lat": 30.0096164, "lon": 31.3461195}, {"type": "node", "id": 11612611899, "lat": 30.0096636, "lon": 31.3489258}, {"type": "node", "id": 11612611900, "lat": 30.0067174, "lon": 31.350033}, {"type": "node", "id": 11612611901, "lat": 30.0040438, "lon": 31.3511073}, {"type": "node", "id": 11612611902, "lat": 30.0050069, "lon": 31.354288}, {"type": "node", "id": 11612611903, "lat": 30.0081947, "lon": 31.3570464}, {"type": "node", "id": 11612611904, "lat": 30.0094864, "lon": 31.3609711}, {"type": "node", "id": 11612611905, "lat": 30.0064509, "lon": 31.3623201}, {"type": "node", "id": 11612611906, "lat": 30.0066209, "lon": 31.3682618}, {"type": "node", "id": 11612611907, "lat": 30.0055013, "lon": 31.3696936}, {"type": "node", "id": 11612611908, "lat": 29.9981228, "lon": 31.3692132}, {"type": "node", "id": 11612611909, "lat": 29.9961706, "lon": 31.3690788}, {"type": "node", "id": 11612611910, "lat": 29.9932904, "lon": 31.3690002}, {"type": "node", "id": 11612611911, "lat": 29.9913791, "lon": 31.3701475}, {"type": "node", "id": 11612611912, "lat": 29.9905089, "lon": 31.3726176}, {"type": "node", "id": 11612611913, "lat": 29.9911018, "lon": 31.3766733}, {"type": "node", "id": 11612611914, "lat": 29.9931376, "lon": 31.3821193}, {"type": "node", "id": 11612611915, "lat": 29.994985, "lon": 31.3871883}, {"type": "node", "id": 11612611916, "lat": 29.9966507, "lon": 31.3908883}, {"type": "node", "id": 11612611917, "lat": 29.9984667, "lon": 31.3931751}, {"type": "node", "id": 11612611918, "lat": 30.0013586, "lon": 31.3953018}, {"type": "node", "id": 11612611919, "lat": 30.0042056, "lon": 31.3973897}, {"type": "node", "id": 11612611920, "lat": 30.0059127, "lon": 31.3984675}, {"type": "node", "id": 11612611921, "lat": 30.0095836, "lon": 31.3996223}, {"type": "node", "id": 11612611922, "lat": 30.0136461, "lon": 31.3999587}, {"type": "node", "id": 11612611923, "lat": 30.0182292, "lon": 31.4005473}, {"type": "node", "id": 11612611924, "lat": 30.0222842, "lon": 31.4012908}, {"type": "node", "id": 11612611925, "lat": 30.0265165, "lon": 31.4020118}, {"type": "node", "id": 11612611926, "lat": 30.0311873, "lon": 31.4026521}, {"type": "node", "id": 11612611927, "lat": 30.0357818, "lon": 31.4033025}, {"type": "node", "id": 11612611928, "lat": 30.0400067, "lon": 31.4038534}, {"type": "node", "id": 11612611929, "lat": 30.0442156, "lon": 31.4045107}, {"type": "node", "id": 11612611930, "lat": 30.0476512, "lon": 31.4059316}, {"type": "node", "id": 11612611931, "lat": 30.0498396, "lon": 31.4074487}, {"type": "node", "id": 11612611932, "lat": 30.0546953, "lon": 31.4115601}, {"type": "node", "id": 11612611933, "lat": 30.0574153, "lon": 31.4138224}, {"type": "node", "id": 11612611934, "lat": 30.0599322, "lon": 31.415953}, {"type": "node", "id": 11612611935, "lat": 30.0626043, "lon": 31.4181906}, {"type": "node", "id": 11612611936, "lat": 30.065162, "lon": 31.4207935}, {"type": "node", "id": 11612611937, "lat": 30.0664334, "lon": 31.4226475}, {"type": "node", "id": 11612611938, "lat": 30.0682228, "lon": 31.4251755}, {"type": "node", "id": 11612611939, "lat": 30.0701634, "lon": 31.4275613}, {"type": "node", "id": 11612611940, "lat": 30.0757238, "lon": 31.4326835}, {"type": "node", "id": 11612632469, "lat": 30.0166939, "lon": 31.3368766}, {"type": "node", "id": 11612632470, "lat": 30.0179494, "lon": 31.3343098}, {"type": "node", "id": 11612632471, "lat": 30.0195462, "lon": 31.3297608}, {"type": "node", "id": 11612632472, "lat": 30.0220723, "lon": 31.323946}, {"type": "node", "id": 11612632473, "lat": 30.0240683, "lon": 31.3220607}, {"type": "node", "id": 11612632474, "lat": 30.0254042, "lon": 31.320415}, {"type": "node", "id": 11612632475, "lat": 30.0267466, "lon": 31.3203471}, {"type": "node", "id": 11612632476, "lat": 30.0280905, "lon": 31.3136705}, {"type": "node", "id": 11612632477, "lat": 30.0288216, "lon": 31.3120357}, {"type": "node", "id": 11612632478, "lat": 30.028892, "lon": 31.3095447}, {"type": "node", "id": 11612632479, "lat": 30.0297639, "lon": 31.309177}, {"type": "node", "id": 11612632480, "lat": 30.0312761, "lon": 31.3083667}, {"type": "node", "id": 11612632481, "lat": 30.033668, "lon": 31.3070978}, {"type": "node", "id": 11612632482, "lat": 30.0354564, "lon": 31.3063124}, {"type": "node", "id": 11612632483, "lat": 30.0370683, "lon": 31.3061865}, {"type": "node", "id": 11612632484, "lat": 30.0383026, "lon": 31.3054876}, {"type": "node", "id": 11612632485, "lat": 30.038011, "lon": 31.3043408}, {"type": "node", "id": 11612632486, "lat": 30.0375841, "lon": 31.3027669}, {"type": "node", "id": 11612632487, "lat": 30.0390165, "lon": 31.3024035}, {"type": "node", "id": 11612632488, "lat": 30.0400912, "lon": 31.300233}, {"type": "node", "id": 11612632489, "lat": 30.0397935, "lon": 31.2993853}, {"type": "node", "id": 11612632490, "lat": 30.0405486, "lon": 31.297073}, {"type": "node", "id": 11612632491, "lat": 30.0414058, "lon": 31.296598}, {"type": "node", "id": 11612632492, "lat": 30.0427547, "lon": 31.2971778}, {"type": "node", "id": 11612632493, "lat": 30.0443742, "lon": 31.2937021}, {"type": "node", "id": 11612632494, "lat": 30.0455088, "lon": 31.2911682}, {"type": "node", "id": 11612632495, "lat": 30.0459299, "lon": 31.2901236}, {"type": "node", "id": 11612632496, "lat": 30.0467813, "lon": 31.2885483}, {"type": "node", "id": 11612632497, "lat": 30.0475859, "lon": 31.2875312}, {"type": "node", "id": 11612632498, "lat": 30.0482435, "lon": 31.287077}, {"type": "node", "id": 11612632499, "lat": 30.0490929, "lon": 31.2869393}, {"type": "node", "id": 11612632500, "lat": 30.0501842, "lon": 31.2882077}, {"type": "node", "id": 11612632501, "lat": 30.0508995, "lon": 31.2887788}, {"type": "node", "id": 11612632502, "lat": 30.0516554, "lon": 31.2888978}, {"type": "node", "id": 11612632503, "lat": 30.0525383, "lon": 31.2889166}, {"type": "node", "id": 11612632504, "lat": 30.0536032, "lon": 31.2887453}, {"type": "node", "id": 11612632505, "lat": 30.0553347, "lon": 31.2883143}, {"type": "node", "id": 11612632506, "lat": 30.0560137, "lon": 31.2881322}, {"type": "node", "id": 11612632507, "lat": 30.0559595, "lon": 31.2877936}, {"type": "node", "id": 11612632508, "lat": 30.0565547, "lon": 31.2875425}, {"type": "node", "id": 11612632509, "lat": 30.0563795, "lon": 31.2855324}, {"type": "node", "id": 11612632510, "lat": 30.0559031, "lon": 31.2815359}, {"type": "node", "id": 11612632511, "lat": 30.0558425, "lon": 31.2804094}, {"type": "node", "id": 11612632512, "lat": 30.0573818, "lon": 31.2816166}, {"type": "node", "id": 11612632513, "lat": 30.0594917, "lon": 31.2832736}, {"type": "node", "id": 11612632514, "lat": 30.0608686, "lon": 31.2842801}, {"type": "node", "id": 11612632515, "lat": 30.0626443, "lon": 31.2856661}, {"type": "node", "id": 11612632516, "lat": 30.0640524, "lon": 31.2868055}, {"type": "node", "id": 11612632517, "lat": 30.0658525, "lon": 31.2887903}, {"type": "node", "id": 11612632518, "lat": 30.0674327, "lon": 31.2903008}, {"type": "node", "id": 11612632519, "lat": 30.0694287, "lon": 31.2925786}, {"type": "node", "id": 11612632520, "lat": 30.0703692, "lon": 31.2936822}, {"type": "node", "id": 11612632521, "lat": 30.0708284, "lon": 31.2944938}, {"type": "node", "id": 11612632522, "lat": 30.0712328, "lon": 31.2956882}, {"type": "node", "id": 11612632523, "lat": 30.0717181, "lon": 31.2970169}, {"type": "node", "id": 11612632524, "lat": 30.0721893, "lon": 31.298404}, {"type": "node", "id": 11612632525, "lat": 30.0727079, "lon": 31.2998572}, {"type": "node", "id": 11612632526, "lat": 30.0732412, "lon": 31.3013794}, {"type": "node", "id": 11612632527, "lat": 30.0737764, "lon": 31.3029285}, {"type": "node", "id": 11612632528, "lat": 30.0743693, "lon": 31.3046008}, {"type": "node", "id": 11612632529, "lat": 30.0748815, "lon": 31.3061088}, {"type": "node", "id": 11612632530, "lat": 30.0755486, "lon": 31.3080273}, {"type": "node", "id": 11612632531, "lat": 30.0762557, "lon": 31.3099695}, {"type": "node", "id": 11612632532, "lat": 30.076956, "lon": 31.3115972}, {"type": "node", "id": 11612632533, "lat": 30.0775133, "lon": 31.3127016}, {"type": "node", "id": 11617054763, "lat": 30.0404574, "lon": 31.3300623}, {"type": "node", "id": 11617086510, "lat": 30.0307101, "lon": 31.3352921}, {"type": "node", "id": 11617086511, "lat": 30.0308687, "lon": 31.3353421}, {"type": "node", "id": 11617086512, "lat": 30.030996, "lon": 31.3354841}, {"type": "node", "id": 11617086513, "lat": 30.0310882, "lon": 31.335706}, {"type": "node", "id": 11617086514, "lat": 30.0310226, "lon": 31.3361202}, {"type": "node", "id": 11617086515, "lat": 30.0315704, "lon": 31.3363632}, {"type": "node", "id": 11617086516, "lat": 30.0064635, "lon": 31.3697408}, {"type": "node", "id": 11777999184, "lat": 29.9634841, "lon": 31.236131}, {"type": "node", "id": 12231283618, "lat": 30.0430629, "lon": 31.4043218}, {"type": "node", "id": 12409543080, "lat": 30.0807838, "lon": 31.3529245, "tags": {"highway": "crossing"}}, {"type": "node", "id": 12412718991, "lat": 29.9458901, "lon": 31.2648735}, {"type": "node", "id": 12435922381, "lat": 29.8345442, "lon": 31.4120992}, {"type": "way", "id": 228633441, "nodes": [919762647, 919759867, 919760803, 919762234, 919762795, 919760138, 919761508, 1134976312, 919762609, 919764148, 6625410933, 919760755, 919761824, 919762752, 919759617, 919760081, 919761256, 919762589, 919763095, 6622154025, 919760737, 919761774, 919762734, 919759567, 919761175, 919762055, 919763043, 919759944, 919761603, 919762375, 919759508, 919760266, 919762663, 919759483, 919761072, 919761914, 919762812, 919759890, 919761546, 919762270, 6642301273, 919764167, 919760165, 6639921602, 919761853, 12412718991, 919759647, 919760772, 919762145, 919762773, 919759896, 11777999184, 7247493227, 6639921603, 919761096, 919762286, 919762956, 919760179, 6636833847, 919761552, 919762631, 919764172, 6636833848, 919760777, 1928072434], "tags": {"boat": "yes", "layer": "-1", "name": "\u0646\u0647\u0631 \u0627\u0644\u0646\u064a\u0644", "name:ar": "\u0646\u0647\u0631 \u0627\u0644\u0646\u064a\u0644", "name:arc": "\u0722\u071d\u0720\u0718\u0723", "name:azb": "\u0646\u06cc\u0644 \u0686\u0627\u06cc\u06cc", "name:bat-smg": "Nils", "name:be": "\u041d\u0456\u043b", "name:be-tarask": "\u041d\u0456\u043b", "name:bg": "\u041d\u0438\u043b", "name:br": "An Nil", "name:ckb": "\u0646\u06cc\u0644", "name:cop": "\u2cab\u2c93\u2c81\u2ca3\u2c9f", "name:cs": "Nil", "name:cy": "N\u00eel", "name:da": "Nilen", "name:de": "Nil", "name:din": "Nail", "name:en": "Nile", "name:es": "R\u00edo Nilo", "name:et": "Niilus", "name:fa": "\u0646\u06cc\u0644", "name:fi": "Niili", "name:fo": "Nil\u00e1", "name:fr": "Nil", "name:grc": "\u039d\u03b5\u1fd6\u03bb\u03bf\u03c2", "name:hi": "\u0928\u0940\u0932", "name:kg": "Nilo", "name:kn": "\u0ca8\u0cc0\u0cb2\u0ccd", "name:ks": "\u0646\u06cc\u0644", "name:lt": "Nilas", "name:lv": "N\u012bla", "name:ml": "\u0d28\u0d48\u0d7d \u0d28\u0d26\u0d3f", "name:mr": "\u0928\u0940\u0932", "name:nl": "Nijl", "name:pa": "\u0a28\u0a40\u0a32 \u0a28\u0a26\u0a40", "name:pl": "Nil", "name:pnb": "\u062f\u0631\u06cc\u0627\u06d3 \u0646\u06cc\u0644", "name:pt": "Rio Nilo", "name:ro": "Nil", "name:ru": "\u041d\u0438\u043b", "name:sk": "N\u00edl", "name:sr": "\u041d\u0438\u043b", "name:sr-Latn": "Nil", "name:sv": "Nilen", "name:syc": "\u0722\u071d\u0720\u0718\u0723", "name:szl": "\u0143il", "name:uk": "\u041d\u0456\u043b", "name:ur": "\u062f\u0631\u06cc\u0627\u0626\u06d2 \u0646\u06cc\u0644", "source": "landsat", "waterway": "river"}}, {"type": "way", "id": 228633449, "nodes": [2372943288, 3123731879], "tags": {"admin_level": "4", "boundary": "administrative"}}, {"type": "way", "id": 228633457, "nodes": [2372943275, 2372943282, 4714503773], "tags": {"admin_level": "4", "boundary": "administrative"}}, {"type": "way", "id": 228633469, "nodes": [2372943275, 2372943278, 2372943281, 2372943280, 2372943277, 2372943276, 2372943279, 919762647], "tags": {"admin_level": "4", "boundary": "administrative"}}, {"type": "way", "id": 307284015, "nodes": [3123731879, 3123731874], "tags": {"admin_level": "4", "boundary": "administrative"}}, {"type": "way", "id": 307284022, "nodes": [3123731874, 3123731873, 3123731872, 3123731871, 3123731870, 6640383258, 3123731869, 3123731868, 3123731867, 919760242], "tags": {"admin_level": "4", "boundary": "administrative"}}, {"type": "way", "id": 498580491, "nodes": [7216583041, 7216583027, 7216583023, 7216583026, 7216583024, 1180241157, 7216583025, 7216583030, 7216583032, 7216583031, 7216583033, 7216583042, 7216583034, 7216583035, 7216583036, 7216583037, 7216583038, 1180241668, 7216583029, 7216583028, 7216583039, 7216583040, 707981562, 7216583108, 7142955549, 3673973766, 7142955548, 7142955547, 7245012595, 1180241336, 7142955546, 3673973762, 707981563, 7142955545, 1180241659, 1180241281, 708011503, 1157594106, 1180241558, 707981565, 3009315566, 1157594547, 1051383581, 1051383635, 1051383458, 1051383530, 1051383464, 1051383483, 1051383386, 1051383824, 1051383473, 4899714158, 5249993717, 8204913018, 8204913017, 5250090200, 8204872216, 8204872215, 8204872214, 314638892, 8204872213, 8204872212, 8204872211, 8204872210, 8204872209, 314638893, 8204872208, 8204872207, 8204872206, 8204872205, 8204872204, 8204872203, 8204872202, 8204872201, 8204872200, 8204872199, 8204872198, 8204872197, 8204872196, 8204872195, 8204913022, 6442583363, 8204913021, 8204913019, 8204913020, 1345666374, 1345666551, 6442583012, 6449154485, 1345666518, 4899714160, 4899714161, 600806567, 33470550, 33470551, 1677096570, 33470560, 6400696874, 6451500684, 33470574, 33470579, 6694374549, 33470584, 600822717, 600822716, 600822714, 6400700183, 6400700069, 600827501, 392011043, 6400700098, 392011042, 392011041, 8308471906, 392011037, 600827487, 392011034, 600827489, 392011029, 8778966532, 600831495, 600833280, 392011011, 5056591748, 5056591753, 5056591781, 7222700062, 7222700061, 7222700060, 7222700059, 7222700058, 3943492472, 3449824755, 3943458512, 3943458516, 3449824780, 3946894271, 1676863095, 3946903802, 3946894410, 4899106915, 6297181810, 4899106920, 4322362465, 1853280889, 4315079521, 7142955560, 33470772, 7142955559, 631925765, 1180241692, 7142955558, 7142955557, 1180241685, 33470783, 1180241350, 7171848882, 7171848883, 7171848884, 7171848885, 7171848886, 7171848887, 7171848888, 7171848889, 7171848890, 7171848891, 7171848892, 1180240799, 7171848894, 7171848895, 1180241407, 7171848897, 7171848712, 33470791, 7171848713, 7171848714, 7171848715, 7171848718, 7171848716, 7171848717, 7171848719, 7171848720, 4392756240, 7171848721, 4392756237, 4392756245, 4392756238, 7171848722, 7171848723, 7171848724, 4392756247, 7171848725, 7171848726, 7171848727, 4392756250, 1180240816, 4392756253, 4392756256, 4392756266, 4392756276, 4392756257, 4392756273, 7171848728, 7171848729, 4392756267, 7171848730, 7171848731, 7171848732, 4392756286, 4392756258, 4392756402, 4392756403, 4392756269, 4392756407, 4392756406, 4392756408, 4392756271, 7171848733, 7171848734, 7171848735, 7171848736, 7171848737, 4392756261, 1157594701, 7171848916, 7171848917, 7171848918, 7171848919, 7171848920, 7171848921, 7171848739, 7171848740, 7171848922, 33470828, 7171848924, 1180240754, 7216583105, 7216583104, 707962821, 1180241133, 7216583086, 7216583087, 7216583088, 7216583089, 7216583103, 7216583090, 7216583091, 7216583092, 7216583093, 7216583100, 7216583094, 7216583099, 7216583095, 7216583098, 7216583096, 7216583097, 7216583102, 1180241536, 7216583101, 7216583081, 7216583080, 7216583074, 7216583082, 7216583075, 7216583076, 7216583083, 7216583077, 7216583084, 7216583078, 7216583079, 7216583085, 7216583073, 1180240812, 7216583072, 707964434, 7216583058, 7216583059, 7216583071, 7216583060, 7216583061, 7216583062, 1180241683, 7216583063, 7216583064, 7216583065, 7216583070, 1180241819, 707964437, 7216583068, 7216583053, 7216583054, 7216583067, 7216583055, 7216583056, 7216583057, 7216583066, 7216583069, 1345666396, 1180241591, 7216583045, 7216583052, 7216583046, 7216583047, 7216583051, 7216583048, 7216583049, 7216583050, 1180240750, 707964443, 7216583043, 7216583044, 7216583041], "tags": {"admin_level": "8", "alt_name:uk": "\u041d\u044c\u044e-\u041a\u0430\u0439\u0440\u043e", "boundary": "administrative", "email": "ouremail@newcairocity.com", "name": "\u0645\u062f\u064a\u0646\u0629 \u0627\u0644\u0642\u0627\u0647\u0631\u0629 \u0627\u0644\u062c\u062f\u064a\u062f\u0629", "name:ar": "\u0645\u062f\u064a\u0646\u0629 \u0627\u0644\u0642\u0627\u0647\u0631\u0629 \u0627\u0644\u062c\u062f\u064a\u062f\u0629", "name:cs": "Nov\u00e1 K\u00e1hira", "name:de": "Neu-Kairo", "name:en": "New Cairo City", "name:es": "Nuevo Cairo", "name:fa": "\u0642\u0627\u0647\u0631\u0647 \u062c\u062f\u06cc\u062f", "name:fr": "Nouveau Caire", "name:he": "\u05d4\u05e2\u05d9\u05e8 \u05e7\u05d4\u05d9\u05e8 \u05d4\u05d7\u05d3\u05e9\u05d4", "name:hi": "\u0928\u092f\u093e \u0915\u093e\u0939\u093f\u0930\u093e \u0936\u0939\u0930", "name:hy": "\u0546\u0578\u0580 \u053f\u0561\u0570\u056b\u0580\u0565", "name:ml": "\u0d28\u0d4d\u0d2f\u0d42 \u0d15\u0d46\u0d2f\u0d4d\u200c\u0d31\u0d4b \u0d38\u0d3f\u0d31\u0d4d\u0d31\u0d3f", "name:uk": "\u041d\u043e\u0432\u0438\u0439 \u041a\u0430\u0457\u0440", "name:ur": "\u062c\u062f\u06cc\u062f \u0642\u0627\u06c1\u0631\u06c1", "place": "city", "population": "298343", "type": "boundary", "website": "http://newcairo.gov.eg/", "wikidata": "Q12191144", "wikipedia": "ar:\u0627\u0644\u0642\u0627\u0647\u0631\u0629 \u0627\u0644\u062c\u062f\u064a\u062f\u0629"}}, {"type": "way", "id": 544219321, "nodes": [4714503773, 2372943288], "tags": {"admin_level": "4", "boundary": "administrative"}}, {"type": "way", "id": 752101470, "nodes": [1928072434, 919761860, 919762778, 919759658, 919761471, 919762156, 919763100, 7504488881], "tags": {"boat": "yes", "layer": "-1", "name": "\u0646\u0647\u0631 \u0627\u0644\u0646\u064a\u0644", "name:ar": "\u0646\u0647\u0631 \u0627\u0644\u0646\u064a\u0644", "name:arc": "\u0722\u071d\u0720\u0718\u0723", "name:azb": "\u0646\u06cc\u0644 \u0686\u0627\u06cc\u06cc", "name:bat-smg": "Nils", "name:be": "\u041d\u0456\u043b", "name:be-tarask": "\u041d\u0456\u043b", "name:bg": "\u041d\u0438\u043b", "name:br": "An Nil", "name:ckb": "\u0646\u06cc\u0644", "name:cop": "\u2cab\u2c93\u2c81\u2ca3\u2c9f", "name:cs": "Nil", "name:cy": "N\u00eel", "name:da": "Nilen", "name:de": "Nil", "name:din": "Nail", "name:en": "Nile", "name:es": "R\u00edo Nilo", "name:et": "Niilus", "name:fa": "\u0646\u06cc\u0644", "name:fi": "Niili", "name:fo": "Nil\u00e1", "name:fr": "Nil", "name:grc": "\u039d\u03b5\u1fd6\u03bb\u03bf\u03c2", "name:hi": "\u0928\u0940\u0932", "name:kg": "Nilo", "name:kn": "\u0ca8\u0cc0\u0cb2\u0ccd", "name:ks": "\u0646\u06cc\u0644", "name:lt": "Nilas", "name:lv": "N\u012bla", "name:ml": "\u0d28\u0d48\u0d7d \u0d28\u0d26\u0d3f", "name:mr": "\u0928\u0940\u0932", "name:nl": "Nijl", "name:pa": "\u0a28\u0a40\u0a32 \u0a28\u0a26\u0a40", "name:pl": "Nil", "name:pnb": "\u062f\u0631\u06cc\u0627\u06d3 \u0646\u06cc\u0644", "name:pt": "Rio Nilo", "name:ro": "Nil", "name:ru": "\u041d\u0438\u043b", "name:sk": "N\u00edl", "name:sr": "\u041d\u0438\u043b", "name:sv": "Nilen", "name:syc": "\u0722\u071d\u0720\u0718\u0723", "name:szl": "\u0143il", "name:uk": "\u041d\u0456\u043b", "name:ur": "\u062f\u0631\u06cc\u0627\u0626\u06d2 \u0646\u06cc\u0644", "source": "landsat", "waterway": "river"}}, {"type": "way", "id": 802285692, "nodes": [919759928, 6636267042, 919761594, 6636457694, 919762357, 919759493, 6636457693, 919760242], "tags": {"boat": "yes", "layer": "-1", "name": "\u0646\u0647\u0631 \u0627\u0644\u0646\u064a\u0644", "name:ar": "\u0646\u0647\u0631 \u0627\u0644\u0646\u064a\u0644", "name:arc": "\u0722\u071d\u0720\u0718\u0723", "name:azb": "\u0646\u06cc\u0644 \u0686\u0627\u06cc\u06cc", "name:bat-smg": "Nils", "name:be": "\u041d\u0456\u043b", "name:be-tarask": "\u041d\u0456\u043b", "name:bg": "\u041d\u0438\u043b", "name:br": "An Nil", "name:ckb": "\u0646\u06cc\u0644", "name:cop": "\u2cab\u2c93\u2c81\u2ca3\u2c9f", "name:cs": "Nil", "name:cy": "N\u00eel", "name:da": "Nilen", "name:de": "Nil", "name:din": "Nail", "name:en": "Nile", "name:es": "R\u00edo Nilo", "name:et": "Niilus", "name:fa": "\u0646\u06cc\u0644", "name:fi": "Niili", "name:fo": "Nil\u00e1", "name:fr": "Nil", "name:grc": "\u039d\u03b5\u1fd6\u03bb\u03bf\u03c2", "name:hi": "\u0928\u0940\u0932", "name:kg": "Nilo", "name:kn": "\u0ca8\u0cc0\u0cb2\u0ccd", "name:ks": "\u0646\u06cc\u0644", "name:lt": "Nilas", "name:lv": "N\u012bla", "name:ml": "\u0d28\u0d48\u0d7d \u0d28\u0d26\u0d3f", "name:mr": "\u0928\u0940\u0932", "name:nl": "Nijl", "name:pa": "\u0a28\u0a40\u0a32 \u0a28\u0a26\u0a40", "name:pl": "Nil", "name:pnb": "\u062f\u0631\u06cc\u0627\u06d3 \u0646\u06cc\u0644", "name:pt": "Rio Nilo", "name:ro": "Nil", "name:ru": "\u041d\u0438\u043b", "name:sk": "N\u00edl", "name:sr": "\u041d\u0438\u043b", "name:sv": "Nilen", "name:syc": "\u0722\u071d\u0720\u0718\u0723", "name:szl": "\u0143il", "name:uk": "\u041d\u0456\u043b", "name:ur": "\u062f\u0631\u06cc\u0627\u0626\u06d2 \u0646\u06cc\u0644", "source": "landsat", "waterway": "river"}}, {"type": "way", "id": 802285699, "nodes": [7504488881, 8230989294, 6636659753, 919760100, 919762438, 1928071873, 919763082, 6636824824, 6636824898, 919760725, 6636457689, 919761751, 919759548, 4007608866, 6636267041, 919761158, 919762034, 919763024, 6636267043, 919759928], "tags": {"boat": "yes", "layer": "-1", "name": "\u0646\u0647\u0631 \u0627\u0644\u0646\u064a\u0644", "name:ar": "\u0646\u0647\u0631 \u0627\u0644\u0646\u064a\u0644", "name:arc": "\u0722\u071d\u0720\u0718\u0723", "name:azb": "\u0646\u06cc\u0644 \u0686\u0627\u06cc\u06cc", "name:bat-smg": "Nils", "name:be": "\u041d\u0456\u043b", "name:be-tarask": "\u041d\u0456\u043b", "name:bg": "\u041d\u0438\u043b", "name:br": "An Nil", "name:ckb": "\u0646\u06cc\u0644", "name:cop": "\u2cab\u2c93\u2c81\u2ca3\u2c9f", "name:cs": "Nil", "name:cy": "N\u00eel", "name:da": "Nilen", "name:de": "Nil", "name:din": "Nail", "name:en": "Nile", "name:es": "R\u00edo Nilo", "name:et": "Niilus", "name:fa": "\u0646\u06cc\u0644", "name:fi": "Niili", "name:fo": "Nil\u00e1", "name:fr": "Nil", "name:grc": "\u039d\u03b5\u1fd6\u03bb\u03bf\u03c2", "name:hi": "\u0928\u0940\u0932", "name:kg": "Nilo", "name:kn": "\u0ca8\u0cc0\u0cb2\u0ccd", "name:ks": "\u0646\u06cc\u0644", "name:lt": "Nilas", "name:lv": "N\u012bla", "name:ml": "\u0d28\u0d48\u0d7d \u0d28\u0d26\u0d3f", "name:mr": "\u0928\u0940\u0932", "name:nl": "Nijl", "name:pa": "\u0a28\u0a40\u0a32 \u0a28\u0a26\u0a40", "name:pl": "Nil", "name:pnb": "\u062f\u0631\u06cc\u0627\u06d3 \u0646\u06cc\u0644", "name:pt": "Rio Nilo", "name:ro": "Nil", "name:ru": "\u041d\u0438\u043b", "name:sk": "N\u00edl", "name:sr": "\u041d\u0438\u043b", "name:sv": "Nilen", "name:syc": "\u0722\u071d\u0720\u0718\u0723", "name:szl": "\u0143il", "name:uk": "\u041d\u0456\u043b", "name:ur": "\u062f\u0631\u06cc\u0627\u0626\u06d2 \u0646\u06cc\u0644", "name:zh": "\u5c3c\u7f57\u6cb3", "source": "landsat", "waterway": "river"}}, {"type": "way", "id": 1069633432, "nodes": [7051039464, 6273346835, 6273346852, 6273285148, 4324287381, 6273321503, 6635523408, 6628899393, 6628899406, 6628899412, 4324296587, 4324297410, 6628899419, 3971836227, 4324297555, 4324297532, 6628889379, 6924561143, 6924561136, 11049420741, 332502040, 7201118840, 7750128589, 7220555891, 7750128586, 7750128590, 6620761129, 6266744996, 6266873456, 6266842155, 7737518452, 6635523202, 7051039464], "tags": {"name": "El-Salam City", "name:ar": "\u0645\u062f\u064a\u0646\u0629 \u0627\u0644\u0633\u0644\u0627\u0645 \u0627\u0644\u063a\u0631\u0628\u064a\u0629", "name:en": "Al Salam First", "place": "city"}}, {"type": "way", "id": 1103679051, "nodes": [10099454576, 10099454577, 10099454578, 10099454579, 10099454580, 10099454581, 10099454582, 10099454583, 10099454584, 10099454585, 10099454586, 10099454587, 10099454588, 10099454589, 10099454590, 10099454591, 10099454592, 10099454593, 10099454594, 10099454595, 10099454596, 10099454597, 10099454598, 10099454599, 10099454600, 10099454601, 10099454602, 10099454603, 10099454604, 10099454605, 10099454606, 10099454607, 10099454608, 10099454609, 10099454610, 10099454611, 10099454612, 10099454613, 10099454614, 10099454615, 10099454616, 10099456517, 10099456518, 12435922381, 10099456519, 10099456520, 10099456521, 10099456522, 10099456523, 10099456524, 10099456525, 10099456526, 10099456527, 10099456528, 10099456529, 10099456530, 10099456531, 10099456532, 10099456533, 10099456534, 10099456535, 10099456536, 10099456537, 10099456538, 10099456539, 10099456540, 10099456541, 10099456542, 10099456543, 10099456544, 10099456545, 10099456546, 10099456547, 10099454576], "tags": {"addr:country": "EG", "name:en": "15th of May", "name:pt": "15 de Maio", "name:uk": "15 \u0422\u0440\u0430\u0432\u043d\u044f", "place": "city", "region": "Greater Cairo"}}, {"type": "way", "id": 1249382787, "nodes": [11612611518, 11612611519, 11612611520, 11612611521, 11612611522, 11612611523, 11612611524, 11612611525, 11612611526, 11612611527, 11612611528, 11612611529, 11612611530, 11612611531, 11612611532, 11612611533, 11612611534, 11612611535, 11612611536, 12409543080, 11612611537, 11612611538, 7203492440, 11612611539, 11612611540, 11612611541, 11612611542, 11612611543, 11612611544, 11612611545, 11612611546, 11612611547, 11612611548, 11612611549, 11612611550, 11612611551, 11612611552, 11612611553, 11612611554, 11612611555, 11612611556, 11612611557, 11612611558, 11612611559, 11612611560, 11612611561, 11612611562, 11612611563, 11612611565, 11612611566, 11612611567, 11612611568, 11612611869, 11612611870, 11612611871, 11612611872, 11612611873, 11612611874, 11612611875, 11612611876, 11612611877, 11612611878, 11617054763, 11612611879, 11612611880, 11612611881, 11612611882, 11612611883, 11612611884, 11612611885, 11612611886, 11612611887, 11617086515, 11617086514, 11617086513, 11617086512, 11617086511, 11617086510, 11612611888, 11612611889, 11612611890, 11612611891, 11612611892, 11612611893, 11612611894, 11612611895, 11612611896, 11612611897, 11612611898, 11612611899, 11612611900, 11612611901, 11612611902, 11612611903, 11612611904, 11612611905, 11612611906, 11617086516, 11612611907, 11612611908, 11612611909, 11612611910, 11612611911, 11612611912, 11612611913, 11612611914, 11612611915, 11612611916, 11612611917, 11612611918, 11612611919, 11612611920, 11612611921, 11612611922, 11612611923, 11612611924, 11612611925, 11612611926, 11612611927, 11612611928, 12231283618, 11612611929, 11612611930, 11612611931, 11612611932, 11612611933, 11612611934, 11612611935, 11612611936, 11612611937, 11612611938, 11612611939, 11612611940, 11612611518], "tags": {"name": "\u0645\u062f\u064a\u0646\u0629 \u0646\u0635\u0631", "name:arz": "\u0645\u062f\u064a\u0646\u0629 \u0646\u0635\u0631", "name:en": "Nasr City", "place": "city"}}, {"type": "way", "id": 1249385211, "nodes": [11612575114, 11612575115, 11612575116, 11612575117, 11612575118, 11612575119, 11612575120, 11612575121, 11612575122, 11612575123, 11612575124, 11612575125, 11612575126, 11612575127, 11612575128, 11612575129, 11612575130, 11612575131, 11612575132, 11612575133, 11612575134, 11612575135, 11612575136, 11612575137, 11612575138, 11612575139, 11612575140, 11612575141, 11612575142, 11612575143, 11612575144, 11612575145, 11612575146, 11612575147, 11612575148, 11612575149, 11612575150, 11612575151, 11612575152, 11612575153, 11612575154, 11612575155, 11612575156, 11612575157, 11612575158, 11612575159, 11612575160, 11612575161, 11612575162, 11612575163, 11612575164, 11612575165, 11612575166, 11612575167, 11612575168, 11612632469, 11612632470, 11612632471, 11612632472, 11612632473, 11612632474, 11612632475, 11612632476, 11612632477, 11612632478, 11612632479, 11612632480, 11612632481, 11612632482, 11612632483, 11612632484, 11612632485, 11612632486, 11612632487, 11612632488, 11612632489, 11612632490, 11612632491, 11612632492, 11612632493, 11612632494, 11612632495, 11612632496, 11612632497, 11612632498, 11612632499, 11612632500, 11612632501, 11612632502, 11612632503, 11612632504, 11612632505, 11612632506, 11612632507, 11612632508, 11612632509, 11612632510, 11612632511, 11612632512, 11612632513, 11612632514, 11612632515, 11612632516, 11612632517, 11612632518, 11612632519, 11612632520, 11612632521, 11612632522, 11612632523, 11612632524, 11612632525, 11612632526, 11612632527, 11612632528, 11612632529, 11612632530, 11612632531, 11612632532, 11612632533, 11612575114], "tags": {"name": "\u062b\u0627\u0646 \u0645\u062f\u064a\u0646\u0629 \u0646\u0635\u0631", "name:arz": "\u062b\u0627\u0646 \u0645\u062f\u064a\u0646\u0629 \u0646\u0635\u0631", "name:en": "Qesm Than Madinet Nasr", "place": "city"}}, {"type": "relation", "id": 5466227, "members": [{"type": "node", "ref": 271613766, "role": "admin_centre"}, {"type": "way", "ref": 307284022, "role": "outer"}, {"type": "way", "ref": 802285692, "role": "outer"}, {"type": "way", "ref": 802285699, "role": "outer"}, {"type": "way", "ref": 752101470, "role": "outer"}, {"type": "way", "ref": 307284015, "role": "outer"}, {"type": "way", "ref": 228633449, "role": "outer"}, {"type": "way", "ref": 228633457, "role": "outer"}, {"type": "way", "ref": 228633441, "role": "outer"}, {"type": "way", "ref": 228633469, "role": "outer"}, {"type": "way", "ref": 544219321, "role": "outer"}], "tags": {"admin_level": "4", "alt_name:vi": "Cai-r\u00f4", "int_name": "Cairo", "name": "\u0627\u0644\u0642\u0627\u0647\u0631\u0629", "name:ace": "Al-Qahirah", "name:af": "Ka\u00efro", "name:ak": "Cairo", "name:am": "\u12ab\u12ed\u122e", "name:an": "O Caire", "name:ar": "\u0627\u0644\u0642\u0627\u0647\u0631\u0629", "name:arz": "\u0627\u0644\u0642\u0627\u0647\u0631\u0647", "name:az": "Qahir\u0259", "name:ba": "\u04a0\u04d9\u04bb\u0438\u0440", "name:bat-smg": "Kairs", "name:bcl": "Cairo", "name:be": "\u041a\u0430\u0456\u0440", "name:bg": "\u041a\u0430\u0439\u0440\u043e", "name:bn": "\u0995\u09be\u09af\u09bc\u09b0\u09cb", "name:bo": "\u0f41\u0f0b\u0f61\u0f72\u0f0b\u0f62\u0f7c", "name:br": "Kaero", "name:bs": "Kairo", "name:ca": "el Caire", "name:ceb": "Cairo", "name:ckb": "\u0642\u0627\u06be\u06cc\u0631\u06d5", "name:cop": "\u2c95\u2c81\u03e3\u2ca3\u2cb1\u2c99\u2c93", "name:crh": "Qaire", "name:cs": "K\u00e1hira", "name:cv": "\u041a\u0430\u0438\u0440", "name:cy": "Cairo", "name:da": "Kairo", "name:de": "Kairo", "name:diq": "Qahire", "name:el": "\u039a\u03ac\u03b9\u03c1\u03bf", "name:en": "Cairo", "name:eo": "Kairo", "name:es": "El Cairo", "name:et": "Kairo", "name:ext": "El Cairu", "name:fa": "\u0642\u0627\u0647\u0631\u0647", "name:fi": "Kairo", "name:fo": "Keiro", "name:fr": "Le Caire", "name:frp": "Lo Cayiro", "name:gd": "Cairo", "name:gl": "O Cairo - \u0627\u0644\u0642\u0627\u0647\u0631\u0629", "name:gv": "Cairo", "name:he": "\u05e7\u05d4\u05d9\u05e8", "name:hi": "\u0915\u093e\u0939\u093f\u0930\u093e", "name:hif": "Cairo", "name:hr": "Kairo", "name:ht": "Li K\u00e8", "name:hu": "Kair\u00f3", "name:hy": "\u053f\u0561\u0570\u056b\u0580\u0565", "name:ia": "Cairo", "name:ie": "Cairo", "name:ilo": "Cairo", "name:io": "Kairo", "name:is": "Ka\u00edr\u00f3", "name:it": "Il Cairo", "name:ja": "\u30ab\u30a4\u30ed", "name:ka": "\u10d9\u10d0\u10d8\u10e0\u10dd", "name:kk": "\u04d8\u043b-\u049a\u0430\u04bb\u0438\u0440\u0430", "name:kl": "Cairo", "name:kn": "\u0c95\u0cc8\u0cb0\u0ccb", "name:ko": "\uce74\uc774\ub85c", "name:ku": "Qah\u00eere", "name:kv": "\u041a\u0430\u0438\u0440", "name:kw": "Cairo", "name:ky": "\u041a\u0430\u0438\u0440", "name:la": "Cairus", "name:lbe": "\u041a\u044c\u0430\u0433\u044c\u0438\u0440\u0430", "name:lez": "\u041a\u0430\u0438\u0440", "name:lij": "O Cairo", "name:lmo": "El Cairo", "name:lt": "Kairas", "name:lv": "Kaira", "name:mdf": "\u041a\u0430\u0438\u0440", "name:mhr": "\u041a\u0430\u0438\u0440", "name:mi": "Kairo", "name:mk": "\u041a\u0430\u0438\u0440\u043e", "name:ml": "\u0d15\u0d46\u0d2f\u0d4d\u0d31\u0d4b", "name:mn": "\u041a\u0430\u0438\u0440", "name:mr": "\u0915\u0948\u0930\u094b", "name:mrj": "\u041a\u0430\u0438\u0440", "name:ms": "Kaherah", "name:mwl": "Cairo", "name:my": "\u1000\u102d\u102f\u1004\u103a\u101b\u102d\u102f\u1019\u103c\u102d\u102f\u1037", "name:mzn": "\u0642\u0627\u0647\u0631\u0647", "name:nah": "El Cairo", "name:nan": "Cairo", "name:nap": "Il cairo", "name:new": "\u0915\u093e\u092f\u0930\u094b", "name:nl": "Ca\u00efro", "name:oc": "Lo Caire", "name:os": "\u041a\u0430\u0438\u0440", "name:pl": "Kair", "name:pms": "\u00cbl C\u00e0iro", "name:pnb": "\u0642\u0627\u06c1\u0631\u06c1", "name:pnt": "\u039a\u03ac\u03b9\u03c1\u03bf\u03bd", "name:ps": "\u0642\u0627\u0647\u0631\u0647", "name:pt": "Cairo", "name:qu": "Qahira", "name:rm": "Cairo", "name:ro": "Cairo", "name:roa-rup": "Cairo", "name:roa-tara": "'U Cairo", "name:ru": "\u041a\u0430\u0438\u0440", "name:rue": "\u041a\u0430\u0433\u0456\u0440\u0430", "name:sah": "\u041a\u0430\u0438\u0440", "name:sc": "Cairo", "name:scn": "Cairu", "name:sco": "Cairo", "name:se": "Cairo", "name:sk": "K\u00e1hira", "name:so": "Qaahiro", "name:sq": "Kajro", "name:sr": "\u041a\u0430\u0438\u0440\u043e", "name:sv": "Kairo", "name:szl": "Kajir", "name:ta": "\u0b95\u0bc6\u0baf\u0bcd\u0bb0\u0bcb", "name:te": "\u0c15\u0c48\u0c30\u0c4b", "name:tg": "\u049a\u043e\u04b3\u0438\u0440\u0430", "name:th": "\u0e44\u0e04\u0e42\u0e23", "name:tk": "Kair", "name:tl": "Cairo", "name:tr": "Kahire", "name:tt": "\u041a\u0430\u04bb\u0438\u0440\u04d9", "name:udm": "\u041a\u0430\u0438\u0440", "name:ug": "\u0643\u0627\u064a\u0631\u0648", "name:uk": "\u041a\u0430\u0457\u0440", "name:ur": "\u0642\u0627\u06c1\u0631\u06c1", "name:uz": "Qohira", "name:vec": "El Cairo", "name:vi": "Cairo", "name:vls": "Ca\u00efro", "name:vo": "Kahir\u00e4", "name:wa": "El Caire", "name:war": "Cairo", "name:wo": "Xayra", "name:wuu": "\u5f00\u7f57", "name:yi": "\u05e7\u05d9\u05d9\u05e8\u05d0", "name:yo": "K\u00e1\u00edr\u00f2", "name:yue": "\u958b\u7f85", "name:zh": "\u5f00\u7f57", "name:zh-Hans": "\u5f00\u7f57", "name:zh-Hant": "\u958b\u7f85", "old_name:vi": "K\u00ea Th\u00e0nh", "place": "city", "type": "multipolygon", "wikidata": "Q85"}}]}