{"version": 0.6, "generator": "Overpass API 0.7.62.4 2390de5a", "osm3s": {"timestamp_osm_base": "2025-01-08T06:47:00Z", "copyright": "The data included in this document is from www.openstreetmap.org. The data is made available under ODbL."}, "elements": [{"type": "node", "id": 2580440720, "lat": 13.335034, "lon": 22.6058437, "tags": {"addr:country": "SD", "name": "Habila Kanari", "name:ar": "\u0647\u0628\u064a\u0644\u0627 \u0643\u0646\u0627\u0631\u064a", "place": "town", "postal_code": "01591"}}, {"type": "node", "id": 2580440735, "lat": 13.2434298, "lon": 22.6577927, "tags": {"name": "Mejmerei", "name:ar": "\u0645\u062c\u0645\u0631\u064a", "place": "town"}}, {"type": "node", "id": 2826053972, "lat": 13.4420205, "lon": 22.4459786, "tags": {"GNS:dsg_code": "PPLA", "GNS:dsg_name": "populated place", "GNS:id": "-1936", "GNS:modify_date": "2015-12-16", "alt_name": "Al-Junaynah;Al Jin\u0113na;Al Jinena;Aj Jin\u0113na;Aj Jinena;Geneina;Al-Jinayna;Al Geneina;Al Jeneina;Geneina Fort", "is_capital": "state", "name": "\u0627\u0644\u062c\u0646\u064a\u0646\u0629", "name:ar": "\u0627\u0644\u062c\u0646\u064a\u0646\u0629", "name:az-Arab": "\u0627\u0644\u062c\u0646\u06cc\u0646\u0647", "name:azb": "\u0627\u0644\u062c\u0646\u06cc\u0646\u0647", "name:de": "Al-Dschunaina", "name:en": "El Geneina", "name:es": "El Geneina", "name:et": "Al-Junaynah", "name:eu": "Geneina", "name:fa": "\u0627\u0644\u062c\u0646\u06cc\u0646\u0647", "name:fr": "Al-Gena\u00efna", "name:ja": "\u30b8\u30e5\u30ca\u30a4\u30ca", "name:ru": "\u042d\u043b\u044c-\u0413\u0435\u043d\u0435\u0439\u043d\u0430", "name:ur": "\u062c\u0646\u06cc\u0646\u06c1", "place": "city", "population": "252744", "postal_code": "00078", "wikidata": "Q311309", "wikipedia": "ar:\u0627\u0644\u062c\u0646\u064a\u0646\u0629 (\u0627\u0644\u0633\u0648\u062f\u0627\u0646)", "wikipedia:ar": "\u0627\u0644\u062c\u0646\u064a\u0646\u0629 (\u0627\u0644\u0633\u0648\u062f\u0627\u0646)"}}, {"type": "node", "id": 7730407156, "lat": 13.1455454, "lon": 22.6167775, "tags": {"GNS:dsg_code": "PPL", "GNS:dsg_name": "populated place", "GNS:id": "-7833", "GNS:modify_date": "2009-01-27", "alt_name": "Jaboun", "alt_name:ar": "\u062c\u0628\u0648\u0646", "name": "Jabun", "name:ar": "\u062c\u0628\u0648\u0646", "name:en": "Jabun", "place": "town", "postal_code": "00507", "source": "GNS"}}, {"type": "node", "id": 7730424395, "lat": 13.3393145, "lon": 22.2915427, "tags": {"GNS:dsg_code": "PPL", "GNS:dsg_name": "populated place", "GNS:id": "-8990", "GNS:modify_date": "2012-08-20", "name": "Kododol", "name:en": "Kododol", "place": "town", "postal_code": "00596", "source": "GNS"}}, {"type": "node", "id": 7730425024, "lat": 13.3855612, "lon": 22.6756995, "tags": {"GNS:dsg_code": "PPL", "GNS:dsg_name": "populated place", "GNS:id": "-4730", "GNS:modify_date": "2009-01-27", "name": "Derjeil", "name:en": "Derjeil", "place": "town", "postal_code": "00258", "source": "GNS"}}, {"type": "node", "id": 7730426587, "lat": 13.492868, "lon": 22.48544, "tags": {"GNS:dsg_code": "PPL", "GNS:dsg_name": "populated place", "GNS:id": "-5179", "GNS:modify_date": "2012-08-07", "name": "Durti Camp", "name:en": "Durti", "place": "town", "postal_code": "00309", "source": "GNS"}}, {"type": "node", "id": 7730426938, "lat": 13.4783394, "lon": 22.4552173, "tags": {"GNS:dsg_code": "PPL", "GNS:dsg_name": "populated place", "GNS:id": "-9926", "GNS:modify_date": "2012-08-08", "name": "Liria", "name:ar": "\u0644\u064a\u0631\u064a\u0647", "name:en": "Liria", "place": "town", "postal_code": "00679", "source": "GNS"}}, {"type": "node", "id": 10831625906, "lat": 13.3347391, "lon": 22.4287788, "tags": {"name": "Mulli", "name:ar": "\u0645\u0648\u0644\u064a", "place": "town", "postal_code": "01622"}}, {"type": "node", "id": 10894937200, "lat": 13.2309869, "lon": 22.4678172, "tags": {"name": "Gokor", "name:ar": "\u0642\u0648\u0643\u0631", "name:en": "Gokar", "place": "town", "postal_code": "03144", "source": "local knowledge;aerial imagery"}}, {"type": "node", "id": 10908683356, "lat": 13.1827361, "lon": 22.2752059, "tags": {"name": "Bara", "name:ar": "\u0628\u0627\u0631\u0627", "place": "town"}}, {"type": "node", "id": 10942483983, "lat": 13.4610588, "lon": 22.2303421, "tags": {"alt_name": "Adekong", "name": "Adikong", "name:ar": "\u0627\u062f\u064a\u0643\u0646\u0642", "place": "town"}}, {"type": "node", "id": 10949121490, "lat": 13.4281858, "lon": 22.4771523, "tags": {"description": "East wadi Unity", "designation": "Unity administrative", "name": "Krinding", "name:ar": "\u0643\u0631\u064a\u0646\u062f\u0642", "place": "city", "postal_code": "01300"}}, {"type": "node", "id": 11054403480, "lat": 13.4749506, "lon": 22.482839, "tags": {"designation": "Unity administrative", "name": "Ardamata", "name:ar": "\u0627\u0631\u062f\u0645\u062a\u0627", "place": "town", "postal_code": "00317"}}, {"type": "node", "id": 11361727486, "lat": 13.1464549, "lon": 22.6154174, "tags": {"name": "Kouma", "name:ar": "\u062c\u0628\u0648\u0646 \u0643\u0648\u0645\u0627", "place": "town", "postal_code": "00507"}}, {"type": "node", "id": 11516194297, "lat": 13.430671, "lon": 22.4383838, "tags": {"image": "https://en.m.wikipedia.org/wiki/File:Dar_Masaliet_Flag.jpg", "name": "Sultanate Dar Masalit", "name:ar": "The Kingdom of Dar Masalit", "place": "town", "website": "https://www.jstor.org/stable/218268"}}]}