{"version": 0.6, "generator": "Overpass API 0.7.62.4 2390de5a", "osm3s": {"timestamp_osm_base": "2025-01-08T06:59:15Z", "copyright": "The data included in this document is from www.openstreetmap.org. The data is made available under ODbL."}, "elements": [{"type": "node", "id": 252600742, "lat": 36.7590403, "lon": 3.473102, "tags": {"capital": "4", "name": "Boumerd\u00e8s", "name:ar": "\u0628\u0648\u0645\u0631\u062f\u0627\u0633", "name:ary": "\u0628\u0648\u0645\u0631\u062f\u0627\u0633", "name:arz": "\u0628\u0648\u0645\u0631\u062f\u0627\u0633", "name:az-Arab": "\u0628\u0648\u0645\u0631\u062f\u0627\u0633", "name:azb": "\u0628\u0648\u0645\u0631\u062f\u0627\u0633", "name:ber": "\u2d31\u2d53\u2d4e\u2d3b\u2d54\u2d37\u2d30\u2d59", "name:de": "Bumerdes", "name:el": "\u039c\u03c0\u03bf\u03c5\u03bc\u03ad\u03c1\u03bd\u03c4", "name:en": "Boumerdes", "name:es": "Bumerd\u00e9s", "name:fa": "\u0628\u0648\u0645\u0631\u062f\u0627\u0633", "name:fr": "Boumerd\u00e8s", "name:kab": "Bumerdas", "name:kab-Arab": "\u0628\u0648\u0645\u0631\u062f\u0627\u0633", "name:ks": "\u0628\u0648\u0645\u0631\u062f\u0627\u0633", "name:pnb": "\u0628\u0648\u0645\u0631\u062f\u0627\u0633", "name:ru": "\u0411\u0443\u043c\u0435\u0440\u0434\u0435\u0441", "name:ur": "\u0628\u0648\u0645\u0631\u062f\u0627\u0633", "old_name": "\u0627\u0644\u0635\u062e\u0631\u0629 \u0627\u0644\u0633\u0648\u062f\u0627\u0621", "old_name:ar": "\u0627\u0644\u0635\u062e\u0631\u0629 \u0627\u0644\u0633\u0648\u062f\u0627\u0621", "old_name:fr": "Rocher Noir", "place": "city", "population": "41685", "population:date": "2008", "postal_code": "35000", "ref:ONS": "3501", "wikidata": "Q770518", "wikipedia": "ar:\u0628\u0648\u0645\u0631\u062f\u0627\u0633", "wikipedia:es": "\u0628\u0648\u0645\u0631\u062f\u0627\u0633"}}, {"type": "node", "id": 253167052, "lat": 36.724986, "lon": 3.556935, "tags": {"name": "Thenia", "name:ar": "\u0627\u0644\u062b\u0646\u064a\u0629", "name:ber": "\u2d5d\u2d4f\u2d49\u2d62\u2d30", "name:en": "Thenia", "name:fr": "Thenia", "name:kab": "Tniya", "old_name": "M\u00e9nerville", "place": "town", "population": "21439", "wikidata": "Q2225013", "wikimedia_commons": "Category:Th\u00e9nia", "wikipedia": "fr:Th\u00e9nia"}}, {"type": "node", "id": 253167208, "lat": 36.7864064, "lon": 3.6012209, "tags": {"name": "Zemmouri", "name:ar": "\u0632\u0645\u0648\u0631\u064a", "name:ber": "\u2d63\u2d3b\u2d4e\u2d4e\u2d53\u2d54\u2d49", "name:en": "Zemmouri", "name:es": "Zemmouri", "name:fr": "Zemmouri", "name:it": "Zemmouri", "name:kab": "Zemmuri", "place": "town", "population": "26408", "wikidata": "Q3183565", "wikipedia": "en:Zemmouri"}}, {"type": "node", "id": 253291208, "lat": 36.5644827, "lon": 3.5967523, "tags": {"name": "Lakhdaria", "name:ar": "\u0627\u0644\u0623\u062e\u0636\u0631\u064a\u0629", "name:ber": "\u2d4d\u2d3b\u2d45\u2d39\u2d30\u2d54\u2d49\u2d62\u2d30", "name:en": "Lakhdaria", "name:fr": "Lakhdaria", "name:kab": "At Ulmu", "old_name": "Palestro", "place": "town", "population": "59746", "wikidata": "Q2522066", "wikimedia_commons": "Category:Lakhdaria", "wikipedia": "fr:Lakhdaria"}}, {"type": "node", "id": 290212788, "lat": 36.7432364, "lon": 3.7175665, "tags": {"name": "Bordj Menaiel", "name:ar": "\u0628\u0631\u062c \u0645\u0646\u0627\u064a\u0644", "name:ber": "\u2d4d\u2d31\u2d3b\u2d54\u2d4a \u2d4f \u2d49\u2d4e\u2d4f\u2d30\u2d62\u2d3b\u2d4f", "name:en": "Bordj Menaiel", "name:fr": "Bordj Mena\u00efel", "name:kab": "Bur\u01e7 Mnayel", "place": "town", "population": "64820", "population:date": "2008", "wikidata": "Q2910781", "wikimedia_commons": "Category:Bordj Mena\u00efel", "wikipedia": "fr:Bordj Mena\u00efel"}}, {"type": "node", "id": 290255428, "lat": 36.7471933, "lon": 3.836858, "tags": {"name": "Naciria", "name:ar": "\u0646\u0627\u0635\u0631\u064a\u0629", "name:ber": "\u2d4d\u2d30\u2d44\u2d63\u2d49\u2d60 \u2d4f \u2d63\u2d30\u2d44\u2d4e\u2d53\u2d4e", "name:en": "Naciria", "name:fr": "Naciria", "name:kab": "Le\u025bzib n Ze\u025bmum", "place": "town", "population": "22431", "population:date": "2008", "wikidata": "Q6957278", "wikimedia_commons": "Category:Naciria", "wikipedia": "fr:Naciria"}}, {"type": "node", "id": 316373452, "lat": 36.6379144, "lon": 3.3710566, "tags": {"name": "Larbatache", "name:ar": "\u0644\u0631\u0628\u0639\u0637\u0627\u0634", "name:ber": "\u2d4d\u2d30\u2d54\u2d32\u2d30\u2d44\u2d5f\u2d30\u2d5b", "name:en": "Larbatache", "name:fr": "Larbatache", "name:kab": "Larbe\u03b5\u1e6dac", "place": "town", "population": "19356", "wikidata": "Q1649334", "wikimedia_commons": "Category:Larbatache", "wikipedia": "fr:Larbatache"}}, {"type": "node", "id": 316373483, "lat": 36.6564534, "lon": 3.4068647, "tags": {"alt_name:ar": "\u062e\u0631\u0648\u0628\u0629", "name": "Kherrouba", "name:ar": "\u0627\u0644\u062e\u0631\u0648\u0628\u0629", "name:azb": "\u062e\u0631\u0648\u0628\u0647", "name:ber": "\u2d45\u2d30\u2d54\u2d54\u2d53\u2d31\u2d30", "name:en": "El Kharrouba", "name:fa": "\u062e\u0631\u0648\u0628\u0647", "name:fr": "Kherrouba", "name:kab": "Xerruba", "name:ur": "\u062e\u0631\u0648\u0628\u06c1", "place": "town", "population": "10885", "postal_code": "35450", "wikidata": "Q3050007", "wikimedia_commons": "Category:El Kharrouba", "wikipedia": "ar:\u0627\u0644\u062e\u0631\u0648\u0628\u0629 (\u0648\u0644\u0627\u064a\u0629 \u0628\u0648\u0645\u0631\u062f\u0627\u0633)"}}, {"type": "node", "id": 317105898, "lat": 36.7547423, "lon": 3.4433833, "tags": {"name": "Corso", "name:ar": "\u0642\u0648\u0631\u0635\u0648", "name:ber": "\u2d47\u2d53\u2d54\u2d5a\u2d53", "name:en": "Corso", "name:fr": "Corso", "name:kab": "Qur\u1e63u", "place": "town", "population": "20705", "wikidata": "Q2998044", "wikimedia_commons": "Category:Corso", "wikipedia": "fr:Corso (Boumerd\u00e8s)"}}, {"type": "node", "id": 317128785, "lat": 36.7387813, "lon": 3.3421179, "tags": {"name": "Regha\u00efa", "name:ar": "\u0627\u0644\u0631\u063a\u0627\u064a\u0629", "name:ber": "\u2d54\u2d56\u2d30\u2d62\u2d30", "name:en": "Reghaia", "name:fr": "Regha\u00efa", "name:kab": "Rr\u0263aya", "place": "town", "population": "66215", "wikidata": "Q1649935", "wikimedia_commons": "Category:Regha\u00efa", "wikipedia": "fr:Regha\u00efa"}}, {"type": "node", "id": 317134979, "lat": 36.727203, "lon": 3.408382, "tags": {"name": "Boudouaou", "name:ar": "\u0628\u0648\u062f\u0648\u0627\u0648", "name:ber": "\u2d31\u2d53\u2d37\u2d61\u2d30\u2d61", "name:en": "Boudouaou", "name:fr": "Boudouaou", "name:kab": "Budwaw", "place": "town", "population": "71238", "wikidata": "Q311984", "wikipedia": "fr:Boudouaou"}}, {"type": "node", "id": 317142674, "lat": 36.7130535, "lon": 3.3384334, "tags": {"name": "Ouled Haddadj", "name:ar": "\u0623\u0648\u0644\u0627\u062f \u0647\u062f\u0627\u062c", "name:ber": "\u2d61\u2d4d\u2d30\u2d37 \u2d40\u2d3b\u2d37\u2d37\u2d30\u2d35", "name:en": "Ouled Haddadj", "name:fr": "Ouled Haddadj", "name:kab": "Wlad Hedda\u01e7", "place": "town", "source": "Algerie Mapper Team"}}, {"type": "node", "id": 317143897, "lat": 36.6857409, "lon": 3.3642924, "tags": {"name": "Ouled Moussa", "name:ar": "\u0623\u0648\u0644\u0627\u062f \u0645\u0648\u0633\u0649", "name:ber": "\u2d61\u2d4d\u2d3b\u2d37 \u2d4e\u2d53\u2d59\u2d30", "name:en": "Ouled Moussa", "name:fr": "Ouled Moussa", "name:kab": "Wlad Musa", "place": "town", "population": "45770", "wikidata": "Q3055250", "wikipedia": "fr:Ouled Moussa"}}, {"type": "node", "id": 425026894, "lat": 36.8779905, "lon": 3.720138, "tags": {"alt_name:ar": "\u062c\u0646\u0651\u0627\u062a", "name": "Djinet \u2d35\u2d3b\u2d4f\u2d4f\u2d30\u2d5c \u062c\u0646\u0651\u0627\u062a", "name:ar": "\u062c\u0646\u0651\u0627\u062a", "name:ber": "\u2d35\u2d3b\u2d4f\u2d4f\u2d30\u2d5c", "name:en": "Djinet", "name:es": "Djinet", "name:fr": "Djinet", "name:it": "Djinet", "name:kab": "Ta\u01e7nant", "place": "town", "population": "21966", "wikidata": "Q3033013", "wikimedia_commons": "Category:Djinet", "wikipedia": "fr:Djinet"}}, {"type": "node", "id": 443158763, "lat": 36.816884, "lon": 3.8578153, "tags": {"name": "Baghlia", "name:ar": "\u0628\u063a\u0644\u064a\u0629", "name:ber": "\u2d31\u2d30\u2d56\u2d4d\u2d49\u2d62\u2d30", "name:en": "Baghlia", "name:fr": "Baghlia", "name:kab": "Le\u025bzib n Ccix", "place": "town"}}, {"type": "node", "id": 443181292, "lat": 36.5350648, "lon": 3.8380358, "tags": {"name": "Draa El Mizan", "name:ar": "\u0630\u0631\u0627\u0639 \u0627\u0644\u0645\u064a\u0632\u0627\u0646", "name:ber": "\u2d38\u2d54\u2d30\u2d44 \u2d4d\u2d4e\u2d49\u2d63\u2d30\u2d4f", "name:en": "Draa El Mizan", "name:fr": "Dra\u00e2 El Mizan", "name:kab": "Dra\u025b Lmizan", "place": "town", "population": "38886", "wikidata": "Q4119323", "wikimedia_commons": "Category:Dra\u00e2 El Mizan", "wikipedia": "fr:Dra\u00e2 El Mizan"}}, {"type": "node", "id": 454650784, "lat": 36.6374131, "lon": 3.6957712, "tags": {"name": "Chaabet El Ameur", "name:ar": "\u0634\u0639\u0628\u0629 \u0627\u0644\u0639\u0627\u0645\u0631", "name:ber": "\u2d5c\u2d30\u2d5b\u2d30\u2d44\u2d31\u2d3b\u2d5c", "name:en": "Chaabet El Ameur", "name:fr": "Cha\u00e2bet El Ameur", "name:kab": "Taca\u025bbet", "place": "town", "wikidata": "Q37926868", "wikipedia": "fr:Chabet el Ameur"}}, {"type": "node", "id": 454650785, "lat": 36.5872274, "lon": 3.7742759, "tags": {"loc_name": "Tizi \u0393ennif", "name": "Tizi Ghenif", "name:ar": "\u062a\u064a\u0632\u0649 \u063a\u0646\u064a\u0641", "name:ber": "\u2d5d\u2d49\u2d63\u2d49 \u2d56\u2d3b\u2d4f\u2d49\u2d3c", "name:en": "Tizi Ghenif", "name:fr": "Tizi Ghenif", "name:kab": "Tizi \u0393ennif", "place": "town", "wikidata": "Q3529984", "wikimedia_commons": "Category:Tizi Gheniff", "wikipedia": "fr:Tizi Gheniff"}}, {"type": "node", "id": 818784414, "lat": 36.6678481, "lon": 3.5918611, "tags": {"name": "Beni Amrane", "name:ar": "\u0628\u0646\u064a \u0639\u0645\u0631\u0627\u0646", "name:ber": "\u2d30\u2d49\u2d5c \u2d44\u2d4e\u2d54\u2d30\u2d4f", "name:en": "Beni Amrane", "name:fr": "Beni Amrane", "name:kab": "At \u0190emran", "place": "town", "population": "23621", "wikidata": "Q2223571", "wikimedia_commons": "Category:Beni Amrane", "wikipedia": "fr:Beni Amrane"}}, {"type": "node", "id": 964393476, "lat": 36.7264659, "lon": 3.6649705, "tags": {"name": "Isser", "name:ar": "\u0625\u064a\u0633\u0631", "name:ber": "\u2d62\u2d3b\u2d59\u2d59\u2d3b\u2d54", "name:en": "Isser", "name:fr": "Isser", "name:kab": "Yesser", "place": "town", "population": "32580"}}, {"type": "node", "id": 2944119167, "lat": 36.6505384, "lon": 3.3317211, "tags": {"name": "Khemis El Khechna \u2d45\u2d4e\u2d49\u2d59 \u2d4d\u2d45\u2d3b\u2d5b\u2d4f\u2d30 \u062e\u0645\u064a\u0633 \u0627\u0644\u062e\u0634\u0646\u0629", "name:ar": "\u062e\u0645\u064a\u0633 \u0627\u0644\u062e\u0634\u0646\u0629", "name:ber": "\u2d45\u2d4e\u2d49\u2d59 \u2d4d\u2d45\u2d3b\u2d5b\u2d4f\u2d30", "name:en": "Khemis El Khechna", "name:fr": "Khemis El Khechna", "name:kab": "Lexmis n Lxecna", "place": "town", "population": "75962", "wikidata": "Q3142813", "wikimedia_commons": "Category:Khemis El-Khechna", "wikipedia": "fr:Khemis El Khechna"}}]}