{"version": 0.6, "generator": "Overpass API 0.7.62.4 2390de5a", "osm3s": {"timestamp_osm_base": "2025-01-08T06:24:35Z", "copyright": "The data included in this document is from www.openstreetmap.org. The data is made available under ODbL."}, "elements": [{"type": "node", "id": 11874542930, "lat": 23.5952313, "lon": 56.9727053, "tags": {"alt_name": "Hazim Qashi`, Hazim Q\u0101shi\u2018, Hazm Qashi`, Hazm Q\u0101shi\u2018, \u0647\u0632\u0645 \u0642\u0627\u0634\u0639", "name": "Hazm Q\u0101shi\u2018", "name:en": "Hazm Q\u0101shi\u2018", "name:es": "Hazm Q\u0101shi\u2018", "name:fr": "Hazm Q\u0101shi\u2018", "place": "town", "source": "https://www.mindat.org/feature-11800174.html"}}, {"type": "node", "id": 11961093500, "lat": 23.4925546, "lon": 57.0034046, "tags": {"alt_name": "Al Hiyal, Al \u1e28iy\u0101l", "name": "Al Hiyal", "name:en": "Al Hiyal", "name:es": "Al Hiyal", "name:fr": "Al Hiyal", "place": "town", "source": "https://www.mindat.org/feature-289245.html"}}, {"type": "node", "id": 11961104133, "lat": 23.4882347, "lon": 56.9644319, "tags": {"alt_name": "Dayqarah, Dayqrah, dyqrt, \u062f\u064a\u0642\u0631\u0629", "name": "Dayqarah", "name:en": "Dayqarah", "name:es": "Dayqarah", "name:fr": "Dayqarah", "place": "town", "source": "https://www.mindat.org/feature-11800567.html"}}, {"type": "node", "id": 12114270181, "lat": 23.2858959, "lon": 56.9215962, "tags": {"alt_name": "Harat az Zaharah, Harat az Zahrah, hart alzhrt, \u062d\u0627\u0631\u0629 \u0627\u0644\u0638\u0647\u0631\u0629, \u1e24\u0101rat a\u1e93 \u1e92aharah, \u1e28\u0101rat az\u0327 Z\u0327ahrah", "name": "Harat az Zaharah", "name:en": "Harat az Zaharah", "name:es": "Harat az Zaharah", "name:fr": "Harat az Zaharah", "place": "town", "source": "https://www.mindat.org/feature-11800558.html"}}, {"type": "node", "id": 12114294853, "lat": 23.2836139, "lon": 56.89489, "tags": {"alt_name": "Al Banah, Al B\u0101nah, albant, \u0627\u0644\u0628\u0627\u0646\u0629", "name": "Al Banah", "name:en": "Al Banah", "name:es": "Al Banah", "name:fr": "Al Banah", "place": "town", "source": "https://www.mindat.org/feature-289333.html"}}, {"type": "node", "id": 12114295438, "lat": 23.2781077, "lon": 56.8934553, "tags": {"alt_name": "Bayl, byl, \u0628\u064a\u0644", "name": "Bayl", "name:en": "Bayl", "name:es": "Bayl", "name:fr": "Bayl", "place": "town", "source": "https://www.mindat.org/feature-11800551.html"}}, {"type": "node", "id": 12114304585, "lat": 23.2835928, "lon": 56.9441805, "tags": {"alt_name": "Harat al Hawatim, hart alhwatm, \u062d\u0627\u0631\u0629 \u0627\u0644\u062d\u0648\u0627\u062a\u0645, \u1e24\u0101rat al \u1e24aw\u0101tim, \u1e28\u0101rat al \u1e28aw\u0101tim", "name": "Harat al Hawatim", "name:en": "Harat al Hawatim", "name:es": "Harat al Hawatim", "name:fr": "Harat al Hawatim", "place": "town"}}, {"type": "node", "id": 12114305452, "lat": 23.2836726, "lon": 56.9316385, "tags": {"alt_name": "Misabhiyyah, Misab\u1e25iyyah, Musabihiyah, Musabi\u1e29\u012byah, msbhyt, \u0645\u0633\u0628\u062d\u064a\u0651\u0629", "name": "Musabihiyah", "name:en": "Musabihiyah", "name:es": "Musabihiyah", "name:fr": "Musabihiyah", "place": "town", "source": "https://www.mindat.org/feature-11800559.html"}}, {"type": "node", "id": 12114313170, "lat": 23.2833595, "lon": 56.9140635, "tags": {"alt_name": "Al Hajar, Al Hijr, Maqniyat, Maqn\u012by\u0101t, alhjr, \u0627\u0644\u0647\u062c\u0631", "name": "Al Hajar", "name:en": "Al Hajar", "name:es": "Al Hajar", "name:fr": "Al Hajar", "place": "town", "source": "https://www.mindat.org/feature-289252.html"}}]}