{"version": 0.6, "generator": "Overpass API 0.7.62.4 2390de5a", "osm3s": {"timestamp_osm_base": "2025-01-08T07:22:42Z", "copyright": "The data included in this document is from www.openstreetmap.org. The data is made available under ODbL."}, "elements": [{"type": "node", "id": 803713989, "lat": 15.822645, "lon": -9.4161525, "tags": {"name": "\u0643\u0648\u0628\u0627\u0646\u064a", "name:ar": "\u0643\u0648\u0628\u0627\u0646\u064a", "name:en": "Kubanni", "name:fr": "Kobenni", "note": "rank = 0 + City car sous-Pr\u00e9fecture", "place": "city", "rank": "0", "wikidata": "Q3198124", "wikipedia": "fr:Kobenni"}}, {"type": "node", "id": 2165274997, "lat": 15.6849469, "lon": -9.3289294, "tags": {"name": "Gogui", "name:ar": "\u0643\u0648\u0643\u064a", "ocha:fid": "265", "ocha:objectid": "340", "ocha:type": "Chef-lieu Commune", "place": "town", "source": "OCHA COD Humanitarian Response", "wikidata": "Q5577499"}}, {"type": "node", "id": 7734401579, "lat": 15.694713, "lon": -9.482034, "tags": {"GNS:dsg_code": "PPL", "GNS:dsg_name": "populated place", "GNS:id": "-1401688", "GNS:modify_date": "2008-05-07", "name": "\u0643\u0631\u0641\u064a", "name:ar": "\u0643\u0631\u0641\u064a", "name:en": "Kerfi", "name:fr": "Kerfi", "place": "town", "source": "GNS"}}, {"type": "node", "id": 9088083149, "lat": 15.9334349, "lon": -9.2460252, "tags": {"place": "town"}}]}