{"version": 0.6, "generator": "Overpass API 0.7.62.4 2390de5a", "osm3s": {"timestamp_osm_base": "2025-01-08T06:31:42Z", "copyright": "The data included in this document is from www.openstreetmap.org. The data is made available under ODbL."}, "elements": [{"type": "node", "id": 470018430, "lat": 36.0848077, "lon": 44.6276893, "tags": {"alt_name": "\u0643\u0648\u064a \u0633\u0646\u062c\u0642", "alt_name:ar": "\u0643\u0648\u064a \u0633\u0646\u062c\u0642", "alt_name:ckb": "\u06a9\u06c6\u06cc\u0633\u0646\u062c\u0642", "alt_name:ku": "Koysinciq", "capital": "6", "is_in:country": "Iraq", "is_in:country_code": "IQ", "name": "\u06a9\u06c6\u06cc\u06d5", "name:ar": "\u0643\u0648\u064a\u0633\u0646\u062c\u0642", "name:az": "K\u00f6ysancaq", "name:ckb": "\u06a9\u06c6\u06cc\u06d5", "name:da": "Koy Sanjaq", "name:de": "Koy Sandschaq", "name:en": "Koy Sanjaq", "name:es": "Koy Sanjaq", "name:fr": "Koy Sanjaq", "name:he": "\u05db\u05d5\u05d9 \u05e1\u05e0\u05d2'\u05e7", "name:ja": "\u30b3\u30a4\u30b8\u30f3\u30b8\u30e3\u30af", "name:ku": "Koye", "name:ml": "\u0d15\u0d4b\u0d2f\u0d4d\u200c\u0d38\u0d7b\u0d1c\u0d3e\u0d15\u0d4d\u0d15\u0d4d", "name:nn": "Koy Sanjaq", "name:no": "Koy Sanjaq", "name:pl": "Kuj Sand\u017cak", "name:ru": "\u041a\u0451\u0439-\u0421\u0430\u043d\u0434\u0436\u0430\u043a", "name:sv": "Koy Sanjaq", "name:tr": "K\u00f6ysancak", "name:uk": "\u041a\u043e\u0439-\u0421\u0430\u043d\u0434\u0436\u0430\u043a", "name:uz": "Koy Sanjaq", "place": "town", "population": "44987", "population:date": "2009", "postal_code": "44023", "wikidata": "Q1778824", "wikipedia": "ckb:\u06a9\u06c6\u06cc\u06d5"}}, {"type": "node", "id": 2488270116, "lat": 35.8888613, "lon": 44.5855646, "tags": {"alt_name": "\u0637\u0642\u0637\u0642", "capital": "7", "ele": "350", "int_name": "Taqtaq, \u0162aq\u0163aq, \u062a\u06d5\u0642\u062a\u06d5\u0642", "name": "\u062a\u06d5\u0642\u062a\u06d5\u0642", "name:ar": "\u0637\u0642\u0637\u0642", "name:ckb": "\u062a\u06d5\u0642\u062a\u06d5\u0642", "name:de": "Taqtaq", "name:en": "Taqtaq", "name:fr": "Taqtaq", "name:ku": "Teqteq", "name:ru": "\u0422\u0430\u043a\u0442\u0430\u043a", "natural": "oilfield", "place": "town", "wikidata": "Q11160785", "wikipedia": "ckb:\u062a\u06d5\u0642\u062a\u06d5\u0642"}}, {"type": "node", "id": 2488272956, "lat": 35.9194305, "lon": 44.7837011, "tags": {"alt_name": "\u062e\u0631\u0627\u0628\u0629;\u062e\u0631\u0628\u0629;\u062e\u0631\u0627\u0628", "int_name": "Khar\u0101bah, \u062e\u0631\u0627\u0628\u0629, Kharabah, \u062e\u0631\u0627\u0628\u0629;Kharaba, Kharaba;Khar\u0101b, \u062e\u0631\u0627\u0628, Kharab, \u062e\u0631\u0627\u0628", "is_in": "Iraq , \u062c\u0645\u0647\u0648\u0631\u064a\u0629 \u0627\u0644\u0639\u0631\u0627\u0642", "name": "\u062e\u06d5\u0631\u0627\u0628\u06d5", "name:ar": "\u062e\u0631\u0627\u0628\u0629", "name:ar1": "\u062e\u0631\u0627\u0628\u0629;\u062e\u0631\u0628\u0629;\u062e\u0631\u0627\u0628", "name:ckb": "\u062e\u06d5\u0631\u0627\u0628\u06d5", "name:de": "Kharabah;Kharaba;Kharab", "name:en": "Kharaba", "name:fr": "Khraba", "name:ku": "Xerabe", "place": "town"}}, {"type": "node", "id": 2488273545, "lat": 36.0200157, "lon": 44.8381723, "tags": {"alt_name": "\u062e\u0644\u0643\u0627\u0646", "capital": "7", "int_name": "Kh\u0101k\u0101n, Khalakan, Khalak\u0101n, \u062e\u0644\u0643\u0627\u0646, Khakan, \u062e\u06d5\u0644\u06d5\u06a9\u0627\u0646", "is_in": "Iraq , \u062c\u0645\u0647\u0648\u0631\u064a\u0629 \u0627\u0644\u0639\u0631\u0627\u0642", "name": "\u062e\u06d5\u0644\u06d5\u06a9\u0627\u0646", "name:ar": "\u062e\u0644\u0643\u0627\u0646", "name:ckb": "\u062e\u06d5\u0644\u06d5\u06a9\u0627\u0646", "name:de": "Khalakan", "name:en": "Khalakan", "name:fr": "Khalakan", "name:ku": "Xelekan", "place": "town", "wikidata": "Q6766111", "wikipedia": "ckb:\u062e\u06d5\u0644\u06d5\u06a9\u0627\u0646"}}, {"type": "node", "id": 2488279815, "lat": 35.930643, "lon": 44.962935, "tags": {"capital": "6", "is_in": "Iraq , \u062c\u0645\u0647\u0648\u0631\u064a\u0629 \u0627\u0644\u0639\u0631\u0627\u0642", "name": "\u062f\u0648\u0648\u06a9\u0627\u0646", "name:ar": "\u062f\u0648\u0643\u0627\u0646", "name:ckb": "\u062f\u0648\u0648\u06a9\u0627\u0646", "name:de": "Dokan", "name:en": "Dukan", "name:fr": "Dokan", "name:ku": "D\u00fbkan", "name:ml": "\u0d26\u0d42\u0d15\u0d4d\u0d15\u0d3e\u0d7b", "name:ru": "\u0414\u0443\u043a\u0430\u043d", "place": "town", "wikidata": "Q21529428", "wikipedia": "ckb:\u062f\u0648\u0648\u06a9\u0627\u0646"}}, {"type": "node", "id": 2488281480, "lat": 35.7486987, "lon": 44.8984883, "tags": {"alt_name:ar": "\u0623\u0643\u062c\u0644\u0631", "alt_name:en": "Agjlar", "capital": "7", "int_name": "Aq Jallar, \u0100qchalar, Aq Jallar, Aqchalar\u060c \u0626\u0627\u200c\u063a\u062c\u06d5\u0644\u06d5\u0631", "is_in": "Iraq , \u062c\u0645\u0647\u0648\u0631\u064a\u0629 \u0627\u0644\u0639\u0631\u0627\u0642", "name": "\u0626\u0627\u063a\u062c\u06d5\u0644\u06d5\u0631", "name:ar": "\u0622\u063a\u062c\u0644\u0631", "name:ckb": "\u0626\u0627\u200c\u063a\u062c\u06d5\u0644\u06d5\u0631", "name:de": "Aghjalar", "name:en": "Aghjalar", "name:fr": "Aghjalar", "name:ku": "A\u1e8dceler", "place": "town", "wikidata": "Q65404183", "wikipedia": "ckb:\u0626\u0627\u063a\u062c\u06d5\u0644\u06d5\u0631"}}, {"type": "node", "id": 2488283530, "lat": 35.6497344, "lon": 45.066405, "tags": {"name": "\u0628\u06d5\u0631\u062f\u06d5\u0642\u0627\u0631\u06d5\u0645\u0627\u0646", "name:ckb": "\u0628\u06d5\u0631\u062f\u06d5\u0642\u0627\u0631\u06d5\u0645\u0627\u0646", "name:en": "Bardaqaraman", "name:ku": "Berdeqareman", "old_name": "\u0628\u0627\u06cc\u0646\u062c\u0627\u0646", "place": "town", "wikidata": "Q61383874", "wikipedia": "ckb:\u0628\u06d5\u0631\u062f\u06d5\u0642\u0627\u0631\u06d5\u0645\u0627\u0646"}}, {"type": "node", "id": 2488317384, "lat": 36.066389, "lon": 45.047833, "tags": {"capital": "7", "name": "\u0628\u0646\u06af\u0631\u062f", "name:ar": "\u0628\u0646\u0643\u0631\u062f", "name:ckb": "\u0628\u0646\u06af\u0631\u062f", "name:de": "Bingird", "name:en": "Bingird", "name:fr": "Bingird", "name:ku": "Bingird", "place": "town", "wikidata": "Q61388506", "wikipedia": "ckb:\u0628\u0646\u06af\u0631\u062f"}}, {"type": "node", "id": 9922102822, "lat": 35.8731035, "lon": 44.5883689, "tags": {"name": "\u062e\u0627\u06b5\u062e\u0627\u06b5\u0627\u0646", "name:ckb": "\u062e\u0627\u06b5\u062e\u0627\u06b5\u0627\u0646", "name:en": "Khalkhalan", "name:ku": "Xallxallan", "place": "town"}}]}