{"version": 0.6, "generator": "Overpass API 0.7.62.4 2390de5a", "osm3s": {"timestamp_osm_base": "2025-01-08T07:22:42Z", "copyright": "The data included in this document is from www.openstreetmap.org. The data is made available under ODbL."}, "elements": [{"type": "node", "id": 2382418992, "lat": 18.444062, "lon": -9.493115, "tags": {"GNS:dsg_code": "PPL", "GNS:dsg_name": "populated place", "GNS:id": "-1404137", "GNS:modify_date": "2008-05-09", "alt_name": "Tichit;Tichitt;Tishit;T\u00eech\u00eet", "alt_name:ar": "\u062a\u0634\u062a", "heritage": "1", "heritage:operator": "whc", "name": "\u062a\u064a\u0634\u064a\u062a", "name:ar": "\u062a\u064a\u0634\u064a\u062a", "name:ast": "Tichit", "name:avk": "Tichitt", "name:ca": "Tichit", "name:da": "Tichitt", "name:de": "Tichitt", "name:en": "Tichit", "name:es": "Tichit", "name:eu": "Tichit", "name:fa": "\u062a\u06cc\u0634\u06cc\u062a", "name:fi": "Tichitt", "name:fr": "Tichitt", "name:he": "\u05ea\u05d9\u05e9\u05d9\u05ea", "name:hi": "\u0924\u093f\u0936\u093f\u0924", "name:it": "Tichitt", "name:ja": "\u30c6\u30a3\u30b7\u30c3\u30c8", "name:ka": "\u10e2\u10d8\u10e8\u10d8\u10e2\u10d8", "name:kab": "Ticcit", "name:lt": "Ti\u0161itas", "name:ms": "Tichit", "name:ne": "\u0924\u093f\u091a\u093f\u0924", "name:nl": "Tichitt", "name:no": "Tichitt", "name:pl": "Tiszit", "name:ro": "Tichitt", "name:ur": "\u062a\u06cc\u0634\u06cc\u062a", "note": "rank = 0 + City car sous-Pr\u00e9fecture", "place": "city", "rank": "0", "ref:whc": "750", "whc:criteria": "(iii),(iv),(v)", "wikidata": "Q985527", "wikipedia": "ar:\u062a\u064a\u0634\u064a\u062a", "wikipedia:ar": "\u062a\u064a\u0634\u064a\u062a"}}]}