{"version": 0.6, "generator": "Overpass API 0.7.62.4 2390de5a", "osm3s": {"timestamp_osm_base": "2025-01-08T06:24:35Z", "copyright": "The data included in this document is from www.openstreetmap.org. The data is made available under ODbL."}, "elements": [{"type": "node", "id": 1722008726, "lat": 23.3065001, "lon": 57.9980674, "tags": {"alt_name": "\u0633\u0645\u0627\u0626\u0644", "int_name": "Sum\u0101il, Sam\u0101il, Sam\u0101il, Sumayel, Sumayil, Sumail, Samail, Samail, Sumayel, Sumayil", "name": "\u0633\u0645\u0627\u0626\u0644", "name:ar": "\u0633\u0645\u0627\u0626\u0644", "name:ar1": "\u0633\u0645\u0627\u0626\u0644", "name:de": "Sumail", "name:en": "Samail", "name:fr": "Sumail", "name:ml": "\u0d38\u0d41\u0d2e\u0d48\u0d7d", "name:ru": "\u0421\u0443\u043c\u0430\u0438\u043b", "place": "city", "wikidata": "Q3470608", "wikipedia": "en:Samail"}}, {"type": "node", "id": 1722018665, "lat": 23.395468, "lon": 57.8289398, "tags": {"alt_name": "\u0646\u062e\u0644", "int_name": "Nakhl, Nakhl", "name": "\u0646\u062e\u0644", "name:ar": "\u0646\u062e\u0644", "name:ar1": "\u0646\u062e\u0644", "name:de": "Nakhl", "name:en": "Nakhal", "name:es": "Nakhal", "name:fr": "Nakhl", "name:ml": "\u0d28\u0d16\u0d4d\u0d7d", "place": "town", "wikidata": "Q2643322", "wikipedia": "en:Nakhal"}}, {"type": "node", "id": 1722027642, "lat": 23.41, "lon": 58.13, "tags": {"alt_name": "\u0628\u062f\u0628\u062f", "int_name": "Bidbid, Bidbid", "name": "\u0628\u062f\u0628\u062f", "name:ar": "\u0628\u062f\u0628\u062f", "name:ar1": "\u0628\u062f\u0628\u062f", "name:de": "Bidbid", "name:en": "Bidbid", "name:es": "Bidbid", "name:fr": "Bidbid", "name:ml": "\u0d2c\u0d3f\u0d26\u0d4d\u0d2c\u0d3f\u0d26\u0d4d", "place": "city", "source": "https://www.wikidata.org/wiki/Q547202", "wikidata": "Q547202", "wikipedia": "en:Bidbid"}}, {"type": "node", "id": 1722027744, "lat": 23.4634702, "lon": 58.1113887, "tags": {"alt_name": "\u0641\u0646\u062c\u0627;\u0641\u0646\u062c\u0627\u0621", "alt_name:ar": "\u0641\u0646\u062c\u0627;\u0641\u0646\u062c\u0627\u0621", "alt_name:en": "Fanjah", "name": "\u0641\u0646\u062c\u0627\u0621", "name:en": "Fanja", "name:ml": "\u0d2b\u0d1e\u0d4d\u0d1c", "place": "town", "wikidata": "Q26199827", "wikipedia": "en:Fanja, Oman"}}, {"type": "node", "id": 3725325930, "lat": 23.4150425, "lon": 57.8225752, "tags": {"name": "\u0627\u0644\u0634\u0639\u0628\u064a\u0629", "note": "\u0645\u0646\u0637\u0642\u0629 \u0627\u0644\u0634\u0639\u0628\u064a\u0629", "place": "town"}}, {"type": "node", "id": 3731686473, "lat": 23.4893978, "lon": 57.8385165, "tags": {"name": "\u0648\u0627\u062f\u064a \u0627\u0644\u0645\u0639\u0627\u0648\u0644", "name:en": "Wadi Almaawil", "name:ml": "\u0d35\u0d3e\u0d26\u0d3f \u0d05\u0d7d\u0d2e\u0d3e\u0d35\u0d3f\u0d7d", "note": "\u0648\u0644\u0627\u064a\u0629 \u0648\u0627\u062f\u064a \u0627\u0644\u0645\u0639\u0627\u0648\u0644 \u062a\u0627\u0628\u0639\u0629 \u0644\u0645\u062d\u0627\u0641\u0638\u0629 \u062c\u0646\u0648\u0628 \u0627\u0644\u0628\u0627\u0637\u0646\u0629 \u064a\u0648\u062c\u062f \u0641\u064a\u0647 \u0628\u0639\u0636 \u0627\u0644\u0645\u0646\u0627\u0637\u0642 \u0627\u0644\u0633\u064a\u0627\u062d\u064a\u0629 \u0645\u062b\u0644 : \u0642\u0644\u0639\u0629 \u0627\u0644\u0633\u0641\u0627\u0644\u0629 ,\u0628\u064a\u062a \u0627\u0644\u062e\u0646\u062f\u0642 \u0648\u0628\u0639\u0636 \u0627\u0644\u0627\u0648\u062f\u064a\u0629 \u0648\u062d\u062f\u064a\u0642\u0629 \u062a\u0631\u0641\u064a\u0647\u064a\u0629 \u0627\u0644\u0645\u0646\u0627\u0637\u0642 \u0627\u0644\u0645\u0648\u062c\u0648\u062f\u0629 \u0641\u064a \u0648\u0627\u062f\u064a \u0627\u0644\u0645\u0639\u0627\u0648\u0644: \u0623\u0641\u064a \u060c\u062d\u0628\u0631\u0627\u060c \u0645\u0633\u0644\u0645\u0627\u062a \u060c\u0627\u0644\u0648\u0627\u0633\u0637 \u0648\u062a\u062a\u0648\u0641\u0631 \u0641\u064a\u0647 \u062c\u0645\u064a\u0639 \u0627\u0644\u062e\u062f\u0645\u0627\u062a \u0627\u0644\u062a\u064a \u064a\u062d\u062a\u0627\u062c\u0647\u0627 \u0627\u0644\u0645\u0642\u064a\u0645 \u0648\u0627\u0644\u0633\u0627\u0626\u062d", "place": "town"}}]}