{"version": 0.6, "generator": "Overpass API 0.7.62.4 2390de5a", "osm3s": {"timestamp_osm_base": "2025-01-08T06:31:42Z", "copyright": "The data included in this document is from www.openstreetmap.org. The data is made available under ODbL."}, "elements": [{"type": "node", "id": 2482506327, "lat": 36.906868, "lon": 44.353111, "tags": {"alt_name": "\u067e\u06cc\u0631\u0627\u0646", "capital": "7", "int_name": "B\u012br\u0101n, P\u012br\u0101n, \u0628\u064a\u0631\u0627\u0646, Biran, Piran, \u0628\u064a\u0631\u0627\u0646", "name": "\u067e\u06cc\u0631\u0627\u0646", "name:ar": "\u0628\u064a\u0631\u0627\u0646", "name:ckb": "\u067e\u06cc\u0631\u0627\u0646", "name:de": "Piran", "name:en": "Piran", "name:fr": "Piran", "name:ku": "P\u00eeran", "place": "town", "wikidata": "Q12247139", "wikipedia": "ckb:\u067e\u06cc\u0631\u0627\u0646\u060c \u0645\u06ce\u0631\u06af\u06d5\u0633\u06c6\u0631"}}, {"type": "node", "id": 2488205967, "lat": 36.6145961, "lon": 44.5265186, "tags": {"alt_name": "\u0695\u06d5\u0648\u0627\u0646\u062f\u0632", "capital": "6", "ele": "794", "int_name": "Rawandiz", "name": "\u0695\u06d5\u0648\u0627\u0646\u062f\u0632", "name:ar": "\u0631\u0627\u0648\u0646\u062f\u0648\u0632", "name:ckb": "\u0695\u06d5\u0648\u0627\u0646\u062f\u0632", "name:ckb-Latn": "Rewandiz", "name:de": "Rawanduz", "name:en": "Rawandiz", "name:et": "Rawandoz", "name:fr": "Rawanduz", "name:ku": "Rewandiz", "name:ru": "\u0420\u0430\u0432\u0430\u043d\u0434\u0443\u0437", "place": "town", "population": "95089", "population:date": "2008", "postal_code": "44009", "wikidata": "Q579438", "wikipedia": "ckb:\u0695\u06d5\u0648\u0627\u0646\u062f\u0632"}}, {"type": "node", "id": 2488259320, "lat": 36.9304514, "lon": 44.0393768, "tags": {"alt_name": "\u0628\u0627\u0631\u0632\u0627\u0646", "capital": "7", "ele": "700", "int_name": "B\u0101rz\u0101n, \u0628\u0627\u0631\u0632\u0627\u0646, Barzan, \u0628\u0627\u0631\u0632\u0627\u0646", "name": "\u0628\u0627\u0631\u0632\u0627\u0646", "name:ar": "\u0628\u0627\u0631\u0632\u0627\u0646", "name:ckb": "\u0628\u0627\u0631\u0632\u0627\u0646", "name:de": "Barzan", "name:en": "Barzan", "name:fr": "Barzan", "name:ku": "Barzan", "name:ml": "\u0d2c\u0d3e\u0d7c\u0d38\u0d3e\u0d7b", "name:ru": "\u0411\u0430\u0440\u0437\u0430\u043d", "place": "town", "wikidata": "Q809686", "wikipedia": "ckb:\u0628\u0627\u0631\u0632\u0627\u0646"}}, {"type": "node", "id": 2488259403, "lat": 36.7292164, "lon": 44.018103, "tags": {"alt_name": "\u0628\u062c\u06cc\u0644", "capital": "7", "name": "\u0628\u062c\u06cc\u0644", "name:ar": "\u0628\u0648\u062c\u064a\u0644", "name:ckb": "\u0628\u062c\u06cc\u0644", "name:de": "Bjeel", "name:en": "Bjeel", "name:fr": "Bjeel", "name:ku": "Bic\u00eel", "place": "town", "population": "3000", "wikidata": "Q113667278"}}, {"type": "node", "id": 2488259960, "lat": 36.607823, "lon": 44.4018997, "tags": {"capital": "7", "name": "\u062e\u06d5\u0644\u06cc\u0641\u0627\u0646", "name:ar": "\u062e\u0644\u064a\u0641\u0627\u0646", "name:ckb": "\u062e\u06d5\u0644\u06cc\u0641\u0627\u0646", "name:de": "Khalifan", "name:en": "Khalifan", "name:fa": "\u062e\u0644\u06cc\u0641\u0627\u0646", "name:fr": "Khalifan", "name:ku": "Xel\u00eefan", "name:sdh": "\u062e\u06d5\u0644\u06cc\u0641\u0627\u0646", "place": "town", "population": "18146", "population:date": "2009", "postal_code": "44007", "wikidata": "Q5990270", "wikipedia": "ckb:\u062e\u06d5\u0644\u06cc\u0641\u0627\u0646\u060c \u0633\u06c6\u0631\u0627\u0646"}}, {"type": "node", "id": 2488260053, "lat": 36.8376877, "lon": 44.3065006, "tags": {"alt_name": "\u0645\u06ce\u0631\u06af\u06d5\u0633\u06c6\u0631", "capital": "6", "name": "\u0645\u06ce\u0631\u06af\u06d5\u0633\u06c6\u0631", "name:ar": "\u0645\u064a\u0631\u0643\u0633\u0648\u0631", "name:ckb": "\u0645\u06ce\u0631\u06af\u06d5\u0633\u06c6\u0631", "name:de": "Mergesor", "name:en": "Mergesor", "name:fr": "M\u00eargesor", "name:ku": "M\u00eargesor", "place": "town", "postal_code": "44013", "wikidata": "Q5990298", "wikipedia": "ckb:\u0642\u06d5\u0632\u0627\u06cc \u0645\u06ce\u0631\u06af\u06d5\u0633\u06c6\u0631"}}, {"type": "node", "id": 2488260215, "lat": 36.6441178, "lon": 44.4105072, "tags": {"capital": "7", "name": "\u0633\u0631\u06ce\u0634\u0645\u06d5", "name:ar": "\u0633\u0631\u0634\u0645\u0629", "name:ckb": "\u0633\u0631\u06ce\u0634\u0645\u06d5", "name:de": "Sreshma", "name:en": "Sreshma", "name:fr": "Sreshma", "place": "town", "population": "5185", "source": "https://gov.krd/", "wikidata": "Q5988371", "wikipedia": "ckb:\u0633\u0631\u06ce\u0634\u0645\u06d5\u060c \u0633\u06c6\u0631\u0627\u0646"}}, {"type": "node", "id": 2488269692, "lat": 36.7436724, "lon": 44.4563624, "tags": {"alt_name": "\u0645\u0627\u0632\u0646\u0629", "capital": "7", "int_name": "M\u0101znah, \u0645\u0627\u0632\u0646\u0647, Maznah, \u0645\u0627\u0632\u0646\u0647", "is_in": "Iraq , \u062c\u0645\u0647\u0648\u0631\u064a\u0629 \u0627\u0644\u0639\u0631\u0627\u0642", "name": "\u0645\u06d5\u0632\u0646\u06ce", "name:ar": "\u0645\u0627\u0632\u0646\u0629", "name:ckb": "\u0645\u06d5\u0632\u0646\u06ce", "name:de": "Mazne", "name:en": "Mazne", "name:fr": "Mazne", "place": "town", "wikidata": "Q6540712", "wikipedia": "en:Liberal Party (Mandatory Palestine)"}}, {"type": "node", "id": 5167213053, "lat": 36.5518438, "lon": 44.354093, "tags": {"admin_level": "7", "capital": "7", "name": "\u06be\u06d5\u0631\u06cc\u0631", "name:ar": "\u062d\u0631\u064a\u0631", "name:ckb": "\u06be\u06d5\u0631\u06cc\u0631", "name:de": "Harir", "name:en": "Harir", "name:ku": "Her\u00eer", "place": "town", "population": "21955", "postal_code": "44006", "wikidata": "Q4122022", "wikipedia": "ckb:\u06be\u06d5\u0631\u06cc\u0631"}}]}