{"version": 0.6, "generator": "Overpass API 0.7.62.4 2390de5a", "osm3s": {"timestamp_osm_base": "2025-01-08T06:28:44Z", "copyright": "The data included in this document is from www.openstreetmap.org. The data is made available under ODbL."}, "elements": [{"type": "node", "id": 191842691, "lat": 35.6470788, "lon": 36.6777062, "tags": {"name": "\u0645\u0639\u0631\u0629 \u0627\u0644\u0646\u0639\u0645\u0627\u0646", "name:ar": "\u0645\u0639\u0631\u0629 \u0627\u0644\u0646\u0639\u0645\u0627\u0646", "name:cs": "Ma'arat an-Num\u00e1n", "name:de": "Maarrat an-Numan", "name:en": "Ma'arrat an-Nu'man", "name:es": "Maarat an-Numan", "name:fr": "Maarrat an-Numane", "name:he": "\u05de\u05e2\u05e8\u05ea \u05d0-\u05e0\u05d5\u05e2\u05de\u05d0\u05df", "name:hu": "Maarrat an-Num\u00e1n", "name:ja": "\u30de\u30a2\u30c3\u30e9\u30c8\u30fb\u30a2\u30f3\u30a0\u30cc\u30a6\u30de\u30fc\u30f3", "name:ko": "\ub9c8\uc544\ub77c\ud2b8\uc544\ub204\uc6b0\ub9cc", "name:lt": "Maarat an Numanas", "name:ml": "\u0d2e\u0d3e\u0d31\u0d24\u0d4d\u0d24\u0d4d \u0d05\u0d28\u0d4d\u0d28\u0d41\u0d2e\u0d3e\u0d7b", "name:ru": "\u041c\u0430\u0430\u0440\u0440\u0430\u0442-\u0430\u043d-\u041d\u0443\u043c\u0430\u043d", "name:tr": "Maarret\u00fcnnu'm\u00e2n", "name:uk": "\u041c\u0430\u0430\u0440\u0440\u0435\u0442-\u0435\u043d-\u041d\u0443\u0443\u043c\u0430\u043d", "name:zh": "\u9081\u963f\u8cf4\u52aa\u963f\u66fc", "old_name": "Arra, La Marre", "place": "city", "population": "58008", "population:date": "2004", "source:population": "\u0627\u0644\u0645\u0643\u062a\u0628 \u0627\u0644\u0645\u0631\u0643\u0632\u064a \u0644\u0644\u0625\u062d\u0635\u0627\u0621", "wikidata": "Q728226", "wikipedia": "ar:\u0645\u0639\u0631\u0629 \u0627\u0644\u0646\u0639\u0645\u0627\u0646"}}, {"type": "node", "id": 571171474, "lat": 35.2610276, "lon": 36.6066628, "tags": {"name": "\u062d\u0644\u0641\u0627\u064a\u0627", "name:ar": "\u062d\u0644\u0641\u0627\u064a\u0627", "name:de": "Halfaja", "name:en": "Halfaya", "name:fr": "Halfaia", "name:he": "\u05d7\u05dc\u05e4\u05d0\u05d9\u05d0", "name:ja": "\u30cf\u30eb\u30d5\u30a1\u30fc\u30e4\u30fc", "name:ko": "\ud560\ud30c\uc57c", "name:ml": "\u0d39\u0d7d\u0d2b\u0d3e\u0d2f", "name:ru": "\u0425\u0430\u043b\u0444\u0430\u044f", "place": "town", "population": "21180", "population:date": "2004", "source:population": "\u0627\u0644\u0645\u0643\u062a\u0628 \u0627\u0644\u0645\u0631\u0643\u0632\u064a \u0644\u0644\u0625\u062d\u0635\u0627\u0621", "wikidata": "Q1704164"}}, {"type": "node", "id": 572533127, "lat": 35.5477746, "lon": 36.6437816, "tags": {"name": "\u062d\u064a\u0634", "name:ar": "\u062d\u064a\u0634", "name:de": "Hesch", "name:en": "Heish", "name:fr": "Heiche", "name:he": "\u05d7\u05d9\u05e9", "name:ja": "\u30d8\u30fc\u30b7", "name:ko": "\ud5e4\uc288", "name:ru": "\u0425\u0435\u0439\u0448", "place": "town", "population": "8817", "population:date": "2004", "source:population": "\u0627\u0644\u0645\u0643\u062a\u0628 \u0627\u0644\u0645\u0631\u0643\u0632\u064a \u0644\u0644\u0625\u062d\u0635\u0627\u0621"}}, {"type": "node", "id": 572533331, "lat": 35.6160783, "lon": 36.5921674, "tags": {"name": "\u062d\u0627\u0633", "name:ar": "\u062d\u0627\u0633", "name:de": "Has", "name:en": "Has", "name:fr": "Hasse", "name:he": "\u05d7\u05d0\u05e1", "name:ja": "\u30cf\u30fc\u30b9", "name:ko": "\ud558\uc2a4", "name:ml": "\u0d39\u0d3e\u0d38\u0d4d", "name:ru": "\u0425\u0430\u0441", "place": "town", "population": "9595", "population:date": "2004", "source:population": "\u0627\u0644\u0645\u0643\u062a\u0628 \u0627\u0644\u0645\u0631\u0643\u0632\u064a \u0644\u0644\u0625\u062d\u0635\u0627\u0621", "wikidata": "Q5679448", "wikipedia": "ar:\u062d\u0627\u0633"}}, {"type": "node", "id": 572533626, "lat": 35.5490578, "lon": 36.5422195, "tags": {"name": "\u0645\u0639\u0631\u062a\u062d\u0631\u0645\u0629", "name:ar": "\u0645\u0639\u0631\u062a\u062d\u0631\u0645\u0629", "name:de": "Maartahrame", "name:en": "Ma'artahrame", "name:fr": "Maartahram\u00e9", "name:he": "\u05de\u05e2\u05e8\u05ea\u05d7\u05e8\u05de\u05d4", "name:ja": "\u30de\u30a2\u30eb\u30bf\u30d5\u30e9\u30e1", "name:ko": "\ub9c8\uc544\ub974\ud0c0\ud750\ub77c\uba54", "name:ru": "\u041c\u0430\u0430\u0440\u0442\u0430\u0445\u0440\u0430\u043c\u0435", "place": "town", "population": "7216", "population:date": "2004", "source:population": "\u0627\u0644\u0645\u0643\u062a\u0628 \u0627\u0644\u0645\u0631\u0643\u0632\u064a \u0644\u0644\u0625\u062d\u0635\u0627\u0621"}}, {"type": "node", "id": 572533899, "lat": 35.5274072, "lon": 36.590483, "tags": {"name": "\u0643\u0641\u0631\u0633\u062c\u0646\u0629", "name:ar": "\u0643\u0641\u0631\u0633\u062c\u0646\u0629", "name:de": "Kafrsadschna", "name:en": "Kafrsajna", "name:fr": "Kafrsadjna", "name:he": "\u05db\u05e4\u05e8\u05e1\u05d2\u05f3\u05e0\u05d4", "name:ja": "\u30ab\u30d5\u30eb\u30b5\u30b8\u30e5\u30ca", "name:ko": "\uce74\ud504\ub974\uc0ac\uc988\ub098", "name:ru": "\u041a\u0430\u0444\u0440\u0441\u0430\u0434\u0436\u043d\u0430", "place": "town", "population": "8935", "population:date": "2004", "source:population": "\u0627\u0644\u0645\u0643\u062a\u0628 \u0627\u0644\u0645\u0631\u0643\u0632\u064a \u0644\u0644\u0625\u062d\u0635\u0627\u0621"}}, {"type": "node", "id": 572534288, "lat": 35.6136846, "lon": 36.5626443, "tags": {"name": "\u0643\u0641\u0631\u0646\u0628\u0644", "name:ar": "\u0643\u0641\u0631\u0646\u0628\u0644", "name:de": "Kafranbel", "name:en": "Kafranbel", "name:fr": "Kafranbel", "name:he": "\u05db\u05e4\u05e8\u05e0\u05d1\u05dc", "name:ja": "\u30ab\u30d5\u30e9\u30f3\u30d9\u30eb", "name:ko": "\uce74\ud504\ub780\ubca8", "name:ml": "\u0d15\u0d2b\u0d4d\u0d30\u0d7b\u0d2c\u0d46\u0d7d", "name:ru": "\u041a\u0430\u0444\u0440\u0430\u043d\u0431\u0435\u043b\u044c", "place": "town", "population": "15455", "population:date": "2004", "source:population": "\u0627\u0644\u0645\u0643\u062a\u0628 \u0627\u0644\u0645\u0631\u0643\u0632\u064a \u0644\u0644\u0625\u062d\u0635\u0627\u0621", "wikidata": "Q6346193", "wikipedia": "ar:\u0643\u0641\u0631\u0646\u0628\u0644"}}, {"type": "node", "id": 572535115, "lat": 35.440068, "lon": 36.6471073, "tags": {"name": "\u062e\u0627\u0646 \u0634\u064a\u062e\u0648\u0646", "name:ar": "\u062e\u0627\u0646 \u0634\u064a\u062e\u0648\u0646", "name:cs": "Ch\u00e1n \u0160ajch\u00fan", "name:de": "Chan Scheichun", "name:en": "Khan Shaykhoun", "name:es": "Jan Sheijun", "name:fr": "Khan Cha\u00efkhoune", "name:he": "\u05d7'\u05d0\u05df \u05e9\u05d9\u05d9\u05d7'\u05d5\u05df", "name:ja": "\u30cf\u30fc\u30f3\u30fb\u30b7\u30e3\u30a4\u30d5\u30fc\u30f3", "name:ko": "\uce78\uc0e4\uc774\ucfe4", "name:ml": "\u0d16\u0d3e\u0d7b \u0d37\u0d46\u0d2f\u0d4d\u0d16\u0d41\u0d7b", "name:ru": "\u0425\u0430\u043d-\u0428\u0430\u0439\u0445\u0443\u043d", "name:uk": "\u0425\u0430\u043d-\u0428\u0430\u0439\u0445\u0443\u043d", "place": "town", "population": "34371", "population:date": "2004", "source:population": "\u0627\u0644\u0645\u0643\u062a\u0628 \u0627\u0644\u0645\u0631\u0643\u0632\u064a \u0644\u0644\u0625\u062d\u0635\u0627\u0621", "wikidata": "Q603516", "wikipedia": "ar:\u062e\u0627\u0646 \u0634\u064a\u062e\u0648\u0646"}}, {"type": "node", "id": 572535167, "lat": 35.4585756, "lon": 36.7490606, "tags": {"name": "\u0627\u0644\u062a\u0645\u0627\u0646\u0639\u0629", "name:ar": "\u0627\u0644\u062a\u0645\u0627\u0646\u0639\u0629", "name:de": "at-Tamanaa", "name:en": "At-Taman'a", "name:fr": "At-Tamanaa", "name:he": "\u05d0-\u05ea\u05de\u05d0\u05e0\u05e2\u05d4", "name:ja": "\u30a2\u30c3\u30a0\u30bf\u30de\u30fc\u30ca", "name:ko": "\uc544\ud0c0\ub9cc\uc544", "name:ml": "\u0d05\u0d24\u0d4d\u0d24\u0d2e\u0d3e\u0d28", "name:ru": "\u0410\u0442-\u0422\u0430\u043c\u0430\u043d\u0430\u0430", "place": "town", "population": "7382", "population:date": "2004", "source:population": "\u0627\u0644\u0645\u0643\u062a\u0628 \u0627\u0644\u0645\u0631\u0643\u0632\u064a \u0644\u0644\u0625\u062d\u0635\u0627\u0621"}}, {"type": "node", "id": 572535437, "lat": 35.5414909, "lon": 36.7289309, "tags": {"name": "\u0627\u0644\u062a\u062d", "name:ar": "\u0627\u0644\u062a\u062d", "name:de": "at-Tah", "name:en": "At-Tah", "name:fr": "At-Tah", "name:he": "\u05d0-\u05ea\u05d7", "name:ja": "\u30a2\u30c3\u30a0\u30bf\u30d5", "name:ko": "\uc544\ud0c0\ud750", "name:ru": "\u0410\u0442-\u0422\u0430\u0445", "place": "town", "population": "8606", "population:date": "2004", "source:population": "\u0627\u0644\u0645\u0643\u062a\u0628 \u0627\u0644\u0645\u0631\u0643\u0632\u064a \u0644\u0644\u0625\u062d\u0635\u0627\u0621"}}, {"type": "node", "id": 572535550, "lat": 35.6368881, "lon": 36.6362902, "tags": {"name": "\u0643\u0641\u0631\u0648\u0645\u0629", "name:ar": "\u0643\u0641\u0631\u0648\u0645\u0629", "name:de": "Kafruma", "name:en": "Kafruma", "name:fr": "Kafrouma", "name:he": "\u05db\u05e4\u05e8\u05d5\u05de\u05d4", "name:ja": "\u30ab\u30d5\u30eb\u30fc\u30de", "name:ko": "\uce74\ud504\ub8e8\ub9c8", "name:ru": "\u041a\u0430\u0444\u0440\u0443\u043c\u0430", "place": "town", "population": "12276", "population:date": "2004", "source:population": "\u0627\u0644\u0645\u0643\u062a\u0628 \u0627\u0644\u0645\u0631\u0643\u0632\u064a \u0644\u0644\u0625\u062d\u0635\u0627\u0621"}}, {"type": "node", "id": 572535668, "lat": 35.6383733, "lon": 36.7396118, "tags": {"name": "\u062a\u0644\u0645\u0646\u0633", "name:ar": "\u062a\u0644\u0645\u0646\u0633", "name:de": "Talmanas", "name:en": "Talmanas", "name:fr": "Talmanase", "name:he": "\u05ea\u05dc\u05de\u05e0\u05e1", "name:ja": "\u30bf\u30eb\u30de\u30ca\u30b9", "name:ko": "\ud0c8\ub9c8\ub098\uc2a4", "name:ru": "\u0422\u0430\u043b\u043c\u0430\u043d\u0430\u0441", "place": "town", "population": "11359", "population:date": "2004", "source:population": "\u0627\u0644\u0645\u0643\u062a\u0628 \u0627\u0644\u0645\u0631\u0643\u0632\u064a \u0644\u0644\u0625\u062d\u0635\u0627\u0621"}}, {"type": "node", "id": 572536638, "lat": 35.3751598, "lon": 36.6898693, "tags": {"name": "\u0645\u0648\u0631\u0643", "name:ar": "\u0645\u0648\u0631\u0643", "name:de": "Murak", "name:en": "Murak", "name:fr": "Morac", "name:he": "\u05de\u05d5\u05e8\u05da", "name:ja": "\u30e0\u30fc\u30e9\u30af", "name:ko": "\ubb34\ub77c\ud06c", "name:ml": "\u0d2e\u0d41\u0d31\u0d15\u0d4d\u0d15\u0d4d", "name:ru": "\u041c\u0443\u0440\u0430\u043a", "place": "town", "population": "14307", "population:date": "2004", "source:population": "\u0627\u0644\u0645\u0643\u062a\u0628 \u0627\u0644\u0645\u0631\u0643\u0632\u064a \u0644\u0644\u0625\u062d\u0635\u0627\u0621"}}, {"type": "node", "id": 572536652, "lat": 35.4374383, "lon": 36.5384677, "tags": {"name": "\u0627\u0644\u0647\u0628\u064a\u0637", "name:ar": "\u0627\u0644\u0647\u0628\u064a\u0637", "name:de": "al-Hebeit", "name:en": "Al-Hebeit", "name:fr": "Al-Hebe\u00eft", "name:he": "\u05d0\u05dc-\u05d4\u05d1\u05d9\u05d8", "name:ja": "\u30a2\u30eb\u30a0\u30d8\u30d9\u30fc\u30c8", "name:ko": "\uc54c\ud5e4\ubca0\ud2b8", "name:ml": "\u0d05\u0d7d-\u0d39\u0d46\u0d2c\u0d46\u0d2f\u0d4d\u0d24\u0d4d", "name:ru": "\u0410\u043b\u044c-\u0425\u0435\u0431\u0439\u0442", "place": "town", "population": "10144", "population:date": "2004", "source:population": "\u0627\u0644\u0645\u0643\u062a\u0628 \u0627\u0644\u0645\u0631\u0643\u0632\u064a \u0644\u0644\u0625\u062d\u0635\u0627\u0621"}}, {"type": "node", "id": 572536932, "lat": 35.3723918, "lon": 36.6012977, "tags": {"name": "\u0643\u0641\u0631 \u0632\u064a\u062a\u0627", "name:ar": "\u0643\u0641\u0631 \u0632\u064a\u062a\u0627", "name:de": "Kafr Sita", "name:en": "Kafr Zita", "name:fr": "Kafr Zita", "name:he": "\u05db\u05e4\u05e8 \u05d6\u05d9\u05ea\u05d0", "name:ja": "\u30ab\u30d5\u30eb\u30fb\u30ba\u30a3\u30fc\u30bf", "name:ko": "\uce74\ud504\ub974\uc9c0\ud0c0", "name:ml": "\u0d15\u0d2b\u0d7c \u0d38\u0d46\u0d2f\u0d4d\u0d24\u0d4d\u0d24", "name:ru": "\u041a\u0430\u0444\u0440-\u0417\u0438\u0442\u0430", "place": "town", "population": "17052", "population:date": "2004", "source:population": "\u0627\u0644\u0645\u0643\u062a\u0628 \u0627\u0644\u0645\u0631\u0643\u0632\u064a \u0644\u0644\u0625\u062d\u0635\u0627\u0621", "wikidata": "Q6346221"}}, {"type": "node", "id": 572540456, "lat": 35.6178458, "lon": 36.7837646, "tags": {"name": "\u062c\u0631\u062c\u0646\u0627\u0632", "name:ar": "\u062c\u0631\u062c\u0646\u0627\u0632", "name:de": "Dschardschanas", "name:en": "Jarjanaz", "name:fr": "Djardjanaze", "name:he": "\u05d2\u05f3\u05e8\u05d2\u05f3\u05e0\u05d0\u05d6", "name:ja": "\u30b8\u30e3\u30eb\u30b8\u30e3\u30ca\u30fc\u30ba", "name:ko": "\uc790\ub974\uc790\ub098\uc988", "name:ru": "\u0414\u0436\u0430\u0440\u0434\u0436\u0430\u043d\u0430\u0437", "place": "town", "population": "10756", "population:date": "2004", "source:population": "\u0627\u0644\u0645\u0643\u062a\u0628 \u0627\u0644\u0645\u0631\u0643\u0632\u064a \u0644\u0644\u0625\u062d\u0635\u0627\u0621"}}, {"type": "node", "id": 572554705, "lat": 35.2662637, "lon": 36.7118709, "tags": {"name": "\u0637\u064a\u0628\u0629 \u0627\u0644\u0625\u0645\u0627\u0645", "name:ar": "\u0637\u064a\u0628\u0629 \u0627\u0644\u0625\u0645\u0627\u0645", "name:cs": "Taybat al-Im\u00e1m", "name:de": "Tibat al-Imam", "name:en": "Tibat al-Imam", "name:fr": "Tibat al-Imam", "name:he": "\u05d8\u05d9\u05d1\u05ea \u05d0\u05dc-\u05d0\u05de\u05d0\u05dd", "name:he1": "\u05d8\u05d9\u05d1\u05ea \u05d0\u05dc-\u05d0\u05d9\u05de\u05d0\u05dd", "name:ja": "\u30c6\u30a3\u30fc\u30d0\u30c8\u30a5\u30fb\u30a2\u30eb\u30a0\u30a4\u30de\u30fc\u30e0", "name:ko": "\ud2f0\ubc14\ud2b8\uc54c\uc774\ub9c8\ubbc0", "name:ml": "\u0d24\u0d4d\u0d35\u0d2f\u0d4d\u0d2f\u0d3f\u0d2c\u0d24\u0d4d\u0d24\u0d4d \u0d05\u0d7d-\u0d07\u0d2e\u0d3e\u0d02", "name:ru": "\u0422\u0438\u0431\u0430\u0442-\u0430\u043b\u044c-\u0418\u043c\u0430\u043c", "place": "town", "population": "24105", "population:date": "2004", "source:population": "\u0627\u0644\u0645\u0643\u062a\u0628 \u0627\u0644\u0645\u0631\u0643\u0632\u064a \u0644\u0644\u0625\u062d\u0635\u0627\u0621", "wikidata": "Q7689761", "wikipedia": "ar:\u0637\u064a\u0628\u0629 \u0627\u0644\u0625\u0645\u0627\u0645"}}, {"type": "node", "id": 572555668, "lat": 35.2906196, "lon": 36.7484154, "tags": {"name": "\u0635\u0648\u0631\u0627\u0646", "name:ar": "\u0635\u0648\u0631\u0627\u0646", "name:de": "Soran", "name:en": "Souran", "name:fr": "Sourane", "name:he": "\u05e1\u05d5\u05e8\u05d0\u05df", "name:ja": "\u30bd\u30fc\u30e9\u30fc\u30f3", "name:ko": "\uc18c\ub780", "name:ml": "\u0d38\u0d42\u0d31\u0d3e\u0d7b", "name:ru": "\u0421\u043e\u0440\u0430\u043d", "place": "town", "population": "29100", "population:date": "2004", "source:population": "\u0627\u0644\u0645\u0643\u062a\u0628 \u0627\u0644\u0645\u0631\u0643\u0632\u064a \u0644\u0644\u0625\u062d\u0635\u0627\u0621", "wikidata": "Q7645373", "wikipedia": "ar:\u0635\u0648\u0631\u0627\u0646"}}, {"type": "node", "id": 572556067, "lat": 35.3221751, "lon": 36.6237341, "tags": {"name": "\u0627\u0644\u0644\u0637\u0627\u0645\u0646\u0629", "name:ar": "\u0627\u0644\u0644\u0637\u0627\u0645\u0646\u0629", "name:de": "al-Latamna", "name:en": "Al-Latamna", "name:fr": "Al-Latamna", "name:he": "\u05d0\u05dc-\u05dc\u05d8\u05d0\u05de\u05e0\u05d4", "name:ja": "\u30a2\u30eb\u30a0\u30e9\u30bf\u30fc\u30e1\u30ca", "name:ko": "\uc54c\ub77c\ud0c0\ubbf8\ub098", "name:ml": "\u0d05\u0d7d-\u0d32\u0d24\u0d4d\u0d24\u0d3e\u0d2e\u0d3f\u0d28", "name:ru": "\u0410\u043b\u044c-\u041b\u0430\u0442\u0430\u043c\u043d\u0430", "place": "town", "population": "16267", "population:date": "2004", "source:population": "\u0627\u0644\u0645\u0643\u062a\u0628 \u0627\u0644\u0645\u0631\u0643\u0632\u064a \u0644\u0644\u0625\u062d\u0635\u0627\u0621"}}, {"type": "node", "id": 572556656, "lat": 35.2480024, "lon": 36.5778637, "tags": {"name": "\u0645\u062d\u0631\u062f\u0629", "name:ar": "\u0645\u062d\u0631\u062f\u0629", "name:de": "Muharda", "name:en": "Muharda", "name:fr": "Muharda", "name:he": "\u05de\u05d7\u05e8\u05d3\u05d4", "name:ja": "\u30e0\u30cf\u30eb\u30c0", "name:ko": "\ubb34\ud558\ub974\ub2e4", "name:ml": "\u0d2e\u0d41\u0d39\u0d7c\u0d26", "name:ru": "\u041c\u0443\u0445\u0430\u0440\u0434\u0430", "place": "town", "population": "17578", "population:date": "2004", "source:population": "\u0627\u0644\u0645\u0643\u062a\u0628 \u0627\u0644\u0645\u0631\u0643\u0632\u064a \u0644\u0644\u0625\u062d\u0635\u0627\u0621"}}, {"type": "node", "id": 572557538, "lat": 35.2605566, "lon": 36.5609737, "tags": {"name": "\u0634\u064a\u0632\u0631", "name:ar": "\u0634\u064a\u0632\u0631", "name:de": "Schiser", "name:en": "Shizar", "name:fr": "Chizar", "name:he": "\u05e9\u05d9\u05d6\u05e8", "name:ja": "\u30b7\u30b6\u30eb", "name:ko": "\uc2dc\uc790\ub974", "name:ru": "\u0428\u0438\u0437\u0430\u0440", "name:tr": "\u015eeyzer", "place": "town", "population": "5953", "population:date": "2004", "source:population": "\u0627\u0644\u0645\u0643\u062a\u0628 \u0627\u0644\u0645\u0631\u0643\u0632\u064a \u0644\u0644\u0625\u062d\u0635\u0627\u0621"}}, {"type": "node", "id": 572557658, "lat": 35.254696, "lon": 36.7565338, "tags": {"name": "\u0645\u0639\u0631\u062f\u0633", "name:ar": "\u0645\u0639\u0631\u062f\u0633", "name:de": "Maardas", "name:en": "Ma'ardas", "name:fr": "Maardase", "name:he": "\u05de\u05e2\u05e8\u05d3\u05e1", "name:ja": "\u30de\u30a2\u30eb\u30c0\u30bb", "name:ko": "\ub9c8\uc544\ub974\ub2e4\uc138", "name:ml": "\u0d2e\u0d3e\u0d7c\u0d26\u0d38\u0d4d", "name:ru": "\u041c\u0430\u0430\u0440\u0434\u0430\u0441", "place": "town", "population": "6750", "population:date": "2004", "source:population": "\u0627\u0644\u0645\u0643\u062a\u0628 \u0627\u0644\u0645\u0631\u0643\u0632\u064a \u0644\u0644\u0625\u062d\u0635\u0627\u0621"}}]}