{"version": 0.6, "generator": "Overpass API 0.7.62.4 2390de5a", "osm3s": {"timestamp_osm_base": "2025-01-08T06:28:44Z", "copyright": "The data included in this document is from www.openstreetmap.org. The data is made available under ODbL."}, "elements": [{"type": "node", "id": 2608185040, "lat": 35.960035, "lon": 38.0412782, "tags": {"alt_name": "\u0639\u0646\u064a\u0632\u0629", "alt_name:ar": "\u0639\u0646\u064a\u0632\u0629", "alt_name:de": "Uneisja", "alt_name:en": "Unaizya", "alt_name:fr": "Ouna\u00efza", "alt_name:he": "\u05e2\u05e0\u05d9\u05d6\u05d4", "alt_name:ja": "\u30a6\u30ca\u30a4\u30b6", "alt_name:ko": "\uc6b0\ub098\uc774z\uc544", "alt_name:ru": "\u0423\u043d\u0435\u0439\u0437\u0430", "name": "\u0645\u0633\u0643\u0646\u0629", "name:ar": "\u0645\u0633\u0643\u0646\u0629", "name:de": "Maskana", "name:en": "Maskana", "name:fr": "Maskana", "name:he": "\u05de\u05e1\u05db\u05e0\u05d4", "name:ja": "\u30de\u30b9\u30ab\u30ca", "name:ko": "\ub9c8\uc2a4\uce74\ub098", "name:ml": "\u0d2e\u0d38\u0d4d\u200c\u0d15\u0d28", "name:ru": "\u041c\u0430\u0441\u043a\u0430\u043d\u0430", "place": "town", "population": "15477", "population:date": "2004", "source:population": "\u0627\u0644\u0645\u0643\u062a\u0628 \u0627\u0644\u0645\u0631\u0643\u0632\u064a \u0644\u0644\u0625\u062d\u0635\u0627\u0621", "wikidata": "Q2044596"}}, {"type": "node", "id": 12222552794, "lat": 36.014569, "lon": 37.8379359, "tags": {"name": "\u0627\u0644\u0646\u0627\u0635\u0631\u064a\u0629 \u0641\u0648\u0642\u0627\u0646\u064a", "name:ar": "\u0627\u0644\u0646\u0627\u0635\u0631\u064a\u0629 \u0641\u0648\u0642\u0627\u0646\u064a", "name:de": "an-Nasirije Fokani", "name:en": "An-Nasiriye Fouqani", "name:fr": "An-Nasri\u00e9 Fouqani", "name:he": "\u05d0-\u05e0\u05d0\u05e1\u05e8\u05d9\u05d4 \u05e4\u05d5\u05e7\u05d0\u05e0\u05d9", "name:ja": "\u30a2\u30f3\u30a0\u30ca\u30fc\u30bb\u30ea\u30a8\u30fb\u30d5\u30a9\u30ab\u30fc\u30cb", "name:ko": "\uc548\ub098\uc138\ub9ac\uc608\ud3ec\uce74\ub2c8", "name:ru": "\u0410\u043d-\u041d\u0430\u0441\u0438\u0440\u0438\u0301\u0439\u0435-\u0424\u043e\u0443\u043a\u0430\u043d\u0438", "place": "town", "population": "9271", "population:date": "2004", "source:population": "\u0627\u0644\u0645\u0643\u062a\u0628 \u0627\u0644\u0645\u0631\u0643\u0632\u064a \u0644\u0644\u0625\u062d\u0635\u0627\u0621"}}, {"type": "node", "id": 12382484391, "lat": 35.9665644, "lon": 38.0962431, "tags": {"name": "\u0645\u062c\u0645\u0651\u0639 \u062d\u0637\u0651\u064a\u0646", "name:ar": "\u0645\u062c\u0645\u0651\u0639 \u062d\u0637\u0651\u064a\u0646", "name:de": "Mudschamma Hittin", "name:en": "Mujamma Hittin", "name:fr": "Mudjamma Hittine", "name:he": "\u05de\u05d2\u05f3\u05de\u05de\u05e2 \u05d7\u05d8\u05d8\u05d9\u05e0", "name:ja": "\u30e0\u30b8\u30e3\u30c3\u30de\u30fb\u30d2\u30c3\u30c6\u30a3\u30fc\u30f3", "name:ko": "\ubb34\uc7a0\ub9c8\ud78f\ud2f4", "name:ru": "\u041c\u0443\u0434\u0436\u0430\u043c\u043c\u0430-\u0425\u0438\u0442\u0442\u0438\u043d", "place": "town", "population": "7558", "population:date": "2004", "source:population": "\u0627\u0644\u0645\u0643\u062a\u0628 \u0627\u0644\u0645\u0631\u0643\u0632\u064a \u0644\u0644\u0625\u062d\u0635\u0627\u0621"}}]}