{"version": 0.6, "generator": "Overpass API 0.7.62.4 2390de5a", "osm3s": {"timestamp_osm_base": "2025-01-08T07:07:31Z", "copyright": "The data included in this document is from www.openstreetmap.org. The data is made available under ODbL."}, "elements": [{"type": "node", "id": 288418022, "lat": 36.4705658, "lon": 2.8274937, "tags": {"capital": "4", "name": "Blida \u2d4d\u2d3b\u2d31\u2d4d\u2d49\u2d38\u2d30 \u0627\u0644\u0628\u0644\u064a\u062f\u0629", "name:ar": "\u0627\u0644\u0628\u0644\u064a\u062f\u0629", "name:az-Arab": "\u0627\u0644\u0628\u0644\u06cc\u062f\u0647", "name:azb": "\u0627\u0644\u0628\u0644\u06cc\u062f\u0647", "name:be": "\u0411\u043b\u0456\u0434\u0430", "name:ber": "\u2d4d\u2d3b\u2d31\u2d4d\u2d49\u2d38\u2d30", "name:bg": "\u0411\u043b\u0438\u0434\u0430", "name:ca": "Blida", "name:de": "Blida", "name:el": "\u039c\u03c0\u03bb\u03af\u03bd\u03c4\u03b1", "name:en": "Blida", "name:es": "Blida", "name:eu": "Blida", "name:fa": "\u0627\u0644\u0628\u0644\u06cc\u062f\u0647", "name:fr": "Blida", "name:it": "Blida", "name:ja": "\u30d6\u30ea\u30c0", "name:kab": "Lebli\u1e0fa", "name:kab-Arab": "\u0627\u0644\u0628\u0644\u064a\u062f\u0629", "name:kk": "\u0411\u043b\u0438\u0434\u0430", "name:kk-Arab": "\u0628\u0644\u0649\u064a\u062f\u0627", "name:ko": "\ube14\ub9ac\ub2e4", "name:ks": "\u0628\u0644\u06cc\u062f\u06c1", "name:lt": "Blida", "name:nl": "Blida", "name:ota": "\u0627\u0644\u0628\u0644\u06cc\u062f\u0647", "name:pl": "Al-Bulajda", "name:pnb": "\u0628\u0644\u06cc\u062f\u06c1", "name:pt": "Blida", "name:ro": "Blida", "name:ru": "\u0411\u043b\u0438\u0434\u0430", "name:sh": "Blida", "name:sr": "\u0411\u043b\u0438\u0434\u0430", "name:uk": "\u0411\u043b\u0456\u0434\u0430", "name:ur": "\u0628\u0644\u06cc\u062f\u06c1", "name:zh": "\u535c\u5229\u8fbe", "place": "city", "population": "331779", "population:date": "2008", "postal_code": "09000", "ref:ONS": "0901", "wikidata": "Q216990", "wikipedia": "ar:\u0627\u0644\u0628\u0644\u064a\u062f\u0629", "wikipedia:es": "Blida"}}, {"type": "node", "id": 288419592, "lat": 36.1352805, "lon": 2.9172738, "tags": {"name": "Berrouaghia", "name:ar": "\u0627\u0644\u0628\u0631\u0648\u0627\u0642\u064a\u0629", "name:ber": "\u2d31\u2d3b\u2d54\u2d61\u2d30\u2d33\u2d49\u2d62\u2d30", "name:en": "Berrouaghia", "name:fr": "Berrouaghia", "name:kab": "Berwagiya", "place": "town", "population": "60152", "postal_code": "26002", "wikidata": "Q2214965", "wikimedia_commons": "Category:Berrouaghia", "wikipedia": "fr:Berrouaghia"}}, {"type": "node", "id": 439919524, "lat": 36.4127653, "lon": 3.3097893, "tags": {"name": "Tablat \u2d5c\u2d30\u2d31\u2d4d\u2d30\u2d5f \u062a\u0627\u0628\u0644\u0627\u0637", "name:ar": "\u062a\u0627\u0628\u0644\u0627\u0637", "name:ber": "\u2d5c\u2d30\u2d31\u2d4d\u2d30\u2d5f", "name:en": "Tablat", "name:fr": "Tablat", "name:kab": "Tabla\u1e6d", "place": "town", "population": "27919", "wikidata": "Q1649907", "wikimedia_commons": "Category:Tablat", "wikipedia": "fr:Tablat"}}, {"type": "node", "id": 443043847, "lat": 36.2147224, "lon": 3.1265784, "tags": {"name": "Sidi Naamane", "name:ar": "\u0633\u064a\u062f\u064a \u0646\u0639\u0645\u0627\u0646", "name:ber": "\u2d59\u2d49\u2d37\u2d49 \u2d4f\u2d3b\u2d44\u2d4e\u2d30\u2d4f", "name:en": "Sidi Naamane", "name:fr": "Sidi Naamane", "name:kab": "Sidi Ne\u025bman", "place": "town", "population": "17803", "wikidata": "Q3483276", "wikimedia_commons": "Category:Sidi Naamane (M\u00e9d\u00e9a Province)", "wikipedia": "fr:Sidi Naamane (M\u00e9d\u00e9a)"}}, {"type": "node", "id": 443044186, "lat": 36.230723, "lon": 3.3104153, "tags": {"name": "Beni Slimane", "name:ar": "\u0628\u0646\u064a \u0633\u0644\u064a\u0645\u0627\u0646", "name:ber": "\u2d31\u2d3b\u2d4f\u2d49 \u2d59\u2d4d\u2d49\u2d4e\u2d30\u2d4f", "name:en": "Beni Slimane", "name:fr": "Beni Slimane", "name:kab": "Bni Sliman", "place": "town", "population": "33779", "wikidata": "Q2895913", "wikimedia_commons": "Category:Beni Slimane", "wikipedia": "fr:Beni Slimane"}}, {"type": "node", "id": 453666215, "lat": 36.2671619, "lon": 3.0270877, "tags": {"name": "El Omaria", "name:ar": "\u0627\u0644\u0639\u0645\u0627\u0631\u064a\u0629", "name:ber": "\u2d4d\u2d44\u2d53\u2d4e\u2d30\u2d54\u2d49\u2d62\u2d30", "name:en": "El Omaria", "name:fr": "El Omaria", "name:kab": "L\u025bumareyya", "place": "town", "population": "20705", "wikidata": "Q3050133", "wikimedia_commons": "Category:El Omaria", "wikipedia": "fr:El Omaria"}}, {"type": "node", "id": 497170603, "lat": 36.1255019, "lon": 3.265101, "tags": {"name": "Souagui", "name:ar": "\u0627\u0644\u0633\u0648\u0627\u0642\u064a", "name:ber": "\u2d59\u2d61\u2d30\u2d33\u2d49", "name:en": "Souagui", "name:fr": "Souagui", "name:kab": "Swagi", "place": "town", "population": "15536", "wikidata": "Q3491433", "wikimedia_commons": "Category:Souagui", "wikipedia": "fr:Souagui"}}, {"type": "node", "id": 1711754181, "lat": 36.4638905, "lon": 2.8126394, "tags": {"name": "Bouarfa", "name:ar": "\u0628\u0648\u0639\u0631\u0641\u0629", "name:ber": "\u2d31\u2d53 \u2d44\u2d3b\u2d55\u2d3c\u2d30", "name:de": "Bouarfa", "name:el": "\u039c\u03c0\u03bf\u03c5\u03ac\u03c1\u03c6\u03b1", "name:en": "Bouarfa", "name:fr": "Bouarfa", "name:kab": "Bu\u025berfa", "place": "town", "population": "35910", "wikidata": "Q2911971", "wikimedia_commons": "Category:Bouarfa, Algeria", "wikipedia": "fr:Bouarfa (Blida)"}}]}