{"version": 0.6, "generator": "Overpass API 0.7.62.4 2390de5a", "osm3s": {"timestamp_osm_base": "2025-01-08T06:28:44Z", "copyright": "The data included in this document is from www.openstreetmap.org. The data is made available under ODbL."}, "elements": [{"type": "node", "id": 382345519, "lat": 33.8410614, "lon": 35.4990347, "tags": {"alt_name": "Burj al-Barajneh;Borj El Barajneh", "name": "\u0628\u0631\u062c \u0627\u0644\u0628\u0631\u0627\u062c\u0646\u0629", "name:ar": "\u0628\u0631\u062c \u0627\u0644\u0628\u0631\u0627\u062c\u0646\u0629", "name:de": "Burj El Brajneh", "name:en": "Burj El Brajneh", "name:fr": "Bourj El Barajneh", "name:ml": "\u0d2c\u0d41\u0d7c\u0d1c\u0d4d \u0d05\u0d7d \u0d2c\u0d31\u0d3e\u0d1c\u0d4d\u0d28", "place": "town"}}, {"type": "node", "id": 4752379521, "lat": 33.8335501, "lon": 35.5445655, "tags": {"capital": "3", "name": "\u0628\u0639\u0628\u062f\u0627", "name:ar": "\u0628\u0639\u0628\u062f\u0627", "name:de": "Baabda", "name:en": "Baabda", "name:fr": "Baabda", "name:he": "\u05d1\u05e2\u05d1\u05d3\u05d0", "name:ml": "\u0d2c\u0d3e\u0d2c\u0d4d\u0d26", "place": "town", "postal_code": "1003", "wikidata": "Q26454", "wikimedia_commons": "Category:Baabda", "wikipedia": "ar:\u0628\u0639\u0628\u062f\u0627"}}, {"type": "node", "id": 4799206602, "lat": 33.5618345, "lon": 35.3780338, "tags": {"alt_name": "\u0635\u064a\u062f\u0648\u0646", "alt_name:ar": "\u0635\u064a\u062f\u0648\u0646", "alt_name:de": "Saida", "alt_name:fr": "Sa\u00efda", "alt_name:ml": "\u0d38\u0d40\u0d26\u0d4b\u0d7b", "capital": "3", "name": "\u0635\u064a\u062f\u0627", "name:ar": "\u0635\u064a\u062f\u0627", "name:arc": "\u0728\u071d\u0715\u0718\u0722", "name:az": "Sayda", "name:azb": "\u0635\u06cc\u062f\u0627", "name:cs": "Sid\u00f3n", "name:de": "Sidon", "name:el": "\u03a3\u03b9\u03b4\u03ce\u03bd\u03b1", "name:en": "Sidon", "name:es": "Sid\u00f3n", "name:eu": "Sidon", "name:fr": "Sidon", "name:gd": "S\u00ecdon", "name:grc": "\u03a3\u03b9\u03b4\u03ce\u03bd", "name:he": "\u05e6\u05d9\u05d3\u05d5\u05df", "name:hi": "\u0938\u093f\u0926\u094b\u0928", "name:hr": "Sidon", "name:hy": "\u054d\u0561\u0575\u0564\u0561", "name:mi": "Hit\u014dna", "name:ml": "\u0d38\u0d48\u0d26", "name:nl": "Sidon", "name:ru": "\u0421\u0430\u0439\u0434\u0430", "name:sl": "Sidon", "name:sr": "\u0421\u0438\u0434\u043e\u043d", "name:syc": "\u0728\u071d\u0715\u0718\u0722", "name:tr": "Sayda", "name:uk": "\u0421\u0456\u0434\u043e\u043d", "name:ur": "\u0635\u06cc\u062f\u0627", "place": "city", "postal_code": "1600", "wikidata": "Q163490", "wikipedia": "ar:\u0635\u064a\u062f\u0627"}}, {"type": "node", "id": 4840035371, "lat": 33.5439343, "lon": 35.5843949, "tags": {"capital": "4", "name": "\u062c\u0632\u064a\u0646", "name:ar": "\u062c\u0632\u064a\u0646", "name:az": "Cizzin", "name:de": "Jezzine", "name:en": "Jezzine", "name:fr": "Jezzine", "name:he": "\u05d2'\u05d6\u05d9\u05df", "name:hr": "D\u017eezin", "name:ml": "\u0d1c\u0d46\u0d38\u0d4d\u0d38\u0d40\u0d7b", "name:ru": "\u0414\u0436\u0435\u0437\u0437\u0438\u043d", "name:uk": "\u0414\u0436\u0435\u0437\u0437\u0456\u043d", "place": "town", "postal_code": "1623", "wikidata": "Q25910", "wikipedia": "en:Jezzine"}}, {"type": "node", "id": 4893558237, "lat": 33.880408, "lon": 35.546644, "tags": {"alt_name": "\u0627\u0644\u062f\u0643\u0648\u0627\u0646\u0629", "alt_name:ar": "\u0627\u0644\u062f\u0643\u0648\u0627\u0646\u0629", "alt_name:fr": "Ed Dekouan\u00e9;Dekouane", "name": "\u062f\u0643\u0648\u0627\u0646\u0629", "name:ar": "\u062f\u0643\u0648\u0627\u0646\u0629", "name:azb": "\u062f\u06a9\u0648\u0627\u0646\u0647", "name:en": "Dekwaneh", "name:fa": "\u062f\u06a9\u0648\u0627\u0646\u0647", "name:fr": "Dekouan\u00e9", "name:ml": "\u0d26\u0d3f\u0d15\u0d4d\u0d35\u0d3e\u0d28", "name:ur": "\u062f\u06a9\u0648\u0627\u0646\u06c1", "place": "town", "wikidata": "Q5252841", "wikimedia_commons": "Category:Dekwaneh", "wikipedia": "ar:\u062f\u0643\u0648\u0627\u0646\u0629"}}, {"type": "node", "id": 4893562219, "lat": 33.8778546, "lon": 35.5376847, "tags": {"alt_name": "Sin El Fil", "name": "\u0633\u0646 \u0627\u0644\u0641\u064a\u0644", "name:ar": "\u0633\u0646\u0651 \u0627\u0644\u0641\u064a\u0644", "name:en": "Sinn El Fil", "name:fr": "Sinn El Fil", "name:ml": "\u0d38\u0d3f\u0d7b \u0d05\u0d7d-\u0d2b\u0d40\u0d7d", "place": "town", "wikidata": "Q984827", "wikimedia_commons": "Category:Sin el Fil", "wikipedia": "en:Sin el Fil"}}, {"type": "node", "id": 5012756045, "lat": 33.8662545, "lon": 35.603338, "tags": {"alt_name": "Beit Meri", "name": "\u0628\u064a\u062a \u0645\u0631\u064a", "name:ar": "\u0628\u064a\u062a \u0645\u0631\u064a", "name:de": "Beit Mery", "name:en": "Beit Mery", "name:fr": "Beit Mery", "name:ml": "\u0d2c\u0d46\u0d2f\u0d4d\u0d24\u0d4d\u0d24\u0d4d \u0d2e\u0d46\u0d31\u0d3f", "place": "town", "wikidata": "Q2894054", "wikimedia_commons": "Category:Beit Mery", "wikipedia": "ar:\u0628\u064a\u062a \u0645\u0631\u064a"}}, {"type": "node", "id": 5037444068, "lat": 33.6448026, "lon": 35.4330164, "tags": {"name": "\u0628\u0631\u062c\u0627", "name:ar": "\u0628\u0631\u062c\u0627", "name:de": "Barja", "name:en": "Barja", "name:fr": "Barja", "name:ml": "\u0d2c\u0d7c\u0d1c", "place": "town", "population": "35000", "wikidata": "Q2884574", "wikipedia": "ar:\u0628\u0631\u062c\u0627"}}, {"type": "node", "id": 5037448063, "lat": 33.8269773, "lon": 35.7359048, "tags": {"name": "\u062d\u0645\u0627\u0646\u0627", "name:ar": "\u062d\u0645\u0627\u0646\u0627", "name:de": "Hammana", "name:en": "Hammana", "name:es": "Hammana", "name:fr": "Hammana", "name:ml": "\u0d39\u0d2e\u0d3e\u0d28", "place": "town", "wikidata": "Q3114122", "wikimedia_commons": "Category:Hammana", "wikipedia": "ar:\u062d\u0645\u0627\u0646\u0627"}}, {"type": "node", "id": 5046640267, "lat": 33.8082697, "lon": 35.6061181, "tags": {"alt_name": "Aaley", "capital": "5", "name": "\u0639\u0627\u0644\u064a\u0647", "name:ar": "\u0639\u0627\u0644\u064a\u0647", "name:de": "Aley", "name:el": "\u0391\u03bb\u03ad\u03b9", "name:en": "Aley", "name:es": "Aley", "name:fa": "\u0639\u0627\u0644\u06cc\u0647", "name:fr": "Aley", "name:he": "\u05e2\u05d0\u05dc\u05d9\u05d9", "name:hr": "Alej", "name:ml": "\u0d06\u0d32\u0d48", "name:ru": "\u0410\u043b\u0430\u0439\u0445", "name:sr": "\u0410\u043b\u0435\u0458", "name:tr": "Aley", "name:uk": "\u0410\u043b\u0435\u0439", "place": "city", "postal_code": "1501", "wikidata": "Q26338", "wikipedia": "ar:\u0639\u0627\u0644\u064a\u0647 (\u0644\u0628\u0646\u0627\u0646)"}}, {"type": "node", "id": 5226873761, "lat": 33.5632423, "lon": 35.72039, "tags": {"alt_name": "Qaraun;El Qaraaoun", "name": "\u0642\u0631\u0639\u0648\u0646", "name:ar": "\u0642\u0631\u0639\u0648\u0646", "name:de": "Qaraoun", "name:en": "Qaraoun", "name:fr": "Qaraoun", "name:he": "\u05e7\u05e8\u05e2\u05d5\u05df", "name:ml": "\u0d16\u0d31\u0d0a\u0d7b", "place": "town", "population": "7000", "wikipedia": "en:Qaraoun"}}, {"type": "node", "id": 5348907834, "lat": 33.7819483, "lon": 35.5315831, "tags": {"alt_name": "Bchamoun;Bshamoun", "name": "\u0628\u0634\u0627\u0645\u0648\u0646", "name:ar": "\u0628\u0634\u0627\u0645\u0648\u0646", "name:en": "Beshamoun", "name:fr": "Bechamoun", "name:ml": "\u0d2c\u0d46\u0d37\u0d3e\u0d2e\u0d42\u0d7a", "place": "town", "wikipedia": "en:Bechamoun"}}, {"type": "node", "id": 5348916658, "lat": 33.8226878, "lon": 35.5829141, "tags": {"alt_name": "Kahhaleh;Kahaleh", "name": "\u0627\u0644\u0643\u062d\u0627\u0644\u0629", "name:ar": "\u0627\u0644\u0643\u062d\u0627\u0644\u0629", "name:en": "Kahale", "name:fr": "Kahale", "name:ml": "\u0d15\u0d39\u0d3e\u0d32", "place": "town"}}, {"type": "node", "id": 5416951814, "lat": 33.7817608, "lon": 35.4857182, "tags": {"alt_name:fr": "Khald\u00e9", "name": "\u062e\u0644\u062f\u0629", "name:ar": "\u062e\u0644\u062f\u0629", "name:en": "Khalde", "name:fr": "Khaldeh", "name:ml": "\u0d16\u0d7d\u0d26\u0d46", "place": "town", "wikidata": "Q15236020", "wikipedia": "fr:Khald\u00e9"}}, {"type": "node", "id": 5421813516, "lat": 33.8652121, "lon": 35.5179838, "tags": {"alt_name:en": "Chiayah;Chiah", "name": "\u0634\u064a\u0627\u062d", "name:ar": "\u0634\u064a\u0627\u062d", "name:de": "Chiyah", "name:en": "Chiyah", "name:fr": "Chiyah", "name:ml": "\u0d37\u0d3f\u0d2f\u0d3e\u0d39\u0d4d", "place": "town"}}, {"type": "node", "id": 5421872500, "lat": 33.8597545, "lon": 35.5056707, "tags": {"alt_name": "Ghbeiry", "name": "\u063a\u0628\u064a\u0631\u064a", "name:ar": "\u063a\u0628\u064a\u0631\u064a", "name:de": "Ghobeiry", "name:en": "Ghobeiry", "name:fr": "Ghobeiry", "name:ml": "\u0d17\u0d41\u0d2c\u0d48\u0d31\u0d3f", "place": "town"}}, {"type": "node", "id": 5421895959, "lat": 33.8540992, "lon": 35.5373999, "tags": {"alt_name": "Hazmieh;Hazmiyya", "name": "\u062d\u0627\u0632\u0645\u064a\u0629", "name:ar": "\u062d\u0627\u0632\u0645\u064a\u0629", "name:de": "Hazmieh", "name:en": "Hazmieh", "name:fr": "Hazmiyeh", "name:ml": "\u0d39\u0d3e\u0d38\u0d4d\u0d2e\u0d3f\u0d2f", "place": "town", "wikidata": "Q15223413", "wikimedia_commons": "Category:Hazmiyeh", "wikipedia": "ar:\u062d\u0627\u0632\u0645\u064a\u0629"}}, {"type": "node", "id": 5421906316, "lat": 33.8719938, "lon": 35.5222897, "tags": {"alt_name": "Furn Al Shebak;Furn Al-Shebak", "name": "\u0641\u0631\u0646 \u0627\u0644\u0634\u0628\u0627\u0643", "name:ar": "\u0641\u0631\u0646 \u0627\u0644\u0634\u0628\u0627\u0643", "name:de": "Forn el Chebbak", "name:en": "Forn el Chebbak", "name:fr": "Forn el Chebbak", "name:ml": "\u0d2b\u0d41\u0d7c\u0d7a \u0d05\u0d7d-\u0d37\u0d2c\u0d3e\u0d15\u0d4d\u0d15\u0d4d", "place": "town"}}, {"type": "node", "id": 5764388273, "lat": 33.6455445, "lon": 35.4036543, "tags": {"alt_name": "\u062c\u064a\u0629", "alt_name:ar": "\u062c\u064a\u0629", "name": "\u0627\u0644\u062c\u064a\u0629", "name:ar": "\u0627\u0644\u062c\u064a\u0629", "name:de": "Jieh", "name:en": "Jieh", "name:fa": "\u0627\u0644\u062c\u06cc\u0629", "name:fr": "Jieh", "name:ml": "\u0d1c\u0d3f\u0d2f\u0d46", "place": "town", "wikidata": "Q4119104", "wikipedia": "ar:\u062c\u064a\u0629 (\u0627\u0644\u0634\u0648\u0641)"}}, {"type": "node", "id": 5943421451, "lat": 33.8136952, "lon": 35.5355398, "tags": {"alt_name:ar": "\u0643\u0641\u0631\u0634\u064a\u0645\u0627", "alt_name:en": "Kfar Shima;Kfar Chima", "name": "\u0643\u0641\u0631 \u0634\u064a\u0645\u0627", "name:ar": "\u0643\u0641\u0631 \u0634\u064a\u0645\u0627", "name:de": "Kfarshima", "name:en": "Kfarshima", "name:fr": "Kfarchima", "name:ml": "\u0d15\u0d2b\u0d7c\u0d37\u0d40\u0d2e", "place": "town", "wikidata": "Q3055952", "wikimedia_commons": "Category:Kfarshima", "wikipedia": "ar:\u0643\u0641\u0631 \u0634\u064a\u0645\u0627"}}, {"type": "node", "id": 6069187779, "lat": 33.8803602, "lon": 35.5748183, "tags": {"alt_name:ar": "\u0641\u0646\u0627\u0631", "name": "\u0627\u0644\u0641\u0646\u0627\u0631", "name:ar": "\u0627\u0644\u0641\u0646\u0627\u0631", "name:en": "Fanar", "name:fr": "Fanar", "name:ml": "\u0d2b\u0d28\u0d3e\u0d7c", "place": "town", "postal_code": "2611"}}, {"type": "node", "id": 6069187780, "lat": 33.8647483, "lon": 35.5825831, "tags": {"alt_name:en": "Ain Saade", "alt_name:fr": "A\u00efn Saad\u00e9", "name": "\u0639\u064a\u0646 \u0633\u0639\u0627\u062f\u0629", "name:ar": "\u0639\u064a\u0646 \u0633\u0639\u0627\u062f\u0629", "name:en": "Ain Saadeh", "name:fr": "Ain Saadeh", "name:ml": "\u0d10\u0d7b \u0d38\u0d3e\u0d26\u0d46", "place": "town", "wikidata": "Q2828137", "wikipedia": "ar:\u0639\u064a\u0646 \u0633\u0639\u0627\u062f\u0629"}}, {"type": "node", "id": 6088766044, "lat": 33.52016, "lon": 35.386322, "tags": {"alt_name": "Maghdousheh;Maghdouche", "name": "\u0645\u063a\u062f\u0648\u0634\u0629", "name:ar": "\u0645\u063a\u062f\u0648\u0634\u0629", "name:de": "Maghdoucheh", "name:en": "Maghdoucheh", "name:fr": "Maghdoucheh", "name:ml": "\u0d2e\u0d17\u0d4d\u0d26\u0d42\u0d37\u0d46", "place": "town", "wikidata": "Q1018292", "wikipedia": "ar:\u0645\u063a\u062f\u0648\u0634\u0629"}}, {"type": "node", "id": 6090945083, "lat": 33.5193876, "lon": 35.372579, "tags": {"alt_name:ar": "\u063a\u0627\u0632\u064a\u0629", "alt_name:en": "Ghaziye;Ghazieh", "name": "\u0627\u0644\u063a\u0627\u0632\u064a\u0629", "name:ar": "\u0627\u0644\u063a\u0627\u0632\u064a\u0629", "name:de": "Ghaziyeh", "name:en": "Ghaziyeh", "name:fr": "Ghaziyeh", "name:he": "\u05e2'\u05d0\u05d6\u05d9\u05d4", "name:ml": "\u0d17\u0d3e\u0d38\u0d3f\u0d2f\u0d46", "place": "town", "wikidata": "Q5556099", "wikipedia": "ar:\u0627\u0644\u063a\u0627\u0632\u064a\u0629"}}, {"type": "node", "id": 6125607812, "lat": 33.8030684, "lon": 35.6594457, "tags": {"name": "\u0628\u062d\u0645\u062f\u0648\u0646", "name:ar": "\u0628\u062d\u0645\u062f\u0648\u0646", "name:en": "Bhamdoun", "name:fr": "Bhamdoun", "name:he": "\u05d1\u05d7\u05de\u05d3\u05d5\u05df", "name:ml": "\u0d2c\u0d39\u0d02\u0d26\u0d42\u0d7b", "place": "town", "wikidata": "Q2900650", "wikimedia_commons": "Category:Bhamdoun", "wikipedia": "ar:\u0628\u062d\u0645\u062f\u0648\u0646"}}, {"type": "node", "id": 6274504727, "lat": 33.6427692, "lon": 35.6083217, "tags": {"alt_name": "Ammatur", "alt_name:ar": "\u0639\u0645\u0651\u0627\u0637\u0648\u0631\u200e", "name": "\u0639\u0645\u0627\u0637\u0648\u0631", "name:ar": "\u0639\u0645\u0627\u0637\u0648\u0631", "name:de": "Ammatour", "name:en": "Ammatour", "name:fr": "Ammatour", "name:ml": "\u0d05\u0d2e\u0d4d\u0d2e\u0d3e\u0d24\u0d4d\u0d24\u0d42\u0d7c", "place": "town", "wikidata": "Q4747203", "wikipedia": "ar:\u0639\u0645\u0627\u0637\u0648\u0631"}}, {"type": "node", "id": 6383368493, "lat": 33.6241914, "lon": 35.4845993, "tags": {"alt_name": "Chehim;Shhim;Shehim", "name": "\u0634\u062d\u064a\u0645", "name:ar": "\u0634\u062d\u064a\u0645", "name:en": "Shahim", "name:fr": "Chehime", "name:ml": "\u0d37\u0d39\u0d40\u0d02", "place": "town", "postal_code": "1504", "wikidata": "Q7495869", "wikipedia": "ar:\u0634\u062d\u064a\u0645"}}, {"type": "node", "id": 6918516551, "lat": 33.788555, "lon": 35.5036712, "tags": {"alt_name": "Yinnar", "alt_name:en": "Yinnar", "name": "\u064a\u0646\u0627\u0631", "name:en": "Yanar", "name:fr": "Yanar", "name:ml": "\u0d2f\u0d28\u0d3e\u0d7c", "place": "town"}}, {"type": "node", "id": 9137610208, "lat": 33.8093551, "lon": 35.6566429, "tags": {"name": "\u0628\u062d\u0645\u062f\u0648\u0646 \u0627\u0644\u0645\u062d\u0637\u0629", "name:ar": "\u0628\u062d\u0645\u062f\u0648\u0646 \u0627\u0644\u0645\u062d\u0637\u0629", "name:en": "Bhamdoun Al Mahatta", "name:fr": "Bhamdo\u00fbn al Mahatta", "name:ml": "\u0d2c\u0d39\u0d02\u0d26\u0d42\u0d7b \u0d05\u0d7d \u0d2e\u0d39\u0d24\u0d4d\u0d24", "place": "town"}}]}