{"version": 0.6, "generator": "Overpass API 0.7.62.4 2390de5a", "osm3s": {"timestamp_osm_base": "2025-01-08T06:31:42Z", "copyright": "The data included in this document is from www.openstreetmap.org. The data is made available under ODbL."}, "elements": [{"type": "node", "id": 2479350603, "lat": 32.4006548, "lon": 44.6646848, "tags": {"alt_name": "Al Mad\u1e29at\u012bya", "capital": "7", "name": "\u0627\u0644\u0645\u062f\u062d\u062a\u064a\u0629", "name:ar": "\u0627\u0644\u0645\u062f\u062d\u062a\u064a\u0629", "name:de": "Al Midhatiya", "name:en": "Al Midhatiya", "name:fa": "\u0627\u0644\u0645\u062f\u062d\u062a\u06cc\u0647", "name:fr": "Al Midhatiya", "name:ml": "\u0d05\u0d7d \u0d2e\u0d3f\u0d26\u0d4d\u0d39\u0d24\u0d4d\u0d24\u0d3f\u0d2f", "place": "city", "wikidata": "Q29512591", "wikipedia": "ar:\u0627\u0644\u0645\u062f\u062d\u062a\u064a\u0629"}}, {"type": "node", "id": 2482328206, "lat": 32.1428618, "lon": 44.9311577, "tags": {"alt_name": "\u0627\u0644\u062f\u063a\u0627\u0631\u0629;Ad Daghgh\u0101rah, Dagh\u0101rah, Daghghara, N\u0101\u1e29iyat ad Daghgh\u0101rah, \u0646\u0627\u062d\u064a\u0629 \u0627\u0644\u062f\u063a\u0627\u0631\u0629, Ad Daghgharah, Dagharah, Daghghara, Nahiyat ad Daghgharah, \u0646\u0627\u062d\u064a\u0629 \u0627\u0644\u062f\u063a\u0627\u0631\u0629", "capital": "7", "int_name": "Ad Daghgharah - \u0627\u0644\u062f\u063a\u0627\u0631\u0629", "is_in": "Iraq , \u062c\u0645\u0647\u0648\u0631\u064a\u0629 \u0627\u0644\u0639\u0631\u0627\u0642", "is_in:country": "Iraq", "is_in:country_code": "IQ", "name": "\u0627\u0644\u062f\u063a\u0627\u0631\u0629", "name:ar": "\u0627\u0644\u062f\u063a\u0627\u0631\u0629", "name:ar1": "\u0627\u0644\u062f\u063a\u0627\u0631\u0629", "name:de": "Ad Daghgharah", "name:en": "Ad Daghgharah", "name:fr": "Ad Daghgharah", "place": "town", "population": "67000", "population:date": "2014", "source:population": "https://ar.wikipedia.org/wiki/%D8%A7%D9%84%D8%AF%D8%BA%D8%A7%D8%B1%D8%A9", "wikidata": "Q4529794"}}, {"type": "node", "id": 2485224859, "lat": 32.327116, "lon": 44.9164965, "tags": {"alt_name": "Al Showmaly, Ash Shawmal\u012b, Ash Sh\u016bmal\u012b, Shomeli, \u0627\u0644\u0634\u0648\u0645\u0644\u064a, Al Showmaly, Ash Shawmali, Ash Shumali, Shomeli, \u0627\u0644\u0634\u0648\u0645\u0644\u064a", "capital": "7", "name": "\u0627\u0644\u0634\u0648\u0645\u0644\u064a", "name:ar": "\u0627\u0644\u0634\u0648\u0645\u0644\u064a", "name:de": "Shomeli", "name:en": "Ash Shawmal\u012b", "name:fr": "Shomeli", "name:ml": "\u0d37\u0d57\u0d2e\u0d32\u0d3f", "place": "city", "wikidata": "Q12189155", "wikipedia": "ar:\u0627\u0644\u0634\u0648\u0645\u0644\u064a"}}, {"type": "node", "id": 2485242294, "lat": 32.1512878, "lon": 44.9991846, "tags": {"alt_name": "S\u016bmar, \u0646\u0627\u062d\u064a\u0629 \u0633\u0648\u0645\u0631, Nahiyat Sumar, \u0646\u0627\u062d\u064a\u0629 \u0633\u0648\u0645\u0631", "capital": "7", "is_in": "Iraq , \u062c\u0645\u0647\u0648\u0631\u064a\u0629 \u0627\u0644\u0639\u0631\u0627\u0642", "is_in:country": "Iraq", "is_in:country_code": "IQ", "name": "\u0633\u0648\u0645\u0631", "name:ar": "\u0633\u0648\u0645\u0631", "name:de": "Sumar", "name:en": "Sumar", "name:fr": "Sumar", "name:ml": "\u0d38\u0d42\u0d2e\u0d7c", "place": "city"}}, {"type": "node", "id": 2485243014, "lat": 32.1445607, "lon": 45.0082409, "tags": {"alt_name": "\u0642\u0644\u0639\u0629 \u0622\u0644 \u0634\u062c\u064a\u0631", "int_name": "Qala Shakh\u012br, Qalat \u0100l Shaj\u012br, Qalat Shakh\u012br, Qala Shakhir, Qalat Al Shajir, Qalat Shakhir", "is_in": "Iraq , \u062c\u0645\u0647\u0648\u0631\u064a\u0629 \u0627\u0644\u0639\u0631\u0627\u0642", "name": "\u0646\u0627\u062d\u064a\u0629 \u0633\u0648\u0645\u0631", "name:ar": "\u0646\u0627\u062d\u064a\u0629 \u0633\u0648\u0645\u0631", "name:ar1": "\u0642\u0644\u0639\u0629 \u0622\u0644 \u0634\u062c\u064a\u0631", "name:de": "Sumer Town", "name:en": "Sumer Town", "name:fr": "Sumer Town", "place": "town"}}, {"type": "node", "id": 2486183269, "lat": 32.3684518, "lon": 44.656349, "tags": {"alt_name": "Al Hashimiya, Al H\u0101shim\u012byah, Hashimiyah, \u0627\u0644\u0647\u0627\u0634\u0645\u064a\u0629, Al Hashimiya, Al Hashimiyah, Hashimiyah, \u0627\u0644\u0647\u0627\u0634\u0645\u064a\u0629", "capital": "6", "int_name": "Al Hashimiya - \u0627\u0644\u0647\u0627\u0634\u0645\u064a\u0629", "is_in": "Iraq , \u062c\u0645\u0647\u0648\u0631\u064a\u0629 \u0627\u0644\u0639\u0631\u0627\u0642", "name": "\u0627\u0644\u0647\u0627\u0634\u0645\u064a\u0629", "name:ar": "\u0627\u0644\u0647\u0627\u0634\u0645\u064a\u0629", "name:de": "Al Hashimiya", "name:en": "Al Hashimiya", "name:fr": "Al Hashimiya", "name:ml": "\u0d05\u0d7d-\u0d39\u0d3e\u0d37\u0d3f\u0d2e\u0d3f\u0d2f", "name:ru": "\u042d\u043b\u044c-\u0425\u0430\u0448\u0438\u043c\u0438\u044f", "place": "town", "wikidata": "Q4531414", "wikipedia": "en:Al Hashimiyah"}}, {"type": "node", "id": 2486183301, "lat": 32.297993, "lon": 44.682816, "tags": {"alt_name": "Al Q\u0101sim, Imam Qasim, N\u0101\u1e29iyat al Q\u0101sim, Q\u0101sim, \u0627\u0644\u0642\u0627\u0633\u0645, \u0646\u0627\u062d\u064a\u0629 \u0627\u0644\u0642\u0627\u0633\u0645, Al Qasim, Imam Qasim, Nahiyat al Qasim, Qasim, \u0627\u0644\u0642\u0627\u0633\u0645, \u0646\u0627\u062d\u064a\u0629 \u0627\u0644\u0642\u0627\u0633\u0645", "capital": "7", "long_name": "\u0642\u0636\u0627\u0621 \u0627\u0644\u0642\u0627\u0633\u0645", "long_name:ar": "\u0642\u0636\u0627\u0621 \u0627\u0644\u0642\u0627\u0633\u0645", "name": "\u0627\u0644\u0642\u0627\u0633\u0645", "name:ar": "\u0627\u0644\u0642\u0627\u0633\u0645", "name:az-Arab": "\u0627\u0644\u0642\u0627\u0633\u0645", "name:azb": "\u0627\u0644\u0642\u0627\u0633\u0645", "name:bn": "\u0986\u09b2 \u0995\u09be\u09b8\u09bf\u09ae", "name:de": "Al-Qassim", "name:en": "Al Qasim", "name:es": "Alk\u00e1sim", "name:et": "Al-Q\u0101sim", "name:fa": "\u0627\u0644\u0642\u0627\u0633\u0645", "name:fr": "Al-Qassim", "name:hr": "Al-Kasim", "name:ml": "\u0d05\u0d7d-\u0d16\u0d3e\u0d38\u0d3f\u0d02", "name:ur": "\u0627\u0644\u0642\u0627\u0633\u0645", "place": "city", "population": "157763", "population:date": "2014", "wikidata": "Q4120086", "wikipedia": "ar:\u0627\u0644\u0642\u0627\u0633\u0645 (\u0645\u062f\u064a\u0646\u0629)", "wikipedia:ar": "\u0627\u0644\u0642\u0627\u0633\u0645 (\u0645\u062f\u064a\u0646\u0629)"}}, {"type": "node", "id": 2486192069, "lat": 32.1920193, "lon": 44.7126883, "tags": {"alt_name": "Al Taleaah, A\u0163 \u0162ulayah, \u0627\u0644\u0637\u0644\u064a\u0639\u0629, Al Taleaah, At Tulayah, \u0627\u0644\u0637\u0644\u064a\u0639\u0629", "capital": "7", "int_name": "Al Taleaah - \u0627\u0644\u0637\u0644\u064a\u0639\u0629", "is_in": "Iraq , \u062c\u0645\u0647\u0648\u0631\u064a\u0629 \u0627\u0644\u0639\u0631\u0627\u0642", "name": "\u0627\u0644\u0637\u0644\u064a\u0639\u0629", "name:ar": "\u0627\u0644\u0637\u0644\u064a\u0639\u0629", "name:ar1": "\u0627\u0644\u0637\u0644\u064a\u0639\u0629", "name:de": "Al Taleaah", "name:en": "Al Taleaah", "name:fr": "Al Taleaah", "name:ml": "\u0d05\u0d24\u0d4d\u0d24\u0d41\u0d32\u0d2f", "place": "town"}}]}