{"version": 0.6, "generator": "Overpass API 0.7.62.4 2390de5a", "osm3s": {"timestamp_osm_base": "2025-01-08T07:00:15Z", "copyright": "The data included in this document is from www.openstreetmap.org. The data is made available under ODbL."}, "elements": [{"type": "node", "id": 394733994, "lat": 36.3739012, "lon": 3.9007007, "tags": {"alt_name": "Bordj Hamza", "alt_name:ar": "\u0628\u0631\u062c \u062d\u0645\u0632\u0629", "alt_name:fr": "Bordj Hamza", "capital": "4", "name": "Bouira", "name:ar": "\u0627\u0644\u0628\u0648\u064a\u0631\u0629", "name:az-Arab": "\u0628\u0648\u06cc\u0631\u0647", "name:azb": "\u0628\u0648\u06cc\u0631\u0647", "name:ber": "\u2d5d\u2d53\u2d60\u2d49\u2d54\u2d3b\u2d5c", "name:ca": "Bouira", "name:de": "Bouira", "name:el": "\u039c\u03c0\u03bf\u03c5\u0390\u03c1\u03b1", "name:en": "Bouira", "name:es": "Albuira", "name:fa": "\u0628\u0648\u06cc\u0631\u0647", "name:fr": "Bouira", "name:it": "Bouira", "name:ja": "\u30d6\u30a4\u30e9", "name:kab": "Tubiret", "name:ko": "\ubd80\uc774\ub77c", "name:nl": "Bouira", "name:pl": "Bouira", "name:ru": "\u0411\u0443\u0438\u0440\u0430", "name:uk": "\u0411\u0443\u0457\u0440\u0430", "name:ur": "\u0628\u0648\u06cc\u0631\u06c1", "name:zh": "\u5e03\u7ef4\u62c9", "old_name": "Coligny", "old_name:fr": "Coligny", "place": "town", "population": "695585", "population:date": "2008", "postal_code": "10000", "ref:ONS": "1001", "wikidata": "Q722522", "wikipedia": "fr:Bouira"}}, {"type": "node", "id": 394734839, "lat": 36.312195, "lon": 4.0749566, "tags": {"addr:city": "Bechloul", "addr:postcode": "10012", "addr:street": "Route nationale 5", "loc_name": "Bechluol", "name": "Bechloul", "name:ar": "\u0628\u0634\u0644\u0648\u0644", "name:ber": "\u2d32\u2d3b\u2d5b\u2d4d\u2d53\u2d4d", "name:de": "Bechloul", "name:en": "Bechloul", "name:fr": "Bechloul", "name:kab": "Beclul", "place": "town", "population": "11775", "wikidata": "Q2893467", "wikimedia_commons": "Category:Bechloul", "wikipedia": "fr:Bechloul"}}, {"type": "node", "id": 394734848, "lat": 36.3212726, "lon": 4.0130501, "tags": {"addr:city": "El Asnam", "addr:postcode": "10022", "addr:street": "Route nationale 5", "name": "El Asnam", "name:ar": "\u0627\u0644\u0623\u0635\u0646\u0627\u0645", "name:ber": "\u2d4d\u2d30\u2d5a\u2d4f\u2d30\u2d4e", "name:de": "El Asnam", "name:en": "El Asnam", "name:fr": "El Asnam", "name:kab": "Le\u1e63nam", "place": "town", "population": "25458", "wikidata": "Q3049718", "wikimedia_commons": "Category:El Esnam", "wikipedia": "fr:El Asnam (Bouira)"}}, {"type": "node", "id": 417620827, "lat": 36.3646864, "lon": 4.2711718, "tags": {"loc_name": "Imecdallen", "name": "M'Chedallah", "name:ar": "\u0645\u0634\u062f\u0627 \u0627\u0644\u0644\u0647", "name:ber": "\u2d49\u2d4e\u2d3b\u2d5b\u2d37\u2d30\u2d4d\u2d3b\u2d4f", "name:en": "M'Chedallah", "name:fr": "M'Chedallah", "name:kab": "Imecdallen", "old_name": "Maillot", "place": "town", "population": "25563", "wikidata": "Q3272271", "wikimedia_commons": "Category:M'Chedallah", "wikipedia": "fr:M'Chedallah"}}, {"type": "node", "id": 417620891, "lat": 36.3293456, "lon": 4.1586858, "tags": {"name": "El Adjiba", "name:ar": "\u0627\u0644\u0639\u062c\u064a\u0628\u0629", "name:ber": "\u2d4d\u2d30\u2d44\u2d35\u2d49\u2d31\u2d30", "name:de": "El Adjiba", "name:en": "El Adjiba", "name:fr": "El Adjiba", "name:kab": "La\u025b\u01e7iba", "place": "town", "population": "18486", "wikidata": "Q3049685", "wikimedia_commons": "Category:El Adjiba", "wikipedia": "fr:El Adjiba"}}, {"type": "node", "id": 418104033, "lat": 36.3885111, "lon": 4.4000106, "tags": {"name": "Tazmalt", "name:ar": "\u062b\u0627\u0632\u0645\u0627\u0644\u062a", "name:ber": "\u2d5c\u2d30\u2d63\u2d4e\u2d30\u2d4d\u2d5c", "name:en": "Tazmalt", "name:fr": "Tazmalt", "name:kab": "Tazmalt", "place": "town", "population": "28891", "postal_code": "06006", "ref:ONS": "0627", "wikidata": "Q3141810", "wikimedia_commons": "Category:Tazmalt", "wikipedia": "fr:Tazmalt"}}, {"type": "node", "id": 2679573905, "lat": 36.3498654, "lon": 4.4141916, "tags": {"name": "Bujlil", "name:ar": "\u0628\u0648\u062c\u0644\u064a\u0644", "name:ber": "\u2d32\u2d53\u2d35\u2d4d\u2d49\u2d4d", "name:en": "Boudjellil", "name:fr": "Boudjellil", "name:kab": "Bujlil", "place": "town", "postal_code": "06018", "wikidata": "Q2214606", "wikimedia_commons": "Category:Boudjellil (B\u00e9ja\u00efa)", "wikipedia": "fr:Boudjellil (B\u00e9ja\u00efa)"}}]}