{"version": 0.6, "generator": "Overpass API 0.7.62.4 2390de5a", "osm3s": {"timestamp_osm_base": "2025-01-08T06:27:42Z", "copyright": "The data included in this document is from www.openstreetmap.org. The data is made available under ODbL."}, "elements": [{"type": "node", "id": 432335269, "lat": 31.855991, "lon": 35.4598851, "tags": {"alt_name:ml": "\u0d2f\u0d46\u0d30\u0d40\u0d39\u0d4b", "name": "\u0623\u0631\u064a\u062d\u0627", "name:ar": "\u0623\u0631\u064a\u062d\u0627", "name:azb": "\u0627\u0631\u06cc\u062d\u0627", "name:cs": "Jericho", "name:de": "Jericho", "name:en": "Jericho", "name:es": "Jeric\u00f3", "name:et": "Jeeriko", "name:eu": "Jeriko", "name:fa": "\u0627\u0631\u06cc\u062d\u0627", "name:fi": "Jeriko", "name:fr": "J\u00e9richo", "name:he": "\u05d9\u05e8\u05d9\u05d7\u05d5", "name:hi": "\u091c\u0947\u0930\u093f\u0915\u094b", "name:hr": "Jerihon", "name:it": "Gerico", "name:ja": "\u30a8\u30ea\u30b3", "name:ks": "\u0627\u0631\u06cc\u062d\u0627", "name:ku": "Cer\u00eeko", "name:ml": "\u0d05\u0d30\u0d40\u0d39", "name:ota": "\u0627\u0631\u06cc\u062d\u0627", "name:pnb": "\u0627\u0631\u06cc\u062d\u0627", "name:ro": "Ierihon", "name:ru": "\u0418\u0435\u0440\u0438\u0445\u043e\u043d", "name:sk": "Jericho", "name:sv": "Jeriko", "name:uk": "\u0404\u0440\u0438\u0445\u043e\u043d", "name:ur": "\u0627\u0631\u06cc\u062d\u0627", "name:zh": "\u8036\u5229\u54e5", "place": "town", "population": "22006", "website": "https://jericho-city.org/", "wikidata": "Q5687", "wikipedia": "ar:\u0623\u0631\u064a\u062d\u0627", "wikipedia:ar": "\u0623\u0631\u064a\u062d\u0627"}}, {"type": "node", "id": 432337229, "lat": 31.8494128, "lon": 35.4665788}, {"type": "node", "id": 432339503, "lat": 31.8764223, "lon": 35.4595226}, {"type": "node", "id": 432339834, "lat": 31.8777165, "lon": 35.4577169}, {"type": "node", "id": 432340371, "lat": 31.8542167, "lon": 35.4467489}, {"type": "node", "id": 432341076, "lat": 31.8726304, "lon": 35.4377633}, {"type": "node", "id": 802856870, "lat": 32.0390779, "lon": 35.7269843, "tags": {"int_name": "As Sal\u0163;Al Salt;Ramoth Gilad", "name": "\u0627\u0644\u0633\u0644\u0637", "name:ar": "\u0627\u0644\u0633\u0644\u0637", "name:azb": "\u0633\u0644\u0637", "name:bg": "\u0421\u0430\u043b\u0442", "name:de": "Salt", "name:en": "Al Salt", "name:fa": "\u0633\u0644\u0637", "name:fr": "Salt", "name:grc": "\u03a3\u03ac\u03bb\u03c4\u03bf\u03c2", "name:he": "\u05e1\u05dc\u05d8", "name:ml": "\u0d38\u0d7d\u0d31\u0d4d\u0d31\u0d4d", "name:mzn": "\u0627\u0644\u0633\u0644\u0637", "name:pnb": "\u0627\u0644\u0633\u0644\u0637", "name:ru": "\u0410\u0441-\u0421\u0430\u043b\u044c\u0442", "name:uk": "\u0415\u0441-\u0421\u0430\u043b\u0442", "name:ur": "\u0633\u0644\u0637", "place": "city", "wikidata": "Q867586", "wikipedia": "ar:\u0627\u0644\u0633\u0644\u0637"}}, {"type": "node", "id": 2824993524, "lat": 31.8509633, "lon": 35.4799068}, {"type": "node", "id": 2944266660, "lat": 31.8470598, "lon": 35.4630453}, {"type": "node", "id": 2944266664, "lat": 31.8472318, "lon": 35.4575463}, {"type": "node", "id": 2944266665, "lat": 31.8472318, "lon": 35.4603192}, {"type": "node", "id": 2944266679, "lat": 31.8477082, "lon": 35.4496794}, {"type": "node", "id": 2944266680, "lat": 31.8477744, "lon": 35.4716911}, {"type": "node", "id": 2944266684, "lat": 31.8480258, "lon": 35.468373}, {"type": "node", "id": 2944266685, "lat": 31.8481846, "lon": 35.4662855}, {"type": "node", "id": 2944266706, "lat": 31.849177, "lon": 35.4717689}, {"type": "node", "id": 2944266707, "lat": 31.8492167, "lon": 35.4494925}, {"type": "node", "id": 2944266709, "lat": 31.8494417, "lon": 35.4631855}, {"type": "node", "id": 2944266833, "lat": 31.8504606, "lon": 35.4488226}, {"type": "node", "id": 2944266838, "lat": 31.850884, "lon": 35.4733112}, {"type": "node", "id": 2944266852, "lat": 31.8514148, "lon": 35.4805003}, {"type": "node", "id": 2944266874, "lat": 31.8522998, "lon": 35.4744639}, {"type": "node", "id": 2944266880, "lat": 31.8526703, "lon": 35.4479035}, {"type": "node", "id": 2944266918, "lat": 31.8539785, "lon": 35.4813154}, {"type": "node", "id": 2944266919, "lat": 31.8540576, "lon": 35.4824935}, {"type": "node", "id": 2944266920, "lat": 31.8546419, "lon": 35.4457849}, {"type": "node", "id": 2944266921, "lat": 31.855277, "lon": 35.4449593}, {"type": "node", "id": 2944266922, "lat": 31.8553253, "lon": 35.4828144}, {"type": "node", "id": 2944266923, "lat": 31.8558195, "lon": 35.4443985}, {"type": "node", "id": 2944266924, "lat": 31.8561999, "lon": 35.443858}, {"type": "node", "id": 2944266927, "lat": 31.8563586, "lon": 35.4815978}, {"type": "node", "id": 2944266929, "lat": 31.8566266, "lon": 35.4435884}, {"type": "node", "id": 2944267068, "lat": 31.859564, "lon": 35.4399276}, {"type": "node", "id": 2944267071, "lat": 31.8597227, "lon": 35.44309}, {"type": "node", "id": 2944267072, "lat": 31.8599344, "lon": 35.4383387}, {"type": "node", "id": 2944267074, "lat": 31.8606224, "lon": 35.4372171}, {"type": "node", "id": 2944267076, "lat": 31.8608832, "lon": 35.4809189}, {"type": "node", "id": 2944267078, "lat": 31.8609267, "lon": 35.436111}, {"type": "node", "id": 2944267080, "lat": 31.8613898, "lon": 35.4341326}, {"type": "node", "id": 2944267082, "lat": 31.861613, "lon": 35.4801258}, {"type": "node", "id": 2944267088, "lat": 31.8622101, "lon": 35.4342261}, {"type": "node", "id": 2944267106, "lat": 31.8632818, "lon": 35.4344754}, {"type": "node", "id": 2944267290, "lat": 31.8646049, "lon": 35.4347246}, {"type": "node", "id": 2944267431, "lat": 31.8666952, "lon": 35.4349894}, {"type": "node", "id": 2944267445, "lat": 31.8669829, "lon": 35.4794649}, {"type": "node", "id": 2944267472, "lat": 31.8678594, "lon": 35.4352231}, {"type": "node", "id": 2944267477, "lat": 31.8679546, "lon": 35.4748909}, {"type": "node", "id": 2944267484, "lat": 31.8680681, "lon": 35.4789141}, {"type": "node", "id": 2944267508, "lat": 31.8684945, "lon": 35.4356749}, {"type": "node", "id": 2944267528, "lat": 31.8687062, "lon": 35.437404}, {"type": "node", "id": 2944267549, "lat": 31.8691102, "lon": 35.4374656}, {"type": "node", "id": 2944267587, "lat": 31.8698307, "lon": 35.4375754}, {"type": "node", "id": 2944267655, "lat": 31.8714358, "lon": 35.4747944}, {"type": "node", "id": 2944267672, "lat": 31.8719222, "lon": 35.467326}, {"type": "node", "id": 2944267681, "lat": 31.8720664, "lon": 35.4377467}, {"type": "node", "id": 2944267689, "lat": 31.872259, "lon": 35.4635148}, {"type": "node", "id": 2944267690, "lat": 31.8722683, "lon": 35.4606508}, {"type": "node", "id": 2944267751, "lat": 31.8735149, "lon": 35.4379119}, {"type": "node", "id": 2944267772, "lat": 31.8742229, "lon": 35.4576032}, {"type": "node", "id": 2944267773, "lat": 31.8742234, "lon": 35.4591307}, {"type": "node", "id": 2944267774, "lat": 31.8742234, "lon": 35.4603754}, {"type": "node", "id": 2944267837, "lat": 31.8752758, "lon": 35.4380365}, {"type": "node", "id": 2944267861, "lat": 31.8755322, "lon": 35.4380798}, {"type": "node", "id": 2944267877, "lat": 31.8758193, "lon": 35.461737}, {"type": "node", "id": 2944267916, "lat": 31.8764188, "lon": 35.4382296}, {"type": "node", "id": 2944267921, "lat": 31.8764552, "lon": 35.4619814}, {"type": "node", "id": 2944267948, "lat": 31.877067, "lon": 35.4390397}, {"type": "node", "id": 2944267973, "lat": 31.8778871, "lon": 35.4394915}, {"type": "node", "id": 2944267993, "lat": 31.8783997, "lon": 35.4589437}, {"type": "node", "id": 2944268002, "lat": 31.8786003, "lon": 35.4587104}, {"type": "node", "id": 2944268023, "lat": 31.8791306, "lon": 35.439694}, {"type": "node", "id": 2944268047, "lat": 31.8798844, "lon": 35.4572162}, {"type": "node", "id": 2944268048, "lat": 31.8799243, "lon": 35.4411116}, {"type": "node", "id": 2944268055, "lat": 31.8802947, "lon": 35.4397719}, {"type": "node", "id": 2944268057, "lat": 31.8803873, "lon": 35.4405975}, {"type": "node", "id": 2944268064, "lat": 31.8806651, "lon": 35.4426538}, {"type": "node", "id": 2944268086, "lat": 31.8814852, "lon": 35.445707}, {"type": "node", "id": 2944268088, "lat": 31.8815381, "lon": 35.4440246}, {"type": "node", "id": 2944268091, "lat": 31.8816571, "lon": 35.4449126}, {"type": "node", "id": 2944268103, "lat": 31.8821201, "lon": 35.4466417}, {"type": "node", "id": 2944268108, "lat": 31.8821859, "lon": 35.4564838}, {"type": "node", "id": 2944268144, "lat": 31.8828212, "lon": 35.4492432}, {"type": "node", "id": 2944268152, "lat": 31.8830337, "lon": 35.4543614}, {"type": "node", "id": 2944268159, "lat": 31.8832577, "lon": 35.4480126}, {"type": "node", "id": 2944268161, "lat": 31.8832709, "lon": 35.4497262}, {"type": "node", "id": 2944268172, "lat": 31.8834164, "lon": 35.4505674}, {"type": "node", "id": 2944268175, "lat": 31.8834547, "lon": 35.4515804}, {"type": "node", "id": 2944268176, "lat": 31.8834693, "lon": 35.4519694}, {"type": "node", "id": 2944268178, "lat": 31.883483, "lon": 35.4520496}, {"type": "node", "id": 2944268184, "lat": 31.8836136, "lon": 35.4528193}, {"type": "node", "id": 3678868875, "lat": 31.9150722, "lon": 35.7538951, "tags": {"name": "\u0639\u0631\u0627\u0642 \u0627\u0644\u0623\u0645\u064a\u0631", "name:ca": "Iraq al Amir", "name:de": "Iraq el-Amir", "name:en": "Iraq Al-Amir", "name:fr": "Iraq al-Amir", "name:he": "\u05e2\u05d9\u05e8\u05d0\u05e7 \u05d0\u05dc-\u05d0\u05de\u05d9\u05e8", "name:it": "Iraq al-Amir", "name:ml": "\u0d07\u0d31\u0d3e\u0d16\u0d4d \u0d05\u0d7d-\u0d05\u0d2e\u0d40\u0d7c", "name:nn": "`Iraq al Amir", "name:sq": "`Iraq al Amir", "place": "town", "wikidata": "Q2916039", "wikimedia_commons": "Category:Iraq al Amir", "wikipedia": "en:Iraq al-Amir"}}, {"type": "node", "id": 3823816569, "lat": 31.6951454, "lon": 35.7890528}, {"type": "node", "id": 3823816570, "lat": 31.6952161, "lon": 35.8032712}, {"type": "node", "id": 3823816571, "lat": 31.6969848, "lon": 35.8131659}, {"type": "node", "id": 3823816572, "lat": 31.6974093, "lon": 35.7819852}, {"type": "node", "id": 3823816573, "lat": 31.7039884, "lon": 35.7758322}, {"type": "node", "id": 3823816574, "lat": 31.7099304, "lon": 35.7724231}, {"type": "node", "id": 3823816575, "lat": 31.7126183, "lon": 35.7678499}, {"type": "node", "id": 3823816576, "lat": 31.7198329, "lon": 35.7681825}, {"type": "node", "id": 3823816577, "lat": 31.7199037, "lon": 35.8218133}, {"type": "node", "id": 3823816578, "lat": 31.7218133, "lon": 35.7740029}, {"type": "node", "id": 3823816579, "lat": 31.7281078, "lon": 35.8154109}, {"type": "node", "id": 3823816580, "lat": 31.7314317, "lon": 35.7780772}, {"type": "node", "id": 3823816581, "lat": 31.7395641, "lon": 35.8293799}, {"type": "node", "id": 3823816582, "lat": 31.7469887, "lon": 35.7848122}, {"type": "node", "id": 3823816583, "lat": 31.7481201, "lon": 35.8169907}, {"type": "node", "id": 3823816584, "lat": 31.7527866, "lon": 35.7996958}, {"type": "node", "id": 3823848761, "lat": 31.9979487, "lon": 35.7261499}, {"type": "node", "id": 3823848762, "lat": 32.0078326, "lon": 35.7308026}, {"type": "node", "id": 3823848763, "lat": 32.0079759, "lon": 35.6836045}, {"type": "node", "id": 3823848764, "lat": 32.0247416, "lon": 35.6829929}, {"type": "node", "id": 3823848765, "lat": 32.0262833, "lon": 35.74497}, {"type": "node", "id": 3823848766, "lat": 32.0456375, "lon": 35.7505758}, {"type": "node", "id": 3823848767, "lat": 32.0459967, "lon": 35.6892103}, {"type": "node", "id": 3823848768, "lat": 32.0476245, "lon": 35.7620932}, {"type": "node", "id": 3823848769, "lat": 32.053974, "lon": 35.7641317}, {"type": "node", "id": 3823848770, "lat": 32.0557586, "lon": 35.6955296}, {"type": "node", "id": 3823848771, "lat": 32.0648285, "lon": 35.7450646}, {"type": "node", "id": 3823848772, "lat": 32.0666423, "lon": 35.7031739}, {"type": "node", "id": 3823848773, "lat": 32.0726019, "lon": 35.7104105}, {"type": "node", "id": 5695787971, "lat": 31.8474704, "lon": 35.4511909}, {"type": "node", "id": 5695787972, "lat": 31.8463879, "lon": 35.4507611}, {"type": "node", "id": 5695787973, "lat": 31.8472764, "lon": 35.4500139}, {"type": "node", "id": 5695787974, "lat": 31.846577, "lon": 35.4498334}, {"type": "node", "id": 5799582413, "lat": 31.7009425, "lon": 35.7786809}, {"type": "node", "id": 5809821456, "lat": 32.0542541, "lon": 35.7636397}, {"type": "node", "id": 9267102880, "lat": 32.0707808, "lon": 35.7081991}, {"type": "node", "id": 9267311252, "lat": 32.05078, "lon": 35.6923066}, {"type": "node", "id": 9267526051, "lat": 32.0033475, "lon": 35.7032433}, {"type": "node", "id": 10717653045, "lat": 31.8764576, "lon": 35.4594018}, {"type": "node", "id": 10717653046, "lat": 31.8766679, "lon": 35.4590872}, {"type": "node", "id": 10717653047, "lat": 31.8765401, "lon": 35.4592555}, {"type": "node", "id": 10717653048, "lat": 31.8775935, "lon": 35.4578958}, {"type": "node", "id": 10717653049, "lat": 31.8774897, "lon": 35.4580351}, {"type": "node", "id": 10717653050, "lat": 31.8770811, "lon": 35.4585748}, {"type": "node", "id": 10717822544, "lat": 31.8746655, "lon": 35.4576176}, {"type": "node", "id": 10722590855, "lat": 31.8468373, "lon": 35.4552159}, {"type": "way", "id": 290944798, "nodes": [2944266852, 2944266918, 2944266919, 2944266922, 2944266927, 2944267076, 2944267082, 2944267445, 2944267484, 2944267477, 2944267655, 2944267672, 2944267689, 2944267690, 2944267774, 2944267773, 2944267772, 10717822544, 432339834, 10717653048, 10717653049, 10717653050, 10717653046, 10717653047, 10717653045, 432339503, 2944267877, 2944267921, 2944267993, 2944268002, 2944268047, 2944268108, 2944268152, 2944268184, 2944268178, 2944268176, 2944268175, 2944268172, 2944268161, 2944268144, 2944268159, 2944268103, 2944268086, 2944268091, 2944268088, 2944268064, 2944268048, 2944268057, 2944268055, 2944268023, 2944267973, 2944267948, 2944267916, 2944267861, 2944267837, 2944267751, 432341076, 2944267681, 2944267587, 2944267549, 2944267528]}, {"type": "way", "id": 379035955, "nodes": [3823816574, 3823816573, 5799582413, 3823816572, 3823816569, 3823816570, 3823816571, 3823816577, 3823816579, 3823816581, 3823816583, 3823816584, 3823816582, 3823816580, 3823816578, 3823816576, 3823816575, 3823816574], "tags": {"alt_name": "\u0645\u0623\u062f\u0628\u0627", "alt_name:ar": "\u0645\u0623\u062f\u0628\u0627", "alt_name:grc": "\u039c\u03ae\u03b4\u03b1\u03b2\u03b1", "name": "\u0645\u0627\u062f\u0628\u0627", "name:ar": "\u0645\u0627\u062f\u0628\u0627", "name:ar-Latn": "M\u0101dab\u0101", "name:az-Arab": "\u0645\u0627\u062f\u0628\u0627", "name:azb": "\u0645\u0627\u062f\u0628\u0627", "name:de": "Madaba", "name:el": "\u039c\u03ac\u03bd\u03c4\u03b1\u03bc\u03c0\u03b1", "name:en": "Madaba", "name:es": "Madaba", "name:eu": "Madaba", "name:fr": "Madaba", "name:grc": "\u039c\u03b1\u03b9\u03b4\u03b1\u03b2\u03ac", "name:he": "\u05de\u05d9\u05d3\u05d1\u05d0", "name:hi": "\u092e\u0926\u093e\u092c\u093e", "name:ks": "\u0645\u0627\u062f\u0628\u0627", "name:ml": "\u0d2e\u0d21\u0d2c", "name:pt": "Madaba", "name:ru": "\u041c\u0430\u0434\u0430\u0431\u0430", "name:ur": "\u0645\u0627\u062f\u0628\u0627", "place": "town", "population": "65000", "wikidata": "Q1683958", "wikipedia": "ar:\u0645\u0627\u062f\u0628\u0627"}}, {"type": "way", "id": 379038048, "nodes": [3823848771, 3823848773, 9267102880, 3823848772, 3823848770, 9267311252, 3823848767, 3823848764, 3823848763, 9267526051, 3823848761, 3823848762, 3823848765, 3823848766, 3823848768, 3823848769, 5809821456, 3823848771], "tags": {"admin_level": "7", "int_name": "As Sal\u0163;Al Salt;Ramoth Gilad", "name": "\u0627\u0644\u0633\u0644\u0637", "name:ar": "\u0627\u0644\u0633\u0644\u0637", "name:azb": "\u0633\u0644\u0637", "name:bg": "\u0421\u0430\u043b\u0442", "name:de": "Salt", "name:en": "Al Salt", "name:fa": "\u0633\u0644\u0637", "name:fr": "Salt", "name:grc": "\u03a3\u03ac\u03bb\u03c4\u03bf\u03c2", "name:he": "\u05e1\u05dc\u05d8", "name:ml": "\u0d38\u0d7d\u0d31\u0d4d\u0d31\u0d4d", "name:mzn": "\u0627\u0644\u0633\u0644\u0637", "name:pnb": "\u0627\u0644\u0633\u0644\u0637", "name:ru": "\u0410\u0441-\u0421\u0430\u043b\u044c\u0442", "name:uk": "\u0415\u0441-\u0421\u0430\u043b\u0442", "name:ur": "\u0633\u0644\u0637", "place": "town", "wikidata": "Q867586", "wikipedia": "ar:\u0627\u0644\u0633\u0644\u0637"}}, {"type": "way", "id": 612365165, "nodes": [2944267528, 2944267508, 2944267472, 2944267431, 2944267290, 2944267106, 2944267088, 2944267080, 2944267078, 2944267074, 2944267072, 2944267068, 2944267071, 2944266929, 2944266924, 2944266923, 2944266921, 2944266920, 432340371, 2944266880, 2944266833, 2944266707, 2944266679, 5695787973, 5695787974, 5695787972, 5695787971, 10722590855, 2944266664, 2944266665, 2944266660, 2944266709, 432337229, 2944266685, 2944266684, 2944266680, 2944266706, 2944266838, 2944266874, 2824993524, 2944266852]}, {"type": "relation", "id": 8488590, "members": [{"type": "way", "ref": 290944798, "role": "outer"}, {"type": "way", "ref": 612365165, "role": "outer"}], "tags": {"landuse": "residential", "name": "\u0623\u0631\u064a\u062d\u0627", "name:ar": "\u0623\u0631\u064a\u062d\u0627", "name:azb": "\u0627\u0631\u06cc\u062d\u0627", "name:de": "Jericho", "name:en": "Jericho", "name:fa": "\u0627\u0631\u06cc\u062d\u0627", "name:fr": "J\u00e9richo", "name:he": "\u05d9\u05e8\u05d9\u05d7\u05d5", "name:hi": "\u091c\u0947\u0930\u093f\u0915\u094b", "name:it": "Gerico", "name:ks": "\u0627\u0631\u06cc\u062d\u0627", "name:ml": "\u0d2f\u0d46\u0d30\u0d3f\u0d39\u0d4b", "name:nl": "Jericho", "name:ota": "\u0627\u0631\u06cc\u062d\u0627", "name:pl": "Jerycho", "name:pnb": "\u0627\u0631\u06cc\u062d\u0627", "name:ru": "\u0418\u0435\u0440\u0438\u0445\u043e\u043d", "name:uk": "\u0404\u0440\u0438\u0445\u043e\u043d", "name:ur": "\u0627\u0631\u06cc\u062d\u0627", "name:zh-Hans": "\u6770\u91cc\u79d1", "place": "city", "type": "multipolygon", "wikidata": "Q5687", "wikipedia": "ar:\u0623\u0631\u064a\u062d\u0627", "wikipedia:ar": "\u0623\u0631\u064a\u062d\u0627"}}]}