{"version": 0.6, "generator": "Overpass API 0.7.62.4 2390de5a", "osm3s": {"timestamp_osm_base": "2025-01-08T06:31:42Z", "copyright": "The data included in this document is from www.openstreetmap.org. The data is made available under ODbL."}, "elements": [{"type": "node", "id": 599170262, "lat": 34.891501, "lon": 44.6282661, "tags": {"alt_name:en": "Tuz Khurmatu", "capital": "6", "int_name": "Tuz Khormato", "name": "\u0637\u0648\u0632 \u062e\u0648\u0631\u0645\u0627\u062a\u0648", "name:ar": "\u0637\u0648\u0632 \u062e\u0648\u0631\u0645\u0627\u062a\u0648", "name:ckb": "\u062f\u0648\u0648\u0632 \u062e\u0648\u0631\u0645\u0627\u062a\u0648\u0648", "name:en": "Tuz Khormato", "name:fr": "Tuz Khormato", "name:ku": "Xurmat\u00fb", "name:ml": "\u0d24\u0d41\u0d38\u0d4d \u0d16\u0d4b\u0d7c\u0d2e\u0d3e\u0d24\u0d4d\u0d24\u0d4b", "name:ru": "\u0422\u0443\u0437-\u0425\u0443\u0440\u043c\u0430\u0442\u0443", "name:tr": "Tuzhurmatu", "place": "town", "wikidata": "Q1023334", "wikipedia": "ar:\u0637\u0648\u0632 \u062e\u0648\u0631\u0645\u0627\u062a\u0648"}}, {"type": "node", "id": 2160538174, "lat": 35.1969722, "lon": 44.8917028, "tags": {"alt_name": "Qaddir Karam", "name": "\u0642\u0627\u062f\u0631\u06a9\u06d5\u0631\u06d5\u0645", "name:ar": "\u0642\u0627\u062f\u0631\u0643\u0631\u0645", "name:ckb": "\u0642\u0627\u062f\u0631\u06a9\u06d5\u0631\u06d5\u0645", "name:en": "Qadirkaram", "name:ku": "Qadirkerem", "name:ru": "\u041a\u0430\u0434\u0438\u0440\u043a\u0430\u0440\u0430\u043c", "place": "town", "wikidata": "Q65403629", "wikipedia": "ckb:\u0642\u0627\u062f\u0631\u06a9\u06d5\u0631\u06d5\u0645"}}, {"type": "node", "id": 7396905624, "lat": 34.8787388, "lon": 44.8542569, "tags": {"name": "\u0632\u0646\u062f\u0627\u0646\u06d5\u06cc \u06af\u06d5\u0648\u0631\u06d5", "name:ar": "\u0632\u0646\u0627\u0646\u0629 \u0627\u0644\u06a9\u0628\u0631\u06cc", "name:en": "Zinana Big", "place": "town", "wikidata": "Q61391747", "wikipedia": "ckb:\u0632\u06cc\u0646\u0627\u0646\u06d5\u06cc \u06af\u06d5\u0648\u0631\u06d5"}}, {"type": "node", "id": 9662831899, "lat": 34.7951162, "lon": 44.6667158, "tags": {"alt_name": "Silem\u0101n Bag, \u0633\u0644\u06cc\u0645\u0627\u0646 \u0628\u06a9, Sileman Beg, \u0633\u0644\u06ce\u0645\u0627\u0646 \u0628\u06d5\u06af", "int_name": "Sulaiman Beg", "name": "\u0633\u0644\u064a\u0645\u0627\u0646 \u0628\u064a\u0643", "name:ar": "\u0633\u0644\u06cc\u0645\u0627\u0646 \u0628\u064a\u0643", "name:ckb": "\u0633\u0644\u06ce\u0645\u0627\u0646 \u0628\u06d5\u06af", "name:de": "Sulaiman Bek", "name:en": "Sulaiman Bek", "name:fr": "Sulaiman Bek", "name:ku": "Sil\u00eaman Beg", "name:ml": "\u0d38\u0d41\u0d32\u0d48\u0d2e\u0d3e\u0d7b \u0d2c\u0d46\u0d15\u0d4d\u0d15\u0d4d", "name:ru": "\u0421\u0443\u043b\u0435\u0439\u043c\u0430\u043d-\u0411\u0435\u0433", "name:tr": "S\u00fcleyman Beg", "place": "town", "wikidata": "Q12216705", "wikipedia": "ar:\u0633\u0644\u064a\u0645\u0627\u0646 \u0628\u064a\u0643"}}]}