{"version": 0.6, "generator": "Overpass API 0.7.62.4 2390de5a", "osm3s": {"timestamp_osm_base": "2025-01-08T07:16:40Z", "copyright": "The data included in this document is from www.openstreetmap.org. The data is made available under ODbL."}, "elements": [{"type": "node", "id": 245408229, "lat": 29.579707, "lon": -10.031733, "tags": {"capital": "7", "name": "Mirleft \u2d4e\u2d49\u2d54\u2d4d\u2d3c\u2d5c \u0645\u064a\u0631\u0644\u0641\u062a", "name:ar": "\u0645\u064a\u0631\u0644\u0641\u062a", "name:ber": "\u2d4e\u2d49\u2d54\u2d4d\u2d3c\u2d5c", "name:en": "Mirleft", "name:es": "Mirleft", "name:fr": "Mirleft", "name:zgh": "\u2d4e\u2d49\u2d54\u2d4d\u2d3c\u2d5c", "place": "town", "wikidata": "Q3299405", "wikimedia_commons": "Category:Mirleft", "wikipedia": "en:Mirleft"}}, {"type": "node", "id": 256919926, "lat": 29.3791253, "lon": -10.1715632, "tags": {"alt_name:es": "Sidi Ifn\u00ed", "capital": "5", "name": "Sidi Ifni \u2d59\u2d49\u2d37\u2d49 \u2d49\u2d3c\u2d4f\u2d49 \u0633\u064a\u062f\u064a \u0625\u0641\u0646\u064a", "name:ar": "\u0633\u064a\u062f\u064a \u0625\u0641\u0646\u064a", "name:ary": "\u0633\u064a\u062f\u064a \u0625\u064a\u0641\u0646\u064a", "name:arz": "\u0633\u064a\u062f\u064a \u0627\u0641\u0646\u064a", "name:azb": "\u0633\u06cc\u062f\u06cc \u0627\u0641\u0646\u06cc", "name:ber": "\u2d59\u2d49\u2d37\u2d49 \u2d49\u2d3c\u2d4d\u2d49", "name:de": "Sidi Ifni", "name:en": "Sidi Ifni", "name:es": "Sidi Ifni", "name:fa": "\u0633\u06cc\u062f\u06cc \u0627\u0641\u0646\u06cc", "name:fr": "Sidi Ifni", "name:kab": "Sidi Ifni", "name:ru": "\u0421\u0438\u0434\u0438-\u0418\u0444\u043d\u0438", "name:uk": "\u0421\u0456\u0434\u0456-\u0406\u0444\u043d\u0456", "name:ur": "\u0633\u06cc\u062f\u06cc \u0627\u0641\u0646\u06cc", "name:zgh": "\u2d59\u2d49\u2d37\u2d49 \u2d49\u2d3c\u2d4d\u2d49", "old_name": "Santa Cruz de Mar Peque\u00f1a", "old_name:es": "Santa Cruz de Mar Peque\u00f1a", "place": "city", "wikidata": "Q632361", "wikimedia_commons": "Category:Sidi Ifni", "wikipedia": "ar:\u0633\u064a\u062f\u064a \u0625\u0641\u0646\u064a", "wikipedia:es": "Sidi Ifni"}}, {"type": "node", "id": 1067787235, "lat": 29.3856558, "lon": -9.9584455, "tags": {"capital": "7", "name": "Tioughza \u2d5c\u2d49\u2d61\u2d56\u2d63\u2d30 \u062a\u064a\u0648\u063a\u0632\u0629", "name:ar": "\u062a\u064a\u0648\u063a\u0632\u0629", "name:ber": "\u2d5c\u2d49\u2d61\u2d56\u2d63\u2d30", "name:en": "Tioughza", "name:es": "Tiugsa", "name:fr": "Tioughza", "name:zgh": "\u2d5c\u2d49\u2d61\u2d56\u2d63\u2d30", "place": "town", "wikidata": "Q3529259", "wikipedia": "fr:Tioughza"}}]}