{"version": 0.6, "generator": "Overpass API 0.7.62.4 2390de5a", "osm3s": {"timestamp_osm_base": "2025-01-08T07:16:40Z", "copyright": "The data included in this document is from www.openstreetmap.org. The data is made available under ODbL."}, "elements": [{"type": "node", "id": 698657908, "lat": 30.237084, "lon": -9.526828, "tags": {"capital": "7", "int_name": "Sidi Bibi", "name": "Sidi Bibi \u2d59\u2d49\u2d37\u2d49 \u2d31\u2d49\u2d31\u2d49 \u0633\u064a\u062f\u064a \u0628\u064a\u0628\u064a", "name:ar": "\u0633\u064a\u062f\u064a \u0628\u064a\u0628\u064a", "name:ber": "\u2d59\u2d49\u2d37\u2d49 \u2d31\u2d49\u2d31\u2d49", "name:en": "Sidi Bibi", "name:fr": "Sidi Bibi", "name:zgh": "\u2d59\u2d49\u2d37\u2d49 \u2d31\u2d49\u2d31\u2d49", "place": "town", "population": "39042", "wikidata": "Q7508668", "wikimedia_commons": "Category:Sidi Bibi", "wikipedia": "en:Sidi Bibi"}}, {"type": "node", "id": 1036329834, "lat": 29.972463, "lon": -9.6409, "tags": {"capital": "7", "name": "Massa \u2d4e\u2d30\u2d59\u2d59\u2d30 \u0645\u0627\u0633\u0629", "name:ar": "\u0645\u0627\u0633\u0629", "name:ber": "\u2d4e\u2d30\u2d59\u2d59\u2d30", "name:de": "Masa", "name:en": "Massa", "name:es": "Masa", "name:fr": "Massa", "name:zgh": "\u2d4e\u2d30\u2d59\u2d59\u2d30", "place": "town", "wikidata": "Q3100282", "wikimedia_commons": "Category:Massa (Morocco)", "wikipedia": "en:Massa, Morocco"}}, {"type": "node", "id": 1078787096, "lat": 30.215517, "lon": -9.368543, "tags": {"capital": "5", "ele": "129", "int_name": "Biougra", "name": "Biougra \u2d31\u2d62\u2d53\u2d33\u2d54\u2d30 \u0628\u064a\u0648\u06af\u0631\u0649", "name:ar": "\u0628\u064a\u0648\u06af\u0631\u0649", "name:ber": "\u2d31\u2d62\u2d53\u2d33\u2d54\u2d30", "name:en": "Biougra", "name:fr": "Biougra", "name:zgh": "\u2d31\u2d62\u2d53\u2d33\u2d54\u2d30", "place": "town", "population": "37933", "wikidata": "Q662659", "wikimedia_commons": "Category:Biougra", "wikipedia": "en:Biougra"}}, {"type": "node", "id": 1110186094, "lat": 30.0484384, "lon": -9.5641729, "tags": {"capital": "6", "ele": "62.85", "int_name": "Belfaa", "name": "Belfaa \u2d31\u2d4d\u2d3c\u2d30\u2d44 \u0628\u0644\u0641\u0627\u0639", "name:ar": "\u0628\u0644\u0641\u0627\u0639", "name:ber": "\u2d31\u2d4d\u2d3c\u2d30\u2d44", "name:en": "Belfaa", "name:fr": "Belfaa", "name:zgh": "\u2d31\u2d4d\u2d3c\u2d30\u2d44", "place": "town", "population": "27699", "wikidata": "Q4882219", "wikimedia_commons": "Category:Belfaa", "wikipedia": "en:Belfaa"}}, {"type": "node", "id": 2157795201, "lat": 30.1768183, "lon": -9.4891392, "tags": {"capital": "7", "int_name": "Ait Amira", "name": "A\u00eft Amira \u2d30\u2d62\u2d5c \u2d44\u2d4e\u2d49\u2d54\u2d30 \u0622\u064a\u062a \u0627\u0639\u0645\u064a\u0631\u0629", "name:ar": "\u0623\u064a\u062a \u0639\u0645\u064a\u0631\u0629", "name:ber": "\u2d30\u2d62\u2d5c \u2d44\u2d4e\u2d49\u2d54\u2d30", "name:en": "A\u00eft Amira", "name:fr": "A\u00eft Amira", "name:zgh": "\u2d30\u2d62\u2d5c \u2d44\u2d4e\u2d49\u2d54\u2d30", "place": "town", "population": "76646"}}]}