{"version": 0.6, "generator": "Overpass API 0.7.62.4 2390de5a", "osm3s": {"timestamp_osm_base": "2025-01-08T06:24:35Z", "copyright": "The data included in this document is from www.openstreetmap.org. The data is made available under ODbL."}, "elements": [{"type": "node", "id": 1523673141, "lat": 23.0932251, "lon": 57.4303108}, {"type": "node", "id": 1523673142, "lat": 23.0932393, "lon": 57.4304032}, {"type": "node", "id": 1523673143, "lat": 23.0932549, "lon": 57.4299217}, {"type": "node", "id": 1523673159, "lat": 23.0935383, "lon": 57.4294677}, {"type": "node", "id": 1523673175, "lat": 23.0938067, "lon": 57.4292569}, {"type": "node", "id": 1523673182, "lat": 23.0939161, "lon": 57.4292371}, {"type": "node", "id": 1523673214, "lat": 23.094109, "lon": 57.43079}, {"type": "node", "id": 1523673236, "lat": 23.0943486, "lon": 57.42946}, {"type": "node", "id": 1523673261, "lat": 23.0947811, "lon": 57.4303963}, {"type": "node", "id": 1523673272, "lat": 23.0948206, "lon": 57.4317337}, {"type": "node", "id": 1523673275, "lat": 23.0950335, "lon": 57.4317011}, {"type": "node", "id": 1523673277, "lat": 23.0950144, "lon": 57.4317911}, {"type": "node", "id": 1716931449, "lat": 22.7903348, "lon": 57.6096159, "tags": {"alt_name": "\u0645\u0646\u062d", "int_name": "Mana\u1e29, Manah", "name": "\u0645\u0646\u062d", "name:ar": "\u0645\u0646\u062d", "name:ar1": "\u0645\u0646\u062d", "name:de": "Manah", "name:en": "Manah", "name:fr": "Manah", "name:ml": "\u0d2e\u0d28\u0d39\u0d4d", "place": "town"}}, {"type": "node", "id": 1718139885, "lat": 23.1170765, "lon": 57.2868343, "tags": {"alt_name": "Al Hamra', Al \u1e24amr\u0101\u2019, Al \u1e28amr\u0101\u2019, Hamra, Hamrah, \u0627\u0644\u062d\u0645\u0631\u0627\u0621, \u1e28amrah", "int_name": "Al \u1e28amr\u0101, \u1e28amrah, Hamra, Al Hamra, Hamrah, Hamra", "name": "\u0627\u0644\u062d\u0645\u0631\u0627\u0621", "name:ar": "\u0627\u0644\u062d\u0645\u0631\u0627\u0621", "name:ar1": "\u0627\u0644\u062d\u0645\u0631\u0627\u0621", "name:de": "Al Hamra", "name:en": "Al Hamra", "name:es": "Al Hamra", "name:fr": "Al Hamra", "name:ml": "\u0d05\u0d7d-\u0d39\u0d02\u0d31", "place": "town", "source": "https://www.mindat.org/feature-289277.html"}}, {"type": "node", "id": 1721750572, "lat": 22.9323884, "lon": 57.5311, "tags": {"name": "\u0646\u0632\u0648\u0649", "name:ar": "\u0646\u0632\u0648\u0649", "name:az-Arab": "\u0646\u0632\u0648\u06cc", "name:azb": "\u0646\u0632\u0648\u06cc", "name:de": "Nizwa", "name:en": "Nizwa", "name:es": "Nizw\u00e1", "name:eu": "Nizwa", "name:fa": "\u0646\u0632\u0648\u06cc", "name:fr": "Nizwa", "name:he": "\u05e0\u05d9\u05d6\u05d5\u05d5\u05d4", "name:hi": "\u0928\u093f\u091c\u093c\u0935\u093e", "name:ks": "\u0646\u0632\u0648\u06cc", "name:ml": "\u0d28\u0d3f\u0d38\u0d4d\u0d35", "name:ru": "\u041d\u0438\u0437\u0432\u0430", "name:uk": "\u041d\u0456\u0437\u0432\u0430", "name:ur": "\u0646\u0632\u0648\u06cc", "name:zh": "\u5c3c\u8332\u74e6", "place": "city", "population": "700000", "wikidata": "Q1915327", "wikipedia": "ar:\u0646\u0632\u0648\u0649"}}, {"type": "node", "id": 1721768792, "lat": 22.970025, "lon": 57.2986957, "tags": {"name": "\u0628\u0647\u0644\u0627\u0621", "name:ar": "\u0628\u0647\u0644\u0627\u0621", "name:de": "Bahl\u0101", "name:en": "Bahl\u0101", "name:fa": "\u0628\u0647\u0644\u0627\u0621", "name:fr": "Bahla", "name:ml": "\u0d2c\u0d39\u0d4d\u0d32", "name:uk": "\u0411\u0430\u0433\u043b\u0430", "name:ur": "\u0628\u06c1\u0644\u0627", "place": "city", "population": "85000", "wikidata": "Q800253", "wikipedia": "ar:\u0628\u0647\u0644\u0627"}}, {"type": "node", "id": 2161897265, "lat": 23.1098502, "lon": 57.3993565}, {"type": "node", "id": 2161897268, "lat": 23.1101143, "lon": 57.4004959}, {"type": "node", "id": 2161897273, "lat": 23.1104946, "lon": 57.3997921}, {"type": "node", "id": 2161897274, "lat": 23.1105701, "lon": 57.4008084}, {"type": "node", "id": 2161897276, "lat": 23.110634, "lon": 57.3978131}, {"type": "node", "id": 2161897281, "lat": 23.1112842, "lon": 57.399426}, {"type": "node", "id": 2161897283, "lat": 23.1114119, "lon": 57.3983276}, {"type": "node", "id": 2161897286, "lat": 23.1114236, "lon": 57.3995238}, {"type": "node", "id": 2161897290, "lat": 23.1115106, "lon": 57.3993439}, {"type": "node", "id": 2161897291, "lat": 23.1115542, "lon": 57.3979994}, {"type": "node", "id": 2161897302, "lat": 23.1120274, "lon": 57.3996343}, {"type": "node", "id": 2161897317, "lat": 23.1123641, "lon": 57.3984602}, {"type": "node", "id": 2463909722, "lat": 22.8830032, "lon": 57.5302374, "tags": {"alt_name": "Farq", "int_name": "Farq", "name": "\u0641\u0631\u0642", "name:ml": "\u0d2b\u0d7c\u0d15\u0d4d\u0d15\u0d4d", "old_name": "Farq", "place": "town", "source": "MSR"}}, {"type": "node", "id": 7015261090, "lat": 22.7192062, "lon": 57.5638212, "tags": {"name": "\u0639\u0632", "name:ar": "\u0639\u0632", "name:en": "Izz", "place": "town"}}, {"type": "node", "id": 11957056007, "lat": 23.1415916, "lon": 57.3957384, "tags": {"alt_name": "Dar al Bayda', D\u0101r al Bay\u1e0d\u0101\u2019, D\u0101r al Bay\u1e11\u0101\u2019, \u062f\u0627\u0631 \u0627\u0644\u0628\u064a\u0636\u0627\u0621", "name": "Dar al Bayda'", "name:en": "Dar al Bayda'", "name:es": "Dar al Bayda'", "name:fr": "Dar al Bayda'", "place": "town", "source": "https://www.mindat.org/feature-11806612.html"}}, {"type": "way", "id": 206182781, "nodes": [2161897281, 2161897274, 2161897268, 2161897273, 2161897265, 2161897276, 2161897283, 2161897291, 2161897317, 2161897302, 2161897290, 2161897286, 2161897281], "tags": {"alt_name": "Dar al Qil, Dar al Qill, D\u0101r al Qil, D\u0101r al Qill, dar alql, \u062f\u0627\u0631 \u0627\u0644\u0642\u0644", "name": "Dar al Qil", "name:en": "Dar al Qil", "name:es": "Dar al Qil", "name:fr": "Dar al Qil", "place": "town", "source": "https://www.mindat.org/feature-11806606.html"}}, {"type": "way", "id": 216955553, "nodes": [1523673214, 1523673142, 1523673141, 1523673143, 1523673159, 1523673175, 1523673182, 1523673236, 1523673261, 1523673275, 1523673277, 1523673272, 1523673214], "tags": {"alt_name": "Az Zikt, Zikt, alzkt, \u0627\u0644\u0632\u0643\u062a", "name": "Zikt", "name:en": "Zikt", "name:es": "Zikt", "name:fr": "Zikt", "place": "town", "source": "https://www.mindat.org/feature-285883.html"}}]}