{"version": 0.6, "generator": "Overpass API 0.7.62.4 2390de5a", "osm3s": {"timestamp_osm_base": "2025-01-08T06:29:44Z", "copyright": "The data included in this document is from www.openstreetmap.org. The data is made available under ODbL."}, "elements": [{"type": "node", "id": 248158405, "lat": 35.7551749, "lon": 39.6102003, "tags": {"name": "\u0645\u0639\u062f\u0627\u0646", "name:ar": "\u0645\u0639\u062f\u0627\u0646", "name:de": "Maadan", "name:en": "Ma'daan", "name:fr": "Maadaan", "name:he": "\u05de\u05e2\u05d3\u05d0\u05df", "name:ja": "\u30de\u30fc\u30c0\u30fc\u30f3", "name:ko": "\ub9c8\ub2e4\uc548", "name:ml": "\u0d2e\u0d3e\u0d26\u0d3e\u0d7b", "name:ru": "\u041c\u0430\u0430\u0434\u0430\u0301\u043d", "place": "town", "population": "8663", "population:date": "2004", "source:population": "\u0627\u0644\u0645\u0643\u062a\u0628 \u0627\u0644\u0645\u0631\u0643\u0632\u064a \u0644\u0644\u0625\u062d\u0635\u0627\u0621", "wikidata": "Q12244038"}}, {"type": "node", "id": 573537459, "lat": 35.7590726, "lon": 39.6227032, "tags": {"name": "\u0627\u0644\u0633\u0648\u064a\u062f\u0629", "name:ar": "\u0627\u0644\u0633\u0648\u064a\u062f\u0629", "name:de": "as-Suweide", "name:en": "As-Suweide", "name:fr": "As-Soueid\u00e9", "name:he": "\u05d0-\u05e1\u05d5\u05d9\u05d3\u05d4", "name:ja": "\u30a2\u30c3\u30a0\u30b9\u30a6\u30a7\u30a4\u30c7", "name:ko": "\uc544\uc464\uc6e8\uc774\ub370", "name:ml": "\u0d05\u0d38\u0d4d\u0d38\u0d41\u0d35\u0d48\u0d26", "name:ru": "\u0410\u0441-\u0421\u0443\u0432\u0435\u0439\u0434\u044d", "place": "town", "population": "5136", "population:date": "2004", "source:population": "\u0627\u0644\u0645\u0643\u062a\u0628 \u0627\u0644\u0645\u0631\u0643\u0632\u064a \u0644\u0644\u0625\u062d\u0635\u0627\u0621"}}, {"type": "node", "id": 573539126, "lat": 35.7534334, "lon": 39.5659526, "tags": {"name": "\u0627\u0644\u062e\u0645\u064a\u0633\u064a\u0629", "name:ar": "\u0627\u0644\u062e\u0645\u064a\u0633\u064a\u0629", "name:de": "al-Chamisija", "name:en": "Al-Khamisiya", "name:fr": "Al-Khamisia", "name:he": "\u05d0\u05dc-\u05d7\u05f3\u05de\u05d9\u05e1\u05d9\u05d4", "name:ja": "\u30a2\u30eb\u30a0\u30cf\u30df\u30b9\u30a3\u30e4", "name:ko": "\uc54c\uce74\ubbf8\uc2dc\uc57c", "name:ru": "\u0410\u043b\u044c-\u0425\u0430\u043c\u0438\u0441\u0438\u0439\u044f", "place": "town", "population": "5318", "population:date": "2004", "source:population": "\u0627\u0644\u0645\u0643\u062a\u0628 \u0627\u0644\u0645\u0631\u0643\u0632\u064a \u0644\u0644\u0625\u062d\u0635\u0627\u0621"}}, {"type": "node", "id": 573542861, "lat": 35.9156603, "lon": 39.1643116, "tags": {"alt_name": "\u062d\u0645\u0631\u0629 \u0646\u0627\u0635\u0631", "alt_name:ar": "\u062d\u0645\u0631\u0629 \u0646\u0627\u0635\u0631", "alt_name:de": "Hemrat Nasir", "alt_name:en": "Hamrat Nasir", "alt_name:fr": "Hamrat Nasir", "name": "\u0627\u0644\u0646\u0627\u0635\u0631\u0629", "name:ar": "\u0627\u0644\u0646\u0627\u0635\u0631\u0629", "name:de": "an-Nasra", "name:en": "An-Nasra", "name:fr": "An-Nasra", "name:he": "\u05d0-\u05e0\u05d0\u05e1\u05e8\u05d4", "name:ja": "\u30a2\u30c3\u30a0\u30ca\u30fc\u30b9\u30e9", "name:ko": "\uc548\ub098\uc2a4\ub77c", "name:ml": "\u0d05\u0d28\u0d4d\u0d28\u0d3e\u0d38\u0d4d\u0d30", "name:ru": "\u0410\u043d-\u041d\u0430\u0441\u0440\u0430", "place": "town", "population": "5135", "population:date": "2004", "source:population": "\u0627\u0644\u0645\u0643\u062a\u0628 \u0627\u0644\u0645\u0631\u0643\u0632\u064a \u0644\u0644\u0625\u062d\u0635\u0627\u0621"}}, {"type": "node", "id": 573543018, "lat": 35.8116351, "lon": 39.2630591, "tags": {"name": "\u0627\u0644\u0633\u0628\u062e\u0629", "name:ar": "\u0627\u0644\u0633\u0628\u062e\u0629", "name:de": "as-Sabcha", "name:en": "As-Sabkha", "name:fr": "As-Sabkha", "name:he": "\u05d0-\u05e1\u05d1\u05d7\u05f3\u05d4", "name:ja": "\u30a2\u30c3\u30a0\u30b5\u30d6\u30cf", "name:ko": "\uc544\uc0ac\ube0c\uce74", "name:ml": "\u0d05\u0d38\u0d4d\u0d38\u0d2c\u0d4d\u0d16", "name:ru": "\u0410\u0441-\u0421\u0430\u0431\u0445\u0430", "place": "town", "population": "11567", "population:date": "2004", "source:population": "\u0627\u0644\u0645\u0643\u062a\u0628 \u0627\u0644\u0645\u0631\u0643\u0632\u064a \u0644\u0644\u0625\u062d\u0635\u0627\u0621"}}, {"type": "node", "id": 12058826531, "lat": 35.8704802, "lon": 39.2759483, "tags": {"alt_name": "\u0641\u0637\u0633\u0629 \u0627\u0644\u062b\u064a\u0628", "alt_name:ar": "\u0641\u0637\u0633\u0629 \u0627\u0644\u062b\u064a\u0628", "alt_name:de": "Fatsat at-Teib", "alt_name:en": "Fatsat ath-Thaib", "alt_name:fr": "Fatsat ath-Tha\u00efb", "alt_name:ru": "\u0424\u0430\u0442\u0441\u0435\u0442-\u044d\u0442-\u0422\u0438\u0435\u0431", "name": "\u0627\u0644\u0643\u0631\u0627\u0645\u0629", "name:ar": "\u0627\u0644\u0643\u0631\u0627\u0645\u0629", "name:de": "al-Karama", "name:en": "Al-Karama", "name:fr": "Al-Karama", "name:he": "\u05d0\u05dc-\u05db\u05e8\u05d0\u05de\u05d4", "name:ja": "\u30a2\u30eb\u30a0\u30ab\u30e9\u30fc\u30de", "name:ko": "\uc54c\uce74\ub77c\ub9c8", "name:ml": "\u0d05\u0d7d-\u0d15\u0d30\u0d3e\u0d2e", "name:ru": "\u0410\u043b\u044c-\u041a\u0430\u0440\u0430\u043c\u0430", "place": "town", "population": "7034", "population:date": "2004", "source:population": "\u0627\u0644\u0645\u0643\u062a\u0628 \u0627\u0644\u0645\u0631\u0643\u0632\u064a \u0644\u0644\u0625\u062d\u0635\u0627\u0621"}}, {"type": "node", "id": 12187095544, "lat": 35.7933643, "lon": 39.4462403, "tags": {"alt_name": "\u0633\u0644\u064a\u0645 \u0627\u0644\u062d\u0645\u0627\u062f", "alt_name:ar": "\u0633\u0644\u064a\u0645 \u0627\u0644\u062d\u0645\u0627\u062f", "alt_name:de": "Salim al-Hammad", "alt_name:en": "Salim al-Hammad", "alt_name:fr": "Salim al-Hammad", "name": "\u0627\u0644\u062d\u0645\u062f\u0627\u0646\u064a\u0629", "name:ar": "\u0627\u0644\u062d\u0645\u062f\u0627\u0646\u064a\u0629", "name:de": "al-Hamdanija", "name:en": "Al-Hamdaniya", "name:fr": "Al-Hamdania", "name:he": "\u05d0\u05dc-\u05d7\u05de\u05d3\u05d0\u05e0\u05d9\u05d4", "name:ja": "\u30a2\u30eb\u30a0\u30cf\u30e0\u30c0\u30fc\u30cb\u30fc\u30e4", "name:ko": "\uc54c\ud568\ub2e4\ub2c8\uc57c", "name:ml": "\u0d05\u0d7d-\u0d39\u0d02\u0d26\u0d3e\u0d28\u0d3f\u0d2f", "name:ru": "\u0410\u043b\u044c-\u0425\u0430\u043c\u0434\u0430\u043d\u0438\u0301\u0439\u044f", "place": "town", "population": "5348", "population:date": "2004", "source:population": "\u0627\u0644\u0645\u0643\u062a\u0628 \u0627\u0644\u0645\u0631\u0643\u0632\u064a \u0644\u0644\u0625\u062d\u0635\u0627\u0621"}}, {"type": "node", "id": 12332356266, "lat": 35.7822477, "lon": 39.3710403, "tags": {"name": "\u0634\u0645\u0631\u0629", "name:ar": "\u0634\u0645\u0631\u0629", "name:de": "Schamra", "name:en": "Shamra", "name:fr": "Chamra", "name:he": "\u05e9\u05de\u05e8\u05d4", "name:ja": "\u30b7\u30e3\u30e0\u30e9", "name:ko": "\uc0e4\ubbc0\ub77c", "name:ml": "\u0d37\u0d02\u0d31", "name:ru": "\u0428\u0430\u043c\u0440\u0430", "place": "town", "population": "6147", "population:date": "2004", "source:population": "\u0627\u0644\u0645\u0643\u062a\u0628 \u0627\u0644\u0645\u0631\u0643\u0632\u064a \u0644\u0644\u0625\u062d\u0635\u0627\u0621"}}]}