{"version": 0.6, "generator": "Overpass API 0.7.62.4 2390de5a", "osm3s": {"timestamp_osm_base": "2025-01-08T06:43:00Z", "copyright": "The data included in this document is from www.openstreetmap.org. The data is made available under ODbL."}, "elements": [{"type": "node", "id": 1620604084, "lat": 18.4811972, "lon": 31.8171688, "tags": {"GNS:dsg_code": "PPL", "GNS:dsg_name": "populated place", "GNS:id": "-10825", "GNS:modify_date": "2009-08-18", "alt_name": "Marawi;Merowe;Merawi;Maraw\u012b", "alt_name:en": "Marawi", "name": "\u0645\u0631\u0648\u064a", "name:ar": "\u0645\u0631\u0648\u064a", "name:de": "Merowe", "name:en": "Merowe", "name:es": "Merowe", "name:fr": "Merowe", "place": "city", "population": "10000", "wikidata": "Q2784541"}}, {"type": "node", "id": 1956274629, "lat": 18.545128, "lon": 31.847617, "tags": {"GNS:dsg_code": "PPL", "GNS:dsg_name": "populated place", "GNS:id": "-9424", "GNS:modify_date": "2009-08-18", "alt_name": "Kar\u00eamah;Karemah;Kareima;Karima;Kuraymah", "alt_name:ar": "\u0643\u0631\u0645", "alt_name:en": "Kuraymah", "name": "\u0643\u0631\u064a\u0645\u0629", "name:ar": "\u0643\u0631\u064a\u0645\u0629", "name:en": "Karima", "name:fr": "Karima", "place": "town", "wikidata": "Q1729372"}}, {"type": "node", "id": 4261906833, "lat": 18.561145, "lon": 31.888321, "tags": {"GNS:dsg_code": "PPL", "GNS:dsg_name": "populated place", "GNS:id": "-12256", "GNS:modify_date": "2009-08-18", "alt_name": "Nuri;Nurri;N\u016br\u012b", "alt_name:ar": "\u0646\u0631\u0651", "name": "\u0646\u0648\u0631\u064a", "name:ar": "\u0646\u0648\u0631\u064a", "name:en": "Nuri", "name:fr": "Nouri", "place": "town", "wikidata": "Q2119839"}}, {"type": "node", "id": 4269170161, "lat": 18.3888181, "lon": 31.7609496, "tags": {"GNS:dsg_code": "PPL", "GNS:dsg_name": "populated place", "GNS:id": "-4396", "GNS:modify_date": "2009-08-18", "alt_name": "Dahasira", "alt_name:ar": "\u062f\u0647\u0633\u0631", "name": "\u0627\u0644\u062f\u0647\u064a\u0633\u064a\u0631\u0629", "name:ar": "\u0627\u0644\u062f\u0647\u064a\u0633\u064a\u0631\u0629", "name:en": "Dahasira", "name:fr": "Dahasira", "place": "town", "website": "aldahaseera.mountada.net"}}, {"type": "node", "id": 4269170162, "lat": 18.3696729, "lon": 31.7495793, "tags": {"GNS:dsg_code": "PPL", "GNS:dsg_name": "populated place", "GNS:id": "-3259", "GNS:modify_date": "2009-08-18", "alt_name": "Az Zumah;Ez Zuma;Zuma;El Zoma;Az Z\u016bmah", "alt_name:ar": "\u0632\u0645", "name": "\u0627\u0644\u0632\u0648\u0645\u0629", "name:ar": "\u0627\u0644\u0632\u0648\u0645\u0629", "name:en": "Az Zumah", "name:fr": "Az Zumah", "place": "town"}}, {"type": "node", "id": 4270926789, "lat": 18.2891054, "lon": 31.7204287, "tags": {"GNS:dsg_code": "PPL", "GNS:dsg_name": "populated place", "GNS:id": "-4944", "GNS:modify_date": "2009-08-18", "alt_name": "Dom Basin", "alt_name:ar": "\u062f\u0648\u0645 \u0628\u0633\u0646", "alt_name:en": "Dom Basin", "name": "\u0627\u0644\u0642\u0631\u064a\u0631", "name:ar": "\u0627\u0644\u0642\u0631\u064a\u0631", "name:en": "Al Qurayr", "name:fr": "Al-Karir", "place": "town"}}, {"type": "node", "id": 4270926793, "lat": 18.3841184, "lon": 31.791401, "tags": {"GNS:dsg_code": "PPL", "GNS:dsg_name": "populated place", "GNS:id": "-14926", "GNS:modify_date": "2009-08-18", "alt_name": "Tangasi ar Ru'ays;Tangasi er Ruweis;Tangasi ar Ru\u2019ays", "alt_name:ar": "\u062a\u0646\u063a\u0623\u0633 \u0627\u0644\u0631\u0624\u064a\u0633", "alt_name:en": "Tangasi ar Ru'ays", "name": "\u062a\u0646\u0642\u0627\u0633\u064a", "name:ar": "\u062a\u0646\u0642\u0627\u0633\u064a", "name:en": "Tangasi", "name:fr": "Tangasi", "place": "town", "wikipedia": "ar:\u062a\u0646\u0642\u0627\u0633\u064a"}}]}