{"version": 0.6, "generator": "Overpass API 0.7.62.4 2390de5a", "osm3s": {"timestamp_osm_base": "2025-01-08T06:58:15Z", "copyright": "The data included in this document is from www.openstreetmap.org. The data is made available under ODbL."}, "elements": [{"type": "node", "id": 561134924, "lat": 35.0382386, "lon": 9.4865301, "tags": {"name": "\u0633\u064a\u062f\u064a \u0628\u0648\u0632\u064a\u062f", "name:ar": "\u0633\u064a\u062f\u064a \u0628\u0648\u0632\u064a\u062f", "name:azb": "\u0633\u06cc\u062f\u06cc \u0628\u0648\u0632\u06cc\u062f", "name:de": "Sayyidi Buzaid", "name:en": "Sidi Bouzid", "name:es": "Sidi Buzid", "name:fa": "\u0633\u06cc\u062f\u06cc \u0628\u0648\u0632\u06cc\u062f", "name:fr": "Sidi Bouzid", "name:it": "Sidi Bouzid", "name:kab": "Sidi Buzid", "name:ks": "\u0633\u06cc\u062f\u06cc \u0628\u0648\u0632\u06cc\u062f", "name:ru": "\u0421\u0438\u0434\u0438-\u0411\u0443-\u0417\u0438\u0434", "name:ur": "\u0633\u06cc\u062f\u06cc \u0628\u0648\u0632\u06cc\u062f", "name:zh": "\u897f\u8fea\u5e03\u6fdf\u5fb7", "official_name": "\u0628\u0644\u062f\u064a\u0629 \u0633\u064a\u062f\u064a \u0628\u0648\u0632\u064a\u062f", "official_name:ar": "\u0628\u0644\u062f\u064a\u0629 \u0633\u064a\u062f\u064a \u0628\u0648\u0632\u064a\u062f", "official_name:es": "Municipio de Sidi Buzid", "place": "city", "population": "122676", "wikidata": "Q692716", "wikimedia_commons": "Category:Sidi Bouzid (Tunisia)", "wikipedia": "ar:\u0633\u064a\u062f\u064a \u0628\u0648\u0632\u064a\u062f (\u062a\u0648\u0646\u0633)"}}, {"type": "node", "id": 5067512322, "lat": 34.932087, "lon": 9.1960034, "tags": {"name": "\u0628\u0626\u0631 \u0627\u0644\u062d\u0641\u064a", "name:ar": "\u0628\u0626\u0631 \u0627\u0644\u062d\u0641\u064a", "name:en": "Bir El Hafey", "name:fr": "Bir El Hafey", "place": "town", "population": "10000", "wikidata": "Q2737160", "wikimedia_commons": "Category:Bir El Hafey", "wikipedia": "en:Bir El Hafey"}}]}