{"version": 0.6, "generator": "Overpass API 0.7.62.4 2390de5a", "osm3s": {"timestamp_osm_base": "2025-01-08T06:27:42Z", "copyright": "The data included in this document is from www.openstreetmap.org. The data is made available under ODbL."}, "elements": [{"type": "node", "id": 411050499, "lat": 30.3216568, "lon": 35.4800889, "tags": {"name": "\u0648\u0627\u062f\u064a \u0645\u0648\u0633\u0649", "name:ar": "\u0648\u0627\u062f\u064a \u0645\u0648\u0633\u0649", "name:de": "Wadi Musa", "name:en": "Wadi Musa", "name:es": "Wadi Musa", "name:fr": "Wadi Musa", "name:he": "\u05d5\u05d0\u05d3\u05d9 \u05de\u05d5\u05e1\u05d0", "name:hi": "\u0935\u093e\u0926\u0940 \u092e\u0942\u0938\u093e", "name:hy": "\u054e\u0561\u0564\u056b \u0544\u0578\u0582\u057d\u0561", "name:it": "Petra", "name:ks": "\u0648\u0627\u062f\u06cc \u0645\u0648\u0633\u06cc", "name:la": "Petra", "name:ml": "\u0d35\u0d3e\u0d26\u0d3f \u0d2e\u0d42\u0d38", "name:pl": "Wadi Musa", "name:ur": "\u0648\u0627\u062f\u06cc \u0645\u0648\u0633\u06cc", "place": "town", "wikidata": "Q2739446", "wikipedia": "ar:\u0648\u0627\u062f\u064a \u0645\u0648\u0633\u0649"}}, {"type": "node", "id": 802584976, "lat": 30.2, "lon": 35.7333329, "tags": {"name": "\u0645\u0639\u0627\u0646", "name:ar": "\u0645\u0639\u0627\u0646", "name:az-Arab": "\u0645\u0639\u0627\u0646", "name:azb": "\u0645\u0639\u0627\u0646", "name:de": "Ma'an", "name:en": "Maan", "name:fr": "Ma'an", "name:he": "\u05de\u05e2\u05d0\u05df", "name:hi": "\u092e\u093e\u0928", "name:hy": "\u0544\u0561\u0561\u0576", "name:ks": "\u0645\u0639\u0627\u0646", "name:ml": "\u0d2e\u0d3e\u0d7b", "name:pnb": "\u0645\u0639\u0627\u0646", "name:ru": "\u041c\u0430\u0430\u043d", "name:uk": "\u041c\u0430\u0430\u043d", "name:ur": "\u0645\u0639\u0627\u0646", "place": "city", "wikidata": "Q31616", "wikipedia": "ar:\u0645\u0639\u0627\u0646"}}]}