{"version": 0.6, "generator": "Overpass API 0.7.62.4 2390de5a", "osm3s": {"timestamp_osm_base": "2025-01-08T06:09:30Z", "copyright": "The data included in this document is from www.openstreetmap.org. The data is made available under ODbL."}, "elements": [{"type": "node", "id": 348286415, "lat": 25.935556, "lon": 49.668333, "tags": {"GNS:dsg_code": "PPL", "GNS:dsg_name": "populated place", "GNS:id": "-3094116", "alt_name": "Abaqaiq;Abkayk;Abqaik;Abqaiq;Abqayq;Bukayk;Madinat Abqaiq;Buqayq;Buqayq", "capital": "6", "name": "\u0623\u0628\u0642\u064a\u0642", "name:ar": "\u0623\u0628\u0642\u064a\u0642", "name:de": "Abqaiq", "name:en": "Abqaiq", "name:fr": "Abqaiq", "name:he": "\u05d0\u05d1\u05e7\u05d0\u05d9\u05e7", "name:hi": "\u0905\u092c\u0915\u0948\u0915", "name:ko": "\uc544\ube0c\uce74\uc774\ud06c", "place": "town", "population": "36207", "population:date": "2010", "source:population": "stats.gov.sa", "wikidata": "Q27177"}}, {"type": "node", "id": 1237339369, "lat": 25.5930579, "lon": 49.5824801, "tags": {"GNS:dsg_code": "PPL", "GNS:dsg_name": "populated place", "GNS:id": "-3092237", "int_name": "Al Mar\u0101\u1e29", "name": "\u0627\u0644\u0645\u0631\u0627\u062d", "name:ar": "\u0627\u0644\u0645\u0631\u0627\u062d", "name:de": "Al Marah", "name:en": "Al Marah", "name:fr": "Al Marah", "place": "town", "population": "5633", "population:date": "2010", "source:population": "stats.gov.sa"}}, {"type": "node", "id": 10775271923, "lat": 25.5837304, "lon": 49.5936584, "tags": {"name": "\u0627\u0644\u0639\u0648\u0636\u064a\u0629", "name:ar": "\u0627\u0644\u0639\u0648\u0636\u064a\u0629", "name:en": "Al awadiyah", "place": "town"}}, {"type": "node", "id": 10775657799, "lat": 25.6076446, "lon": 49.5649495, "tags": {"name": "\u0627\u0644\u0639\u064a\u0648\u0646", "name:ar": "\u0627\u0644\u0639\u064a\u0648\u0646", "name:en": "AL OYOUN", "place": "city"}}]}