{"version": 0.6, "generator": "Overpass API 0.7.62.4 2390de5a", "osm3s": {"timestamp_osm_base": "2025-01-08T06:30:42Z", "copyright": "The data included in this document is from www.openstreetmap.org. The data is made available under ODbL."}, "elements": [{"type": "node", "id": 2487868494, "lat": 31.678995, "lon": 46.96948, "tags": {"alt_name": "Al Maym\u016bnah, Maim\u016bnah, Maymuna, \u0627\u0644\u0645\u064a\u0645\u0648\u0646\u0629, Al Maymunah, Maimunah, Maymuna, \u0627\u0644\u0645\u064a\u0645\u0648\u0646\u0629", "capital": "6", "int_name": "Al Maymunah - \u0627\u0644\u0645\u064a\u0645\u0648\u0646\u0629", "is_in": "Iraq , \u062c\u0645\u0647\u0648\u0631\u064a\u0629 \u0627\u0644\u0639\u0631\u0627\u0642", "name": "\u0627\u0644\u0645\u064a\u0645\u0648\u0646\u0629", "name:ar": "\u0627\u0644\u0645\u064a\u0645\u0648\u0646\u0629", "name:de": "Al Maymunah", "name:en": "Al Maymunah", "name:fr": "Al Maymunah", "name:ml": "\u0d05\u0d7d-\u0d2e\u0d48\u0d2e\u0d42\u0d28", "place": "town", "wikidata": "Q12194169"}}, {"type": "node", "id": 2487981645, "lat": 31.5375811, "lon": 46.9757565, "tags": {"alt_name": "\u0646\u0627\u062d\u064a\u0629 \u0627\u0644\u0633\u0644\u0627\u0645", "capital": "7", "int_name": "N\u0101\u1e29iyat as Sal\u0101m, \u0646\u0627\u062d\u064a\u0629 \u0627\u0644\u0633\u0644\u0627\u0645, Nahiyat as Salam, \u0646\u0627\u062d\u064a\u0629 \u0627\u0644\u0633\u0644\u0627\u0645", "is_in": "Iraq , \u062c\u0645\u0647\u0648\u0631\u064a\u0629 \u0627\u0644\u0639\u0631\u0627\u0642", "name": "\u0627\u0644\u0633\u0644\u0627\u0645", "name:ar": "\u0646\u0627\u062d\u064a\u0629 \u0627\u0644\u0633\u0644\u0627\u0645", "name:de": "Nahiyat as Salam", "name:en": "Al Salam", "name:fr": "Nahiyat as Salam", "name:ml": "\u0d28\u0d3e\u0d39\u0d3f\u0d2f\u0d24\u0d4d\u0d24\u0d4d \u0d05\u0d38\u0d4d\u0d38\u0d32\u0d3e\u0d02", "place": "town"}}, {"type": "node", "id": 4373300614, "lat": 31.4900622, "lon": 47.1146607, "tags": {"capital": "7", "int_name": "Al-Adel - \u0627\u0644\u0639\u062f\u0644", "name": "\u0627\u0644\u0639\u062f\u0644", "name:ar": "\u0627\u0644\u0639\u062f\u0644", "name:en": "Al-Adel", "name:ml": "\u0d05\u0d7d-\u0d05\u0d26\u0d46\u0d7d", "place": "town", "wikidata": "Q12190055"}}]}