{"version": 0.6, "generator": "Overpass API 0.7.62.4 2390de5a", "osm3s": {"timestamp_osm_base": "2025-01-08T06:31:42Z", "copyright": "The data included in this document is from www.openstreetmap.org. The data is made available under ODbL."}, "elements": [{"type": "node", "id": 248689519, "lat": 31.3078736, "lon": 45.2826616, "tags": {"capital": "4", "int_name": "As Samawah - \u0627\u0644\u0633\u0645\u0627\u0648\u0629", "is_capital": "state", "name": "\u0627\u0644\u0633\u0645\u0627\u0648\u0629", "name:ar": "\u0627\u0644\u0633\u0645\u0627\u0648\u0629", "name:ckb": "\u0633\u06d5\u0645\u0627\u0648\u06d5", "name:cs": "Sam\u00e1wa", "name:de": "As Samawah", "name:en": "As Samawah", "name:et": "As-Sam\u0101wah", "name:eu": "As Samawah", "name:fr": "As Samawah", "name:hi": "\u0938\u092e\u093e\u0935\u093e", "name:ja": "\u30b5\u30de\u30fc\u30ef", "name:ku": "Semawe", "name:ml": "\u0d38\u0d2e\u0d3e\u0d35", "name:pl": "Samawa", "name:ru": "\u042d\u0441-\u0421\u0430\u043c\u0430\u0432\u0430", "name:uk": "\u0415\u0441-\u0421\u0430\u043c\u0430\u0432\u0430", "place": "city", "population": "250000", "wikidata": "Q750679", "wikipedia": "en:Samawah"}}, {"type": "node", "id": 297453585, "lat": 31.5290776, "lon": 45.2109126, "tags": {"alt_name": "\u0627\u0644\u0631\u0645\u064a\u062b\u0629", "capital": "6", "int_name": "Al Rumitha", "name": "\u0627\u0644\u0631\u0645\u064a\u062b\u0629", "name:ar": "\u0627\u0644\u0631\u0645\u064a\u062b\u0629", "name:bn": "\u0986\u09b2 \u09b0\u09c1\u09ae\u09be\u0987\u09b8\u09be", "name:de": "Al Rumitha", "name:en": "Al-Rumaitha", "name:et": "Ar-Rumaythah", "name:eu": "Al-Rumaitha", "name:fr": "Al-Rumaitha", "name:ml": "\u0d05\u0d7d \u0d31\u0d41\u0d2e\u0d48\u0d38", "name:ru": "\u042d\u0440-\u0420\u0443\u043c\u0430\u0439\u0442\u0430", "place": "city", "population": "115431", "population:date": "2014", "source:population": "https://ar.wikipedia.org/wiki/%D8%A7%D9%84%D8%B1%D9%85%D9%8A%D8%AB%D8%A9", "wikidata": "Q4532299"}}, {"type": "node", "id": 2487763244, "lat": 31.3297066, "lon": 45.4167628, "tags": {"alt_name": "\u0627\u0644\u0633\u0648\u064a\u0631", "capital": "7", "int_name": "As Suwayr, As Suwayr", "is_in": "Iraq , \u062c\u0645\u0647\u0648\u0631\u064a\u0629 \u0627\u0644\u0639\u0631\u0627\u0642", "name": "\u0627\u0644\u0633\u0648\u064a\u0631", "name:ar": "\u0627\u0644\u0633\u0648\u064a\u0631", "name:ar1": "\u0646\u0627\u062d\u064a\u0629 \u0627\u0644\u0633\u0648\u064a\u0631", "name:de": "As Suwayr", "name:en": "Al-Sowair", "name:en1": "Nahya Al-Sowair", "name:fr": "As Suwayr", "place": "town"}}, {"type": "node", "id": 2487767099, "lat": 31.400674, "lon": 45.199047, "tags": {"alt_name": "\u0627\u0644\u0645\u062c\u062f", "capital": "7", "int_name": "Al Majd, Al Majd", "is_in": "Iraq , \u062c\u0645\u0647\u0648\u0631\u064a\u0629 \u0627\u0644\u0639\u0631\u0627\u0642", "name": "\u0627\u0644\u0645\u062c\u062f", "name:ar": "\u0627\u0644\u0645\u062c\u062f", "name:ar1": "\u0646\u0627\u062d\u064a\u0629 \u0627\u0644\u0645\u062c\u062f", "name:de": "Al Majd", "name:en": "Al-Majd", "name:en1": "Nahya Al-Majd", "name:fr": "Al Majd", "place": "town"}}, {"type": "node", "id": 2487767135, "lat": 31.470193, "lon": 45.290854, "tags": {"capital": "6", "int_name": "Al Warka - \u0627\u0644\u0648\u0631\u06a9\u0627\u0621", "is_in": "Iraq , \u062c\u0645\u0647\u0648\u0631\u064a\u0629 \u0627\u0644\u0639\u0631\u0627\u0642", "name": "\u0627\u0644\u0648\u0631\u0643\u0627\u0621", "name:ar": "\u0627\u0644\u0648\u0631\u0643\u0627\u0621", "name:de": "Al Warka", "name:en": "Al Warka", "name:fr": "Al Warka", "place": "town"}}, {"type": "node", "id": 4406704930, "lat": 31.438655, "lon": 45.4511986, "tags": {"alt_name": "\u0646\u0627\u062d\u064a\u0629 \u0627\u0644\u0643\u0631\u0627\u0645\u0629", "alt_name_1": "Nahyat Al-Karama", "capital": "7", "is_in": "Iraq - Al-Muthana", "name": "\u0627\u0644\u0643\u0631\u0627\u0645\u0629", "name:ar": "\u0627\u0644\u0643\u0631\u0627\u0645\u0629", "name:ar1": "\u0646\u0627\u062d\u064a\u0629 \u0627\u0644\u0643\u0631\u0627\u0645\u0629", "name:en": "Al-Karama", "name:en1": "Nahya Al-Karama", "place": "town"}}]}