{"version": 0.6, "generator": "Overpass API 0.7.62.4 2390de5a", "osm3s": {"timestamp_osm_base": "2025-01-08T07:03:25Z", "copyright": "The data included in this document is from www.openstreetmap.org. The data is made available under ODbL."}, "elements": [{"type": "node", "id": 27564946, "lat": 36.3641642, "lon": 6.6084281, "tags": {"alt_name": "Qacentina", "alt_name:ar": "\u0645\u062f\u064a\u0646\u0629 \u0627\u0644\u062c\u0633\u0648\u0631 \u0627\u0644\u0645\u0639\u0644\u0642\u0629;\u0639\u0627\u0635\u0645\u0629 \u0627\u0644\u0634\u0631\u0642", "alt_name:la": "Constantina", "capital": "4", "name": "Constantine \u2d47\u2d59\u2d3b\u2d5f\u2d49\u2d4f\u2d30 \u0642\u0633\u0646\u0637\u064a\u0646\u0629", "name:ar": "\u0642\u0633\u0646\u0637\u064a\u0646\u0629", "name:azb": "\u0642\u0633\u0646\u0637\u06cc\u0646\u0647", "name:ber": "\u2d47\u2d59\u2d3b\u2d5f\u2d49\u2d4f\u2d30", "name:de": "Constantine", "name:el": "\u039a\u03c9\u03bd\u03c3\u03c4\u03b1\u03bd\u03c4\u03af\u03bd\u03b7", "name:en": "Constantine", "name:es": "Constantina", "name:eu": "Konstantina", "name:fa": "\u0642\u0633\u0646\u0637\u06cc\u0646\u0647", "name:fr": "Constantine", "name:it": "Costantina", "name:ja": "\u30b3\u30f3\u30b9\u30bf\u30f3\u30c6\u30a3\u30fc\u30cc", "name:kab": "Qsem\u1e6dina", "name:la": "Cirta", "name:lt": "Konstantina", "name:ml": "\u0d15\u0d4b\u0d7a\u0d38\u0d4d\u0d31\u0d4d\u0d31\u0d28\u0d4d\u0d31\u0d48\u0d7b", "name:pl": "Konstantyna", "name:pnb": "\u0642\u0633\u0646\u0637\u06cc\u0646\u06c1", "name:ru": "\u041a\u043e\u043d\u0441\u0442\u0430\u043d\u0442\u0438\u043d\u0430", "name:sk": "Constantine", "name:tr": "Konstantin", "name:ur": "\u0642\u0633\u0646\u0637\u06cc\u0646\u06c1", "name:zh": "\u541b\u58eb\u5766\u4e01", "place": "city", "population": "448374", "population:date": "2008", "ref:ONS": "2501", "wikidata": "Q187346", "wikipedia": "fr:Constantine (Alg\u00e9rie)"}}, {"type": "node", "id": 394765107, "lat": 36.266467, "lon": 6.4969576, "tags": {"name": "A\u00efn Smara", "name:ar": "\u0639\u064a\u0646 \u0633\u0645\u0627\u0631\u0629", "name:ber": "\u2d44\u2d49\u2d4f \u2d59\u2d4e\u2d30\u2d54\u2d30", "name:el": "\u0391\u0390\u03bd \u03a3\u03bc\u03ac\u03c1\u03b1", "name:en": "Ain Smara", "name:fr": "A\u00efn Smara", "name:kab": "\u0190in Smara", "place": "town", "population": "36998", "wikidata": "Q2876376", "wikimedia_commons": "Category:A\u00efn Smara", "wikipedia": "fr:A\u00efn Smara"}}, {"type": "node", "id": 416631795, "lat": 36.0375444, "lon": 6.570986, "tags": {"name": "Ain M'lila", "name:ar": "\u0639\u064a\u0646 \u0645\u0644\u064a\u0644\u0629", "name:ber": "\u2d44\u2d49\u2d4f \u2d4e\u2d4d\u2d49\u2d4d\u2d30", "name:en": "Ain Mlila", "name:fr": "A\u00efn Mlila", "name:kab": "Tamlilt", "place": "town", "population": "88441", "wikidata": "Q722562", "wikimedia_commons": "Category:A\u00efn M'lila", "wikipedia": "fr:A\u00efn M'lila"}}, {"type": "node", "id": 416765559, "lat": 36.2495545, "lon": 6.2870618, "tags": {"name": "Oued Athmania", "name:ar": "\u0648\u0627\u062f\u064a \u0627\u0644\u0639\u062b\u0645\u0627\u0646\u064a\u0629", "name:ber": "\u2d61\u2d30\u2d37 \u2d4d\u2d44\u2d3b\u2d5c\u2d4e\u2d30\u2d4f\u2d49\u2d62\u2d30", "name:en": "Oued Athmania", "name:fr": "Oued Athmania", "name:kab": "Wad \u0190etmaniyya", "place": "town"}}, {"type": "node", "id": 447593737, "lat": 36.1605629, "lon": 6.1673286, "tags": {"name": "Chelghoum La\u00efd", "name:ar": "\u0634\u0644\u063a\u0648\u0645 \u0627\u0644\u0639\u064a\u062f", "name:ber": "\u2d5b\u2d3b\u2d4d\u2d33\u2d53\u2d4e \u2d4d\u2d30\u2d44\u2d49\u2d37", "name:en": "Chelghoum Laid", "name:fr": "Chelghoum La\u00efd", "name:kab": "Cel\u0263um L\u025bid", "place": "town", "population": "82560", "wikidata": "Q2215445", "wikimedia_commons": "Category:Chelghoum La\u00efd", "wikipedia": "fr:Chelghoum La\u00efd"}}, {"type": "node", "id": 461906172, "lat": 36.4296241, "lon": 6.1218697, "tags": {"name": "Oued Endja", "name:ar": "\u0648\u0627\u062f\u064a \u0627\u0644\u0646\u062c\u0627\u0621", "name:ber": "\u2d53\u2d30\u2d37\u2d49 \u2d4d\u2d4f\u2d30\u2d36\u2d30", "name:en": "Oued Endja", "name:fr": "Oued Endja", "name:kab": "Wad Nnja", "old_name": "Redjas", "old_name:ar": "\u0631\u062c\u0627\u0635", "place": "town", "population": "19739", "wikidata": "Q1649130", "wikimedia_commons": "Category:Oued Endja", "wikipedia": "fr:Oued Endja"}}, {"type": "node", "id": 461906185, "lat": 36.3829267, "lon": 6.4720589, "tags": {"name": "Ibn Ziad", "name:ar": "\u0627\u0628\u0646 \u0632\u064a\u0627\u062f", "name:ber": "\u2d49\u2d31\u2d3b\u2d4f \u2d63\u2d3b\u2d62\u2d62\u2d30\u2d37", "name:en": "Ibn Ziad", "name:fr": "Ibn Ziad", "name:kab": "Iben Zeyyad", "old_name": "Rouffach", "place": "town", "population": "18861", "wikidata": "Q3147465", "wikimedia_commons": "Category:Ibn Ziad (Constantine)", "wikipedia": "fr:Ibn Ziad"}}, {"type": "node", "id": 465434692, "lat": 36.1180204, "lon": 6.3581086, "tags": {"alt_name:kab": "Tala\u0263ma", "name": "Teleghma", "name:ar": "\u0627\u0644\u062a\u0644\u0627\u063a\u0645\u0629", "name:ber": "\u2d5c\u2d30\u2d4d\u2d30\u2d56\u2d4e\u2d30", "name:en": "Telerghma", "name:fr": "Teleghma", "name:kab": "Tla\u0263ma", "place": "town", "population": "48028", "population:date": "2008", "wikidata": "Q3517295", "wikipedia": "fr:Teleghma"}}, {"type": "node", "id": 1856515102, "lat": 36.253904, "lon": 6.5758657, "tags": {"name": "Ali Mendjeli", "name:ar": "\u0639\u0644\u064a \u0645\u0646\u062c\u0644\u064a", "name:el": "\u0391\u03bb\u03af \u039c\u03b5\u03bd\u03c4\u03b6\u03ad\u03bb\u03b9", "name:en": "Ali Mendjeli", "name:fr": "Ali Mendjeli", "name:kab": "\u0190li Men\u01e7eli", "place": "town", "population": "64120", "wikidata": "Q21619392", "wikimedia_commons": "Category:Ali Mendjeli", "wikipedia": "fr:Ali Mendjeli (ville)"}}]}