{"version": 0.6, "generator": "Overpass API 0.7.62.4 2390de5a", "osm3s": {"timestamp_osm_base": "2025-01-08T06:27:42Z", "copyright": "The data included in this document is from www.openstreetmap.org. The data is made available under ODbL."}, "elements": [{"type": "node", "id": 275547482, "lat": 31.6093998, "lon": 34.7711983, "tags": {"alt_name:ar": "\u0643\u0631\u064a\u0627\u062a \u063a\u0627\u062a", "alt_name:ml": "\u0d07\u0d31\u0d3e\u0d16\u0d4d \u0d05\u0d7d-\u0d2e\u0d7b\u0d37\u0d3f\u0d2f\u0d4d\u0d2f", "gns_ref": "-781091", "name": "\u05e7\u05e8\u05d9\u05d9\u05ea \u05d2\u05ea", "name:af": "Kirjat Gat", "name:ar": "\u0643\u0631\u064a\u0627\u062a \u062c\u0627\u062a", "name:az-Arab": "\u06a9\u0631\u06cc\u0627\u062a \u06af\u0627\u062a", "name:azb": "\u06a9\u0631\u06cc\u0627\u062a \u06af\u0627\u062a", "name:cs": "Kirjat Gat", "name:de": "Kirjat Gat", "name:en": "Kiryat Gat", "name:es": "Kiryat Gat", "name:eu": "Kiryat Gat", "name:fa": "\u06a9\u0631\u06cc\u0627\u062a \u06af\u062a", "name:fr": "Kiryat Gat", "name:he": "\u05e7\u05e8\u05d9\u05d9\u05ea \u05d2\u05ea", "name:hi": "\u0915\u093f\u0930\u094d\u092f\u093e\u0924 \u0917\u093e\u0924", "name:hr": "Kirjat Gat", "name:hy": "\u053f\u056b\u0580\u0575\u0561\u0569 \u0533\u0561\u0569", "name:ks": "\u06a9\u0631\u06cc\u0627\u062a \u062c\u0627\u062a", "name:lt": "Kirjat Gatas", "name:ml": "\u0d15\u0d3f\u0d7c\u0d2f\u0d3e\u0d24\u0d4d\u0d24\u0d4d \u0d17\u0d3e\u0d24\u0d4d\u0d24\u0d4d", "name:nl": "Kirjat Gat", "name:pt": "Qiryat Gat", "name:ru": "\u041a\u0438\u0440\u044c\u044f\u0442-\u0413\u0430\u0442", "name:sv": "Qiryat Gat", "name:uk": "\u041a\u0456\u0440'\u044f\u0442-\u0413\u0430\u0442", "name:ur": "\u0642\u0631\u06cc\u064e\u062a \u06af\u062a", "official_name:en": "Qiryat Gat", "place": "city", "population": "57105", "source": "GEOnet Names Server (gns)", "source:population": "https://www.cbs.gov.il/he/publications/doclib/2017/population_madaf/population_madaf_2019_1.xlsx", "wikidata": "Q152406", "wikipedia": "he:\u05e7\u05e8\u05d9\u05d9\u05ea \u05d2\u05ea", "wikipedia:ar": "\u0643\u0631\u064a\u0627\u062a \u062c\u0627\u062a", "wikipedia:he": "\u05e7\u05e8\u05d9\u05d9\u05ea \u05d2\u05ea"}}, {"type": "node", "id": 278474577, "lat": 31.526474, "lon": 34.5969696, "tags": {"gns_ref": "-781317", "name": "\u05e9\u05d3\u05e8\u05d5\u05ea", "name:ar": "\u0633\u062f\u064a\u0631\u0648\u062a", "name:be": "\u0421\u0434\u044d\u0440\u043e\u0442", "name:bg": "\u0421\u0435\u0434\u0435\u0440\u043e\u0442", "name:ca": "Sderot", "name:cs": "Sderot", "name:de": "Sderot", "name:en": "Sderot", "name:es": "Sederot", "name:eu": "Sderot", "name:fa": "\u0633\u062f\u0631\u0648\u062a", "name:fi": "Sderot", "name:fr": "Sd\u00e9rot", "name:he": "\u05e9\u05d3\u05e8\u05d5\u05ea", "name:hr": "Sderot", "name:ja": "\u30b9\u30c7\u30ed\u30c3\u30c8", "name:ka": "\u10e1\u10d3\u10d4\u10e0\u10dd\u10d7\u10d8", "name:ko": "\uc2a4\ub370\ub85c\ud2b8", "name:ml": "\u0d38\u0d4d\u0d26\u0d46\u0d31\u0d4b\u0d24\u0d4d\u0d24\u0d4d", "name:pt": "Sderot", "name:ru": "\u0421\u0434\u0435\u0440\u043e\u0442", "name:uk": "\u0421\u0434\u0435\u0440\u043e\u0442", "name:ur": "\u0633\u062f\u06cc\u0631\u0648\u062a", "name:zh": "\u65af\u5fb7\u6d1b\u7279", "place": "town", "population": "27635", "source": "GEOnet Names Server (gns)", "wikidata": "Q123196", "wikipedia": "he:\u05e9\u05d3\u05e8\u05d5\u05ea", "wikipedia:he": "\u05e9\u05d3\u05e8\u05d5\u05ea"}}, {"type": "node", "id": 278474639, "lat": 31.3125831, "lon": 34.6208537, "tags": {"gns_ref": "-780939", "name": "\u05d0\u05d5\u05e4\u05e7\u05d9\u05dd", "name:ar": "\u0623\u0648\u0641\u0627\u0643\u064a\u0645", "name:cs": "Ofakim", "name:de": "Ofakim", "name:en": "Ofakim", "name:en1": "Ofaqim", "name:es": "Ofakim", "name:fr": "Ofaqim", "name:he": "\u05d0\u05d5\u05e4\u05e7\u05d9\u05dd", "name:hr": "Ofakim", "name:ja": "\u30aa\u30d5\u30a1\u30ad\u30e0", "name:ml": "\u0d12\u0d2b\u0d3e\u0d15\u0d4d\u0d15\u0d40\u0d02", "name:ru": "\u041e\u0444\u0430\u043a\u0438\u043c", "name:ur": "\u0622\u0624\u0641\u0627\u0642\u06cc\u0645", "place": "town", "population": "30662", "source": "GEOnet Names Server (gns)", "source:population": "https://www.cbs.gov.il/he/publications/doclib/2017/population_madaf/population_madaf_2019_1.xlsx", "wikidata": "Q167632"}}, {"type": "node", "id": 278478336, "lat": 31.4213546, "lon": 34.5884252, "tags": {"gns_ref": "-780863", "name": "\u05e0\u05ea\u05d9\u05d1\u05d5\u05ea", "name:ar": "\u0646\u062a\u064a\u0641\u0648\u062a", "name:cs": "Netivot", "name:de": "Netiwot", "name:en": "Netivot", "name:es": "Netivot", "name:eu": "Netivot", "name:fr": "Netivot", "name:he": "\u05e0\u05ea\u05d9\u05d1\u05d5\u05ea", "name:hr": "Netivot", "name:ml": "\u0d28\u0d46\u0d24\u0d4d\u0d24\u0d3f\u0d35\u0d4b\u0d24\u0d4d\u0d24\u0d4d", "name:ru": "\u041d\u0435\u0442\u0438\u0432\u043e\u0442", "name:ur": "\u0646\u062a\u06cc\u0641\u0648\u062a", "place": "town", "source": "GEOnet Names Server (gns)", "wikidata": "Q167649", "wikipedia": "en:Netivot", "wikipedia:en": "Netivot"}}, {"type": "node", "id": 279010394, "lat": 31.5260933, "lon": 34.5824507}, {"type": "node", "id": 279010395, "lat": 31.5291145, "lon": 34.5802878}, {"type": "node", "id": 279621326, "lat": 31.6171546, "lon": 34.7503824}, {"type": "node", "id": 279621327, "lat": 31.6074903, "lon": 34.750687}, {"type": "node", "id": 279621328, "lat": 31.5980504, "lon": 34.7553018}, {"type": "node", "id": 279621329, "lat": 31.6000162, "lon": 34.7606215}, {"type": "node", "id": 279621330, "lat": 31.6016386, "lon": 34.7706436}, {"type": "node", "id": 279621336, "lat": 31.598105, "lon": 34.7764693}, {"type": "node", "id": 280115936, "lat": 31.3933637, "lon": 34.7546784, "tags": {"alt_name:ar": "\u0631\u0627\u0647\u0637", "alt_name:he": "\u05e8\u05b7\u05d4\u05b7\u05d8", "name": "\u0631\u0647\u0637", "name:ar": "\u0631\u0647\u0637", "name:cs": "Rahat", "name:de": "Rahat", "name:en": "Rahat", "name:es": "Rahat", "name:eu": "Rahat", "name:fa": "\u0631\u0647\u0637", "name:fr": "Rahat", "name:he": "\u05e8\u05d4\u05d8", "name:hr": "Rahat", "name:ml": "\u0d31\u0d39\u0d24\u0d4d\u0d24\u0d4d", "name:ru": "\u0420\u0430\u0445\u0430\u0442", "name:ur": "\u0631\u06c1\u0637", "place": "town", "wikidata": "Q167617", "wikipedia": "ar:\u0631\u0647\u0637 (\u0645\u062f\u064a\u0646\u0629)", "wikipedia:ar": "\u0631\u0647\u0637 (\u0645\u062f\u064a\u0646\u0629)"}}, {"type": "node", "id": 332512744, "lat": 31.5188126, "lon": 34.5917899}, {"type": "node", "id": 332791972, "lat": 31.5065977, "lon": 35.0263669, "tags": {"addr:city": "\u062f\u0648\u0631\u0627", "alt_name:ar": "\u062f\u0648\u0631\u0647\u200e", "name": "\u062f\u0648\u0631\u0627", "name:ar": "\u062f\u0648\u0631\u0627", "name:de": "Dura", "name:en": "Dura", "name:es": "Dura", "name:eu": "Dura", "name:fr": "Dura", "name:he": "\u05d3\u05d5\u05e8\u05d4", "name:ml": "\u0d26\u0d42\u0d31", "name:uk": "\u0414\u0443\u0440\u0430", "name:ur": "\u062f\u0648\u0631\u0627", "place": "city", "wikidata": "Q2435966", "wikipedia": "ar:\u062f\u0648\u0631\u0627", "wikipedia:ar": "\u062f\u0648\u0631\u0627", "wikipedia:he": "\u05d3\u05d5\u05e8\u05d0"}}, {"type": "node", "id": 332792048, "lat": 31.4077191, "lon": 34.9710159, "tags": {"addr:city": "\u0627\u0644\u0638\u0627\u0647\u0631\u064a\u0629", "alt_name:ar": "\u0627\u0644\u0638\u0627\u0647\u0631\u064a\u0647\u200e;\u0627\u0644\u0636\u0627\u0647\u0631\u064a\u0629", "alt_name:en": "az-Zahiriya", "name": "\u0627\u0644\u0638\u0627\u0647\u0631\u064a\u0629", "name:ar": "\u0627\u0644\u0638\u0627\u0647\u0631\u064a\u0629", "name:cs": "az-Z\u00e1hir\u00edja", "name:en": "ad-Dhahiriya", "name:es": "Ad-Dhahiriya", "name:eu": "Ad-Dhahiriya", "name:fi": "Ad-Dahirija", "name:fr": "Ad-Dhahiriya", "name:he": "\u05d3'\u05d4\u05e8\u05d9\u05d9\u05d4", "name:ml": "\u0d27\u0d3e\u0d39\u0d3f\u0d31\u0d3f\u0d2f", "name:uk": "\u0415\u0434-\u0414\u0430\u0445\u0456\u0440\u0456\u044f", "place": "city", "population": "28776", "wikidata": "Q600680", "wikipedia": "ar:\u0627\u0644\u0638\u0627\u0647\u0631\u064a\u0629 (\u0641\u0644\u0633\u0637\u064a\u0646)", "wikipedia:ar": "\u0627\u0644\u0638\u0627\u0647\u0631\u064a\u0629 (\u0641\u0644\u0633\u0637\u064a\u0646)", "wikipedia:he": "\u05d3\u05d0\u05d4\u05e8\u05d9\u05d9\u05d4"}}, {"type": "node", "id": 332951187, "lat": 31.5061233, "lon": 34.9515852, "tags": {"name": "\u0628\u064a\u062a \u0639\u0648\u0627", "name:ar": "\u0628\u064a\u062a \u0639\u0648\u0627", "name:en": "Beit Awwa", "name:es": "Beit Awwa", "name:eu": "Beit Awwa", "name:fi": "Beit Avva", "name:fr": "Beit Awwa", "name:he": "\u05d1\u05d9\u05ea \u05e2\u05d5\u05d5\u05d0", "place": "town", "population": "8604", "wikidata": "Q4881423"}}, {"type": "node", "id": 332951207, "lat": 31.5967865, "lon": 35.0284908, "tags": {"is_in:country_code": "PS", "is_in:state": "Hebron", "is_in:state_code": "HBN", "name": "\u0628\u064a\u062a \u0623\u0648\u0644\u0627", "name:ar": "\u0628\u064a\u062a \u0623\u0648\u0644\u0627", "name:cs": "Bajt Aul\u00e1", "name:en": "Beit Ula", "name:eu": "Beit Ula", "name:fr": "Beit Ula", "name:he": "\u05d1\u05d9\u05ea \u05d0\u05d5\u05dc\u05d0", "name:ml": "\u0d2c\u0d46\u0d2f\u0d4d\u0d24\u0d4d\u0d24\u0d4d \u0d0a\u0d32", "place": "town", "population": "10885", "wikidata": "Q4881463"}}, {"type": "node", "id": 332951238, "lat": 31.575325, "lon": 35.0089188, "tags": {"is_in:country_code": "PS", "is_in:state": "Hebron", "is_in:state_code": "HBN", "name": "\u062a\u0631\u0642\u0648\u0645\u064a\u0627\u200e", "name:ar": "\u062a\u0631\u0642\u0648\u0645\u064a\u0627\u200e", "name:en": "Tarqumiyah", "name:eu": "Tarqumiyah", "name:fr": "Tarqumia", "name:he": "\u05ea\u05e8\u05e7\u05d5\u05de\u05d9\u05d9\u05d4", "name:ml": "\u0d24\u0d7c\u0d16\u0d41\u0d2e\u0d3f\u0d2f", "place": "town", "population": "14357", "wikidata": "Q1998630", "wikipedia": "he:\u05ea\u05e8\u05e7\u05d5\u05de\u05d9\u05d0", "wikipedia:he": "\u05ea\u05e8\u05e7\u05d5\u05de\u05d9\u05d0"}}, {"type": "node", "id": 332951272, "lat": 31.557994, "lon": 34.9762809, "tags": {"is_in:country_code": "PS", "is_in:state": "Hebron", "is_in:state_code": "HBN", "name": "\u0625\u0630\u0646\u0627\u200e", "name:ar": "\u0625\u0630\u0646\u0627\u200e", "name:de": "Idhna", "name:en": "Idhna", "name:es": "Idhna", "name:eu": "Idhna", "name:fr": "Idnah", "name:he": "\u05d0\u05d9\u05d3\u05e0\u05d0", "name:ml": "\u0d07\u0d27\u0d4d\u0d28", "place": "town", "population": "19012", "wikidata": "Q2919205"}}, {"type": "node", "id": 644627927, "lat": 31.6121568, "lon": 34.7506481}, {"type": "node", "id": 645413572, "lat": 31.5925516, "lon": 34.7777503}, {"type": "node", "id": 697236244, "lat": 31.5351854, "lon": 34.5801114}, {"type": "node", "id": 705809962, "lat": 31.5322818, "lon": 34.5800593}, {"type": "node", "id": 769155074, "lat": 31.6634047, "lon": 34.5523144}, {"type": "node", "id": 769155075, "lat": 31.6609984, "lon": 34.5509078}, {"type": "node", "id": 769155076, "lat": 31.6586944, "lon": 34.5480947}, {"type": "node", "id": 769155077, "lat": 31.6550627, "lon": 34.5483394}, {"type": "node", "id": 769155082, "lat": 31.6456488, "lon": 34.5717307}, {"type": "node", "id": 769155084, "lat": 31.6454836, "lon": 34.5795867}, {"type": "node", "id": 769155085, "lat": 31.6450063, "lon": 34.5808867}, {"type": "node", "id": 769155086, "lat": 31.6485783, "lon": 34.5836801}, {"type": "node", "id": 769155087, "lat": 31.6492082, "lon": 34.5870495}, {"type": "node", "id": 769155088, "lat": 31.6539537, "lon": 34.5892607}, {"type": "node", "id": 769155089, "lat": 31.659698, "lon": 34.5899538}, {"type": "node", "id": 769155094, "lat": 31.6721139, "lon": 34.5982847}, {"type": "node", "id": 769155095, "lat": 31.6733986, "lon": 34.5982179}, {"type": "node", "id": 769155096, "lat": 31.6764943, "lon": 34.5977842}, {"type": "node", "id": 769155102, "lat": 31.697511, "lon": 34.5694216}, {"type": "node", "id": 769155103, "lat": 31.6909008, "lon": 34.5651383}, {"type": "node", "id": 769155104, "lat": 31.6847266, "lon": 34.5602902}, {"type": "node", "id": 769155105, "lat": 31.6839787, "lon": 34.5597661}, {"type": "node", "id": 769155109, "lat": 31.676414, "lon": 34.552618}, {"type": "node", "id": 769155110, "lat": 31.6671097, "lon": 34.5508309}, {"type": "node", "id": 1106529281, "lat": 31.4228743, "lon": 34.6020443}, {"type": "node", "id": 1107366652, "lat": 31.3179391, "lon": 34.6114156}, {"type": "node", "id": 1107366672, "lat": 31.3196215, "lon": 34.6130722}, {"type": "node", "id": 1146985230, "lat": 31.6456404, "lon": 34.570996}, {"type": "node", "id": 1147303827, "lat": 31.68876, "lon": 34.5636097}, {"type": "node", "id": 1298225545, "lat": 31.6098543, "lon": 34.784045}, {"type": "node", "id": 1345156127, "lat": 31.6192839, "lon": 34.7549593}, {"type": "node", "id": 1347266916, "lat": 31.6641955, "lon": 34.5903593}, {"type": "node", "id": 1347266926, "lat": 31.6686247, "lon": 34.5483355}, {"type": "node", "id": 1347266951, "lat": 31.6710982, "lon": 34.598155}, {"type": "node", "id": 1348538319, "lat": 31.3105006, "lon": 34.6300984}, {"type": "node", "id": 1348538729, "lat": 31.3092432, "lon": 34.6286588}, {"type": "node", "id": 1348547987, "lat": 31.3092724, "lon": 34.6300916}, {"type": "node", "id": 1348570220, "lat": 31.3105334, "lon": 34.6319305}, {"type": "node", "id": 1375106428, "lat": 31.6481354, "lon": 34.5853093}, {"type": "node", "id": 1375106751, "lat": 31.648951, "lon": 34.585938}, {"type": "node", "id": 1375106881, "lat": 31.6518731, "lon": 34.5883543}, {"type": "node", "id": 1375107158, "lat": 31.6582661, "lon": 34.5892178}, {"type": "node", "id": 1376691839, "lat": 31.6563024, "lon": 34.5478246}, {"type": "node", "id": 1376691861, "lat": 31.6714515, "lon": 34.5503181}, {"type": "node", "id": 1376691971, "lat": 31.6743033, "lon": 34.5527025}, {"type": "node", "id": 1376691980, "lat": 31.674787, "lon": 34.5527811}, {"type": "node", "id": 1376691990, "lat": 31.6726569, "lon": 34.5512707}, {"type": "node", "id": 1404483019, "lat": 31.6836304, "lon": 34.5588888}, {"type": "node", "id": 1404483074, "lat": 31.6834021, "lon": 34.5580578}, {"type": "node", "id": 1404483186, "lat": 31.6837105, "lon": 34.5592589}, {"type": "node", "id": 1425252376, "lat": 31.5847257, "lon": 34.7874299}, {"type": "node", "id": 1426112293, "lat": 31.6217309, "lon": 34.7574822}, {"type": "node", "id": 1426112297, "lat": 31.6189456, "lon": 34.7509247}, {"type": "node", "id": 1450693126, "lat": 31.6642695, "lon": 34.5521234}, {"type": "node", "id": 1450693127, "lat": 31.6669676, "lon": 34.5514754}, {"type": "node", "id": 1450693130, "lat": 31.6662761, "lon": 34.5515701}, {"type": "node", "id": 1450693131, "lat": 31.6645809, "lon": 34.5516554}, {"type": "node", "id": 1450693132, "lat": 31.6657513, "lon": 34.5514714}, {"type": "node", "id": 1613105078, "lat": 31.6582668, "lon": 34.6008037}, {"type": "node", "id": 1686295198, "lat": 31.5885469, "lon": 34.780115}, {"type": "node", "id": 1848119178, "lat": 31.5909445, "lon": 34.7951483}, {"type": "node", "id": 1870078028, "lat": 31.5194099, "lon": 34.5944183}, {"type": "node", "id": 2070592062, "lat": 31.6203861, "lon": 34.7559357}, {"type": "node", "id": 2070592067, "lat": 31.61997, "lon": 34.7550033}, {"type": "node", "id": 2070592108, "lat": 31.6231201, "lon": 34.7593067}, {"type": "node", "id": 2070592109, "lat": 31.6197685, "lon": 34.7547893}, {"type": "node", "id": 2070592117, "lat": 31.6208004, "lon": 34.7560864}, {"type": "node", "id": 2070592138, "lat": 31.620001, "lon": 34.7548274}, {"type": "node", "id": 2070592144, "lat": 31.6206524, "lon": 34.7559834}, {"type": "node", "id": 2070592157, "lat": 31.6209626, "lon": 34.7563504}, {"type": "node", "id": 2070592165, "lat": 31.6210361, "lon": 34.7568138}, {"type": "node", "id": 2070592183, "lat": 31.6202271, "lon": 34.7546589}, {"type": "node", "id": 2070592184, "lat": 31.6203208, "lon": 34.7550071}, {"type": "node", "id": 2190159086, "lat": 31.5941938, "lon": 34.7769017}, {"type": "node", "id": 2190159089, "lat": 31.5905254, "lon": 34.7795636}, {"type": "node", "id": 2190159090, "lat": 31.6039118, "lon": 34.7910675}, {"type": "node", "id": 2190159091, "lat": 31.5830201, "lon": 34.7789715}, {"type": "node", "id": 2190159095, "lat": 31.5898464, "lon": 34.7799262}, {"type": "node", "id": 2190159110, "lat": 31.6012904, "lon": 34.7934774}, {"type": "node", "id": 2190159142, "lat": 31.600024, "lon": 34.7737646}, {"type": "node", "id": 2190159143, "lat": 31.596122, "lon": 34.7760777}, {"type": "node", "id": 2190159150, "lat": 31.584922, "lon": 34.7901764}, {"type": "node", "id": 2190159152, "lat": 31.585912, "lon": 34.7835597}, {"type": "node", "id": 2190159167, "lat": 31.5843793, "lon": 34.7803939}, {"type": "node", "id": 2190159170, "lat": 31.6087136, "lon": 34.7857857}, {"type": "node", "id": 2190159173, "lat": 31.6019184, "lon": 34.7714211}, {"type": "node", "id": 2190159176, "lat": 31.5863378, "lon": 34.7935675}, {"type": "node", "id": 2190159193, "lat": 31.5969189, "lon": 34.7760144}, {"type": "node", "id": 2190159197, "lat": 31.6019387, "lon": 34.7935443}, {"type": "node", "id": 2190159212, "lat": 31.5844191, "lon": 34.7795491}, {"type": "node", "id": 2190159216, "lat": 31.5839497, "lon": 34.7790603}, {"type": "node", "id": 2293931864, "lat": 31.5159397, "lon": 34.5893318}, {"type": "node", "id": 2373624004, "lat": 31.5183415, "lon": 34.5907128}, {"type": "node", "id": 2461167317, "lat": 31.608225, "lon": 34.7867427}, {"type": "node", "id": 2519536343, "lat": 31.6026041, "lon": 34.7937743}, {"type": "node", "id": 2519536347, "lat": 31.5835318, "lon": 34.7864591}, {"type": "node", "id": 2519536361, "lat": 31.5842636, "lon": 34.7836286}, {"type": "node", "id": 2519536363, "lat": 31.5807994, "lon": 34.7835763}, {"type": "node", "id": 2519536371, "lat": 31.5848856, "lon": 34.7847296}, {"type": "node", "id": 2519536395, "lat": 31.5856418, "lon": 34.7833061}, {"type": "node", "id": 2519536399, "lat": 31.584724, "lon": 34.783522}, {"type": "node", "id": 2519536401, "lat": 31.6048954, "lon": 34.7883818}, {"type": "node", "id": 2582509686, "lat": 31.4289991, "lon": 34.5985407}, {"type": "node", "id": 2582509776, "lat": 31.4277888, "lon": 34.599874}, {"type": "node", "id": 2582509838, "lat": 31.4287706, "lon": 34.5991847}, {"type": "node", "id": 2582509929, "lat": 31.4290659, "lon": 34.5987633}, {"type": "node", "id": 2582509933, "lat": 31.4288544, "lon": 34.5988947}, {"type": "node", "id": 3109214055, "lat": 31.4257861, "lon": 34.6008298}, {"type": "node", "id": 3387973118, "lat": 31.5319949, "lon": 34.5797854}, {"type": "node", "id": 3555458847, "lat": 31.6031423, "lon": 34.752455}, {"type": "node", "id": 3581106915, "lat": 31.6157396, "lon": 34.7503607}, {"type": "node", "id": 3581106916, "lat": 31.6186853, "lon": 34.7503567}, {"type": "node", "id": 3626296266, "lat": 31.6053366, "lon": 34.7513356}, {"type": "node", "id": 3710526395, "lat": 31.6130214, "lon": 34.7504043}, {"type": "node", "id": 3828078460, "lat": 31.6451451, "lon": 34.5741893}, {"type": "node", "id": 3909082491, "lat": 31.6699358, "lon": 34.5978474}, {"type": "node", "id": 3914641408, "lat": 31.3183426, "lon": 34.6114116}, {"type": "node", "id": 3914641409, "lat": 31.3191993, "lon": 34.6117278}, {"type": "node", "id": 4258410301, "lat": 31.6286144, "lon": 35.0758126}, {"type": "node", "id": 4258410302, "lat": 31.6283969, "lon": 35.077828}, {"type": "node", "id": 4258410303, "lat": 31.6275459, "lon": 35.0761751}, {"type": "node", "id": 4258410304, "lat": 31.6278844, "lon": 35.0829131}, {"type": "node", "id": 4258410306, "lat": 31.624488, "lon": 35.0742276}, {"type": "node", "id": 4258410309, "lat": 31.6257794, "lon": 35.0697234}, {"type": "node", "id": 4258410313, "lat": 31.6337278, "lon": 35.0842023}, {"type": "node", "id": 4258410314, "lat": 31.626452, "lon": 35.0640299}, {"type": "node", "id": 4258410316, "lat": 31.6200999, "lon": 35.0545548}, {"type": "node", "id": 4258410317, "lat": 31.6246228, "lon": 35.0430302}, {"type": "node", "id": 4258410318, "lat": 31.6351667, "lon": 35.0866752}, {"type": "node", "id": 4258410321, "lat": 31.6362768, "lon": 35.0875288}, {"type": "node", "id": 4258410326, "lat": 31.6277509, "lon": 35.040461}, {"type": "node", "id": 4258410328, "lat": 31.6382281, "lon": 35.0871589}, {"type": "node", "id": 4258410330, "lat": 31.6377854, "lon": 35.0876166}, {"type": "node", "id": 4258410354, "lat": 31.6396241, "lon": 35.0891313}, {"type": "node", "id": 4258410356, "lat": 31.6306511, "lon": 35.0316812}, {"type": "node", "id": 4258410357, "lat": 31.6437938, "lon": 35.0920625}, {"type": "node", "id": 4258410358, "lat": 31.6535836, "lon": 35.0159395}, {"type": "node", "id": 4258410360, "lat": 31.6609527, "lon": 35.0331415}, {"type": "node", "id": 4258410361, "lat": 31.6450403, "lon": 35.089998}, {"type": "node", "id": 4258410362, "lat": 31.6610579, "lon": 35.0486171}, {"type": "node", "id": 4258410364, "lat": 31.6460838, "lon": 35.0905704}, {"type": "node", "id": 4258410365, "lat": 31.6471708, "lon": 35.090418}, {"type": "node", "id": 4258410367, "lat": 31.6614076, "lon": 35.0504451}, {"type": "node", "id": 4258410368, "lat": 31.660863, "lon": 35.0453291}, {"type": "node", "id": 4258410370, "lat": 31.6476476, "lon": 35.0892657}, {"type": "node", "id": 4258410372, "lat": 31.6480555, "lon": 35.088984}, {"type": "node", "id": 4258410374, "lat": 31.6494269, "lon": 35.0903922}, {"type": "node", "id": 4258410375, "lat": 31.6585541, "lon": 35.0851903}, {"type": "node", "id": 4258410376, "lat": 31.6649373, "lon": 35.0536318}, {"type": "node", "id": 4258410378, "lat": 31.670676, "lon": 35.0647467}, {"type": "node", "id": 4258410379, "lat": 31.6595428, "lon": 35.0808874}, {"type": "node", "id": 4258410380, "lat": 31.6675253, "lon": 35.0759371}, {"type": "node", "id": 4258410382, "lat": 31.6641589, "lon": 35.0778786}, {"type": "node", "id": 4258410384, "lat": 31.660803, "lon": 35.0796688}, {"type": "node", "id": 4258410389, "lat": 31.661065, "lon": 35.0771813}, {"type": "node", "id": 4334224608, "lat": 31.5162147, "lon": 34.5897522}, {"type": "node", "id": 4334224611, "lat": 31.5149908, "lon": 34.5866056}, {"type": "node", "id": 4334224612, "lat": 31.5197942, "lon": 34.5867635}, {"type": "node", "id": 4334224613, "lat": 31.5170264, "lon": 34.5869534}, {"type": "node", "id": 4334224615, "lat": 31.5158091, "lon": 34.5866296}, {"type": "node", "id": 4334224616, "lat": 31.5149543, "lon": 34.5882749}, {"type": "node", "id": 4335416705, "lat": 31.5168182, "lon": 34.5864739}, {"type": "node", "id": 4335419934, "lat": 31.5227535, "lon": 34.5848352}, {"type": "node", "id": 4338028046, "lat": 31.5155661, "lon": 34.5887606}, {"type": "node", "id": 4341223057, "lat": 31.5277198, "lon": 34.5813161}, {"type": "node", "id": 4341223074, "lat": 31.5172962, "lon": 34.587411}, {"type": "node", "id": 4341223075, "lat": 31.5180315, "lon": 34.5872174}, {"type": "node", "id": 4342616883, "lat": 31.5346676, "lon": 34.5800946}, {"type": "node", "id": 4342619297, "lat": 31.539848, "lon": 34.580935}, {"type": "node", "id": 4366054689, "lat": 31.6126881, "lon": 34.7811052}, {"type": "node", "id": 4367811192, "lat": 31.5229037, "lon": 34.5847648}, {"type": "node", "id": 4367811200, "lat": 31.530205, "lon": 34.5799242}, {"type": "node", "id": 4368195214, "lat": 31.5189409, "lon": 34.5926945}, {"type": "node", "id": 4368195215, "lat": 31.5191581, "lon": 34.5924957}, {"type": "node", "id": 4368195216, "lat": 31.5193689, "lon": 34.5935693}, {"type": "node", "id": 4369423289, "lat": 31.5320738, "lon": 34.5800069}, {"type": "node", "id": 4373207547, "lat": 31.5224328, "lon": 34.5859097}, {"type": "node", "id": 4401553175, "lat": 31.4279263, "lon": 34.5912864}, {"type": "node", "id": 4401553431, "lat": 31.4279491, "lon": 34.5914339}, {"type": "node", "id": 4401559329, "lat": 31.4391752, "lon": 34.5687349}, {"type": "node", "id": 4401559342, "lat": 31.4338494, "lon": 34.5824628}, {"type": "node", "id": 4401559343, "lat": 31.4340321, "lon": 34.5816407}, {"type": "node", "id": 4401559375, "lat": 31.4341281, "lon": 34.5808933}, {"type": "node", "id": 4401562145, "lat": 31.4341062, "lon": 34.5792025}, {"type": "node", "id": 4401562151, "lat": 31.4344726, "lon": 34.5773167}, {"type": "node", "id": 4401562155, "lat": 31.4374334, "lon": 34.5759444}, {"type": "node", "id": 4401562156, "lat": 31.4377893, "lon": 34.5728369}, {"type": "node", "id": 4401562165, "lat": 31.4374875, "lon": 34.5748799}, {"type": "node", "id": 4401562166, "lat": 31.4341483, "lon": 34.5796699}, {"type": "node", "id": 4401562169, "lat": 31.4373624, "lon": 34.5765166}, {"type": "node", "id": 4401562178, "lat": 31.4346607, "lon": 34.5774747}, {"type": "node", "id": 4401562181, "lat": 31.4338615, "lon": 34.5777996}, {"type": "node", "id": 4401562182, "lat": 31.4341476, "lon": 34.5802863}, {"type": "node", "id": 4401562185, "lat": 31.4373114, "lon": 34.5748866}, {"type": "node", "id": 4401562392, "lat": 31.4377817, "lon": 34.5707579}, {"type": "node", "id": 4401562419, "lat": 31.435145, "lon": 34.5880266}, {"type": "node", "id": 4403335215, "lat": 31.2948938, "lon": 34.6334079}, {"type": "node", "id": 4560485189, "lat": 31.6100815, "lon": 34.7507013}, {"type": "node", "id": 4660011929, "lat": 31.648925, "lon": 34.5865561}, {"type": "node", "id": 4660011930, "lat": 31.6490279, "lon": 34.5860946}, {"type": "node", "id": 4660011934, "lat": 31.6483291, "lon": 34.583897}, {"type": "node", "id": 4660011935, "lat": 31.6489265, "lon": 34.581392}, {"type": "node", "id": 4687365469, "lat": 31.613674, "lon": 34.7811066}, {"type": "node", "id": 4687365470, "lat": 31.6130751, "lon": 34.7811838}, {"type": "node", "id": 4742928004, "lat": 31.539618, "lon": 34.5827366}, {"type": "node", "id": 4849631817, "lat": 31.5178049, "lon": 34.5895874}, {"type": "node", "id": 5108809745, "lat": 31.5154796, "lon": 34.5886188}, {"type": "node", "id": 5108809746, "lat": 31.5170487, "lon": 34.5900344}, {"type": "node", "id": 5133823046, "lat": 31.6018262, "lon": 34.7719824}, {"type": "node", "id": 5221069526, "lat": 31.6746359, "lon": 34.5981048}, {"type": "node", "id": 5221069527, "lat": 31.6769212, "lon": 34.597563}, {"type": "node", "id": 5221069528, "lat": 31.6773362, "lon": 34.5972524}, {"type": "node", "id": 5221069529, "lat": 31.6780146, "lon": 34.5966508}, {"type": "node", "id": 5221069530, "lat": 31.6785269, "lon": 34.5962411}, {"type": "node", "id": 5221069531, "lat": 31.6786454, "lon": 34.5962612}, {"type": "node", "id": 5261127144, "lat": 31.5355148, "lon": 34.5831379}, {"type": "node", "id": 5261127145, "lat": 31.5357585, "lon": 34.5832073}, {"type": "node", "id": 5261127146, "lat": 31.5359997, "lon": 34.5832607}, {"type": "node", "id": 5261127147, "lat": 31.5362653, "lon": 34.5832519}, {"type": "node", "id": 5261127148, "lat": 31.5399699, "lon": 34.5811367}, {"type": "node", "id": 5261127149, "lat": 31.5400407, "lon": 34.5813411}, {"type": "node", "id": 5261127150, "lat": 31.5400537, "lon": 34.581532}, {"type": "node", "id": 5261127151, "lat": 31.5400265, "lon": 34.581778}, {"type": "node", "id": 5261127152, "lat": 31.5399701, "lon": 34.5819405}, {"type": "node", "id": 5261127153, "lat": 31.5394518, "lon": 34.5825432}, {"type": "node", "id": 5261127154, "lat": 31.536753, "lon": 34.5831207}, {"type": "node", "id": 5261127155, "lat": 31.5371052, "lon": 34.5829839}, {"type": "node", "id": 5261127156, "lat": 31.5372095, "lon": 34.5829941}, {"type": "node", "id": 5261127157, "lat": 31.5373332, "lon": 34.5830349}, {"type": "node", "id": 5261127158, "lat": 31.5377851, "lon": 34.5833463}, {"type": "node", "id": 5261127160, "lat": 31.5380279, "lon": 34.5834426}, {"type": "node", "id": 5261127161, "lat": 31.5385368, "lon": 34.5834849}, {"type": "node", "id": 5261127162, "lat": 31.5389994, "lon": 34.583327}, {"type": "node", "id": 5297180971, "lat": 31.6491184, "lon": 34.586893}, {"type": "node", "id": 5387173974, "lat": 31.7044839, "lon": 34.580936}, {"type": "node", "id": 5387173975, "lat": 31.705559, "lon": 34.5773366}, {"type": "node", "id": 5387173976, "lat": 31.7047084, "lon": 34.5806345}, {"type": "node", "id": 5387173978, "lat": 31.6998682, "lon": 34.5879169}, {"type": "node", "id": 5387173979, "lat": 31.7004016, "lon": 34.587455}, {"type": "node", "id": 5387173981, "lat": 31.7052266, "lon": 34.5797236}, {"type": "node", "id": 5387173983, "lat": 31.7049012, "lon": 34.5803488}, {"type": "node", "id": 5387173987, "lat": 31.7020546, "lon": 34.5830998}, {"type": "node", "id": 5387173988, "lat": 31.7019247, "lon": 34.583233}, {"type": "node", "id": 5387173989, "lat": 31.7015131, "lon": 34.5838402}, {"type": "node", "id": 5387173993, "lat": 31.7017092, "lon": 34.5835027}, {"type": "node", "id": 5387173995, "lat": 31.701041, "lon": 34.5860717}, {"type": "node", "id": 5387173996, "lat": 31.7009131, "lon": 34.5865563}, {"type": "node", "id": 5387174002, "lat": 31.7007725, "lon": 34.5868931}, {"type": "node", "id": 5387174005, "lat": 31.7014569, "lon": 34.5839619}, {"type": "node", "id": 5387174006, "lat": 31.6996886, "lon": 34.5880227}, {"type": "node", "id": 5387174007, "lat": 31.6995274, "lon": 34.5881073}, {"type": "node", "id": 5387174008, "lat": 31.7018139, "lon": 34.5833625}, {"type": "node", "id": 5387174018, "lat": 31.6986865, "lon": 34.5885527}, {"type": "node", "id": 5387174623, "lat": 31.7016063, "lon": 34.5836637}, {"type": "node", "id": 5387174626, "lat": 31.7047239, "lon": 34.5751221}, {"type": "node", "id": 5387174628, "lat": 31.7042783, "lon": 34.5746695}, {"type": "node", "id": 5387174631, "lat": 31.7055646, "lon": 34.578414}, {"type": "node", "id": 5387174633, "lat": 31.7002565, "lon": 34.5876065}, {"type": "node", "id": 5387174637, "lat": 31.7053361, "lon": 34.5794424}, {"type": "node", "id": 5387174640, "lat": 31.7045216, "lon": 34.57489}, {"type": "node", "id": 5387174652, "lat": 31.7052846, "lon": 34.576218}, {"type": "node", "id": 5387174653, "lat": 31.7055249, "lon": 34.5786776}, {"type": "node", "id": 5387174655, "lat": 31.7041247, "lon": 34.5745017}, {"type": "node", "id": 5387174659, "lat": 31.7008522, "lon": 34.5867197}, {"type": "node", "id": 5387174661, "lat": 31.7005414, "lon": 34.5872752}, {"type": "node", "id": 5387174669, "lat": 31.7031818, "lon": 34.5821075}, {"type": "node", "id": 5387174670, "lat": 31.7012678, "lon": 34.5846174}, {"type": "node", "id": 5387174676, "lat": 31.7009648, "lon": 34.58639}, {"type": "node", "id": 5387174678, "lat": 31.7035246, "lon": 34.573487}, {"type": "node", "id": 5387174679, "lat": 31.701012, "lon": 34.5862216}, {"type": "node", "id": 5387174680, "lat": 31.7038982, "lon": 34.5742607}, {"type": "node", "id": 5387174682, "lat": 31.7001343, "lon": 34.5877232}, {"type": "node", "id": 5387174692, "lat": 31.7024964, "lon": 34.5827092}, {"type": "node", "id": 5387174694, "lat": 31.7013043, "lon": 34.5844282}, {"type": "node", "id": 5387174696, "lat": 31.7014057, "lon": 34.5840885}, {"type": "node", "id": 5387174699, "lat": 31.7013559, "lon": 34.5842386}, {"type": "node", "id": 5387174700, "lat": 31.7055897, "lon": 34.5777477}, {"type": "node", "id": 5387174701, "lat": 31.7054135, "lon": 34.5766159}, {"type": "node", "id": 5387174702, "lat": 31.7000265, "lon": 34.5878069}, {"type": "node", "id": 5387174704, "lat": 31.7055019, "lon": 34.5769762}, {"type": "node", "id": 5387174707, "lat": 31.7054102, "lon": 34.5791965}, {"type": "node", "id": 5387174709, "lat": 31.7051532, "lon": 34.57591}, {"type": "node", "id": 5387174710, "lat": 31.7006833, "lon": 34.5870512}, {"type": "node", "id": 5387174711, "lat": 31.7049895, "lon": 34.5756011}, {"type": "node", "id": 5387174712, "lat": 31.7055854, "lon": 34.5781444}, {"type": "node", "id": 5387174716, "lat": 31.7054705, "lon": 34.5789522}, {"type": "node", "id": 5387174821, "lat": 31.6983222, "lon": 34.5887697}, {"type": "node", "id": 5387174824, "lat": 31.7010698, "lon": 34.5858844}, {"type": "node", "id": 5387174826, "lat": 31.703987, "lon": 34.5740494}, {"type": "node", "id": 5387174829, "lat": 31.7050626, "lon": 34.580078}, {"type": "node", "id": 5387174839, "lat": 31.7043831, "lon": 34.5747638}, {"type": "node", "id": 5431259031, "lat": 31.6565458, "lon": 34.5893028}, {"type": "node", "id": 5431259471, "lat": 31.6600883, "lon": 34.589989}, {"type": "node", "id": 5431259472, "lat": 31.6549465, "lon": 34.5892508}, {"type": "node", "id": 5456762295, "lat": 31.6950062, "lon": 34.5906936}, {"type": "node", "id": 5456762296, "lat": 31.6961265, "lon": 34.5899297}, {"type": "node", "id": 5456762297, "lat": 31.6980977, "lon": 34.5888769}, {"type": "node", "id": 5456762298, "lat": 31.6957917, "lon": 34.590154}, {"type": "node", "id": 5456762299, "lat": 31.6944712, "lon": 34.5911735}, {"type": "node", "id": 5456762319, "lat": 31.6947182, "lon": 34.5909361}, {"type": "node", "id": 5456762320, "lat": 31.6953969, "lon": 34.5903913}, {"type": "node", "id": 5512310703, "lat": 31.4293134, "lon": 34.59509}, {"type": "node", "id": 5512310707, "lat": 31.4287079, "lon": 34.5936505}, {"type": "node", "id": 5512310710, "lat": 31.428025, "lon": 34.5918282}, {"type": "node", "id": 5512310717, "lat": 31.429368, "lon": 34.5935807}, {"type": "node", "id": 5512310718, "lat": 31.429395, "lon": 34.5943342}, {"type": "node", "id": 5512310719, "lat": 31.4300184, "lon": 34.5971746}, {"type": "node", "id": 5512311425, "lat": 31.4290985, "lon": 34.5944063}, {"type": "node", "id": 5522056268, "lat": 31.5353065, "lon": 34.5838256}, {"type": "node", "id": 5522056271, "lat": 31.537145, "lon": 34.5849534}, {"type": "node", "id": 5522056272, "lat": 31.5397332, "lon": 34.593083}, {"type": "node", "id": 5522056280, "lat": 31.5375228, "lon": 34.58531}, {"type": "node", "id": 5522056294, "lat": 31.5368377, "lon": 34.5846902}, {"type": "node", "id": 5522056297, "lat": 31.5396232, "lon": 34.5923826}, {"type": "node", "id": 5522056301, "lat": 31.5392254, "lon": 34.590189}, {"type": "node", "id": 5522056307, "lat": 31.5365515, "lon": 34.5845062}, {"type": "node", "id": 5522056314, "lat": 31.5377304, "lon": 34.5855493}, {"type": "node", "id": 5522058429, "lat": 31.536029, "lon": 34.5842334}, {"type": "node", "id": 5522058440, "lat": 31.5395262, "lon": 34.5916746}, {"type": "node", "id": 5522058461, "lat": 31.5379523, "lon": 34.5858549}, {"type": "node", "id": 5524724994, "lat": 31.6834867, "lon": 34.5582026}, {"type": "node", "id": 5524724995, "lat": 31.679168, "lon": 34.5549682}, {"type": "node", "id": 5524724996, "lat": 31.6766676, "lon": 34.5527701}, {"type": "node", "id": 5524724997, "lat": 31.6796275, "lon": 34.5550382}, {"type": "node", "id": 5524724998, "lat": 31.6769747, "lon": 34.5529385}, {"type": "node", "id": 5524724999, "lat": 31.6750164, "lon": 34.5527148}, {"type": "node", "id": 5524725000, "lat": 31.6758249, "lon": 34.552562}, {"type": "node", "id": 5524725001, "lat": 31.6794472, "lon": 34.5550143}, {"type": "node", "id": 5524725002, "lat": 31.6787537, "lon": 34.5548012}, {"type": "node", "id": 5524725003, "lat": 31.6744998, "lon": 34.5528028}, {"type": "node", "id": 5524725004, "lat": 31.6835632, "lon": 34.5584116}, {"type": "node", "id": 5524725005, "lat": 31.6789441, "lon": 34.5548939}, {"type": "node", "id": 5524725006, "lat": 31.6752752, "lon": 34.5526338}, {"type": "node", "id": 5692240630, "lat": 31.6145164, "lon": 34.7809623}, {"type": "node", "id": 5771718308, "lat": 31.6253139, "lon": 34.7607692}, {"type": "node", "id": 5771718309, "lat": 31.6242478, "lon": 34.7773843}, {"type": "node", "id": 5771718312, "lat": 31.6367955, "lon": 34.7701933}, {"type": "node", "id": 5771718313, "lat": 31.6273348, "lon": 34.7621864}, {"type": "node", "id": 5771718314, "lat": 31.6250017, "lon": 34.7607713}, {"type": "node", "id": 5771718326, "lat": 31.6240194, "lon": 34.7774113}, {"type": "node", "id": 5771718329, "lat": 31.6254055, "lon": 34.7772955}, {"type": "node", "id": 5771718335, "lat": 31.6194481, "lon": 34.7787376}, {"type": "node", "id": 5771718342, "lat": 31.6272136, "lon": 34.7772431}, {"type": "node", "id": 5771718344, "lat": 31.6251335, "lon": 34.7607252}, {"type": "node", "id": 5771718345, "lat": 31.6256164, "lon": 34.760949}, {"type": "node", "id": 5771718346, "lat": 31.6353137, "lon": 34.7765952}, {"type": "node", "id": 5771718351, "lat": 31.6234066, "lon": 34.7775923}, {"type": "node", "id": 5771718352, "lat": 31.6224096, "lon": 34.77786}, {"type": "node", "id": 5771719056, "lat": 31.6385167, "lon": 34.770189}, {"type": "node", "id": 5771719059, "lat": 31.6230123, "lon": 34.7777048}, {"type": "node", "id": 5771719060, "lat": 31.622272, "lon": 34.7778865}, {"type": "node", "id": 5771719062, "lat": 31.6236392, "lon": 34.7775056}, {"type": "node", "id": 5771719066, "lat": 31.6201649, "lon": 34.7784538}, {"type": "node", "id": 5771719067, "lat": 31.6225291, "lon": 34.7778305}, {"type": "node", "id": 5771719076, "lat": 31.6381102, "lon": 34.7766258}, {"type": "node", "id": 5771719077, "lat": 31.625795, "lon": 34.7772778}, {"type": "node", "id": 5771719080, "lat": 31.6267043, "lon": 34.777252}, {"type": "node", "id": 5771719091, "lat": 31.6233118, "lon": 34.7776236}, {"type": "node", "id": 5771719094, "lat": 31.6308431, "lon": 34.7681382}, {"type": "node", "id": 5771719095, "lat": 31.6261863, "lon": 34.7772644}, {"type": "node", "id": 5771719096, "lat": 31.6249923, "lon": 34.7773205}, {"type": "node", "id": 5771719102, "lat": 31.6351536, "lon": 34.7771578}, {"type": "node", "id": 5771719108, "lat": 31.6269753, "lon": 34.7772468}, {"type": "node", "id": 5771719110, "lat": 31.6285307, "lon": 34.7772235}, {"type": "node", "id": 5771719113, "lat": 31.6250178, "lon": 34.7773186}, {"type": "node", "id": 5771719115, "lat": 31.6232139, "lon": 34.7776523}, {"type": "node", "id": 5771719122, "lat": 31.6238591, "lon": 34.777433}, {"type": "node", "id": 5771719123, "lat": 31.623758, "lon": 34.7774627}, {"type": "node", "id": 5771719124, "lat": 31.6238101, "lon": 34.7774463}, {"type": "node", "id": 5771719125, "lat": 31.6237013, "lon": 34.7774825}, {"type": "node", "id": 5771719126, "lat": 31.6352618, "lon": 34.7768329}, {"type": "node", "id": 5771719127, "lat": 31.6239025, "lon": 34.7774251}, {"type": "node", "id": 5771719128, "lat": 31.6244832, "lon": 34.777362}, {"type": "node", "id": 5771719129, "lat": 31.6260855, "lon": 34.7772679}, {"type": "node", "id": 5771719130, "lat": 31.6238875, "lon": 34.7774267}, {"type": "node", "id": 5771719132, "lat": 31.6224646, "lon": 34.7778464}, {"type": "node", "id": 5771719139, "lat": 31.627373, "lon": 34.7772405}, {"type": "node", "id": 5771719142, "lat": 31.6157431, "lon": 34.7804216}, {"type": "node", "id": 5771719150, "lat": 31.6234924, "lon": 34.7775612}, {"type": "node", "id": 5771719160, "lat": 31.6265798, "lon": 34.7772545}, {"type": "node", "id": 5771719171, "lat": 31.6235697, "lon": 34.7775321}, {"type": "node", "id": 5771719187, "lat": 31.6255052, "lon": 34.777291}, {"type": "node", "id": 5771719188, "lat": 31.6190534, "lon": 34.7789436}, {"type": "node", "id": 5771719197, "lat": 31.6349179, "lon": 34.7772859}, {"type": "node", "id": 5771719198, "lat": 31.6246316, "lon": 34.7773479}, {"type": "node", "id": 5771719202, "lat": 31.6236254, "lon": 34.7775108}, {"type": "node", "id": 5803973495, "lat": 31.6923671, "lon": 34.5950514}, {"type": "node", "id": 5803973578, "lat": 31.6932858, "lon": 34.592804}, {"type": "node", "id": 5874100844, "lat": 31.3143032, "lon": 34.6100114}, {"type": "node", "id": 5874100845, "lat": 31.3071475, "lon": 34.6080231}, {"type": "node", "id": 5874100846, "lat": 31.3020608, "lon": 34.6327139}, {"type": "node", "id": 5874100847, "lat": 31.3207408, "lon": 34.6333743}, {"type": "node", "id": 5874100849, "lat": 31.3215984, "lon": 34.6317808}, {"type": "node", "id": 5874100855, "lat": 31.3040624, "lon": 34.6296154}, {"type": "node", "id": 5874100856, "lat": 31.3157551, "lon": 34.6107538}, {"type": "node", "id": 5874100858, "lat": 31.3138119, "lon": 34.6080762}, {"type": "node", "id": 5874100859, "lat": 31.3134671, "lon": 34.606421}, {"type": "node", "id": 5874100860, "lat": 31.3032484, "lon": 34.6295725}, {"type": "node", "id": 5874100861, "lat": 31.3205693, "lon": 34.6320164}, {"type": "node", "id": 5874100863, "lat": 31.3143985, "lon": 34.6104534}, {"type": "node", "id": 5874100865, "lat": 31.3200849, "lon": 34.6155134}, {"type": "node", "id": 5874100866, "lat": 31.302187, "lon": 34.6394865}, {"type": "node", "id": 5874100867, "lat": 31.3223726, "lon": 34.6194616}, {"type": "node", "id": 5874100868, "lat": 31.3168696, "lon": 34.6114236}, {"type": "node", "id": 5874100869, "lat": 31.3204075, "lon": 34.6148179}, {"type": "node", "id": 5874100870, "lat": 31.3223726, "lon": 34.61935}, {"type": "node", "id": 5874100871, "lat": 31.3212947, "lon": 34.6163586}, {"type": "node", "id": 5874100872, "lat": 31.3219656, "lon": 34.6180795}, {"type": "node", "id": 5874100873, "lat": 31.3206642, "lon": 34.6166292}, {"type": "node", "id": 5874100874, "lat": 31.3165919, "lon": 34.6104802}, {"type": "node", "id": 5874100875, "lat": 31.3218701, "lon": 34.6180025}, {"type": "node", "id": 5874100876, "lat": 31.3018041, "lon": 34.6331167}, {"type": "node", "id": 5874100877, "lat": 31.3198246, "lon": 34.61302}, {"type": "node", "id": 5874100878, "lat": 31.3196385, "lon": 34.6130861}, {"type": "node", "id": 5874100879, "lat": 31.3215074, "lon": 34.6198736}, {"type": "node", "id": 5874100880, "lat": 31.3059769, "lon": 34.6281133}, {"type": "node", "id": 5874100881, "lat": 31.3059769, "lon": 34.6295725}, {"type": "node", "id": 5874100882, "lat": 31.3144363, "lon": 34.6107804}, {"type": "node", "id": 5874100883, "lat": 31.3156009, "lon": 34.6112259}, {"type": "node", "id": 5874100884, "lat": 31.3144613, "lon": 34.6111535}, {"type": "node", "id": 5874100885, "lat": 31.3144627, "lon": 34.6115376}, {"type": "node", "id": 5874100887, "lat": 31.3199529, "lon": 34.6150539}, {"type": "node", "id": 5874100889, "lat": 31.3159091, "lon": 34.611183}, {"type": "node", "id": 5874100890, "lat": 31.3156158, "lon": 34.6115563}, {"type": "node", "id": 5874100891, "lat": 31.3079927, "lon": 34.6285768}, {"type": "node", "id": 5874100893, "lat": 31.3016879, "lon": 34.6343486}, {"type": "node", "id": 5874100894, "lat": 31.3175462, "lon": 34.6112281}, {"type": "node", "id": 5874100895, "lat": 31.3175886, "lon": 34.6113425}, {"type": "node", "id": 5874100896, "lat": 31.3105513, "lon": 34.6334773}, {"type": "node", "id": 5874100897, "lat": 31.3202462, "lon": 34.6154276}, {"type": "node", "id": 5874100900, "lat": 31.3019025, "lon": 34.6382843}, {"type": "node", "id": 5874100901, "lat": 31.3222662, "lon": 34.6197191}, {"type": "node", "id": 5874100902, "lat": 31.321566, "lon": 34.6301558}, {"type": "node", "id": 5874100903, "lat": 31.3024715, "lon": 34.6316753}, {"type": "node", "id": 5874100904, "lat": 31.3017299, "lon": 34.6363093}, {"type": "node", "id": 5936114952, "lat": 31.6901127, "lon": 34.6023341}, {"type": "node", "id": 5936114953, "lat": 31.6898784, "lon": 34.6031343}, {"type": "node", "id": 5936114954, "lat": 31.6914854, "lon": 34.5979165}, {"type": "node", "id": 5936114955, "lat": 31.6928886, "lon": 34.5936571}, {"type": "node", "id": 5936114957, "lat": 31.6937745, "lon": 34.5919878}, {"type": "node", "id": 5936118745, "lat": 31.6632693, "lon": 34.5929175}, {"type": "node", "id": 5936118746, "lat": 31.6628902, "lon": 34.5934511}, {"type": "node", "id": 5936118747, "lat": 31.6620386, "lon": 34.595276}, {"type": "node", "id": 5936118748, "lat": 31.6624435, "lon": 34.594228}, {"type": "node", "id": 5936118749, "lat": 31.6613007, "lon": 34.5937801}, {"type": "node", "id": 5936118750, "lat": 31.660893, "lon": 34.5947526}, {"type": "node", "id": 5936118751, "lat": 31.6614532, "lon": 34.5965704}, {"type": "node", "id": 5936118752, "lat": 31.6598421, "lon": 34.60022}, {"type": "node", "id": 5936118753, "lat": 31.669622, "lon": 34.5978366}, {"type": "node", "id": 5936118754, "lat": 31.669751, "lon": 34.6044475}, {"type": "node", "id": 5936118758, "lat": 31.6594151, "lon": 34.6003563}, {"type": "node", "id": 5936118759, "lat": 31.6585036, "lon": 34.6003337}, {"type": "node", "id": 5936118761, "lat": 31.6592179, "lon": 34.6012254}, {"type": "node", "id": 5936118762, "lat": 31.6592126, "lon": 34.6015402}, {"type": "node", "id": 5936118763, "lat": 31.6588379, "lon": 34.602304}, {"type": "node", "id": 5936118764, "lat": 31.6591536, "lon": 34.6026222}, {"type": "node", "id": 5991411941, "lat": 31.6063128, "lon": 34.750995}, {"type": "node", "id": 6001301538, "lat": 31.5994229, "lon": 34.754557}, {"type": "node", "id": 6007560238, "lat": 31.6857746, "lon": 34.6047945}, {"type": "node", "id": 6007560239, "lat": 31.6843315, "lon": 34.6041255}, {"type": "node", "id": 6007560240, "lat": 31.6829766, "lon": 34.6039102}, {"type": "node", "id": 6007560241, "lat": 31.6871729, "lon": 34.6058392}, {"type": "node", "id": 6007560242, "lat": 31.6841482, "lon": 34.6041145}, {"type": "node", "id": 6007560243, "lat": 31.6893368, "lon": 34.6046675}, {"type": "node", "id": 6007560244, "lat": 31.6863949, "lon": 34.6052388}, {"type": "node", "id": 6007560246, "lat": 31.6809815, "lon": 34.6038545}, {"type": "node", "id": 6007560247, "lat": 31.6797194, "lon": 34.6038758}, {"type": "node", "id": 6007560248, "lat": 31.6842621, "lon": 34.6041144}, {"type": "node", "id": 6007560250, "lat": 31.6878477, "lon": 34.6065592}, {"type": "node", "id": 6007560252, "lat": 31.6895199, "lon": 34.6041947}, {"type": "node", "id": 6007560253, "lat": 31.6797774, "lon": 34.603918}, {"type": "node", "id": 6007560255, "lat": 31.6890304, "lon": 34.6051647}, {"type": "node", "id": 6007560256, "lat": 31.6796277, "lon": 34.6017095}, {"type": "node", "id": 6007560257, "lat": 31.6788735, "lon": 34.5968361}, {"type": "node", "id": 6007560258, "lat": 31.6790525, "lon": 34.5973603}, {"type": "node", "id": 6007560259, "lat": 31.6791403, "lon": 34.5981247}, {"type": "node", "id": 6007574781, "lat": 31.6925651, "lon": 34.5944836}, {"type": "node", "id": 6007574783, "lat": 31.6941426, "lon": 34.5914937}, {"type": "node", "id": 6007575285, "lat": 31.6934675, "lon": 34.5924383}, {"type": "node", "id": 6017412768, "lat": 31.6613452, "lon": 34.6048483}, {"type": "node", "id": 6017412770, "lat": 31.6608156, "lon": 34.6041925}, {"type": "node", "id": 6112821949, "lat": 31.4295987, "lon": 34.5880243}, {"type": "node", "id": 6112821952, "lat": 31.4300189, "lon": 34.5874056}, {"type": "node", "id": 6112821953, "lat": 31.4298573, "lon": 34.587658}, {"type": "node", "id": 6112821956, "lat": 31.4305717, "lon": 34.586614}, {"type": "node", "id": 6112821957, "lat": 31.4217212, "lon": 34.602932}, {"type": "node", "id": 6112821959, "lat": 31.4304226, "lon": 34.583354}, {"type": "node", "id": 6112821960, "lat": 31.4287309, "lon": 34.5873114}, {"type": "node", "id": 6112821963, "lat": 31.4168801, "lon": 34.6016188}, {"type": "node", "id": 6112821968, "lat": 31.4150695, "lon": 34.6004016}, {"type": "node", "id": 6112821971, "lat": 31.4132836, "lon": 34.5759297}, {"type": "node", "id": 6112821982, "lat": 31.4146891, "lon": 34.5991147}, {"type": "node", "id": 6112822585, "lat": 31.408451, "lon": 34.5763955}, {"type": "node", "id": 6112822586, "lat": 31.4151588, "lon": 34.5988894}, {"type": "node", "id": 6112822587, "lat": 31.414983, "lon": 34.5923153}, {"type": "node", "id": 6112822589, "lat": 31.4145801, "lon": 34.5970784}, {"type": "node", "id": 6112822599, "lat": 31.4309499, "lon": 34.5879534}, {"type": "node", "id": 6112822603, "lat": 31.4283207, "lon": 34.581329}, {"type": "node", "id": 6112822606, "lat": 31.4280932, "lon": 34.58035}, {"type": "node", "id": 6112822608, "lat": 31.4282539, "lon": 34.590464}, {"type": "node", "id": 6112822609, "lat": 31.4326705, "lon": 34.5858179}, {"type": "node", "id": 6112822611, "lat": 31.4278721, "lon": 34.5799053}, {"type": "node", "id": 6112822613, "lat": 31.4287748, "lon": 34.5824448}, {"type": "node", "id": 6112822616, "lat": 31.4308108, "lon": 34.5837231}, {"type": "node", "id": 6112822618, "lat": 31.4173928, "lon": 34.6029921}, {"type": "node", "id": 6112822620, "lat": 31.4299974, "lon": 34.5831652}, {"type": "node", "id": 6112822621, "lat": 31.4265392, "lon": 34.5783002}, {"type": "node", "id": 6112822622, "lat": 31.4143388, "lon": 34.5908218}, {"type": "node", "id": 6112822623, "lat": 31.4154444, "lon": 34.5962721}, {"type": "node", "id": 6112822624, "lat": 31.4271855, "lon": 34.5789853}, {"type": "node", "id": 6112822625, "lat": 31.4147999, "lon": 34.5939461}, {"type": "node", "id": 6112822626, "lat": 31.4183675, "lon": 34.6049405}, {"type": "node", "id": 6112822627, "lat": 31.415005, "lon": 34.5935851}, {"type": "node", "id": 6112822630, "lat": 31.4152247, "lon": 34.5935255}, {"type": "node", "id": 6112822631, "lat": 31.4322151, "lon": 34.5870212}, {"type": "node", "id": 6112822633, "lat": 31.42939, "lon": 34.598229}, {"type": "node", "id": 6112822638, "lat": 31.4208427, "lon": 34.6007171}, {"type": "node", "id": 6112822641, "lat": 31.4292069, "lon": 34.5887962}, {"type": "node", "id": 6112822647, "lat": 31.4285619, "lon": 34.5820752}, {"type": "node", "id": 6112822652, "lat": 31.4289354, "lon": 34.5826245}, {"type": "node", "id": 6112822653, "lat": 31.421919, "lon": 34.5999961}, {"type": "node", "id": 6112822659, "lat": 31.4071344, "lon": 34.5781293}, {"type": "node", "id": 6112822660, "lat": 31.4279952, "lon": 34.5876745}, {"type": "node", "id": 6112822661, "lat": 31.4164113, "lon": 34.6007433}, {"type": "node", "id": 6112822664, "lat": 31.4171589, "lon": 34.6023055}, {"type": "node", "id": 6112822665, "lat": 31.428101, "lon": 34.5874916}, {"type": "node", "id": 6112822666, "lat": 31.4291753, "lon": 34.5878701}, {"type": "node", "id": 6112822667, "lat": 31.4159869, "lon": 34.5999617}, {"type": "node", "id": 6112822668, "lat": 31.4121779, "lon": 34.5878779}, {"type": "node", "id": 6112822669, "lat": 31.4176204, "lon": 34.6028805}, {"type": "node", "id": 6112822670, "lat": 31.4212236, "lon": 34.6002879}, {"type": "node", "id": 6112822671, "lat": 31.4281061, "lon": 34.5909076}, {"type": "node", "id": 6112822674, "lat": 31.4279833, "lon": 34.5911002}, {"type": "node", "id": 6112822677, "lat": 31.4291996, "lon": 34.5885817}, {"type": "node", "id": 6112822678, "lat": 31.4283399, "lon": 34.5879776}, {"type": "node", "id": 6112822681, "lat": 31.4293676, "lon": 34.5829426}, {"type": "node", "id": 6112822684, "lat": 31.4326197, "lon": 34.586393}, {"type": "node", "id": 6112822685, "lat": 31.4212822, "lon": 34.6005288}, {"type": "node", "id": 6115188283, "lat": 31.3190617, "lon": 34.6115256}, {"type": "node", "id": 6115194915, "lat": 31.3191429, "lon": 34.6117601}, {"type": "node", "id": 6115194968, "lat": 31.3138365, "lon": 34.6081731}, {"type": "node", "id": 6115195019, "lat": 31.3190339, "lon": 34.6115138}, {"type": "node", "id": 6166776231, "lat": 31.4333609, "lon": 34.5867142}, {"type": "node", "id": 6166776232, "lat": 31.43279, "lon": 34.5858961}, {"type": "node", "id": 6166776235, "lat": 31.4328687, "lon": 34.5864075}, {"type": "node", "id": 6206064178, "lat": 31.6012662, "lon": 34.7693892}, {"type": "node", "id": 6206064179, "lat": 31.6011028, "lon": 34.7656795}, {"type": "node", "id": 6206064180, "lat": 31.6003147, "lon": 34.7619328}, {"type": "node", "id": 6206064181, "lat": 31.6001528, "lon": 34.7612183}, {"type": "node", "id": 6206064182, "lat": 31.5998066, "lon": 34.7612704}, {"type": "node", "id": 6206064183, "lat": 31.5997015, "lon": 34.7606905}, {"type": "node", "id": 6206064184, "lat": 31.599972, "lon": 34.760438}, {"type": "node", "id": 6206065185, "lat": 31.5997328, "lon": 34.7601328}, {"type": "node", "id": 6206065186, "lat": 31.5998389, "lon": 34.759545}, {"type": "node", "id": 6209163078, "lat": 31.426989, "lon": 34.5756788}, {"type": "node", "id": 6209804110, "lat": 31.4240384, "lon": 34.5714212}, {"type": "node", "id": 6209804111, "lat": 31.4219326, "lon": 34.5744253}, {"type": "node", "id": 6209804112, "lat": 31.4217223, "lon": 34.5719786}, {"type": "node", "id": 6209804113, "lat": 31.4197229, "lon": 34.564507}, {"type": "node", "id": 6209804114, "lat": 31.4254357, "lon": 34.5726907}, {"type": "node", "id": 6209804115, "lat": 31.4219127, "lon": 34.5709658}, {"type": "node", "id": 6209804116, "lat": 31.4124858, "lon": 34.5737851}, {"type": "node", "id": 6209804117, "lat": 31.4253954, "lon": 34.5726092}, {"type": "node", "id": 6209804118, "lat": 31.4126103, "lon": 34.5739739}, {"type": "node", "id": 6209804119, "lat": 31.419419, "lon": 34.5639918}, {"type": "node", "id": 6209804120, "lat": 31.4198816, "lon": 34.5695201}, {"type": "node", "id": 6209804121, "lat": 31.4221412, "lon": 34.5738245}, {"type": "node", "id": 6209804122, "lat": 31.4270692, "lon": 34.5756902}, {"type": "node", "id": 6209804123, "lat": 31.4196165, "lon": 34.5709741}, {"type": "node", "id": 6209804124, "lat": 31.4167175, "lon": 34.5648292}, {"type": "node", "id": 6209804125, "lat": 31.4133245, "lon": 34.5758493}, {"type": "node", "id": 6209804126, "lat": 31.421609, "lon": 34.5738623}, {"type": "node", "id": 6209804127, "lat": 31.4189683, "lon": 34.5635669}, {"type": "node", "id": 6209804128, "lat": 31.4264061, "lon": 34.5755958}, {"type": "node", "id": 6209804130, "lat": 31.424917, "lon": 34.5711377}, {"type": "node", "id": 6209804131, "lat": 31.4263075, "lon": 34.5755489}, {"type": "node", "id": 6209804132, "lat": 31.4193274, "lon": 34.5698757}, {"type": "node", "id": 6209804133, "lat": 31.4192027, "lon": 34.5699313}, {"type": "node", "id": 6209804134, "lat": 31.4160215, "lon": 34.5657733}, {"type": "node", "id": 6209804135, "lat": 31.4203652, "lon": 34.5677863}, {"type": "node", "id": 6209804136, "lat": 31.4261976, "lon": 34.5754757}, {"type": "node", "id": 6209804137, "lat": 31.4196714, "lon": 34.5705879}, {"type": "node", "id": 6209804138, "lat": 31.4195813, "lon": 34.5708462}, {"type": "node", "id": 6209804139, "lat": 31.4216124, "lon": 34.5707896}, {"type": "node", "id": 6209804140, "lat": 31.4203432, "lon": 34.5650971}, {"type": "node", "id": 6209804141, "lat": 31.4263482, "lon": 34.5744937}, {"type": "node", "id": 6209804143, "lat": 31.4116178, "lon": 34.5730643}, {"type": "node", "id": 6209804144, "lat": 31.4191111, "lon": 34.5700045}, {"type": "node", "id": 6209804145, "lat": 31.4229381, "lon": 34.5719958}, {"type": "node", "id": 6209804146, "lat": 31.4281138, "lon": 34.5763648}, {"type": "node", "id": 6209804147, "lat": 31.4189939, "lon": 34.5701201}, {"type": "node", "id": 6209804148, "lat": 31.4196165, "lon": 34.5704677}, {"type": "node", "id": 6209804149, "lat": 31.428136, "lon": 34.5762489}, {"type": "node", "id": 6209804150, "lat": 31.4281211, "lon": 34.5761073}, {"type": "node", "id": 6209804151, "lat": 31.428043, "lon": 34.5759995}, {"type": "node", "id": 6209804152, "lat": 31.41947, "lon": 34.5710774}, {"type": "node", "id": 6209804153, "lat": 31.4154357, "lon": 34.5659965}, {"type": "node", "id": 6209804154, "lat": 31.4206275, "lon": 34.5651548}, {"type": "node", "id": 6209804155, "lat": 31.4228209, "lon": 34.5713689}, {"type": "node", "id": 6209804156, "lat": 31.4146812, "lon": 34.5670009}, {"type": "node", "id": 6209804157, "lat": 31.4256957, "lon": 34.5727336}, {"type": "node", "id": 6209804158, "lat": 31.4208324, "lon": 34.5705321}, {"type": "node", "id": 6209804159, "lat": 31.418844, "lon": 34.5634811}, {"type": "node", "id": 6209804160, "lat": 31.4256737, "lon": 34.5730598}, {"type": "node", "id": 6209804161, "lat": 31.4108852, "lon": 34.5742957}, {"type": "node", "id": 6209804162, "lat": 31.4165894, "lon": 34.5650223}, {"type": "node", "id": 6209804163, "lat": 31.4215628, "lon": 34.5742536}, {"type": "node", "id": 6209804164, "lat": 31.4187192, "lon": 34.5634339}, {"type": "node", "id": 6209804165, "lat": 31.425254, "lon": 34.5715757}, {"type": "node", "id": 6209804166, "lat": 31.4207191, "lon": 34.5651722}, {"type": "node", "id": 6209804167, "lat": 31.4278785, "lon": 34.5758576}, {"type": "node", "id": 6209804168, "lat": 31.4126982, "lon": 34.5741627}, {"type": "node", "id": 6209804169, "lat": 31.4216163, "lon": 34.572489}, {"type": "node", "id": 6209804170, "lat": 31.4276771, "lon": 34.5757546}, {"type": "node", "id": 6209804171, "lat": 31.4211695, "lon": 34.570678}, {"type": "node", "id": 6209804172, "lat": 31.4209498, "lon": 34.5671892}, {"type": "node", "id": 6209804173, "lat": 31.4194483, "lon": 34.569824}, {"type": "node", "id": 6209804174, "lat": 31.4188181, "lon": 34.5702231}, {"type": "node", "id": 6209804175, "lat": 31.4252526, "lon": 34.5720255}, {"type": "node", "id": 6209804176, "lat": 31.4261365, "lon": 34.573185}, {"type": "node", "id": 6209804177, "lat": 31.4163241, "lon": 34.5656657}, {"type": "node", "id": 6209804178, "lat": 31.4252723, "lon": 34.5718029}, {"type": "node", "id": 6209804179, "lat": 31.4162412, "lon": 34.5657221}, {"type": "node", "id": 6209804180, "lat": 31.4216639, "lon": 34.5721757}, {"type": "node", "id": 6209804181, "lat": 31.4211416, "lon": 34.566958}, {"type": "node", "id": 6209804182, "lat": 31.412885, "lon": 34.5708711}, {"type": "node", "id": 6209804183, "lat": 31.4218544, "lon": 34.5718713}, {"type": "node", "id": 6209804184, "lat": 31.4262908, "lon": 34.5752229}, {"type": "node", "id": 6209833485, "lat": 31.4125421, "lon": 34.5705329}, {"type": "node", "id": 6209833486, "lat": 31.4254737, "lon": 34.5721165}, {"type": "node", "id": 6209833487, "lat": 31.4209056, "lon": 34.5653353}, {"type": "node", "id": 6209833488, "lat": 31.4245971, "lon": 34.5720387}, {"type": "node", "id": 6209833489, "lat": 31.4155822, "lon": 34.5658809}, {"type": "node", "id": 6209833490, "lat": 31.4211437, "lon": 34.5657301}, {"type": "node", "id": 6209833491, "lat": 31.4172962, "lon": 34.5641256}, {"type": "node", "id": 6209833492, "lat": 31.4226745, "lon": 34.5719483}, {"type": "node", "id": 6209833493, "lat": 31.4212732, "lon": 34.5666745}, {"type": "node", "id": 6209833494, "lat": 31.4198832, "lon": 34.5646639}, {"type": "node", "id": 6209833495, "lat": 31.4237953, "lon": 34.5707083}, {"type": "node", "id": 6209833496, "lat": 31.4099307, "lon": 34.5734938}, {"type": "node", "id": 6209833497, "lat": 31.4212501, "lon": 34.5660305}, {"type": "node", "id": 6209833498, "lat": 31.4204824, "lon": 34.5676018}, {"type": "node", "id": 6209833499, "lat": 31.4193091, "lon": 34.563863}, {"type": "node", "id": 6209833500, "lat": 31.4189756, "lon": 34.5718284}, {"type": "node", "id": 6209833501, "lat": 31.4213085, "lon": 34.5663009}, {"type": "node", "id": 6209833502, "lat": 31.4191992, "lon": 34.5637903}, {"type": "node", "id": 6209833503, "lat": 31.4262891, "lon": 34.5743876}, {"type": "node", "id": 6209833504, "lat": 31.4188806, "lon": 34.5721156}, {"type": "node", "id": 6209833505, "lat": 31.418573, "lon": 34.5634339}, {"type": "node", "id": 6209833507, "lat": 31.4188584, "lon": 34.5723688}, {"type": "node", "id": 6209833508, "lat": 31.4185032, "lon": 34.5634167}, {"type": "node", "id": 6209833509, "lat": 31.4205321, "lon": 34.5703776}, {"type": "node", "id": 6209833510, "lat": 31.4184482, "lon": 34.5633612}, {"type": "node", "id": 6209833511, "lat": 31.4203123, "lon": 34.5702577}, {"type": "node", "id": 6209833512, "lat": 31.4171717, "lon": 34.5642973}, {"type": "node", "id": 6209833513, "lat": 31.4219347, "lon": 34.571631}, {"type": "node", "id": 6209833514, "lat": 31.4183384, "lon": 34.5632193}, {"type": "node", "id": 6209833515, "lat": 31.4182724, "lon": 34.5630906}, {"type": "node", "id": 6209833516, "lat": 31.4163827, "lon": 34.565464}, {"type": "node", "id": 6209833517, "lat": 31.4197886, "lon": 34.5696612}, {"type": "node", "id": 6209833518, "lat": 31.422743, "lon": 34.5730773}, {"type": "node", "id": 6209833519, "lat": 31.4181919, "lon": 34.5630179}, {"type": "node", "id": 6209833520, "lat": 31.4133025, "lon": 34.5757546}, {"type": "node", "id": 6209833521, "lat": 31.4181003, "lon": 34.5629704}, {"type": "node", "id": 6209833522, "lat": 31.4219347, "lon": 34.5714808}, {"type": "node", "id": 6209833523, "lat": 31.4223215, "lon": 34.5729774}, {"type": "node", "id": 6209833524, "lat": 31.4179882, "lon": 34.5629884}, {"type": "node", "id": 6209833526, "lat": 31.4248145, "lon": 34.571069}, {"type": "node", "id": 6209833528, "lat": 31.4183384, "lon": 34.5722919}, {"type": "node", "id": 6209833529, "lat": 31.4178636, "lon": 34.5630482}, {"type": "node", "id": 6209833530, "lat": 31.4178014, "lon": 34.5630956}, {"type": "node", "id": 6209833531, "lat": 31.4263159, "lon": 34.574082}, {"type": "node", "id": 6209833533, "lat": 31.4152853, "lon": 34.5661641}, {"type": "node", "id": 6209833534, "lat": 31.4115422, "lon": 34.5707287}, {"type": "node", "id": 6209833535, "lat": 31.4220192, "lon": 34.5711589}, {"type": "node", "id": 6209833536, "lat": 31.4191187, "lon": 34.5637128}, {"type": "node", "id": 6209833537, "lat": 31.4125007, "lon": 34.5715116}, {"type": "node", "id": 6209833538, "lat": 31.4192835, "lon": 34.5712573}, {"type": "node", "id": 6209833539, "lat": 31.424015, "lon": 34.5719011}, {"type": "node", "id": 6209833540, "lat": 31.4206213, "lon": 34.5674473}, {"type": "node", "id": 6209833541, "lat": 31.4191404, "lon": 34.5714762}, {"type": "node", "id": 6209833542, "lat": 31.4195996, "lon": 34.5707346}, {"type": "node", "id": 6209833543, "lat": 31.4187632, "lon": 34.5703049}, {"type": "node", "id": 6209833544, "lat": 31.4199731, "lon": 34.5692065}, {"type": "node", "id": 6209833545, "lat": 31.4210521, "lon": 34.565541}, {"type": "node", "id": 6209833547, "lat": 31.4184228, "lon": 34.5715749}, {"type": "node", "id": 6209833548, "lat": 31.4157358, "lon": 34.5658162}, {"type": "node", "id": 6209841708, "lat": 31.4283563, "lon": 34.5814393}, {"type": "node", "id": 6218205573, "lat": 31.5888392, "lon": 34.7951637}, {"type": "node", "id": 6244808172, "lat": 31.4332138, "lon": 34.5842148}, {"type": "node", "id": 6244808839, "lat": 31.4336253, "lon": 34.5832131}, {"type": "node", "id": 6283136140, "lat": 31.5894831, "lon": 34.7800424}, {"type": "node", "id": 6283136141, "lat": 31.5839078, "lon": 34.784922}, {"type": "node", "id": 6283136142, "lat": 31.5847849, "lon": 34.7851706}, {"type": "node", "id": 6283136144, "lat": 31.6066401, "lon": 34.7897016}, {"type": "node", "id": 6283136145, "lat": 31.6059895, "lon": 34.7891046}, {"type": "node", "id": 6284332774, "lat": 31.6014483, "lon": 34.7700925}, {"type": "node", "id": 6304136014, "lat": 31.6906028, "lon": 34.6007372}, {"type": "node", "id": 6304136066, "lat": 31.6885849, "lon": 34.6057518}, {"type": "node", "id": 6359976337, "lat": 31.6678034, "lon": 34.549529}, {"type": "node", "id": 6359976384, "lat": 31.6674234, "lon": 34.5500276}, {"type": "node", "id": 6394077645, "lat": 31.5277243, "lon": 34.5813389}, {"type": "node", "id": 6394077646, "lat": 31.527872, "lon": 34.5812736}, {"type": "node", "id": 6394077647, "lat": 31.5278967, "lon": 34.5813995}, {"type": "node", "id": 6394077648, "lat": 31.5279147, "lon": 34.5815307}, {"type": "node", "id": 6394077649, "lat": 31.5280183, "lon": 34.5815447}, {"type": "node", "id": 6394077650, "lat": 31.527872, "lon": 34.5817802}, {"type": "node", "id": 6394077651, "lat": 31.5277694, "lon": 34.5815469}, {"type": "node", "id": 6394077652, "lat": 31.5277372, "lon": 34.5815424}, {"type": "node", "id": 6513396205, "lat": 31.3105974, "lon": 34.6339609}, {"type": "node", "id": 6513396206, "lat": 31.3106376, "lon": 34.6342554}, {"type": "node", "id": 6513396207, "lat": 31.3106399, "lon": 34.6347309}, {"type": "node", "id": 6513396208, "lat": 31.310555, "lon": 34.6358939}, {"type": "node", "id": 6513396209, "lat": 31.3106376, "lon": 34.6374136}, {"type": "node", "id": 6513396210, "lat": 31.311071, "lon": 34.6374371}, {"type": "node", "id": 6513396211, "lat": 31.3113846, "lon": 34.6377031}, {"type": "node", "id": 6513396212, "lat": 31.3127319, "lon": 34.6377229}, {"type": "node", "id": 6513396213, "lat": 31.3141423, "lon": 34.6378018}, {"type": "node", "id": 6513396214, "lat": 31.3144539, "lon": 34.6380749}, {"type": "node", "id": 6513396215, "lat": 31.3149429, "lon": 34.6380145}, {"type": "node", "id": 6513396216, "lat": 31.3152237, "lon": 34.6377077}, {"type": "node", "id": 6513396217, "lat": 31.3155161, "lon": 34.6376483}, {"type": "node", "id": 6513396218, "lat": 31.3157306, "lon": 34.6375487}, {"type": "node", "id": 6513396219, "lat": 31.3160687, "lon": 34.6372954}, {"type": "node", "id": 6513396220, "lat": 31.3163469, "lon": 34.636865}, {"type": "node", "id": 6513396221, "lat": 31.3166919, "lon": 34.6370105}, {"type": "node", "id": 6513396222, "lat": 31.3174057, "lon": 34.6366605}, {"type": "node", "id": 6513396223, "lat": 31.317936, "lon": 34.6365406}, {"type": "node", "id": 6513396224, "lat": 31.3182124, "lon": 34.6362702}, {"type": "node", "id": 6513396225, "lat": 31.3183381, "lon": 34.6359905}, {"type": "node", "id": 6513396226, "lat": 31.3182962, "lon": 34.6358039}, {"type": "node", "id": 6513396227, "lat": 31.3185276, "lon": 34.6354726}, {"type": "node", "id": 6513396228, "lat": 31.3192873, "lon": 34.6354516}, {"type": "node", "id": 6513396229, "lat": 31.3192589, "lon": 34.6338019}, {"type": "node", "id": 6513396230, "lat": 31.3205176, "lon": 34.6302647}, {"type": "node", "id": 6513396231, "lat": 31.3214437, "lon": 34.6302997}, {"type": "node", "id": 6513396232, "lat": 31.3214569, "lon": 34.6317889}, {"type": "node", "id": 6513396233, "lat": 31.3223099, "lon": 34.6326385}, {"type": "node", "id": 6513396234, "lat": 31.3215923, "lon": 34.632129}, {"type": "node", "id": 6513396235, "lat": 31.3213722, "lon": 34.63239}, {"type": "node", "id": 6513396236, "lat": 31.3211863, "lon": 34.6327788}, {"type": "node", "id": 6513396237, "lat": 31.3208312, "lon": 34.6356691}, {"type": "node", "id": 6513396238, "lat": 31.319876, "lon": 34.6350837}, {"type": "node", "id": 6513396239, "lat": 31.3200702, "lon": 34.6344673}, {"type": "node", "id": 6513396240, "lat": 31.3202701, "lon": 34.6341715}, {"type": "node", "id": 6513396241, "lat": 31.3203973, "lon": 34.6341361}, {"type": "node", "id": 6531749400, "lat": 31.2968432, "lon": 34.6333825}, {"type": "node", "id": 6531749401, "lat": 31.2951977, "lon": 34.6334085}, {"type": "node", "id": 6531749402, "lat": 31.2932579, "lon": 34.6337982}, {"type": "node", "id": 6531749403, "lat": 31.29443, "lon": 34.6334069}, {"type": "node", "id": 6531749404, "lat": 31.3017476, "lon": 34.6397596}, {"type": "node", "id": 6531749405, "lat": 31.3014264, "lon": 34.6398929}, {"type": "node", "id": 6531749406, "lat": 31.3010359, "lon": 34.6405425}, {"type": "node", "id": 6531749407, "lat": 31.3006153, "lon": 34.6410832}, {"type": "node", "id": 6531749408, "lat": 31.3003131, "lon": 34.6411683}, {"type": "node", "id": 6531749409, "lat": 31.2997576, "lon": 34.6411432}, {"type": "node", "id": 6531749410, "lat": 31.2993144, "lon": 34.6409551}, {"type": "node", "id": 6531749411, "lat": 31.2989299, "lon": 34.640461}, {"type": "node", "id": 6531749412, "lat": 31.2975865, "lon": 34.6406713}, {"type": "node", "id": 6531749413, "lat": 31.298768, "lon": 34.6404329}, {"type": "node", "id": 6531749414, "lat": 31.2970004, "lon": 34.6404443}, {"type": "node", "id": 6531749415, "lat": 31.2964119, "lon": 34.641279}, {"type": "node", "id": 6531749416, "lat": 31.2967556, "lon": 34.6406561}, {"type": "node", "id": 6531749417, "lat": 31.2963077, "lon": 34.6417611}, {"type": "node", "id": 6531749418, "lat": 31.2959167, "lon": 34.6421875}, {"type": "node", "id": 6531749419, "lat": 31.2957403, "lon": 34.6423957}, {"type": "node", "id": 6531749420, "lat": 31.2955439, "lon": 34.6429126}, {"type": "node", "id": 6531749421, "lat": 31.2945425, "lon": 34.64355}, {"type": "node", "id": 6531749422, "lat": 31.2942774, "lon": 34.6435323}, {"type": "node", "id": 6531749423, "lat": 31.2932235, "lon": 34.6441703}, {"type": "node", "id": 6531749424, "lat": 31.2926639, "lon": 34.6445243}, {"type": "node", "id": 6531749425, "lat": 31.2920942, "lon": 34.6446348}, {"type": "node", "id": 6531749426, "lat": 31.2923152, "lon": 34.6342964}, {"type": "node", "id": 6531749427, "lat": 31.2912816, "lon": 34.6349913}, {"type": "node", "id": 6698708884, "lat": 31.6580366, "lon": 34.6006194}, {"type": "node", "id": 6698847385, "lat": 31.6580737, "lon": 34.6004678}, {"type": "node", "id": 6698847386, "lat": 31.6583583, "lon": 34.6004205}, {"type": "node", "id": 7006336260, "lat": 31.2975867, "lon": 34.6213432}, {"type": "node", "id": 7006336261, "lat": 31.2976657, "lon": 34.617029}, {"type": "node", "id": 7006336262, "lat": 31.2976657, "lon": 34.6166545}, {"type": "node", "id": 7006336263, "lat": 31.2976181, "lon": 34.6161446}, {"type": "node", "id": 7006336264, "lat": 31.2975568, "lon": 34.6157701}, {"type": "node", "id": 7006336265, "lat": 31.2974547, "lon": 34.6153638}, {"type": "node", "id": 7006336266, "lat": 31.2972606, "lon": 34.6147623}, {"type": "node", "id": 7006336267, "lat": 31.2969032, "lon": 34.6139615}, {"type": "node", "id": 7006336268, "lat": 31.2965866, "lon": 34.613356}, {"type": "node", "id": 7006336269, "lat": 31.2964028, "lon": 34.6130612}, {"type": "node", "id": 7006336270, "lat": 31.296076, "lon": 34.6126668}, {"type": "node", "id": 7006336271, "lat": 31.2966173, "lon": 34.6118461}, {"type": "node", "id": 7006336272, "lat": 31.2971551, "lon": 34.6115234}, {"type": "node", "id": 7006336273, "lat": 31.2985498, "lon": 34.6109866}, {"type": "node", "id": 7006336274, "lat": 31.2992783, "lon": 34.6107753}, {"type": "node", "id": 7006336275, "lat": 31.3000072, "lon": 34.6105656}, {"type": "node", "id": 7006336276, "lat": 31.3007364, "lon": 34.6103572}, {"type": "node", "id": 7006336277, "lat": 31.3014657, "lon": 34.6101498}, {"type": "node", "id": 7006336278, "lat": 31.3021952, "lon": 34.609943}, {"type": "node", "id": 7006336279, "lat": 31.3029247, "lon": 34.6097364}, {"type": "node", "id": 7006336280, "lat": 31.3036542, "lon": 34.6095298}, {"type": "node", "id": 7006336281, "lat": 31.3043836, "lon": 34.6093228}, {"type": "node", "id": 7006336282, "lat": 31.3051129, "lon": 34.609115}, {"type": "node", "id": 7006336283, "lat": 31.3058419, "lon": 34.6089061}, {"type": "node", "id": 7006408247, "lat": 31.645488, "lon": 34.5780745}, {"type": "node", "id": 7006408248, "lat": 31.6451508, "lon": 34.5756483}, {"type": "node", "id": 7006408249, "lat": 31.6479021, "lon": 34.5811248}, {"type": "node", "id": 7007753066, "lat": 31.3060549, "lon": 34.6084018}, {"type": "node", "id": 7007753068, "lat": 31.3060242, "lon": 34.6085987}, {"type": "node", "id": 7007753070, "lat": 31.2975443, "lon": 34.6214857}, {"type": "node", "id": 7007753074, "lat": 31.3061864, "lon": 34.6082822}, {"type": "node", "id": 7007758685, "lat": 31.3064367, "lon": 34.6082554}, {"type": "node", "id": 7007758698, "lat": 31.3061342, "lon": 34.6087532}, {"type": "node", "id": 7029588932, "lat": 31.6760261, "lon": 34.5979702}, {"type": "node", "id": 7054604270, "lat": 31.5403891, "lon": 34.5954974}, {"type": "node", "id": 7054604272, "lat": 31.5408677, "lon": 34.5964255}, {"type": "node", "id": 7054604273, "lat": 31.5394583, "lon": 34.6028998}, {"type": "node", "id": 7054604278, "lat": 31.5412615, "lon": 34.5971941}, {"type": "node", "id": 7054604279, "lat": 31.5422602, "lon": 34.598352}, {"type": "node", "id": 7054604280, "lat": 31.5437893, "lon": 34.5995559}, {"type": "node", "id": 7054604282, "lat": 31.5373956, "lon": 34.6042588}, {"type": "node", "id": 7055302408, "lat": 31.67927, "lon": 34.6007868}, {"type": "node", "id": 7055302409, "lat": 31.6795535, "lon": 34.6007701}, {"type": "node", "id": 7074417985, "lat": 31.4103752, "lon": 34.5784394}, {"type": "node", "id": 7370956120, "lat": 31.5798419, "lon": 34.7789394}, {"type": "node", "id": 7370956122, "lat": 31.5792029, "lon": 34.7807063}, {"type": "node", "id": 7370956123, "lat": 31.5777076, "lon": 34.7773556}, {"type": "node", "id": 7370956125, "lat": 31.5770952, "lon": 34.7788214}, {"type": "node", "id": 7370956137, "lat": 31.5813297, "lon": 34.7807422}, {"type": "node", "id": 7370956139, "lat": 31.5799195, "lon": 34.7786986}, {"type": "node", "id": 7370956147, "lat": 31.5774907, "lon": 34.7801901}, {"type": "node", "id": 7370956152, "lat": 31.5806295, "lon": 34.7795494}, {"type": "node", "id": 7370956164, "lat": 31.580162, "lon": 34.7791305}, {"type": "node", "id": 7370964602, "lat": 31.5764595, "lon": 34.7801927}, {"type": "node", "id": 7370964617, "lat": 31.5761034, "lon": 34.7811742}, {"type": "node", "id": 7370964628, "lat": 31.5813368, "lon": 34.7822062}, {"type": "node", "id": 7370964647, "lat": 31.5775882, "lon": 34.7790933}, {"type": "node", "id": 7370964658, "lat": 31.5806062, "lon": 34.7807516}, {"type": "node", "id": 7370964660, "lat": 31.5790533, "lon": 34.7831357}, {"type": "node", "id": 7370964663, "lat": 31.5770175, "lon": 34.7801836}, {"type": "node", "id": 7370964664, "lat": 31.5759158, "lon": 34.7817343}, {"type": "node", "id": 7370964665, "lat": 31.5807681, "lon": 34.782194}, {"type": "node", "id": 7370964676, "lat": 31.5790299, "lon": 34.7782243}, {"type": "node", "id": 7370964697, "lat": 31.5767985, "lon": 34.7826168}, {"type": "node", "id": 7370964700, "lat": 31.5801454, "lon": 34.7792863}, {"type": "node", "id": 8078704817, "lat": 31.6299265, "lon": 34.7665404}, {"type": "node", "id": 8078704865, "lat": 31.6306518, "lon": 34.7679585}, {"type": "node", "id": 8078704955, "lat": 31.6289563, "lon": 34.7647275}, {"type": "node", "id": 8078704984, "lat": 31.6214519, "lon": 34.7659908}, {"type": "node", "id": 8078705016, "lat": 31.6224682, "lon": 34.7662333}, {"type": "node", "id": 8078705115, "lat": 31.6225477, "lon": 34.7635876}, {"type": "node", "id": 8343584320, "lat": 31.5191258, "lon": 34.5947698}, {"type": "node", "id": 8343584321, "lat": 31.518975, "lon": 34.5955501}, {"type": "node", "id": 8343584322, "lat": 31.5194623, "lon": 34.5959687}, {"type": "node", "id": 8343584323, "lat": 31.5182276, "lon": 34.5969665}, {"type": "node", "id": 8343584324, "lat": 31.5184196, "lon": 34.5982647}, {"type": "node", "id": 8343584325, "lat": 31.5180995, "lon": 34.5984363}, {"type": "node", "id": 8343584326, "lat": 31.5175599, "lon": 34.5988333}, {"type": "node", "id": 8343584327, "lat": 31.5199927, "lon": 34.6008235}, {"type": "node", "id": 8343584328, "lat": 31.5215475, "lon": 34.6013117}, {"type": "node", "id": 8343584329, "lat": 31.5213097, "lon": 34.6019018}, {"type": "node", "id": 8343584330, "lat": 31.5218356, "lon": 34.6023363}, {"type": "node", "id": 8343584331, "lat": 31.5222827, "lon": 34.6027408}, {"type": "node", "id": 8343584332, "lat": 31.5242319, "lon": 34.6047513}, {"type": "node", "id": 8343584334, "lat": 31.5252823, "lon": 34.6062471}, {"type": "node", "id": 8343584335, "lat": 31.526168, "lon": 34.6072993}, {"type": "node", "id": 8343584336, "lat": 31.5269159, "lon": 34.6071482}, {"type": "node", "id": 8343584337, "lat": 31.5273404, "lon": 34.6084579}, {"type": "node", "id": 8442357155, "lat": 31.5302584, "lon": 34.6092228}, {"type": "node", "id": 8442357156, "lat": 31.5305139, "lon": 34.6089913}, {"type": "node", "id": 8442357157, "lat": 31.530575, "lon": 34.6090779}, {"type": "node", "id": 8442357158, "lat": 31.5306814, "lon": 34.6089863}, {"type": "node", "id": 8442357159, "lat": 31.5308617, "lon": 34.6087498}, {"type": "node", "id": 8442357160, "lat": 31.5309043, "lon": 34.6087665}, {"type": "node", "id": 8442357161, "lat": 31.5309901, "lon": 34.6087764}, {"type": "node", "id": 8442357162, "lat": 31.5310731, "lon": 34.6087748}, {"type": "node", "id": 8442357163, "lat": 31.5311527, "lon": 34.6087618}, {"type": "node", "id": 8442357164, "lat": 31.5312281, "lon": 34.6087373}, {"type": "node", "id": 8442357165, "lat": 31.5312987, "lon": 34.6087014}, {"type": "node", "id": 8442357166, "lat": 31.5313637, "lon": 34.6086542}, {"type": "node", "id": 8442357167, "lat": 31.5314225, "lon": 34.6085958}, {"type": "node", "id": 8442357168, "lat": 31.5314743, "lon": 34.6085261}, {"type": "node", "id": 8442357169, "lat": 31.5315185, "lon": 34.6084453}, {"type": "node", "id": 8442357170, "lat": 31.5315544, "lon": 34.6083534}, {"type": "node", "id": 8442357171, "lat": 31.5316708, "lon": 34.6079521}, {"type": "node", "id": 8442357172, "lat": 31.5317006, "lon": 34.6078189}, {"type": "node", "id": 8442357173, "lat": 31.5317105, "lon": 34.6077423}, {"type": "node", "id": 8442357174, "lat": 31.5317176, "lon": 34.6076457}, {"type": "node", "id": 8442357175, "lat": 31.5320484, "lon": 34.607614}, {"type": "node", "id": 8442357176, "lat": 31.5321198, "lon": 34.6076048}, {"type": "node", "id": 8442357177, "lat": 31.5321894, "lon": 34.6075919}, {"type": "node", "id": 8442357178, "lat": 31.5322571, "lon": 34.6075751}, {"type": "node", "id": 8442357179, "lat": 31.532323, "lon": 34.6075545}, {"type": "node", "id": 8442357180, "lat": 31.5323869, "lon": 34.6075299}, {"type": "node", "id": 8442357181, "lat": 31.5324489, "lon": 34.6075013}, {"type": "node", "id": 8442357182, "lat": 31.532509, "lon": 34.6074687}, {"type": "node", "id": 8442357183, "lat": 31.5325671, "lon": 34.607432}, {"type": "node", "id": 8442357184, "lat": 31.5326232, "lon": 34.6073911}, {"type": "node", "id": 8442357185, "lat": 31.5326772, "lon": 34.6073459}, {"type": "node", "id": 8442357186, "lat": 31.5327342, "lon": 34.6072944}, {"type": "node", "id": 8442357187, "lat": 31.5327865, "lon": 34.6072392}, {"type": "node", "id": 8442357188, "lat": 31.5328342, "lon": 34.6071806}, {"type": "node", "id": 8442357189, "lat": 31.5328778, "lon": 34.6071189}, {"type": "node", "id": 8442357190, "lat": 31.5329176, "lon": 34.6070543}, {"type": "node", "id": 8442357191, "lat": 31.5329538, "lon": 34.606987}, {"type": "node", "id": 8442357192, "lat": 31.5329869, "lon": 34.6069174}, {"type": "node", "id": 8442357193, "lat": 31.5330172, "lon": 34.6068455}, {"type": "node", "id": 8442357194, "lat": 31.5330449, "lon": 34.6067718}, {"type": "node", "id": 8442357195, "lat": 31.5330704, "lon": 34.6066964}, {"type": "node", "id": 8442357196, "lat": 31.5331186, "lon": 34.6066631}, {"type": "node", "id": 8442357197, "lat": 31.5332139, "lon": 34.6066429}, {"type": "node", "id": 8442357198, "lat": 31.5333069, "lon": 34.6066222}, {"type": "node", "id": 8442357199, "lat": 31.5333988, "lon": 34.6065996}, {"type": "node", "id": 8442357200, "lat": 31.5334906, "lon": 34.606574}, {"type": "node", "id": 8442357201, "lat": 31.5335836, "lon": 34.606544}, {"type": "node", "id": 8442357202, "lat": 31.5336788, "lon": 34.6065084}, {"type": "node", "id": 8442357203, "lat": 31.5337774, "lon": 34.6064659}, {"type": "node", "id": 8442357204, "lat": 31.5338805, "lon": 34.6064152}, {"type": "node", "id": 8442357205, "lat": 31.5339893, "lon": 34.6063551}, {"type": "node", "id": 8442357206, "lat": 31.5341049, "lon": 34.6062842}, {"type": "node", "id": 8442357207, "lat": 31.5342433, "lon": 34.6061884}, {"type": "node", "id": 8442357208, "lat": 31.5343761, "lon": 34.6060803}, {"type": "node", "id": 8442357209, "lat": 31.5345025, "lon": 34.6059623}, {"type": "node", "id": 8442357210, "lat": 31.5346218, "lon": 34.6058369}, {"type": "node", "id": 8442357211, "lat": 31.5347331, "lon": 34.6057063}, {"type": "node", "id": 8442357212, "lat": 31.5348356, "lon": 34.6055728}, {"type": "node", "id": 8442357213, "lat": 31.5349284, "lon": 34.6054389}, {"type": "node", "id": 8442357214, "lat": 31.5350107, "lon": 34.6053067}, {"type": "node", "id": 8442357215, "lat": 31.5350818, "lon": 34.6051787}, {"type": "node", "id": 8442357216, "lat": 31.5351407, "lon": 34.6050572}, {"type": "node", "id": 8442357217, "lat": 31.5351599, "lon": 34.6050121}, {"type": "node", "id": 8442357218, "lat": 31.5351838, "lon": 34.6049702}, {"type": "node", "id": 8442357219, "lat": 31.5352124, "lon": 34.6049315}, {"type": "node", "id": 8442357220, "lat": 31.5352458, "lon": 34.6048959}, {"type": "node", "id": 8442357221, "lat": 31.5352837, "lon": 34.6048635}, {"type": "node", "id": 8442357222, "lat": 31.5353262, "lon": 34.6048341}, {"type": "node", "id": 8442357223, "lat": 31.5353731, "lon": 34.6048077}, {"type": "node", "id": 8442357224, "lat": 31.5354245, "lon": 34.6047843}, {"type": "node", "id": 8442357225, "lat": 31.5354802, "lon": 34.6047639}, {"type": "node", "id": 8442357226, "lat": 31.5355402, "lon": 34.6047463}, {"type": "node", "id": 8442357227, "lat": 31.5358313, "lon": 34.6046286}, {"type": "node", "id": 8442357228, "lat": 31.5358548, "lon": 34.6046115}, {"type": "node", "id": 8442357229, "lat": 31.5358771, "lon": 34.6045932}, {"type": "node", "id": 8442357230, "lat": 31.5358981, "lon": 34.6045736}, {"type": "node", "id": 8442357231, "lat": 31.5359178, "lon": 34.6045526}, {"type": "node", "id": 8442357232, "lat": 31.535936, "lon": 34.6045303}, {"type": "node", "id": 8442357233, "lat": 31.5359528, "lon": 34.6045065}, {"type": "node", "id": 8442357234, "lat": 31.535968, "lon": 34.6044811}, {"type": "node", "id": 8442357235, "lat": 31.5359816, "lon": 34.6044542}, {"type": "node", "id": 8442357236, "lat": 31.5359936, "lon": 34.6044256}, {"type": "node", "id": 8442357237, "lat": 31.5360039, "lon": 34.6043954}, {"type": "node", "id": 8442421802, "lat": 31.5299527, "lon": 34.6094581}, {"type": "node", "id": 8442421806, "lat": 31.5290821, "lon": 34.6095525}, {"type": "node", "id": 8442421814, "lat": 31.5285992, "lon": 34.6093465}, {"type": "node", "id": 8442429119, "lat": 31.5297881, "lon": 34.6095139}, {"type": "node", "id": 8442429122, "lat": 31.5281932, "lon": 34.6090719}, {"type": "node", "id": 8442429131, "lat": 31.5295357, "lon": 34.6095697}, {"type": "node", "id": 8442429134, "lat": 31.5288041, "lon": 34.6094538}, {"type": "node", "id": 8442429136, "lat": 31.5293052, "lon": 34.6095697}, {"type": "node", "id": 8442429142, "lat": 31.5301283, "lon": 34.6093165}, {"type": "node", "id": 8442525760, "lat": 31.5363315, "lon": 34.6039722}, {"type": "node", "id": 8442525769, "lat": 31.5370141, "lon": 34.6040553}, {"type": "node", "id": 8442525775, "lat": 31.5360682, "lon": 34.6042168}, {"type": "node", "id": 8442525796, "lat": 31.5364376, "lon": 34.603955}, {"type": "node", "id": 8442525804, "lat": 31.5362071, "lon": 34.6040451}, {"type": "node", "id": 8442526728, "lat": 31.536134, "lon": 34.6041181}, {"type": "node", "id": 8442526741, "lat": 31.5367119, "lon": 34.6039593}, {"type": "node", "id": 8557395987, "lat": 31.6872539, "lon": 34.56234}, {"type": "node", "id": 8634555025, "lat": 31.6439844, "lon": 34.5702948}, {"type": "node", "id": 8634555026, "lat": 31.6436303, "lon": 34.5702505}, {"type": "node", "id": 8634555027, "lat": 31.6436762, "lon": 34.5701364}, {"type": "node", "id": 8634555028, "lat": 31.6437109, "lon": 34.5699306}, {"type": "node", "id": 8634555043, "lat": 31.6437837, "lon": 34.5690392}, {"type": "node", "id": 8634555044, "lat": 31.6437936, "lon": 34.56874}, {"type": "node", "id": 8634555045, "lat": 31.6436623, "lon": 34.5676461}, {"type": "node", "id": 8634555048, "lat": 31.6435946, "lon": 34.5675446}, {"type": "node", "id": 8634555049, "lat": 31.6434697, "lon": 34.5674502}, {"type": "node", "id": 8634555051, "lat": 31.643425, "lon": 34.5673586}, {"type": "node", "id": 8634555052, "lat": 31.6434142, "lon": 34.5672015}, {"type": "node", "id": 8634555053, "lat": 31.6434259, "lon": 34.5669741}, {"type": "node", "id": 8634555054, "lat": 31.6435194, "lon": 34.566793}, {"type": "node", "id": 8634555055, "lat": 31.6436147, "lon": 34.5666937}, {"type": "node", "id": 8634555058, "lat": 31.6436584, "lon": 34.5665797}, {"type": "node", "id": 8634555059, "lat": 31.6436594, "lon": 34.5664845}, {"type": "node", "id": 8634555060, "lat": 31.6436375, "lon": 34.5663893}, {"type": "node", "id": 8634555061, "lat": 31.643424, "lon": 34.5657389}, {"type": "node", "id": 8634555062, "lat": 31.6432775, "lon": 34.5653121}, {"type": "node", "id": 8634555063, "lat": 31.6432746, "lon": 34.5647388}, {"type": "node", "id": 8634555083, "lat": 31.6432792, "lon": 34.5645215}, {"type": "node", "id": 8634555084, "lat": 31.643261, "lon": 34.564311}, {"type": "node", "id": 8634555085, "lat": 31.6428766, "lon": 34.5632138}, {"type": "node", "id": 8634555086, "lat": 31.6427018, "lon": 34.5622957}, {"type": "node", "id": 8634555087, "lat": 31.64296, "lon": 34.5607429}, {"type": "node", "id": 8634555088, "lat": 31.6432938, "lon": 34.5603144}, {"type": "node", "id": 8634555090, "lat": 31.6433762, "lon": 34.5601985}, {"type": "node", "id": 8634555095, "lat": 31.6436432, "lon": 34.5601348}, {"type": "node", "id": 8634555097, "lat": 31.6439743, "lon": 34.5599955}, {"type": "node", "id": 8634555101, "lat": 31.6447888, "lon": 34.5598912}, {"type": "node", "id": 8634555102, "lat": 31.6450955, "lon": 34.5597487}, {"type": "node", "id": 8634555104, "lat": 31.6456602, "lon": 34.5591681}, {"type": "node", "id": 8634555107, "lat": 31.6460869, "lon": 34.5584431}, {"type": "node", "id": 8634555110, "lat": 31.6458953, "lon": 34.5578661}, {"type": "node", "id": 8634555111, "lat": 31.6459799, "lon": 34.5576449}, {"type": "node", "id": 8634555112, "lat": 31.6459671, "lon": 34.5573658}, {"type": "node", "id": 8634555113, "lat": 31.6456346, "lon": 34.5566461}, {"type": "node", "id": 8634555114, "lat": 31.644662, "lon": 34.5551953}, {"type": "node", "id": 8634555115, "lat": 31.6446296, "lon": 34.555005}, {"type": "node", "id": 8634555116, "lat": 31.6446372, "lon": 34.5548094}, {"type": "node", "id": 8634555117, "lat": 31.6447667, "lon": 34.5544157}, {"type": "node", "id": 8634555118, "lat": 31.6448859, "lon": 34.5542226}, {"type": "node", "id": 8634555193, "lat": 31.6450096, "lon": 34.5540881}, {"type": "node", "id": 8948580503, "lat": 31.6063869, "lon": 34.7889792}, {"type": "node", "id": 8948590005, "lat": 31.6062583, "lon": 34.7893726}, {"type": "node", "id": 8948590224, "lat": 31.6061305, "lon": 34.7888362}, {"type": "node", "id": 9083564255, "lat": 31.433493, "lon": 34.5845421}, {"type": "node", "id": 9083564258, "lat": 31.4369142, "lon": 34.5848459}, {"type": "node", "id": 9083564259, "lat": 31.4379102, "lon": 34.583213}, {"type": "node", "id": 9083564263, "lat": 31.4361068, "lon": 34.586511}, {"type": "node", "id": 9083564264, "lat": 31.4362808, "lon": 34.5860154}, {"type": "node", "id": 9083564266, "lat": 31.433972, "lon": 34.5782998}, {"type": "node", "id": 9083564268, "lat": 31.4389757, "lon": 34.5815286}, {"type": "node", "id": 9083564269, "lat": 31.439458, "lon": 34.5810248}, {"type": "node", "id": 9083564272, "lat": 31.4400522, "lon": 34.5804042}, {"type": "node", "id": 9083564273, "lat": 31.4402938, "lon": 34.5801038}, {"type": "node", "id": 9083564274, "lat": 31.4406911, "lon": 34.5795008}, {"type": "node", "id": 9083564275, "lat": 31.4408723, "lon": 34.5792433}, {"type": "node", "id": 9083564276, "lat": 31.4421172, "lon": 34.5769945}, {"type": "node", "id": 9083564277, "lat": 31.4425711, "lon": 34.5743312}, {"type": "node", "id": 9083564278, "lat": 31.4422151, "lon": 34.5742031}, {"type": "node", "id": 9083564279, "lat": 31.4421329, "lon": 34.5737818}, {"type": "node", "id": 9083564280, "lat": 31.4411992, "lon": 34.5730813}, {"type": "node", "id": 9083564281, "lat": 31.4405713, "lon": 34.5730015}, {"type": "node", "id": 9083564282, "lat": 31.4402224, "lon": 34.5719562}, {"type": "node", "id": 9083564284, "lat": 31.4393779, "lon": 34.5690655}, {"type": "node", "id": 9083564285, "lat": 31.4408319, "lon": 34.5704509}, {"type": "node", "id": 9083564286, "lat": 31.4396779, "lon": 34.5693512}, {"type": "node", "id": 9083564287, "lat": 31.4395192, "lon": 34.5691769}, {"type": "node", "id": 9118209071, "lat": 31.6034621, "lon": 34.7919984}, {"type": "node", "id": 9118209077, "lat": 31.5993766, "lon": 34.7949514}, {"type": "node", "id": 9208032056, "lat": 31.5206429, "lon": 34.5864675}, {"type": "node", "id": 9208032057, "lat": 31.5210971, "lon": 34.5863327}, {"type": "node", "id": 9219510978, "lat": 31.4341699, "lon": 34.5763762}, {"type": "node", "id": 9219510979, "lat": 31.4335275, "lon": 34.576703}, {"type": "node", "id": 9219511450, "lat": 31.4425859, "lon": 34.5761963}, {"type": "node", "id": 9219511451, "lat": 31.4428202, "lon": 34.5756942}, {"type": "node", "id": 9219511452, "lat": 31.442952, "lon": 34.574926}, {"type": "node", "id": 9219511453, "lat": 31.4428953, "lon": 34.5754346}, {"type": "node", "id": 9219511454, "lat": 31.4429355, "lon": 34.5745763}, {"type": "node", "id": 9219511455, "lat": 31.4428477, "lon": 34.5743123}, {"type": "node", "id": 9219511456, "lat": 31.4427094, "lon": 34.5743218}, {"type": "node", "id": 9219511704, "lat": 31.421616, "lon": 34.5725512}, {"type": "node", "id": 9219511712, "lat": 31.4227963, "lon": 34.5727684}, {"type": "node", "id": 9261373666, "lat": 31.5164995, "lon": 34.5898597}, {"type": "node", "id": 9285556645, "lat": 31.5280339, "lon": 34.5817112}, {"type": "node", "id": 9285556646, "lat": 31.5277702, "lon": 34.5817895}, {"type": "node", "id": 9767059438, "lat": 31.6262208, "lon": 35.0718737}, {"type": "node", "id": 9767059439, "lat": 31.6176041, "lon": 35.0644624}, {"type": "node", "id": 9767059440, "lat": 31.6270539, "lon": 35.0389892}, {"type": "node", "id": 9767059441, "lat": 31.6403695, "lon": 35.0096541}, {"type": "node", "id": 9767059442, "lat": 31.653186, "lon": 35.0113267}, {"type": "node", "id": 9767059443, "lat": 31.649601, "lon": 35.0067104}, {"type": "node", "id": 9767059444, "lat": 31.6578883, "lon": 35.0247958}, {"type": "node", "id": 9767059445, "lat": 31.6605477, "lon": 35.0356715}, {"type": "node", "id": 9776072710, "lat": 31.6617948, "lon": 35.0793618}, {"type": "node", "id": 9776072711, "lat": 31.6616959, "lon": 35.0787744}, {"type": "node", "id": 9776072712, "lat": 31.6613537, "lon": 35.0787296}, {"type": "node", "id": 9798738674, "lat": 31.6581488, "lon": 35.090907}, {"type": "node", "id": 9798738712, "lat": 31.6686585, "lon": 35.0569365}, {"type": "node", "id": 9798738713, "lat": 31.6668763, "lon": 35.0572536}, {"type": "node", "id": 9798738714, "lat": 31.665642, "lon": 35.0529214}, {"type": "node", "id": 9800277513, "lat": 31.6433794, "lon": 35.0929308}, {"type": "node", "id": 9802883935, "lat": 31.658839, "lon": 35.0885543}, {"type": "node", "id": 9802883936, "lat": 31.6566996, "lon": 35.0930561}, {"type": "node", "id": 9802883937, "lat": 31.6542747, "lon": 35.0972192}, {"type": "node", "id": 9802883938, "lat": 31.6537013, "lon": 35.1002574}, {"type": "node", "id": 9802883939, "lat": 31.65232, "lon": 35.1007539}, {"type": "node", "id": 9802883940, "lat": 31.6500741, "lon": 35.0914312}, {"type": "node", "id": 9802883941, "lat": 31.6693884, "lon": 35.0591967}, {"type": "node", "id": 9807602129, "lat": 31.6247023, "lon": 35.0440229}, {"type": "node", "id": 9807602130, "lat": 31.6225933, "lon": 35.0449715}, {"type": "node", "id": 9807602131, "lat": 31.6222738, "lon": 35.0451208}, {"type": "node", "id": 9807602132, "lat": 31.6219135, "lon": 35.0454523}, {"type": "node", "id": 9807602133, "lat": 31.6212766, "lon": 35.0460908}, {"type": "node", "id": 9807602134, "lat": 31.6210531, "lon": 35.0456421}, {"type": "node", "id": 9807602135, "lat": 31.6207408, "lon": 35.0459692}, {"type": "node", "id": 9807602136, "lat": 31.6207843, "lon": 35.0462396}, {"type": "node", "id": 9807602137, "lat": 31.6206032, "lon": 35.0464279}, {"type": "node", "id": 9807602138, "lat": 31.6210534, "lon": 35.0472512}, {"type": "node", "id": 9807602139, "lat": 31.6204378, "lon": 35.047568}, {"type": "node", "id": 9807602140, "lat": 31.6205514, "lon": 35.0479194}, {"type": "node", "id": 9807602141, "lat": 31.6199697, "lon": 35.0482789}, {"type": "node", "id": 9807602142, "lat": 31.6200394, "lon": 35.0486396}, {"type": "node", "id": 9807602143, "lat": 31.6195943, "lon": 35.0492333}, {"type": "node", "id": 9807602144, "lat": 31.6192452, "lon": 35.0500072}, {"type": "node", "id": 9807602145, "lat": 31.6586852, "lon": 35.0277671}, {"type": "node", "id": 9807602146, "lat": 31.6561716, "lon": 35.019598}, {"type": "node", "id": 9807602147, "lat": 31.6590861, "lon": 35.0405025}, {"type": "node", "id": 9807602148, "lat": 31.6264989, "lon": 35.041356}, {"type": "node", "id": 9807602149, "lat": 31.6266912, "lon": 35.0417216}, {"type": "node", "id": 9807602150, "lat": 31.6264374, "lon": 35.0421576}, {"type": "node", "id": 9807602151, "lat": 31.6261302, "lon": 35.0418598}, {"type": "node", "id": 9807602152, "lat": 31.6253737, "lon": 35.042291}, {"type": "node", "id": 9807602153, "lat": 31.6273093, "lon": 35.0654371}, {"type": "node", "id": 9807602154, "lat": 31.6269061, "lon": 35.064626}, {"type": "node", "id": 9807602155, "lat": 31.6258919, "lon": 35.0690471}, {"type": "node", "id": 9807602156, "lat": 31.626215, "lon": 35.0712235}, {"type": "node", "id": 9807602157, "lat": 31.6249153, "lon": 35.0731481}, {"type": "node", "id": 9807602158, "lat": 31.624585, "lon": 35.0736143}, {"type": "node", "id": 9807602159, "lat": 31.6246613, "lon": 35.0750022}, {"type": "node", "id": 9807602160, "lat": 31.6289097, "lon": 35.0763437}, {"type": "node", "id": 9807602161, "lat": 31.6281205, "lon": 35.0757265}, {"type": "node", "id": 9807602162, "lat": 31.6280932, "lon": 35.0830745}, {"type": "node", "id": 9807602163, "lat": 31.6278353, "lon": 35.0825789}, {"type": "node", "id": 9807602164, "lat": 31.6388904, "lon": 35.0877038}, {"type": "node", "id": 9807602165, "lat": 31.6385748, "lon": 35.0872591}, {"type": "node", "id": 9807602166, "lat": 31.6387582, "lon": 35.08737}, {"type": "node", "id": 9851816853, "lat": 31.66886, "lon": 35.0743039}, {"type": "node", "id": 9851816854, "lat": 31.6710413, "lon": 35.065212}, {"type": "node", "id": 9851816855, "lat": 31.6675034, "lon": 35.0736133}, {"type": "node", "id": 9851816856, "lat": 31.6693575, "lon": 35.0745132}, {"type": "node", "id": 9851816857, "lat": 31.6691545, "lon": 35.0759036}, {"type": "node", "id": 9851816858, "lat": 31.6712329, "lon": 35.0670014}, {"type": "node", "id": 9851816859, "lat": 31.6693991, "lon": 35.0771992}, {"type": "node", "id": 9851816860, "lat": 31.6700851, "lon": 35.0778237}, {"type": "node", "id": 9851816861, "lat": 31.6715912, "lon": 35.0791429}, {"type": "node", "id": 9851816862, "lat": 31.6721608, "lon": 35.0795549}, {"type": "node", "id": 9851816863, "lat": 31.6745327, "lon": 35.0708691}, {"type": "node", "id": 9851816864, "lat": 31.6726392, "lon": 35.0817147}, {"type": "node", "id": 9851816865, "lat": 31.6728733, "lon": 35.0836258}, {"type": "node", "id": 9851816866, "lat": 31.6763194, "lon": 35.084152}, {"type": "node", "id": 9851816867, "lat": 31.6763386, "lon": 35.0788175}, {"type": "node", "id": 9851816868, "lat": 31.677047, "lon": 35.0752602}, {"type": "node", "id": 9851816869, "lat": 31.6763885, "lon": 35.0735467}, {"type": "node", "id": 9851816870, "lat": 31.6735853, "lon": 35.0693848}, {"type": "node", "id": 9851816871, "lat": 31.6728511, "lon": 35.0671916}, {"type": "node", "id": 9908968143, "lat": 31.6212043, "lon": 35.064275}, {"type": "node", "id": 9908968144, "lat": 31.6218721, "lon": 35.0642438}, {"type": "node", "id": 9908968145, "lat": 31.6225362, "lon": 35.0646731}, {"type": "node", "id": 9908968146, "lat": 31.622785, "lon": 35.064513}, {"type": "node", "id": 9908968147, "lat": 31.6235375, "lon": 35.0654325}, {"type": "node", "id": 9908968148, "lat": 31.6242767, "lon": 35.0660204}, {"type": "node", "id": 9908968149, "lat": 31.6181758, "lon": 35.0612645}, {"type": "node", "id": 9908968150, "lat": 31.6184108, "lon": 35.0612602}, {"type": "node", "id": 9908968151, "lat": 31.6179267, "lon": 35.0610973}, {"type": "node", "id": 9908968152, "lat": 31.6173057, "lon": 35.060756}, {"type": "node", "id": 9908968153, "lat": 31.6171093, "lon": 35.0645266}, {"type": "node", "id": 9908968154, "lat": 31.6167393, "lon": 35.0644926}, {"type": "node", "id": 9908968155, "lat": 31.6163296, "lon": 35.0638107}, {"type": "node", "id": 9908968156, "lat": 31.6163396, "lon": 35.0632074}, {"type": "node", "id": 9908968157, "lat": 31.616405, "lon": 35.0641967}, {"type": "node", "id": 9908968158, "lat": 31.6158672, "lon": 35.0615159}, {"type": "node", "id": 9908968159, "lat": 31.6163774, "lon": 35.0617379}, {"type": "node", "id": 9908968160, "lat": 31.6161516, "lon": 35.0607591}, {"type": "node", "id": 9908968161, "lat": 31.6164295, "lon": 35.0607001}, {"type": "node", "id": 9908968162, "lat": 31.6166846, "lon": 35.0605717}, {"type": "node", "id": 9908968163, "lat": 31.6168991, "lon": 35.0602152}, {"type": "node", "id": 9908968164, "lat": 31.6170214, "lon": 35.0599845}, {"type": "node", "id": 9908968165, "lat": 31.6465178, "lon": 35.0899203}, {"type": "node", "id": 9908968166, "lat": 31.6469759, "lon": 35.090437}, {"type": "node", "id": 9908968167, "lat": 31.6505835, "lon": 35.0918606}, {"type": "node", "id": 9908968168, "lat": 31.6501993, "lon": 35.0927663}, {"type": "node", "id": 9908968169, "lat": 31.6498831, "lon": 35.0927049}, {"type": "node", "id": 9908968170, "lat": 31.6496325, "lon": 35.0935375}, {"type": "node", "id": 9908968171, "lat": 31.6504793, "lon": 35.0943161}, {"type": "node", "id": 9908968172, "lat": 31.6527882, "lon": 35.1009134}, {"type": "node", "id": 9908968173, "lat": 31.6533305, "lon": 35.1008593}, {"type": "node", "id": 9908968174, "lat": 31.6535722, "lon": 35.1006634}, {"type": "node", "id": 9908968175, "lat": 31.6530447, "lon": 35.1009269}, {"type": "node", "id": 10017974041, "lat": 31.6384771, "lon": 34.7710605}, {"type": "node", "id": 10017974952, "lat": 31.5855633, "lon": 34.7904904}, {"type": "node", "id": 10017974953, "lat": 31.5864768, "lon": 34.7909152}, {"type": "node", "id": 10079448126, "lat": 31.4261437, "lon": 34.5754152}, {"type": "node", "id": 10925873230, "lat": 31.5413779, "lon": 34.5974756}, {"type": "node", "id": 10925873231, "lat": 31.5414389, "lon": 34.5978194}, {"type": "node", "id": 10925873232, "lat": 31.5414443, "lon": 34.5981919}, {"type": "node", "id": 10925873233, "lat": 31.5428711, "lon": 34.598745}, {"type": "node", "id": 11013747863, "lat": 31.4288397, "lon": 34.5875657}, {"type": "node", "id": 11013747864, "lat": 31.4290274, "lon": 34.5877736}, {"type": "node", "id": 11013751311, "lat": 31.4308046, "lon": 34.5869019}, {"type": "node", "id": 11157716035, "lat": 31.670363, "lon": 34.5979444}, {"type": "node", "id": 11157716043, "lat": 31.6753763, "lon": 34.5980659}, {"type": "node", "id": 11157716074, "lat": 31.6715073, "lon": 34.5982399}, {"type": "node", "id": 11157716076, "lat": 31.6695593, "lon": 34.5992346}, {"type": "node", "id": 11239671735, "lat": 31.6456164, "lon": 34.5704192}, {"type": "node", "id": 11239672003, "lat": 31.6452365, "lon": 34.5546068}, {"type": "node", "id": 11466049598, "lat": 31.6093184, "lon": 34.7847696}, {"type": "node", "id": 11506360780, "lat": 31.5877025, "lon": 34.7951921}, {"type": "node", "id": 11506360781, "lat": 31.5879258, "lon": 34.7932574}, {"type": "node", "id": 11508229889, "lat": 31.5452937, "lon": 34.590099}, {"type": "node", "id": 11508229890, "lat": 31.547523, "lon": 34.5843897}, {"type": "node", "id": 11508229891, "lat": 31.5475614, "lon": 34.5837047}, {"type": "node", "id": 11508229892, "lat": 31.5473762, "lon": 34.5831715}, {"type": "node", "id": 11508229893, "lat": 31.5470651, "lon": 34.5827915}, {"type": "node", "id": 11508229894, "lat": 31.5460221, "lon": 34.5824643}, {"type": "node", "id": 11508229895, "lat": 31.5454296, "lon": 34.5821382}, {"type": "node", "id": 11508229896, "lat": 31.5427012, "lon": 34.5824128}, {"type": "node", "id": 11508229897, "lat": 31.5417503, "lon": 34.5816919}, {"type": "node", "id": 11508229898, "lat": 31.5410115, "lon": 34.5817176}, {"type": "node", "id": 11508229899, "lat": 31.5397533, "lon": 34.5829364}, {"type": "node", "id": 11508229900, "lat": 31.539468, "lon": 34.5834514}, {"type": "node", "id": 11508229901, "lat": 31.5388136, "lon": 34.5846553}, {"type": "node", "id": 11508229902, "lat": 31.5386568, "lon": 34.5857245}, {"type": "node", "id": 11508229903, "lat": 31.5381645, "lon": 34.5861395}, {"type": "node", "id": 11508229904, "lat": 31.5391996, "lon": 34.5900302}, {"type": "node", "id": 11508229905, "lat": 31.5405295, "lon": 34.589714}, {"type": "node", "id": 11508229906, "lat": 31.5413252, "lon": 34.5896428}, {"type": "node", "id": 11508229907, "lat": 31.542251, "lon": 34.5895562}, {"type": "node", "id": 11508229908, "lat": 31.5424894, "lon": 34.5895778}, {"type": "node", "id": 11508229909, "lat": 31.5430745, "lon": 34.5896328}, {"type": "node", "id": 11508229910, "lat": 31.5439394, "lon": 34.5898165}, {"type": "node", "id": 11602192493, "lat": 31.4147202, "lon": 34.59922}, {"type": "node", "id": 11773387094, "lat": 31.5396807, "lon": 34.5830674}, {"type": "node", "id": 11843602767, "lat": 31.7013558, "lon": 34.5722977}, {"type": "node", "id": 11843646469, "lat": 31.6977508, "lon": 34.56969}, {"type": "node", "id": 11843646470, "lat": 31.6877211, "lon": 34.5625589}, {"type": "node", "id": 11843646471, "lat": 31.6850206, "lon": 34.5605671}, {"type": "node", "id": 11843646472, "lat": 31.7021034, "lon": 34.5726981}, {"type": "node", "id": 11843646474, "lat": 31.7022901, "lon": 34.5728744}, {"type": "node", "id": 11843646479, "lat": 31.6842325, "lon": 34.5600529}, {"type": "node", "id": 11843646483, "lat": 31.7029427, "lon": 34.5731222}, {"type": "node", "id": 11843646484, "lat": 31.6999896, "lon": 34.5712489}, {"type": "node", "id": 11843646486, "lat": 31.6862462, "lon": 34.561604}, {"type": "node", "id": 11843646487, "lat": 31.6856295, "lon": 34.5612175}, {"type": "node", "id": 11871836873, "lat": 31.3183441, "lon": 34.6114992}, {"type": "node", "id": 11919198573, "lat": 31.537129, "lon": 34.6041991}, {"type": "node", "id": 11928217710, "lat": 31.4197733, "lon": 34.5645949}, {"type": "node", "id": 11939181119, "lat": 31.4349825, "lon": 34.5774727}, {"type": "node", "id": 11939181120, "lat": 31.4348935, "lon": 34.5771401}, {"type": "node", "id": 11939181121, "lat": 31.4372332, "lon": 34.5771031}, {"type": "node", "id": 11939181122, "lat": 31.4373149, "lon": 34.5743234}, {"type": "node", "id": 11939181123, "lat": 31.4377865, "lon": 34.5743089}, {"type": "node", "id": 11939181124, "lat": 31.4378027, "lon": 34.5739865}, {"type": "node", "id": 11939181125, "lat": 31.4375642, "lon": 34.5740026}, {"type": "node", "id": 11939181126, "lat": 31.4375686, "lon": 34.5736523}, {"type": "node", "id": 11939181127, "lat": 31.4377952, "lon": 34.5736488}, {"type": "node", "id": 11939181128, "lat": 31.437802, "lon": 34.5734748}, {"type": "node", "id": 11939181129, "lat": 31.4360678, "lon": 34.5733308}, {"type": "node", "id": 11939181130, "lat": 31.4360623, "lon": 34.5727485}, {"type": "node", "id": 11939181131, "lat": 31.4360542, "lon": 34.5724563}, {"type": "node", "id": 11939181132, "lat": 31.4347567, "lon": 34.5724367}, {"type": "node", "id": 11939181133, "lat": 31.4360955, "lon": 34.5741348}, {"type": "node", "id": 11939181134, "lat": 31.4354538, "lon": 34.5741293}, {"type": "node", "id": 11939181135, "lat": 31.4354488, "lon": 34.5733668}, {"type": "node", "id": 11939181136, "lat": 31.4347602, "lon": 34.5727473}, {"type": "node", "id": 11939181137, "lat": 31.4336966, "lon": 34.5732953}, {"type": "node", "id": 11939181138, "lat": 31.4337481, "lon": 34.5726376}, {"type": "node", "id": 11939181139, "lat": 31.4377955, "lon": 34.5698552}, {"type": "node", "id": 11939181140, "lat": 31.4353271, "lon": 34.5698974}, {"type": "node", "id": 11939181141, "lat": 31.4353323, "lon": 34.5707997}, {"type": "node", "id": 11939181142, "lat": 31.4353318, "lon": 34.5707181}, {"type": "node", "id": 11939181143, "lat": 31.4347553, "lon": 34.5707313}, {"type": "node", "id": 11939181144, "lat": 31.4353106, "lon": 34.570258}, {"type": "node", "id": 11939181145, "lat": 31.4350301, "lon": 34.5702456}, {"type": "node", "id": 11939181146, "lat": 31.4343941, "lon": 34.5706355}, {"type": "node", "id": 11939181147, "lat": 31.4340195, "lon": 34.570467}, {"type": "node", "id": 11939181148, "lat": 31.4350594, "lon": 34.5700122}, {"type": "node", "id": 11939181149, "lat": 31.4348159, "lon": 34.5699486}, {"type": "node", "id": 11939181150, "lat": 31.434729, "lon": 34.570213}, {"type": "node", "id": 11939181151, "lat": 31.4344929, "lon": 34.5700913}, {"type": "node", "id": 11939181152, "lat": 31.4336312, "lon": 34.5701777}, {"type": "node", "id": 11939181153, "lat": 31.4337951, "lon": 34.5696051}, {"type": "node", "id": 11939181154, "lat": 31.4378114, "lon": 34.5687601}, {"type": "node", "id": 11939181155, "lat": 31.4391998, "lon": 34.569018}, {"type": "node", "id": 11939628501, "lat": 31.582012, "lon": 34.7785157}, {"type": "way", "id": 25650651, "nodes": [7370956137, 7370964628, 7370964665, 2519536363, 2519536361, 2519536399, 2519536395, 2190159152, 2519536371, 6283136142, 6283136141, 2519536347, 1425252376, 2190159150, 10017974952, 10017974953, 2190159176, 11506360781, 11506360780, 6218205573, 1848119178, 9118209077, 2190159110, 2190159197, 2519536343, 9118209071, 2190159090, 2519536401, 6283136145, 8948590224, 8948580503, 8948590005, 6283136144, 2461167317, 2190159170, 11466049598, 1298225545, 4366054689, 4687365470, 4687365469, 5692240630, 5771719142, 5771719188, 5771718335, 5771719066, 5771719060, 5771718352, 5771719132, 5771719067, 5771719059, 5771719115, 5771719091, 5771718351, 5771719150, 5771719171, 5771719202, 5771719062, 5771719125, 5771719123, 5771719124, 5771719122, 5771719130, 5771719127, 5771718326, 5771718309, 5771719128, 5771719198, 5771719096, 5771719113, 5771718329, 5771719187, 5771719077, 5771719129, 5771719095, 5771719160, 5771719080, 5771719108, 5771718342, 5771719139, 5771719110, 5771719197, 5771719102, 5771719126, 5771718346, 5771719076, 10017974041, 5771719056, 5771718312, 5771719094, 8078704865, 8078704817, 8078704955, 5771718313, 5771718345, 5771718308, 5771718344, 5771718314, 8078705016, 8078704984, 8078705115, 2070592108, 1426112293, 2070592165, 2070592157, 2070592117, 2070592144, 2070592062, 2070592184, 2070592067, 2070592183, 2070592138, 2070592109, 1345156127, 1426112297, 3581106916, 279621326, 3581106915, 3710526395, 644627927, 4560485189, 279621327, 5991411941, 3626296266, 3555458847, 6001301538, 279621328, 6206065186, 6206065185, 6206064184, 279621329, 6206064183, 6206064182, 6206064181, 6206064180, 6206064179, 6206064178, 6284332774, 279621330, 2190159173, 5133823046, 2190159142, 279621336, 2190159193, 2190159143, 2190159086, 645413572, 2190159089, 2190159095, 6283136140, 1686295198, 2190159167, 2190159212, 2190159216, 2190159091, 11939628501, 7370956152, 7370964700, 7370956164, 7370956120, 7370956139, 7370964676, 7370956123, 7370956125, 7370964647, 7370956147, 7370964663, 7370964602, 7370964617, 7370964664, 7370964697, 7370964660, 7370956122, 7370964658, 7370956137], "tags": {"alt_name:ar": "\u0643\u0631\u064a\u0627\u062a \u063a\u0627\u062a", "alt_name:ur": "\u06a9\u0631\u06cc\u0627\u062a \u062c\u0627\u062a", "ele": "128", "landuse": "residential", "name": "\u05e7\u05e8\u05d9\u05ea \u05d2\u05ea", "name:af": "Kirjat Gat", "name:ar": "\u0643\u0631\u064a\u0627\u062a \u062c\u0627\u062a", "name:az-Arab": "\u06a9\u0631\u06cc\u0627\u062a \u06af\u0627\u062a", "name:azb": "\u06a9\u0631\u06cc\u0627\u062a \u06af\u0627\u062a", "name:de": "Kirjat Gat", "name:en": "Kiryat Gat", "name:es": "Kiryat Gat", "name:fr": "Kiryat Gat", "name:he": "\u05e7\u05e8\u05d9\u05ea \u05d2\u05ea", "name:hy": "\u053f\u056b\u0580\u0575\u0561\u0569 \u0533\u0561\u0569", "name:ks": "\u06a9\u0631\u06cc\u0627\u062a \u062c\u0627\u062a", "name:nl": "Kirjat Gat", "name:pt": "Qiryat Gat", "name:ru": "\u041a\u0438\u0440\u044c\u044f\u0442-\u0413\u0430\u0442", "name:sv": "Qiryat Gat", "name:uk": "\u041a\u0456\u0440'\u044f\u0442-\u0413\u0430\u0442", "name:ur": "\u0642\u0631\u06cc\u062a \u06af\u062a", "place": "town", "wikidata": "Q152406", "wikipedia": "he:\u05e7\u05e8\u05d9\u05ea \u05d2\u05ea", "wikipedia:he": "\u05e7\u05e8\u05d9\u05ea \u05d2\u05ea"}}, {"type": "way", "id": 426552237, "nodes": [4258410326, 9807602148, 9807602149, 9807602150, 9807602151, 9807602152, 4258410317, 9807602129, 9807602130, 9807602131, 9807602132, 9807602133, 9807602134, 9807602135, 9807602136, 9807602137, 9807602138, 9807602139, 9807602140, 9807602141, 9807602142, 9807602143, 9807602144, 4258410316, 9908968150, 9908968149, 9908968151, 9908968152, 9908968164, 9908968163, 9908968162, 9908968161, 9908968160, 9908968158, 9908968159, 9908968156, 9908968155, 9908968157, 9908968154, 9908968153, 9767059439, 9908968143, 9908968144, 9908968145, 9908968146, 9908968147, 9908968148, 4258410314, 9807602154, 9807602153, 9807602155, 4258410309, 9807602156, 9767059438, 9807602157, 9807602158, 4258410306, 9807602159, 4258410303, 9807602161, 4258410301, 9807602160, 4258410302, 9807602163, 4258410304, 9807602162, 4258410313, 4258410318, 4258410321, 4258410330, 4258410328, 9807602165, 9807602166, 9807602164, 4258410354, 9800277513, 4258410357, 4258410361, 4258410364, 9908968165, 9908968166, 4258410365, 4258410370, 4258410372, 4258410374, 9802883940, 9908968167, 9908968168, 9908968169, 9908968170, 9908968171, 9802883939, 9908968172, 9908968175, 9908968173, 9908968174, 9802883938, 9802883937, 9802883936, 9798738674, 9802883935, 4258410375, 4258410379, 4258410384, 9776072710, 9776072711, 9776072712, 4258410389, 4258410382, 4258410380, 9851816855, 9851816853, 9851816856, 9851816857, 9851816859, 9851816860, 9851816861, 9851816862, 9851816864, 9851816865, 9851816866, 9851816867, 9851816868, 9851816869, 9851816863, 9851816870, 9851816871, 9851816858, 9851816854, 4258410378, 9802883941, 9798738712, 9798738713, 9798738714, 4258410376, 4258410367, 4258410362, 4258410368, 9807602147, 9767059445, 4258410360, 9807602145, 9767059444, 9807602146, 4258410358, 9767059442, 9767059443, 9767059441, 4258410356, 9767059440, 4258410326], "tags": {"addr:city": "Surif", "addr:postcode": "P748", "name": "Sourif City", "name:ar": "\u0635\u0648\u0631\u064a\u0641", "name:en": "Surif", "name:uk": "\u0421\u0443\u0440\u0456\u0444", "name:ur": "\u0635\u0648\u0631\u06cc\u0641", "place": "city", "residential": "rural"}}, {"type": "way", "id": 575487637, "nodes": [11508229890, 11508229889, 11508229910, 11508229909, 11508229908, 11508229907, 11508229906, 11508229905, 11508229904, 5522056301, 5522058440, 5522056297, 5522056272, 7054604270, 7054604272, 7054604278, 10925873230, 10925873231, 10925873232, 7054604279, 10925873233, 7054604280, 7054604273, 7054604282, 11919198573, 8442525769, 8442526741, 8442525796, 8442525760, 8442525804, 8442526728, 8442525775, 8442357237, 8442357236, 8442357235, 8442357234, 8442357233, 8442357232, 8442357231, 8442357230, 8442357229, 8442357228, 8442357227, 8442357226, 8442357225, 8442357224, 8442357223, 8442357222, 8442357221, 8442357220, 8442357219, 8442357218, 8442357217, 8442357216, 8442357215, 8442357214, 8442357213, 8442357212, 8442357211, 8442357210, 8442357209, 8442357208, 8442357207, 8442357206, 8442357205, 8442357204, 8442357203, 8442357202, 8442357201, 8442357200, 8442357199, 8442357198, 8442357197, 8442357196, 8442357195, 8442357194, 8442357193, 8442357192, 8442357191, 8442357190, 8442357189, 8442357188, 8442357187, 8442357186, 8442357185, 8442357184, 8442357183, 8442357182, 8442357181, 8442357180, 8442357179, 8442357178, 8442357177, 8442357176, 8442357175, 8442357174, 8442357173, 8442357172, 8442357171, 8442357170, 8442357169, 8442357168, 8442357167, 8442357166, 8442357165, 8442357164, 8442357163, 8442357162, 8442357161, 8442357160, 8442357159, 8442357158, 8442357157, 8442357156, 8442357155, 8442429142, 8442421802, 8442429119, 8442429131, 8442429136, 8442421806, 8442429134, 8442421814, 8442429122, 8343584337, 8343584336, 8343584335, 8343584334, 8343584332, 8343584331, 8343584330, 8343584329, 8343584328, 8343584327, 8343584326, 8343584325, 8343584324, 8343584323, 8343584322, 8343584321, 8343584320, 1870078028, 4368195216, 4368195214, 4368195215, 332512744, 2373624004, 4849631817, 5108809746, 9261373666, 4334224608, 2293931864, 4338028046, 5108809745, 4334224616, 4334224611, 4334224615, 4335416705, 4334224613, 4341223074, 4341223075, 4334224612, 9208032056, 9208032057, 4373207547, 4335419934, 4367811192, 279010394, 4341223057, 279010395, 4367811200, 3387973118, 4369423289, 705809962, 4342616883, 697236244, 4342619297, 5261127148, 5261127149, 5261127150, 5261127151, 5261127152, 5261127153, 4742928004, 5261127162, 5261127161, 5261127160, 5261127158, 5261127157, 5261127156, 5261127155, 5261127154, 5261127147, 5261127146, 5261127145, 5261127144, 5522056268, 5522058429, 5522056307, 5522056294, 5522056271, 5522056280, 5522056314, 5522058461, 11508229903, 11508229902, 11508229901, 11508229900, 11773387094, 11508229899, 11508229898, 11508229897, 11508229896, 11508229895, 11508229894, 11508229893, 11508229892, 11508229891, 11508229890]}, {"type": "way", "id": 663436505, "nodes": [6112822668, 6112822622, 6112822587, 6112822630, 6112822627, 6112822625, 6112822623, 6112822589, 6112822586, 6112821982, 11602192493, 6112821968, 6112822667, 6112822661, 6112821963, 6112822664, 6112822618, 6112822669, 6112822626, 6112821957, 6112822638, 6112822685, 6112822670, 6112822653, 1106529281, 3109214055, 2582509776, 2582509838, 2582509933, 2582509929, 2582509686, 6112822633, 5512310719, 5512310703, 5512311425, 5512310718, 5512310717, 5512310707, 5512310710, 4401553431, 4401553175, 6112822674, 6112822671, 6112822608, 6112822641, 6112822677, 6112822678, 6112822660, 6112822665, 6112821960, 11013747863, 11013747864, 6112822666, 6112821949, 6112821953, 6112821952, 6112821956, 11013751311, 6112822599, 6112822631, 6112822684, 6166776235, 6166776231, 4401562419, 9083564263, 9083564264, 9083564258, 9083564259, 9083564268, 9083564269, 9083564272, 9083564273, 9083564274, 9083564275, 9083564276, 9219511450, 9219511451, 9219511453, 9219511452, 9219511454, 9219511455, 9219511456, 9083564277, 9083564278, 9083564279, 9083564280, 9083564281, 9083564282, 9083564285, 9083564286, 9083564287, 9083564284, 11939181155, 4401559329, 11939181154, 11939181139, 11939181140, 11939181144, 11939181145, 11939181148, 11939181149, 11939181150, 11939181151, 11939181153, 11939181152, 11939181147, 11939181146, 11939181143, 11939181142, 11939181141, 4401562392, 4401562156, 11939181130, 11939181131, 11939181132, 11939181136, 11939181138, 11939181137, 11939181135, 11939181134, 11939181133, 11939181129, 11939181128, 11939181127, 11939181126, 11939181125, 11939181124, 11939181123, 11939181122, 4401562185, 4401562165, 4401562155, 4401562169, 11939181121, 11939181120, 11939181119, 4401562178, 4401562151, 9219510978, 9219510979, 4401562181, 9083564266, 4401562145, 4401562166, 4401562182, 4401559375, 4401559343, 4401559342, 6244808839, 6244808172, 9083564255, 6166776232, 6112822609, 6112822616, 6112821959, 6112822620, 6112822681, 6112822652, 6112822613, 6112822647, 6209841708, 6112822603, 6112822606, 6112822611, 6112822624, 6112822621, 6209804146, 6209804149, 6209804150, 6209804151, 6209804167, 6209804170, 6209804122, 6209163078, 6209804128, 6209804131, 6209804136, 10079448126, 6209804184, 6209804141, 6209833503, 6209833531, 6209804176, 6209804160, 6209804157, 6209804114, 6209804117, 6209833486, 6209804175, 6209804178, 6209804165, 6209804130, 6209833526, 6209833488, 6209833539, 6209804110, 6209833495, 6209804155, 6209833492, 6209804145, 9219511712, 6209833518, 6209833523, 6209804121, 6209804111, 6209804163, 6209804126, 9219511704, 6209804169, 6209804180, 6209804112, 6209804183, 6209833513, 6209833522, 6209833535, 6209804115, 6209804139, 6209804171, 6209804158, 6209833509, 6209833511, 6209804148, 6209804137, 6209833542, 6209804138, 6209804123, 6209804152, 6209833538, 6209833541, 6209833500, 6209833504, 6209833507, 6209833528, 6209833547, 6209833543, 6209804174, 6209804147, 6209804144, 6209804133, 6209804132, 6209804173, 6209833517, 6209804120, 6209833544, 6209804135, 6209833498, 6209833540, 6209804172, 6209804181, 6209833493, 6209833501, 6209833497, 6209833490, 6209833545, 6209833487, 6209804166, 6209804154, 6209804140, 6209833494, 11928217710, 6209804113, 6209804119, 6209833499, 6209833502, 6209833536, 6209804127, 6209804159, 6209804164, 6209833505, 6209833508, 6209833510, 6209833514, 6209833515, 6209833519, 6209833521, 6209833524, 6209833529, 6209833530, 6209833491, 6209833512, 6209804124, 6209804162, 6209833516, 6209804177, 6209804179, 6209804134, 6209833548, 6209833489, 6209804153, 6209833533, 6209804156, 6209833485, 6209804182, 6209833537, 6209833534, 6209833496, 6209804161, 6209804143, 6209804116, 6209804118, 6209804168, 6209833520, 6209804125, 6112821971, 7074417985, 6112822585, 6112822659, 6112822668], "tags": {"ele": "130", "landuse": "residential", "name": "\u05e0\u05ea\u05d9\u05d1\u05d5\u05ea", "name:ar": "\u0646\u062a\u064a\u0641\u0648\u062a", "name:en": "Netivot", "name:he": "\u05e0\u05ea\u05d9\u05d1\u05d5\u05ea", "name:ru": "\u041d\u0435\u0442\u0438\u0432\u043e\u0442", "place": "town", "population": "40910", "wikidata": "Q167649", "wikipedia": "he:\u05e0\u05ea\u05d9\u05d1\u05d5\u05ea", "wikipedia:he": "\u05e0\u05ea\u05d9\u05d1\u05d5\u05ea"}}, {"type": "way", "id": 682709555, "nodes": [6394077645, 6394077646, 6394077647, 6394077648, 6394077649, 9285556645, 6394077650, 9285556646, 6394077651, 6394077652, 6394077645], "tags": {"man_made": "water_works"}}, {"type": "way", "id": 749369975, "nodes": [7007753070, 7006336260, 7006336261, 7006336262, 7006336263, 7006336264, 7006336265, 7006336266, 7006336267, 7006336268, 7006336269, 7006336270, 7006336271, 7006336272, 7006336273, 7006336274, 7006336275, 7006336276, 7006336277, 7006336278, 7006336279, 7006336280, 7006336281, 7006336282, 7006336283, 7007758698, 7007753068, 7007753066, 7007753074, 7007758685, 5874100845, 5874100859, 5874100858, 6115194968, 5874100844, 5874100863, 5874100882, 5874100884, 5874100885, 5874100890, 5874100883, 5874100889, 5874100856, 5874100874, 5874100868, 5874100894, 5874100895, 1107366652, 3914641408, 11871836873, 6115195019, 6115188283, 6115194915, 3914641409, 1107366672, 5874100878, 5874100877, 5874100869, 5874100887, 5874100865, 5874100897, 5874100873, 5874100871, 5874100875, 5874100872, 5874100870, 5874100867, 5874100901, 5874100879, 5874100902, 5874100849, 6513396234, 6513396233, 6513396237, 6513396238, 6513396239, 6513396240, 6513396241, 5874100847, 6513396236, 6513396235, 6513396232, 6513396231, 6513396230, 5874100861, 6513396229, 6513396228, 6513396227, 6513396226, 6513396225, 6513396224, 6513396223, 6513396222, 6513396221, 6513396220, 6513396219, 6513396218, 6513396217, 6513396216, 6513396215, 6513396214, 6513396213, 6513396212, 6513396211, 6513396210, 6513396209, 6513396208, 6513396207, 6513396206, 6513396205, 5874100896, 1348570220, 1348538319, 1348547987, 1348538729, 5874100891, 5874100880, 5874100881, 5874100855, 5874100860, 5874100903, 5874100846, 5874100876, 5874100893, 5874100904, 5874100900, 5874100866, 6531749404, 6531749405, 6531749406, 6531749407, 6531749408, 6531749409, 6531749410, 6531749411, 6531749413, 6531749412, 6531749414, 6531749416, 6531749415, 6531749417, 6531749418, 6531749419, 6531749420, 6531749421, 6531749422, 6531749423, 6531749424, 6531749425, 6531749427, 6531749426, 6531749402, 6531749403, 4403335215, 6531749401, 6531749400, 7007753070], "tags": {"landuse": "residential", "name": "\u05d0\u05d5\u05e4\u05e7\u05d9\u05dd", "name:ar": "\u0623\u0648\u0641\u0627\u0643\u064a\u0645", "name:en": "Ofakim", "name:he": "\u05d0\u05d5\u05e4\u05e7\u05d9\u05dd", "name:ru": "\u041e\u0444\u0430\u043a\u0438\u043c", "name:ur": "\u0627\u0648\u0641\u0627\u0642\u06cc\u0645", "place": "town", "population": "33459", "wikidata": "Q167632", "wikipedia": "he:\u05d0\u05d5\u05e4\u05e7\u05d9\u05dd", "wikipedia:he": "\u05d0\u05d5\u05e4\u05e7\u05d9\u05dd"}}, {"type": "way", "id": 1213129792, "nodes": [11239671735, 8634555025, 8634555026, 8634555027, 8634555028, 8634555043, 8634555044, 8634555045, 8634555048, 8634555049, 8634555051, 8634555052, 8634555053, 8634555054, 8634555055, 8634555058, 8634555059, 8634555060, 8634555061, 8634555062, 8634555063, 8634555083, 8634555084, 8634555085, 8634555086, 8634555087, 8634555088, 8634555090, 8634555095, 8634555097, 8634555101, 8634555102, 8634555104, 8634555107, 8634555110, 8634555111, 8634555112, 8634555113, 8634555114, 8634555115, 8634555116, 8634555117, 8634555118, 8634555193, 11239672003, 769155077, 1376691839, 769155076, 769155075, 769155074, 1450693126, 1450693131, 1450693132, 1450693130, 1450693127, 769155110, 6359976384, 6359976337, 1347266926, 1376691861, 1376691990, 1376691971, 5524725003, 1376691980, 5524724999, 5524725006, 5524725000, 769155109, 5524724996, 5524724998, 5524725002, 5524725005, 5524724995, 5524725001, 5524724997, 1404483074, 5524724994, 5524725004, 1404483019, 1404483186, 769155105, 11843646479, 769155104, 11843646471, 11843646487, 11843646486, 8557395987, 11843646470, 1147303827, 769155103, 769155102, 11843646469, 11843646484, 11843602767, 11843646472, 11843646474, 11843646483, 5387174678, 5387174826, 5387174680, 5387174655, 5387174628, 5387174839, 5387174640, 5387174626, 5387174711, 5387174709, 5387174652, 5387174701, 5387174704, 5387173975, 5387174700, 5387174712, 5387174631, 5387174653, 5387174716, 5387174707, 5387174637, 5387173981, 5387174829, 5387173983, 5387173976, 5387173974, 5387174669, 5387174692, 5387173987, 5387173988, 5387174008, 5387173993, 5387174623, 5387173989, 5387174005, 5387174696, 5387174699, 5387174694, 5387174670, 5387174824, 5387173995, 5387174679, 5387174676, 5387173996, 5387174659, 5387174002, 5387174710, 5387174661, 5387173979, 5387174633, 5387174682, 5387174702, 5387173978, 5387174006, 5387174007, 5387174018, 5387174821, 5456762297, 5456762296, 5456762298, 5456762320, 5456762295, 5456762319, 5456762299, 6007574783, 5936114957, 6007575285, 5803973578, 5936114955, 6007574781, 5803973495, 5936114954, 6304136014, 5936114952, 5936114953, 6007560252, 6007560243, 6007560255, 6304136066, 6007560250, 6007560241, 6007560244, 6007560238, 6007560239, 6007560248, 6007560242, 6007560240, 6007560246, 6007560253, 6007560247, 6007560256, 7055302409, 7055302408, 6007560259, 6007560258, 6007560257, 5221069531, 5221069530, 5221069529, 5221069528, 5221069527, 769155096, 7029588932, 11157716043, 5221069526, 769155095, 769155094, 11157716074, 1347266951, 11157716035, 3909082491, 5936118753, 11157716076, 5936118754, 6017412768, 6017412770, 5936118764, 5936118763, 5936118762, 5936118761, 1613105078, 6698708884, 6698847385, 6698847386, 5936118759, 5936118758, 5936118752, 5936118751, 5936118747, 5936118750, 5936118749, 5936118748, 5936118746, 5936118745, 1347266916, 5431259471, 769155089, 1375107158, 5431259031, 5431259472, 769155088, 1375106881, 769155087, 5297180971, 4660011929, 4660011930, 1375106751, 1375106428, 4660011934, 769155086, 4660011935, 7006408249, 769155085, 769155084, 7006408247, 7006408248, 3828078460, 769155082, 1146985230, 11239671735], "tags": {"ele": "36", "landuse": "residential", "name": "\u05d0\u05e9\u05e7\u05dc\u05d5\u05df", "name:ar": "\u0639\u0633\u0642\u0644\u0627\u0646", "name:arc": "\u0710\u072b\u0729\u0720\u0718\u0722", "name:de": "Aschkelon", "name:en": "Ashkelon", "name:fr": "Ascalon", "name:grc": "\u1f08\u03c3\u03ba\u03ac\u03bb\u03c9\u03bd", "name:he": "\u05d0\u05e9\u05e7\u05dc\u05d5\u05df", "name:ru": "\u0410\u0448\u043a\u0435\u043b\u043e\u043d", "name:sr": "\u0410\u0448\u043a\u0435\u043b\u043e\u043d", "name:syc": "\u0710\u072b\u0729\u0720\u0718\u0722", "name:uk": "\u0410\u0448\u043a\u0435\u043b\u043e\u043d", "name:ur": "\u0639\u0633\u0642\u0644\u0627\u0646", "name:yi": "\u05d0\u05e9\u05e7\u05dc\u05d5\u05df", "place": "city", "population": "148404", "wikidata": "Q60956"}}, {"type": "relation", "id": 13481563, "members": [{"type": "way", "ref": 575487637, "role": "outer"}, {"type": "way", "ref": 682709555, "role": "inner"}], "tags": {"ele": "89", "landuse": "residential", "name": "\u05e9\u05d3\u05e8\u05d5\u05ea", "name:en": "Sderot", "name:fr": "Sd\u00e9rot", "name:he": "\u05e9\u05d3\u05e8\u05d5\u05ea", "name:ru": "\u0421\u0434\u0435\u0440\u043e\u0442", "place": "town", "type": "multipolygon", "wikidata": "Q123196", "wikipedia": "he:\u05e9\u05d3\u05e8\u05d5\u05ea", "wikipedia:he": "\u05e9\u05d3\u05e8\u05d5\u05ea"}}]}