{"version": 0.6, "generator": "Overpass API 0.7.62.4 2390de5a", "osm3s": {"timestamp_osm_base": "2025-01-08T06:31:42Z", "copyright": "The data included in this document is from www.openstreetmap.org. The data is made available under ODbL."}, "elements": [{"type": "node", "id": 598459803, "lat": 36.2565246, "lon": 44.8827887, "tags": {"addr:city": "\u0633\u0644\u06ce\u0645\u0627\u0646\u06cc", "addr:street": "Ranya, as Sulaymaniya, Iraq", "alt_name": "\u0695\u0627\u0646\u06cc\u06d5", "capital": "6", "description": "Omid Qasre", "ele": "576", "int_name": "Ranya", "is_in": "Sulaymaniyah, Iraq", "is_in:country": "Iraq", "is_in:country_code": "IQ", "name": "\u0695\u0627\u0646\u06cc\u06d5", "name:ar": "\u0631\u0627\u0646\u064a\u0629", "name:ckb": "\u0695\u0627\u0646\u06cc\u06d5", "name:en": "Ranya", "name:ja": "\u30e9\u30fc\u30f3\u30e4", "name:ku": "Ranye", "name:ml": "\u0d31\u0d3e\u0d28\u0d3f\u0d2f", "name:ru": "\u0420\u0430\u043d\u0438\u044f", "phone": "07504298731", "place": "town", "population": "130000", "population:date": "2014", "source:population": "https://ckb.wikipedia.org/wiki/%DA%95%D8%A7%D9%86%DB%8C%DB%95", "website": "www.Qasre91.blogspot.com", "wikidata": "Q1656131", "wikipedia": "ckb:\u0695\u0627\u0646\u06cc\u06d5"}}, {"type": "node", "id": 2488268820, "lat": 36.3964771, "lon": 44.5484915, "tags": {"alt_name": "\u0628\u0627\u0644\u064a\u0633\u0627\u0646", "capital": "7", "int_name": "Balisan, Baliy\u0101n, \u0628\u0627\u0644\u064a\u0633\u0627\u0646, Balisan, Baliyan, \u0628\u0627\u0644\u064a\u0633\u0627\u0646", "name": "\u0628\u0627\u0644\u06cc\u0633\u0627\u0646", "name:ar": "\u0628\u0627\u0644\u064a\u0633\u0627\u0646", "name:ckb": "\u0628\u0627\u0644\u06cc\u0633\u0627\u0646", "name:de": "Balisan", "name:en": "Balisan", "name:fr": "Balisan", "name:ku": "Bal\u00eesan", "place": "town", "wikidata": "Q7181233", "wikipedia": "ckb:\u0628\u0627\u0644\u06cc\u0633\u0627\u0646"}}, {"type": "node", "id": 2488269861, "lat": 36.236085, "lon": 44.61612, "tags": {"alt_name": "\u0633\u0643\u062a\u0627\u0646", "capital": "7", "int_name": "Sakt\u0101n, Sekt\u0101n, Sikt\u0101n, \u0633\u0643\u062a\u0627\u0646, Saktan, Sektan, Siktan, \u0633\u0643\u062a\u0627\u0646", "name": "\u0633\u06a9\u062a\u0627\u0646", "name:ar": "\u0633\u0643\u062a\u0627\u0646", "name:ckb": "\u0633\u0643\u062a\u0627\u0646", "name:de": "Sktan", "name:en": "Sktan", "name:fr": "Sktan", "name:ku": "Siktan", "place": "town", "wikidata": "Q12247206"}}, {"type": "node", "id": 2488272963, "lat": 36.1295633, "lon": 44.7758179, "tags": {"alt_name": "\u062e\u062f\u0631\u0627\u0646", "capital": "7", "int_name": "Khdran, Khidr\u0101n, \u062e\u062f\u0631\u0627\u0646, Khdran, Khidran, \u062e\u062f\u0631\u0627\u0646", "is_in": "Iraq , \u062c\u0645\u0647\u0648\u0631\u064a\u0629 \u0627\u0644\u0639\u0631\u0627\u0642", "name": "\u062e\u062f\u0631\u0627\u0646", "name:ar": "\u062e\u062f\u0631\u0627\u0646", "name:ckb": "\u062e\u062f\u0631\u0627\u0646", "name:de": "Khidran", "name:en": "Khidran", "name:fr": "Khidran", "name:ku": "Xidran", "place": "town", "wikidata": "Q61388706"}}, {"type": "node", "id": 2488272997, "lat": 36.277097, "lon": 44.7506798, "tags": {"alt_name": "\u0633\u0631 \u062c\u0627\u0648\u0629", "ele": "588", "int_name": "Sar J\u0101wah, Sar\u00e1 J\u0101wa, Sar\u012b J\u0101w, Saroochawa, Seruchawa, S\u0113r\u016bch\u0101wah, \u0633\u0631 \u062c\u0627\u0648\u0647, \u0633\u0631\u064a \u062c\u0627\u0648, Sar Jawah, Sara Jawa, Sari Jaw, Saroochawa, Seruchawa, Seruchawah, \u0633\u0631 \u062c\u0627\u0648\u0647, \u0633\u0631\u064a \u062c\u0627\u0648", "name": "\u0633\u06d5\u0631\u0648\u0686\u0627\u0648\u06d5", "name:ar": "\u0633\u0631\u0648\u062c\u0627\u0648\u0629", "name:ckb": "\u0633\u06d5\u0631\u0648\u0686\u0627\u0648\u06d5", "name:de": "Saruchawa", "name:en": "Saruchawa", "name:fr": "Saruchawa", "name:ku": "Seru\u00e7awe", "place": "town", "wikidata": "Q61389084", "wikipedia": "ckb:\u0633\u06d5\u0631\u0648\u0686\u0627\u0648\u06d5"}}, {"type": "node", "id": 2488273052, "lat": 36.501611, "lon": 44.7535, "tags": {"alt_name": "\u0648\u0631\u062a\u0629", "capital": "7", "int_name": "Warta, Wartah, Wirta, W\u012brtah, \u0648\u0631\u062a\u0629, Warta, Wartah, Wirta, Wirtah, \u0648\u0631\u062a\u0629", "name": "\u0648\u06d5\u0631\u062a\u06ce", "name:ar": "\u0648\u0631\u062a\u064a", "name:ckb": "\u0648\u06d5\u0631\u062a\u06ce", "name:de": "Warte", "name:en": "Warte", "name:fr": "Warte", "name:ku": "Wert\u00ea", "place": "town", "wikidata": "Q5989134", "wikipedia": "ckb:\u0648\u06d5\u0631\u062a\u06ce"}}, {"type": "node", "id": 2488273492, "lat": 36.2115135, "lon": 44.8270687, "tags": {"addr:city": "\u0633\u0644\u06ce\u0645\u0627\u0646\u06cc", "capital": "7", "name": "\u0686\u0648\u0627\u0631\u0642\u0648\u0695\u0646\u06d5", "name:ar": "\u062c\u0648\u0627\u0631\u0642\u0648\u0631\u0646\u0629", "name:ckb": "\u0686\u0648\u0627\u0631\u0642\u0648\u0695\u0646\u06d5", "name:ckb-Latn": "\u00c7warqurrne", "name:en": "Chwarqurna", "name:ku": "\u00c7iwarqurrne", "name:ru": "\u0427\u0430\u0440\u043a\u0443\u0440\u0438\u0430", "place": "town", "wikidata": "Q5990249", "wikipedia": "ckb:\u0686\u0648\u0627\u0631\u0642\u0648\u0695\u0646\u06d5"}}, {"type": "node", "id": 2488273504, "lat": 36.2866643, "lon": 44.823302, "tags": {"addr:street": "Ranya, As Sulaymaniya, Iraq", "alt_name": "\u0633\u0631\u0643\u064a\u0643\u0627\u0646", "capital": "7", "description": "Omid Qasre", "int_name": "Sarkapkan, \u0633\u06d5\u0631\u06a9\u06d5\u067e\u06a9\u06d5\u0646", "is_in": "Iraq , \u062c\u0645\u0647\u0648\u0631\u064a\u0629 \u0627\u0644\u0639\u0631\u0627\u0642", "name": "\u0633\u06d5\u0631\u06a9\u06d5\u067e\u06a9\u0627\u0646", "name:ar": "\u0633\u0631\u0643\u0628\u0643\u0627\u0646", "name:ckb": "\u0633\u06d5\u0631\u06a9\u06d5\u067e\u06a9\u0627\u0646", "name:de": "Sarkapkan", "name:en": "Sarkapkan", "name:fr": "Sarkapkan", "name:ku": "Serkepkan", "phone": "07504298731", "place": "town", "website": "www.Qasre91.blogspot.com", "wikidata": "Q61389159", "wikipedia": "ckb:\u0633\u06d5\u0631\u06a9\u06d5\u067e\u06a9\u0627\u0646"}}, {"type": "node", "id": 2488312905, "lat": 36.2230969, "lon": 45.0673834, "tags": {"alt_name": "\u0698\u0627\u0631\u0627\u0648\u0627", "capital": "7", "int_name": "Jayr\u0101wah, Zharawa, \u062c\u064a\u0631\u0627\u0648\u06d5, Jayrawah, Zharawa, \u062c\u064a\u0631\u0627\u0648\u06d5", "name": "\u0698\u0627\u0631\u0627\u0648\u06d5", "name:ar": "\u062c\u064a\u0631\u0627\u0648\u0629", "name:ckb": "\u0698\u0627\u0631\u0627\u0648\u06d5", "name:en": "Zharawa", "name:ku": "Jarawe", "place": "town", "wikidata": "Q61389795", "wikipedia": "ckb:\u0698\u0627\u0631\u0627\u0648\u06d5"}}, {"type": "node", "id": 2488314261, "lat": 36.2438633, "lon": 45.0057164, "tags": {"alt_name": "\u062f\u0631\u0648\u0643\u062f\u0648\u0644\u0629", "int_name": "Darak Dula, Dar\u014dk, Dar\u014dk D\u016bla, Darok Dulo, Darwakad\u016bla, Darwakdula, Darwakidawlah, Dawrak D\u016blah, Dork Dula", "is_in": "Iraq , \u062c\u0645\u0647\u0648\u0631\u064a\u0629 \u0627\u0644\u0639\u0631\u0627\u0642", "name": "\u0633\u06d5\u0646\u06af\u06d5\u0633\u06d5\u0631", "name:ar": "\u0633\u0646\u06a9\u0633\u0631", "name:ar1": "\u0633\u0646\u0643\u0633\u0631;\u062f\u0631\u0648\u0643\u062f\u0648\u0644\u0629", "name:de": "Sangasar", "name:en": "Sangasar", "name:fr": "Sangasar", "name:ru": "\u0421\u0430\u043d\u0433\u0430\u0441\u0430\u0440", "place": "town", "wikidata": "Q85847154", "wikipedia": "ckb:\u0633\u06d5\u0646\u06af\u06d5\u0633\u06d5\u0631"}}, {"type": "node", "id": 3315747711, "lat": 36.2343069, "lon": 44.7938749, "tags": {"addr:city": "\u0633\u0644\u06ce\u0645\u0627\u0646\u06cc", "capital": "7", "name": "\u062d\u0627\u062c\u06cc\u0627\u0648\u0627", "name:ar": "\u062d\u0627\u062c\u064a\u0627\u0648\u0627", "name:ckb": "\u062d\u0627\u062c\u06cc\u0627\u0648\u0627", "name:en": "Hajiawa", "name:ku": "Haciyawa", "place": "town", "population": "70000"}}, {"type": "node", "id": 4957365228, "lat": 36.2444146, "lon": 44.7666966}, {"type": "node", "id": 4957365229, "lat": 36.2425711, "lon": 44.7640943}, {"type": "node", "id": 4957365230, "lat": 36.2410883, "lon": 44.7639723}, {"type": "node", "id": 4957365231, "lat": 36.2387257, "lon": 44.764561}, {"type": "node", "id": 4957365232, "lat": 36.2367424, "lon": 44.7651562}, {"type": "node", "id": 4957365233, "lat": 36.2354628, "lon": 44.7656194}, {"type": "node", "id": 4957365234, "lat": 36.2312945, "lon": 44.7679599}, {"type": "node", "id": 4957365235, "lat": 36.2290985, "lon": 44.7693191}, {"type": "node", "id": 4957365236, "lat": 36.2266562, "lon": 44.771144}, {"type": "node", "id": 4957365237, "lat": 36.2244959, "lon": 44.7729386}, {"type": "node", "id": 4957365238, "lat": 36.2232909, "lon": 44.7739816}, {"type": "node", "id": 4957365239, "lat": 36.2219124, "lon": 44.7752645}, {"type": "node", "id": 4957365240, "lat": 36.21762, "lon": 44.7791171}, {"type": "node", "id": 4957365241, "lat": 36.2151511, "lon": 44.7818643}, {"type": "node", "id": 4957365242, "lat": 36.217718, "lon": 44.7958148}, {"type": "node", "id": 4957365243, "lat": 36.2193715, "lon": 44.7977845}, {"type": "node", "id": 4957365244, "lat": 36.2234496, "lon": 44.8079093}, {"type": "node", "id": 4957365245, "lat": 36.2299428, "lon": 44.8051214}, {"type": "node", "id": 4957365246, "lat": 36.2359833, "lon": 44.8032331}, {"type": "node", "id": 4957365247, "lat": 36.2560354, "lon": 44.8030538}, {"type": "node", "id": 4957365248, "lat": 36.2578387, "lon": 44.7762474}, {"type": "node", "id": 4957365249, "lat": 36.2520864, "lon": 44.7745442}, {"type": "node", "id": 4957365250, "lat": 36.2500704, "lon": 44.7681498}, {"type": "node", "id": 5274677083, "lat": 36.2430512, "lon": 44.7663279}, {"type": "node", "id": 5276691571, "lat": 36.256481, "lon": 44.7726076}, {"type": "node", "id": 5385211887, "lat": 36.2160181, "lon": 44.7911409}, {"type": "node", "id": 5385211888, "lat": 36.216331, "lon": 44.7876968}, {"type": "node", "id": 5385211892, "lat": 36.2160277, "lon": 44.7913615}, {"type": "node", "id": 6205753608, "lat": 36.2348756, "lon": 44.792163, "tags": {"name": "\u062d\u0627\u062c\u06cc\u0627\u0648\u06d5", "name:ar": "\u062d\u0627\u062c\u064a\u0627\u0648\u0629", "name:ckb": "\u062d\u0627\u062c\u06cc\u0627\u0648\u06d5", "name:en": "Hajiawa", "name:ku": "Haciyawe", "place": "town"}}, {"type": "node", "id": 7347374479, "lat": 36.2960728, "lon": 44.7063233, "tags": {"name": "\u0634\u06a9\u0627\u0631\u062a\u06d5", "name:ar": "\u0634\u06a9\u0627\u0631\u062a\u0629", "name:ckb": "\u0634\u06a9\u0627\u0631\u062a\u06d5", "name:en": "Shkarta", "name:ku": "\u015eikarte", "place": "town", "wikipedia": "ckb:\u0634\u06a9\u0627\u0631\u062a\u06d5"}}, {"type": "node", "id": 7630419339, "lat": 36.2256816, "lon": 44.7719292}, {"type": "node", "id": 7630461802, "lat": 36.2606807, "lon": 44.7839895}, {"type": "node", "id": 7630461803, "lat": 36.262914, "lon": 44.7895397}, {"type": "node", "id": 7630461804, "lat": 36.2681526, "lon": 44.7968115}, {"type": "node", "id": 7630461805, "lat": 36.2639722, "lon": 44.8077988}, {"type": "node", "id": 7630461806, "lat": 36.2595436, "lon": 44.8041426}, {"type": "node", "id": 7630461807, "lat": 36.2678451, "lon": 44.8025197}, {"type": "node", "id": 7630535843, "lat": 36.2164037, "lon": 44.7941734}, {"type": "node", "id": 7630535844, "lat": 36.2169227, "lon": 44.7949789}, {"type": "node", "id": 7630535845, "lat": 36.2165944, "lon": 44.7944211}, {"type": "way", "id": 505910622, "nodes": [4957365250, 4957365249, 5276691571, 4957365248, 7630461802, 7630461803, 7630461804, 7630461807, 7630461805, 7630461806, 4957365247, 4957365246, 4957365245, 4957365244, 4957365243, 4957365242, 7630535844, 7630535845, 7630535843, 5385211892, 5385211887, 5385211888, 4957365241, 4957365240, 4957365239, 4957365238, 4957365237, 7630419339, 4957365236, 4957365235, 4957365234, 4957365233, 4957365232, 4957365231, 4957365230, 4957365229, 5274677083, 4957365228, 4957365250], "tags": {"name": "Hajiawa", "name:ckb": "\u062d\u0627\u062c\u06cc\u0627\u0648\u0627", "name:en": "Hajiawa", "place": "city", "population": "80000"}}]}