{"version": 0.6, "generator": "Overpass API 0.7.62.4 2390de5a", "osm3s": {"timestamp_osm_base": "2025-01-08T06:22:27Z", "copyright": "The data included in this document is from www.openstreetmap.org. The data is made available under ODbL."}, "elements": [{"type": "node", "id": 1222165039, "lat": 16.002948, "lon": 43.197245, "tags": {"GNS:dsg_code": "PPLA2", "GNS:dsg_name": "captial of a second-order administrative division", "GNS:id": "-3192229", "alt_name": "Mutayyin; S\u016bq \u2018Abs; Suq `Abs", "int_name": "\u2018Abs", "name": "\u0639\u0628\u0633", "name:ar": "\u0639\u0628\u0633", "name:de": "`Abs", "name:en": "`Abs", "name:fr": "`Abs", "place": "town", "population": "14970", "population:date": "2004-12-17", "source:name": "GNS", "source:population": "YCSO2004:17-4-22-1", "wikidata": "Q24278768", "wikipedia": "en:Abs (Yemen)"}}, {"type": "node", "id": 1224760288, "lat": 15.821042, "lon": 43.337196, "tags": {"GNS:dsg_code": "PPLA2", "GNS:dsg_name": "captial of a second-order administrative division", "GNS:id": "-3188903", "alt_name": "Bani Manawis; Ban\u012b Man\u0101wis", "int_name": "Ku\u2018aydinah", "name": "\u0643\u0639\u064a\u062f\u0646\u0629", "name:ar": "\u0643\u0639\u064a\u062f\u0646\u0629", "name:de": "Ku`aydinah", "name:en": "Ku`aydinah", "name:fr": "Ku`aydinah", "place": "town", "population": "2174", "population:date": "2004-12-17", "source:name": "GNS", "source:population": "YCSO2004:17-22-27-1"}}, {"type": "node", "id": 6937083118, "lat": 16.021905, "lon": 43.378592, "tags": {"GNS:dsg_code": "PPLA2", "GNS:dsg_name": "captial of a second-order administrative division", "GNS:id": "11034320", "int_name": "Khayr\u0101n", "name": "\u062e\u064a\u0631\u0627\u0646 \u0627\u0644\u0645\u062d\u0631\u0642", "name:ar": "\u062e\u064a\u0631\u0627\u0646 \u0627\u0644\u0645\u062d\u0631\u0642", "name:en": "Khayran", "place": "town", "population": "2320", "population:date": "2004-12-17", "source:name": "GNS", "source:population": "YCSO2004:17-11-22-1"}}]}