{"version": 0.6, "generator": "Overpass API 0.7.62.4 2390de5a", "osm3s": {"timestamp_osm_base": "2025-01-08T06:31:42Z", "copyright": "The data included in this document is from www.openstreetmap.org. The data is made available under ODbL."}, "elements": [{"type": "node", "id": 2488293575, "lat": 35.9021869, "lon": 45.4141144, "tags": {"alt_name": "\u0645\u0627\u0648\u062a", "capital": "6", "int_name": "M\u0101wat, Mawet, Mawat, \u0645\u0627\u0648\u06d5\u062a", "name": "\u0645\u0627\u0648\u06d5\u062a", "name:ar": "\u0645\u0627\u0648\u062a", "name:ckb": "\u0645\u0627\u0648\u06d5\u062a", "name:de": "Mawat", "name:en": "Mawat", "name:fr": "Mawat", "name:ku": "Mawet", "name:ru": "\u041c\u0430\u0432\u0430\u0442", "place": "town", "wikidata": "Q6794371", "wikipedia": "ckb:\u0645\u0627\u0648\u06d5\u062a"}}, {"type": "node", "id": 2488309544, "lat": 36.0660199, "lon": 45.2847098, "tags": {"int_name": "\u0100b\u012bwah, \u0622\u0628\u064a\u0648\u0647, Abiwah, \u0622\u0628\u064a\u0648\u0647", "name": "\u0626\u06cc\u0633\u06ce\u0648\u06d5", "name:de": "Isewe", "name:en": "Isewe", "name:fr": "Isewe", "name:ku": "\u00ces\u00eaw\u00ea", "place": "town", "source": "http://wikimapia.org/#lang=en&lat=36.066723&lon=45.287790&z=15&m=bs&show=/21748197/%D9%86%D8%A7%D8%AD%DB%8C%D9%87%E2%80%8C%DB%8C-%D8%A6%DB%8C%D8%B3%DB%8E%D9%88%D9%87%E2%80%8C", "wikidata": "Q61389571", "wikipedia": "ckb:\u0626\u06cc\u0633\u06ce\u0648\u06ce"}}, {"type": "node", "id": 2488317520, "lat": 35.7984421, "lon": 45.3524315, "tags": {"alt_name": "\u06af\u0627\u067e\u06cc\u06b5\u06c6\u0646", "capital": "7", "name": "\u06af\u0627\u067e\u06cc\u0644\u06c6\u0646", "name:ar": "\u0643\u0627\u0628\u064a\u0644\u0648\u0646", "name:ckb": "\u06af\u0627\u067e\u06cc\u0644\u06c6\u0646", "name:de": "Gapelon", "name:en": "Gapilon", "name:fr": "Gapelon", "name:ku": "Gap\u00eelon", "place": "town", "wikidata": "Q21666196", "wikipedia": "ckb:\u06af\u0627\u067e\u06cc\u0644\u06c6\u0646"}}, {"type": "node", "id": 2488317789, "lat": 35.86941, "lon": 45.162285, "tags": {"is_in": "Iraq , \u062c\u0645\u0647\u0648\u0631\u064a\u0629 \u0627\u0644\u0639\u0631\u0627\u0642", "name": "\u0633\u06d5\u0631\u06af\u06d5\u06b5\u0648\u0648", "name:ar": "\u0633\u0631\u0643\u0644\u0648", "name:ku": "sergell\u00fb", "place": "town", "wikidata": "Q61426883"}}, {"type": "node", "id": 2488318167, "lat": 35.8616544, "lon": 45.1033419, "tags": {"name": "\u0633\u0648\u0631\u062f\u0627\u0634", "name:ar": "\u0633\u0648\u0631\u062f\u0627\u0634", "name:ckb": "\u0633\u0648\u0631\u062f\u0627\u0634", "name:en": "Surdash", "name:ku": "Surda\u015f", "place": "town", "wikidata": "Q61388192", "wikipedia": "ckb:\u0633\u0648\u0631\u062f\u0627\u0634"}}, {"type": "node", "id": 4382514783, "lat": 35.7317627, "lon": 45.1438616, "tags": {"capital": "7", "name": "\u067e\u06cc\u0631\u06d5\u0645\u06d5\u06af\u0631\u0648\u0648\u0646", "name:ar": "\u0628\u064a\u0631\u0645\u0643\u0631\u0648\u0646", "name:ckb": "\u067e\u06cc\u0631\u06d5\u0645\u06d5\u06af\u0631\u0648\u0648\u0646", "name:en": "Piramagroon", "name:ku": "P\u00eeremegr\u00fbn", "place": "town", "wikidata": "Q61388326", "wikipedia": "ckb:\u067e\u06cc\u0631\u06d5\u0645\u06d5\u06af\u0631\u0648\u0646"}}, {"type": "node", "id": 6297489988, "lat": 35.8890685, "lon": 45.5826601, "tags": {"name": "\u0628\u0627\u0633\u0646\u06ce", "name:ar": "\u0628\u0627\u0633\u0646\u064a", "name:ckb": "\u0628\u0627\u0633\u0646\u06ce", "name:en": "Basne", "name:ku": "Basn\u00ea", "place": "town", "wikidata": "Q61382705", "wikipedia": "ckb:\u0628\u0627\u0633\u0646\u06ce"}}, {"type": "node", "id": 7373252128, "lat": 35.7175666, "lon": 45.5702447, "tags": {"name": "\u0686\u0648\u0627\u0631\u062a\u0627", "name:ar": "\u062c\u0648\u0627\u0631\u062a\u0627", "name:ckb": "\u0686\u0648\u0627\u0631\u062a\u0627", "name:en": "Chwarta", "name:ku": "\u00c7warta", "place": "town", "wikidata": "Q25630636", "wikipedia": "ckb:\u0686\u0648\u0627\u0631\u062a\u0627"}}]}