{"version": 0.6, "generator": "Overpass API 0.7.62.4 2390de5a", "osm3s": {"timestamp_osm_base": "2025-01-08T06:30:42Z", "copyright": "The data included in this document is from www.openstreetmap.org. The data is made available under ODbL."}, "elements": [{"type": "node", "id": 599473544, "lat": 32.5010274, "lon": 45.8296334, "tags": {"capital": "4", "int_name": "Al-K\u016bt - \u0627\u0644\u0643\u0648\u062a", "name": "\u0627\u0644\u0643\u0648\u062a", "name:ar": "\u0627\u0644\u0643\u0648\u062a", "name:bg": "\u0410\u043b \u041a\u0443\u0442", "name:ckb": "\u06a9\u0648\u0648\u062a", "name:cs": "K\u00fat", "name:de": "Kut", "name:en": "Al-Kut", "name:es": "Kut", "name:et": "K\u016bt", "name:eu": "Kut", "name:fa": "\u06a9\u0648\u062a", "name:fr": "Kut", "name:he": "\u05d0\u05dc-\u05db\u05d5\u05ea", "name:hi": "\u0905\u0932 \u0915\u0941\u0924", "name:ja": "\u30af\u30fc\u30c8", "name:ku": "K\u00fbt", "name:ml": "\u0d15\u0d42\u0d24\u0d4d\u0d24\u0d4d", "name:pl": "Al-Kut", "name:ru": "\u042d\u043b\u044c-\u041a\u0443\u0442", "name:tt": "\u041a\u04e9\u0442", "name:uk": "\u0415\u043b\u044c-\u041a\u0443\u0442", "nat_name": "\u06a9\u0648\u062a", "place": "city", "population": "422793", "population:date": "2014", "source:population": "https://ar.wikipedia.org/wiki/%D8%A7%D9%84%D9%83%D9%88%D8%AA_(%D8%A7%D9%84%D8%B9%D8%B1%D8%A7%D9%82)", "wikidata": "Q328030", "wikipedia": "ar:\u0627\u0644\u0643\u0648\u062a (\u0627\u0644\u0639\u0631\u0627\u0642)"}}, {"type": "node", "id": 2484027849, "lat": 32.271084, "lon": 45.925713, "tags": {"alt_name": "Al Muwaffaq\u012byah, Almafiq\u012bya, \u0627\u0644\u0645\u0648\u0641\u0642\u064a\u0629, Al Muwaffaqiyah, Almafiqiya, \u0627\u0644\u0645\u0648\u0641\u0642\u064a\u0629, Mowafaqiya", "capital": "7", "int_name": "Al Muwaffaqiyah - \u0627\u0644\u0645\u0648\u0641\u0642\u064a\u0629", "is_in": "Iraq , \u062c\u0645\u0647\u0648\u0631\u064a\u0629 \u0627\u0644\u0639\u0631\u0627\u0642", "name": "\u0627\u0644\u0645\u0648\u0641\u0642\u064a\u0629", "name:ar": "\u0627\u0644\u0645\u0648\u0641\u0642\u064a\u0629", "name:de": "Al Muwaffaqiyah", "name:en": "Al Muwaffaqiyah", "name:fr": "Al Muwaffaqiyah", "name:ru": "\u042d\u043b\u044c-\u041c\u0443\u0432\u0430\u0444\u0444\u0430\u043a\u0438\u044f", "place": "town", "wikidata": "Q12194127"}}, {"type": "node", "id": 2484053357, "lat": 32.521401, "lon": 45.60258, "tags": {"alt_name": "Al A\u1e29r\u0101r, \u0627\u0644\u0623\u062d\u0631\u0627\u0631, Al Ahrar, \u0627\u0644\u0623\u062d\u0631\u0627\u0631", "capital": "7", "int_name": "Al Ahrar - \u0627\u0644\u0623\u062d\u0631\u0627\u0631", "is_in": "Iraq , \u062c\u0645\u0647\u0648\u0631\u064a\u0629 \u0627\u0644\u0639\u0631\u0627\u0642", "name": "\u0627\u0644\u0623\u062d\u0631\u0627\u0631", "name:ar": "\u0627\u0644\u0623\u062d\u0631\u0627\u0631", "name:de": "Al Ahrar", "name:en": "Al Ahrar", "name:fr": "Al Ahrar", "place": "town", "wikidata": "Q10404165", "wikipedia": "en:Al-Ahrar subdistrict"}}, {"type": "node", "id": 3091103341, "lat": 32.4563871, "lon": 46.075404, "tags": {"capital": "7", "int_name": "Wasit - \u0648\u0627\u0633\u0637", "name": "\u0648\u0627\u0633\u0637", "name:ar": "\u0648\u0627\u0633\u0637", "name:en": "Wasit", "name:ml": "\u0d35\u0d3e\u0d38\u0d3f\u0d24\u0d4d\u0d24\u0d4d", "place": "town"}}, {"type": "node", "id": 3091115121, "lat": 32.1712387, "lon": 46.0475468, "tags": {"alt_name": "Al \u1e28ayy, Kut al Hai, \u0627\u0644\u062d\u064a, Al Hai, Al Hay, Al Hayy, Kut al Hai, \u0627\u0644\u062d\u064a", "alt_name:ar": "\u0642\u0636\u0627\u0621 \u0627\u0644\u062d\u064a", "capital": "6", "name": "\u0627\u0644\u062d\u064a", "name:ar": "\u0627\u0644\u062d\u064a", "name:en": "Al Hai", "name:fr": "Al-Hay", "name:ja": "\u30cf\u30a4\u30a4", "name:ml": "\u0d05\u0d7d-\u0d39\u0d2f\u0d4d", "name:ru": "\u042d\u043b\u044c-\u0425\u0430\u0439", "name:ur": "\u0627\u0644\u062d\u06cc", "place": "town", "population": "41079", "population:date": "2012", "wikidata": "Q2350519", "wikipedia": "ar:\u0627\u0644\u062d\u064a (\u0627\u0644\u0639\u0631\u0627\u0642)"}}]}