{"version": 0.6, "generator": "Overpass API 0.7.62.4 2390de5a", "osm3s": {"timestamp_osm_base": "2025-01-08T06:29:44Z", "copyright": "The data included in this document is from www.openstreetmap.org. The data is made available under ODbL."}, "elements": [{"type": "node", "id": 130187400, "lat": 37.0691755, "lon": 41.2164671, "tags": {"alt_name:arc": "\u0721\u0713\u0715\u0718\u0722\u071d\u0710;\u0722\u072b\u071d\u0712\u071d\u0722;\u0722\u0728\u071d\u0712\u071d\u0722", "alt_name:syc": "\u0721\u0713\u0715\u0718\u0722\u071d\u0710;\u0722\u072b\u071d\u0712\u071d\u0722;\u0722\u0728\u071d\u0712\u071d\u0722", "name": "Nusaybin", "name:ar": "\u0646\u0635\u064a\u0628\u064a\u0646", "name:arc": "\u0728\u0718\u0712\u0710", "name:en": "Nusaybin", "name:ku": "Nis\u00eab\u00een", "name:ml": "\u0d28\u0d41\u0d38\u0d2f\u0d4d\u0d2c\u0d3f\u0d7b", "name:ru": "\u041d\u0443\u0441\u0430\u0439\u0431\u0438\u043d", "name:sr": "\u041d\u0443\u0441\u0430\u0458\u0431\u0438\u043d", "name:syc": "\u0728\u0718\u0712\u0710", "name:uk": "\u041d\u0443\u0441\u0430\u0439\u0431\u0456\u043d", "place": "town", "population": "113728", "population:date": "2021", "wikidata": "Q1553052", "wikipedia": "tr:Nusaybin", "wikipedia:ar": "\u0646\u0635\u064a\u0628\u064a\u0646", "wikipedia:arc": "\u0728\u0718\u0712\u0710"}}, {"type": "node", "id": 130187624, "lat": 37.0495013, "lon": 41.230931, "tags": {"alt_name": "\u0642\u0627\u0645\u0634\u0644\u0648", "alt_name:ar": "\u0642\u0627\u0645\u0634\u0644\u0648", "alt_name:arc": "\u0729\u0721\u072b\u0720\u0710;\u0712\u071d\u072c \u0719\u0720\u071d\u0308\u0722;\u0712\u071d\u072c \u0719\u0720\u071d\u0722;\u0712\u071d\u072c \u0719\u0710\u0720\u071d\u0308\u0722;\u0712\u071d\u072c \u0719\u0710\u0720\u071d\u0722", "alt_name:en": "Qamishlo", "alt_name:syc": "\u0729\u0721\u072b\u0720\u0710;\u0712\u071d\u072c \u0719\u0720\u071d\u0308\u0722;\u0712\u071d\u072c \u0719\u0720\u071d\u0722;\u0712\u071d\u072c \u0719\u0710\u0720\u071d\u0308\u0722;\u0712\u071d\u072c \u0719\u0710\u0720\u071d\u0722", "name": "\u0627\u0644\u0642\u0627\u0645\u0634\u0644\u064a", "name:ar": "\u0627\u0644\u0642\u0627\u0645\u0634\u0644\u064a", "name:arc": "\u0729\u0721\u072b\u0720\u071d", "name:ca": "AlQamixli", "name:ckb": "\u0642\u0627\u0645\u06cc\u0634\u0644\u06c6", "name:cs": "K\u00e1mi\u0161l\u00ed", "name:de": "al-Kamischli", "name:en": "Al-Qamishli", "name:es": "Qamishli", "name:eu": "Qamishli", "name:fa": "\u0642\u0627\u0645\u0634\u0644\u06cc", "name:fr": "Kamechli", "name:he": "\u05d0\u05dc-\u05e7\u05d0\u05de\u05e9\u05dc\u05d9", "name:hi": "\u0915\u093e\u092e\u093f\u0936\u094d\u0932\u093f", "name:hu": "K\u00e1misli", "name:hy": "\u0554\u0561\u0574\u056b\u0577\u056c\u056b", "name:ja": "\u30ab\u30fc\u30df\u30b7\u30e5\u30ea\u30fc", "name:ko": "\uce74\ubbc0\uc2e4\ub9ac", "name:ku": "Qami\u015flo", "name:ku-Arab": "\u0642\u0627\u0645\u0634\u0644\u06c6", "name:lt": "Kami\u0161lis", "name:ml": "\u0d16\u0d3e\u0d2e\u0d3f\u0d37\u0d4d\u0d32\u0d3f", "name:mzn": "\u0642\u0627\u0645\u0634\u0644\u06cc", "name:pl": "Kamiszli", "name:ru": "\u0410\u043b\u044c-\u041a\u0430\u043c\u0438\u0448\u043b\u0438", "name:syc": "\u0729\u0721\u072b\u0720\u071d", "name:tr": "Kam\u0131\u015fl\u0131", "name:uk": "\u041a\u0430\u043c\u0438\u0448\u043b\u0438", "name:ur": "\u0642\u0627\u0645\u0634\u0644\u06cc", "name:zh": "\u5361\u7c73\u4ec0\u5229", "place": "city", "population": "184231", "population:date": "2004", "source:population": "\u0627\u0644\u0645\u0643\u062a\u0628 \u0627\u0644\u0645\u0631\u0643\u0632\u064a \u0644\u0644\u0625\u062d\u0635\u0627\u0621", "wikidata": "Q212757", "wikipedia": "ar:\u0627\u0644\u0642\u0627\u0645\u0634\u0644\u064a", "wikipedia:ar": "\u0627\u0644\u0642\u0627\u0645\u0634\u0644\u064a", "wikipedia:arc": "\u0729\u0721\u072b\u0720\u071d"}}, {"type": "node", "id": 567060147, "lat": 37.1033727, "lon": 40.9296228, "tags": {"name": "\u0639\u0627\u0645\u0648\u062f\u0627", "name:ar": "\u0639\u0627\u0645\u0648\u062f\u0627", "name:de": "Amuda", "name:en": "Amouda", "name:fr": "Amouda", "name:he": "\u05e2\u05d0\u05de\u05d5\u05d3\u05d0", "name:ja": "\u30a2\u30fc\u30e0\u30fc\u30c0", "name:ko": "\uc544\ubb34\ub2e4", "name:ku": "Am\u00fbda", "name:ml": "\u0d06\u0d2e\u0d41\u0d26", "name:ru": "\u0410\u043c\u0443\u0434\u0430", "place": "town", "population": "26821", "population:date": "2004", "source:population": "\u0627\u0644\u0645\u0643\u062a\u0628 \u0627\u0644\u0645\u0631\u0643\u0632\u064a \u0644\u0644\u0625\u062d\u0635\u0627\u0621", "wikidata": "Q481427"}}]}