{"version": 0.6, "generator": "Overpass API 0.7.62.4 2390de5a", "osm3s": {"timestamp_osm_base": "2025-01-08T06:55:15Z", "copyright": "The data included in this document is from www.openstreetmap.org. The data is made available under ODbL."}, "elements": [{"type": "node", "id": 1160881649, "lat": 31.7584309, "lon": 14.0146898, "tags": {"capital": "Bani Walid State", "ele": "270", "name": "\u0628\u0646\u064a \u0648\u0644\u064a\u062f", "name:af": "Bani Walid", "name:ar": "\u0628\u0646\u064a \u0648\u0644\u064a\u062f", "name:az": "Beni-Valid", "name:be": "\u0411\u0435\u043d\u0456-\u0412\u0430\u043b\u0456\u0434", "name:bg": "\u0411\u0430\u043d\u0438 \u0423\u0430\u043b\u0438\u0434", "name:cs": "Ban\u00ed Wal\u00edd", "name:de": "Bani Walid", "name:en": "Bani Walid", "name:eo": "Beni Valid", "name:es": "Bani Walid", "name:fi": "Bani Walid", "name:fr": "Beni Oualid", "name:hu": "Bani Val\u00edd", "name:id": "Beni Ulid", "name:it": "Beni Ulid", "name:ja": "\u30d0\u30cb\u30ef\u30ea\u30fc\u30c9", "name:ka": "\u10d1\u10d0\u10dc\u10d8-\u10d5\u10d0\u10da\u10d8\u10d3\u10d8", "name:kab": "Bni Walid", "name:ko": "\ubc14\ub2c8\uc648\ub9ac\ub4dc", "name:lt": "Bani Validas", "name:nl": "Bani Walid", "name:pl": "Bani Walid", "name:pt": "Bani Ualide", "name:ro": "Bani Walid", "name:ru": "\u0411\u0435\u043d\u0438-\u0412\u0430\u043b\u0438\u0434", "name:sr": "\u0411\u0430\u043d\u0438 \u0412\u0430\u043b\u0438\u0434", "name:sv": "Ban\u012b Wal\u012bd", "name:tr": "Beni Velid", "name:uk": "\u0411\u0435\u043d\u0456-\u0412\u0430\u043b\u0456\u0434", "name:vi": "Bani Walid", "name:vo": "B\u00e4ni V\u00e4lid", "name:zh": "\u5df4\u5c3c\u00b7\u74e6\u5229\u5fb7", "name:zu": "Bani Walid", "phone": "0021853", "place": "city", "population": "100000", "website": "https://www.bwmc.ly/", "wikidata": "Q244230", "wikipedia": "ar:\u0628\u0646\u064a \u0648\u0644\u064a\u062f"}}]}