{"version": 0.6, "generator": "Overpass API 0.7.62.4 2390de5a", "osm3s": {"timestamp_osm_base": "2025-01-08T06:27:42Z", "copyright": "The data included in this document is from www.openstreetmap.org. The data is made available under ODbL."}, "elements": [{"type": "node", "id": 270873161, "lat": 32.5556091, "lon": 35.8493023, "tags": {"name": "\u0625\u0631\u0628\u062f", "name:ar": "\u0625\u0631\u0628\u062f", "name:be": "\u0406\u0440\u0431\u0456\u0434", "name:bg": "\u0418\u0440\u0431\u0438\u0434", "name:de": "Irbid", "name:el": "\u0399\u03c1\u03bc\u03c0\u03af\u03bd\u03c4", "name:en": "Irbid", "name:es": "Irbid", "name:et": "Irbid", "name:eu": "Irbid", "name:fr": "Irbid", "name:he": "\u05d0\u05d9\u05e8\u05d1\u05d9\u05d3", "name:hi": "\u0907\u0930\u094d\u092c\u093f\u0926", "name:hy": "\u053b\u0580\u0562\u056b\u0564", "name:ks": "\u0627\u0631\u0628\u062f", "name:la": "Arabella", "name:ml": "\u0d07\u0d7c\u0d2c\u0d3f\u0d26\u0d4d", "name:ru": "\u0418\u0440\u0431\u0438\u0434", "name:uk": "\u0406\u0440\u0431\u0456\u0434", "name:ur": "\u0627\u0631\u0628\u062f", "place": "city", "population": "292000", "wikidata": "Q194165", "wikipedia": "ar:\u0625\u0631\u0628\u062f"}}, {"type": "node", "id": 567054206, "lat": 32.8284957, "lon": 36.1580681, "tags": {"name": "\u0627\u0644\u0634\u064a\u062e \u0645\u0633\u0643\u064a\u0646", "name:ar": "\u0627\u0644\u0634\u064a\u062e \u0645\u0633\u0643\u064a\u0646", "name:de": "asch-Scheich Miskin", "name:en": "Ash-Sheikh Miskin", "name:fr": "Ach-Cheikh Miskine", "name:he": "\u05d0-\u05e9\u05d9\u05d7\u05f3 \u05de\u05e1\u05db\u05d9\u05df", "name:ja": "\u30a2\u30c3\u30a0\u30b7\u30e3\u30a4\u30d5\u30fb\u30df\u30b9\u30ad\u30fc\u30f3", "name:ko": "\uc544\uc0e4\uc774\ud06c\ubbf8\uc2a4\ud0a8", "name:ml": "\u0d37\u0d46\u0d2f\u0d4d\u0d16\u0d4d \u0d2e\u0d3f\u0d38\u0d4d\u0d15\u0d40\u0d7b", "name:ru": "\u0410\u0448-\u0428\u0435\u0439\u0445-\u041c\u0438\u0441\u043a\u0438\u043d", "place": "town", "population": "24057", "population:date": "2004", "source:population": "\u0627\u0644\u0645\u0643\u062a\u0628 \u0627\u0644\u0645\u0631\u0643\u0632\u064a \u0644\u0644\u0625\u062d\u0635\u0627\u0621"}}, {"type": "node", "id": 567054402, "lat": 32.7489469, "lon": 36.2412161, "tags": {"name": "\u0639\u0644\u0645\u0627", "name:ar": "\u0639\u0644\u0645\u0627", "name:de": "Alma", "name:en": "Alma", "name:fr": "Alma", "name:he": "\u05e2\u05dc\u05de\u05d0", "name:ja": "\u30a2\u30eb\u30de", "name:ko": "\uc54c\ub9c8", "name:ru": "\u0410\u043b\u044c\u043c\u0430", "place": "town", "population": "6297", "population:date": "2004", "source:population": "\u0627\u0644\u0645\u0643\u062a\u0628 \u0627\u0644\u0645\u0631\u0643\u0632\u064a \u0644\u0644\u0625\u062d\u0635\u0627\u0621"}}, {"type": "node", "id": 567095223, "lat": 32.7899783, "lon": 36.152792, "tags": {"name": "\u0625\u0628\u0637\u0639", "name:ar": "\u0625\u0628\u0637\u0639", "name:de": "Ibta", "name:en": "Ibta", "name:fr": "Ibta", "name:he": "\u05d0\u05d1\u05d8\u05e2", "name:ja": "\u30a4\u30d6\u30bf\u30fc", "name:ko": "\uc774\ube0c\ud0c0", "name:ml": "\u0d07\u0d2c\u0d4d\u0d24", "name:ru": "\u0418\u0431\u0442\u0430", "place": "town", "population": "14283", "population:date": "2004", "source:population": "\u0627\u0644\u0645\u0643\u062a\u0628 \u0627\u0644\u0645\u0631\u0643\u0632\u064a \u0644\u0644\u0625\u062d\u0635\u0627\u0621"}}, {"type": "node", "id": 573511023, "lat": 32.551721, "lon": 36.184405, "tags": {"name": "\u0646\u0635\u064a\u0628", "name:ar": "\u0646\u0635\u064a\u0628", "name:de": "Nasib", "name:en": "Nasib", "name:fr": "Nasib", "name:he": "\u05e0\u05e1\u05d9\u05d1", "name:ja": "\u30ca\u30b9\u30a3\u30fc\u30d6", "name:ko": "\ub098\uc2dc\ube0c", "name:ru": "\u041d\u0430\u0441\u0438\u0431", "place": "town", "population": "5780", "population:date": "2004", "source:population": "\u0627\u0644\u0645\u0643\u062a\u0628 \u0627\u0644\u0645\u0631\u0643\u0632\u064a \u0644\u0644\u0625\u062d\u0635\u0627\u0621"}}, {"type": "node", "id": 573511070, "lat": 32.562895, "lon": 36.2461623, "tags": {"name": "\u0627\u0644\u0637\u064a\u0628\u0629", "name:ar": "\u0627\u0644\u0637\u064a\u0628\u0629", "name:de": "at-Tiba", "name:en": "At-Tiba", "name:fr": "At-Tiba", "name:he": "\u05d0-\u05d8\u05d9\u05d1\u05d4", "name:ja": "\u30a2\u30c3\u30a0\u30c6\u30a3\u30fc\u30d0", "name:ko": "\uc54b\ub760\ubc14", "name:ml": "\u0d05\u0d24\u0d4d\u0d24\u0d40\u0d2c", "name:ru": "\u0410\u0442-\u0422\u0438\u0431\u0430", "place": "town", "population": "7969", "population:date": "2004", "source:population": "\u0627\u0644\u0645\u0643\u062a\u0628 \u0627\u0644\u0645\u0631\u0643\u0632\u064a \u0644\u0644\u0625\u062d\u0635\u0627\u0621"}}, {"type": "node", "id": 573511213, "lat": 32.6289018, "lon": 36.2233337, "tags": {"name": "\u0635\u064a\u062f\u0627", "name:ar": "\u0635\u064a\u062f\u0627", "name:de": "Saida", "name:en": "Saida", "name:fr": "Sa\u00efda", "name:he": "\u05e1\u05d9\u05d3\u05d0", "name:ja": "\u30b5\u30a4\u30c0\u30fc", "name:ko": "\uc0ac\uc774\ub2e4", "name:ml": "\u0d38\u0d48\u0d26", "name:ru": "\u0421\u0430\u0439\u0434\u0430", "place": "town", "population": "11215", "population:date": "2004", "source:population": "\u0627\u0644\u0645\u0643\u062a\u0628 \u0627\u0644\u0645\u0631\u0643\u0632\u064a \u0644\u0644\u0625\u062d\u0635\u0627\u0621"}}, {"type": "node", "id": 573512188, "lat": 32.6880199, "lon": 36.2258244, "tags": {"name": "\u0627\u0644\u063a\u0627\u0631\u064a\u0629 \u0627\u0644\u063a\u0631\u064a\u0628\u0629", "name:ar": "\u0627\u0644\u063a\u0627\u0631\u064a\u0629 \u0627\u0644\u063a\u0631\u064a\u0628\u0629", "name:de": "al-Garija al-Garbija", "name:en": "Al-Ghariya al-Gharbiya", "name:fr": "Al-Gharia al-Gharbia", "name:he": "\u05d0\u05dc-\u05e2\u05f3\u05d0\u05e8\u05d9\u05d4 \u05d0\u05dc-\u05e2\u05f3\u05e8\u05d9\u05d1\u05d4", "name:ja": "\u30a2\u30eb\u30a0\u30ac\u30fc\u30ea\u30e4\u30fb\u30a2\u30eb\u30a0\u30ac\u30eb\u30d3\u30e4", "name:ko": "\uc54c\uac00\ub9ac\uc57c\uc54c\uac00\ub974\ube44\uc57c", "name:ru": "\u0410\u043b\u044c-\u0413\u0430\u0440\u0438\u0301\u0439\u044f-\u0430\u043b-\u0413\u0430\u0440\u0431\u0438\u0301\u0439\u044f", "place": "town", "population": "9784", "population:date": "2004", "source:population": "\u0627\u0644\u0645\u0643\u062a\u0628 \u0627\u0644\u0645\u0631\u0643\u0632\u064a \u0644\u0644\u0625\u062d\u0635\u0627\u0621"}}, {"type": "node", "id": 573513654, "lat": 32.754692, "lon": 36.1297713, "tags": {"name": "\u062f\u0627\u0639\u0644", "name:ar": "\u062f\u0627\u0639\u0644", "name:de": "Dael", "name:en": "Da'el", "name:fr": "Da\u00ebl", "name:he": "\u05d3\u05d0\u05e2\u05dc", "name:ja": "\u30c0\u30fc\u30a8\u30eb", "name:ko": "\ub2e4\uc5d8", "name:ml": "\u0d26\u0d3e\u0d2f\u0d3f\u0d7d", "name:ru": "\u0414\u0430\u044d\u043b\u044c", "place": "town", "population": "29408", "population:date": "2004", "source:population": "\u0627\u0644\u0645\u0643\u062a\u0628 \u0627\u0644\u0645\u0631\u0643\u0632\u064a \u0644\u0644\u0625\u062d\u0635\u0627\u0621", "wikidata": "Q1026328", "wikipedia": "ar:\u062f\u0627\u0639\u0644"}}, {"type": "node", "id": 573514005, "lat": 32.6664138, "lon": 36.1147901, "tags": {"name": "\u0639\u062a\u0645\u0627\u0646", "name:ar": "\u0639\u062a\u0645\u0627\u0646", "name:de": "Atman", "name:en": "Atman", "name:fr": "Atmane", "name:he": "\u05e2\u05ea\u05de\u05d0\u05df", "name:ja": "\u30a2\u30c8\u30de\u30fc\u30f3", "name:ko": "\uc544\ud2b8\ub9cc", "name:ru": "\u0410\u0442\u043c\u0430\u043d", "place": "town", "population": "8929", "population:date": "2004", "source:population": "\u0627\u0644\u0645\u0643\u062a\u0628 \u0627\u0644\u0645\u0631\u0643\u0632\u064a \u0644\u0644\u0625\u062d\u0635\u0627\u0621"}}, {"type": "node", "id": 573514405, "lat": 32.6762645, "lon": 35.9833573, "tags": {"alt_name": "\u0623\u0628\u0648 \u0642\u0646\u0637\u0631\u0629", "alt_name:ar": "\u0623\u0628\u0648 \u0642\u0646\u0637\u0631\u0629", "alt_name:de": "Abu Kentara", "alt_name:en": "Abu Qantara", "alt_name:fr": "Abou Qantara", "name": "\u062a\u0644 \u0634\u0647\u0627\u0628", "name:ar": "\u062a\u0644 \u0634\u0647\u0627\u0628", "name:de": "Tell Schihab", "name:en": "Tell Shihab", "name:fr": "Tell Chihab", "name:he": "\u05ea\u05dc \u05e9\u05d4\u05d0\u05d1", "name:ja": "\u30bf\u30c3\u30eb\u30fb\u30b7\u30cf\u30fc\u30d6", "name:ko": "\ud0c8\uc2dc\ud558\ube0c", "name:ru": "\u0422\u0430\u043b\u043b\u044c-\u0428\u0438\u0445\u0430\u0431", "place": "town", "population": "9430", "population:date": "2004", "source:population": "\u0627\u0644\u0645\u0643\u062a\u0628 \u0627\u0644\u0645\u0631\u0643\u0632\u064a \u0644\u0644\u0625\u062d\u0635\u0627\u0621"}}, {"type": "node", "id": 573514525, "lat": 32.7372434, "lon": 36.068418, "tags": {"name": "\u0637\u0641\u0633", "name:ar": "\u0637\u0641\u0633", "name:de": "Tafs", "name:en": "Tafs", "name:fr": "Tafs", "name:he": "\u05d8\u05e4\u05e1", "name:ja": "\u30bf\u30d5\u30b9", "name:ko": "\ud0c0\ud504\uc2a4", "name:ml": "\u0d24\u0d2b\u0d38\u0d4d", "name:ru": "\u0422\u0430\u0444\u0441", "place": "town", "population": "32236", "population:date": "2004", "source:population": "\u0627\u0644\u0645\u0643\u062a\u0628 \u0627\u0644\u0645\u0631\u0643\u0632\u064a \u0644\u0644\u0625\u062d\u0635\u0627\u0621", "wikidata": "Q4120104"}}, {"type": "node", "id": 573514757, "lat": 32.6756191, "lon": 36.0569421, "tags": {"name": "\u0627\u0644\u064a\u0627\u062f\u0648\u062f\u0629", "name:ar": "\u0627\u0644\u064a\u0627\u062f\u0648\u062f\u0629", "name:de": "al-Jaduda", "name:en": "Al-Yaduda", "name:fr": "Al-Yaduda", "name:he": "\u05d0\u05dc-\u05d9\u05d0\u05d3\u05d5\u05d3\u05d4", "name:ja": "\u30a2\u30eb\u30a0\u30e4\u30c9\u30a5\u30fc\u30c0", "name:ko": "\uc54c\uc57c\ub450\ub2e4", "name:ru": "\u0410\u043b\u044c-\u042f\u0434\u0443\u0434\u0430", "place": "town", "population": "8967", "population:date": "2004", "source:population": "\u0627\u0644\u0645\u0643\u062a\u0628 \u0627\u0644\u0645\u0631\u0643\u0632\u064a \u0644\u0644\u0625\u062d\u0635\u0627\u0621"}}, {"type": "node", "id": 573515006, "lat": 32.711093, "lon": 36.0269289, "tags": {"name": "\u0645\u0632\u064a\u0631\u064a\u0628", "name:ar": "\u0645\u0632\u064a\u0631\u064a\u0628", "name:de": "Meseireb", "name:en": "Mezeireb", "name:fr": "Mezeireb", "name:he": "\u05de\u05d6\u05d9\u05e8\u05d9\u05d1", "name:ja": "\u30e1\u30bc\u30a4\u30ec\u30d6", "name:ko": "\uba54\uc81c\uc774\ub808\ube0c", "name:ml": "\u0d2e\u0d41\u0d38\u0d48\u0d31\u0d3f\u0d2c\u0d4d", "name:ru": "\u041c\u0435\u0437\u0435\u0439\u0440\u0435\u0431", "place": "town", "population": "12640", "population:date": "2004", "source:population": "\u0627\u0644\u0645\u0643\u062a\u0628 \u0627\u0644\u0645\u0631\u0643\u0632\u064a \u0644\u0644\u0625\u062d\u0635\u0627\u0621", "wikidata": "Q6944401", "wikipedia": "ar:\u0627\u0644\u0645\u0632\u064a\u0631\u064a\u0628"}}, {"type": "node", "id": 573515240, "lat": 32.6330753, "lon": 36.1593956, "tags": {"name": "\u0627\u0644\u0646\u0639\u064a\u0645\u0629", "name:ar": "\u0627\u0644\u0646\u0639\u064a\u0645\u0629", "name:de": "an-Naima", "name:en": "An-Naima", "name:fr": "An-Na\u00efma", "name:he": "\u05d0-\u05e0\u05e2\u05d9\u05de\u05d4", "name:ja": "\u30a2\u30c3\u30a0\u30cd\u30a2\u30a4\u30de", "name:ko": "\uc548\ub124\uc544\uc774\ub9c8", "name:ru": "\u0410\u043d-\u041d\u0430\u044c\u0438\u043c\u0430", "place": "town", "population": "7472", "population:date": "2004", "source:population": "\u0627\u0644\u0645\u0643\u062a\u0628 \u0627\u0644\u0645\u0631\u0643\u0632\u064a \u0644\u0644\u0625\u062d\u0635\u0627\u0621"}}, {"type": "node", "id": 573516038, "lat": 32.7811111, "lon": 35.9347222, "tags": {"name": "\u0633\u062d\u0645 \u0627\u0644\u062c\u0648\u0644\u0627\u0646", "name:ar": "\u0633\u062d\u0645 \u0627\u0644\u062c\u0648\u0644\u0627\u0646", "name:de": "Sahm al-Dscholan", "name:en": "Sahm al-Jolan", "name:fr": "Sahm al-Djolane", "name:he": "\u05e1\u05d7\u05dd \u05d0\u05dc-\u05d2\u05f3\u05d5\u05dc\u05d0\u05df", "name:ja": "\u30b5\u30d8\u30e0\u30fb\u30a2\u30eb\u30a0\u30b8\u30e7\u30fc\u30e9\u30fc\u30f3", "name:ko": "\uc0ac\ud750\ubbc0\uc54c\uc878\ub780", "name:ru": "\u0421\u0430\u0445\u043c-\u0430\u043b-\u0414\u0436\u043e\u043b\u0430\u043d", "place": "town", "population": "6572", "population:date": "2004", "source:population": "\u0627\u0644\u0645\u0643\u062a\u0628 \u0627\u0644\u0645\u0631\u0643\u0632\u064a \u0644\u0644\u0625\u062d\u0635\u0627\u0621"}}, {"type": "node", "id": 573516235, "lat": 32.6227776, "lon": 36.1067639, "tags": {"name": "\u062f\u0631\u0639\u0627", "name:ar": "\u062f\u0631\u0639\u0627", "name:arc": "\u0715\u072a\u0725\u0710", "name:az": "D\u0259ra", "name:ckb": "\u062f\u06d5\u0631\u0639\u0627", "name:cs": "Dar'\u00e1", "name:de": "Daraa", "name:el": "\u039d\u03c4\u03b1\u03c1\u03ac\u03b1", "name:en": "Dar'a", "name:es": "Daraa", "name:et": "Dar\u02bf\u0101", "name:fr": "Deraa", "name:grc": "\u1f08\u03b4\u03c1\u03ac\u03b1", "name:he": "\u05d3\u05e8\u05e2\u05d0", "name:hr": "Dara", "name:hu": "Dara", "name:hy": "\u0534\u0561\u057c\u0561\u0561", "name:ja": "\u30c0\u30eb\u30a2\u30fc", "name:ko": "\ub2e4\ub77c\uc544", "name:ku": "Der\u2019a", "name:lt": "Dara", "name:ml": "\u0d26\u0d31\u0d3e", "name:nl": "Daraa", "name:pl": "Dara", "name:ru": "\u0414\u0430\u0440\u044a\u0430", "name:sr": "\u0414\u0430\u0440\u0430", "name:tr": "Dera", "name:uk": "\u0414\u0430\u0440\u0430", "name:zh": "\u5fb7\u62c9", "place": "city", "population": "97969", "population:date": "2004", "source:population": "\u0627\u0644\u0645\u0643\u062a\u0628 \u0627\u0644\u0645\u0631\u0643\u0632\u064a \u0644\u0644\u0625\u062d\u0635\u0627\u0621", "wikidata": "Q238217", "wikipedia": "ar:\u062f\u0631\u0639\u0627"}}, {"type": "node", "id": 798858313, "lat": 32.5984815, "lon": 35.8532938, "tags": {"int_name": "Bayt Ra\u2019s; Bayt Ras", "name": "\u0628\u064a\u062a \u0631\u0623\u0633", "name:ar": "\u0628\u064a\u062a \u0631\u0623\u0633", "name:de": "Bayt Ras", "name:en": "Bayt Ras", "name:fr": "Bayt Ras", "place": "town"}}, {"type": "node", "id": 802822908, "lat": 32.559167, "lon": 36.006944, "tags": {"int_name": "Ar Ramth\u0101;Al Ramtha;Al Remtha", "name": "\u0627\u0644\u0631\u0645\u062b\u0627", "name:ar": "\u0627\u0644\u0631\u0645\u062b\u0627", "name:de": "Al Ramtha", "name:en": "Ar Ramtha", "name:fr": "Ar Ramtha", "name:ml": "\u0d05\u0d7c-\u0d31\u0d02\u0d38", "name:ru": "\u042d\u0440-\u0420\u0430\u043c\u0442\u0430", "name:uk": "\u0415\u0440-\u0420\u0430\u043c\u0441\u0430", "place": "city", "wikidata": "Q31594", "wikipedia": "en:Ar-Ramtha"}}, {"type": "node", "id": 1216503297, "lat": 32.5017565, "lon": 36.1713454}, {"type": "node", "id": 1571696142, "lat": 32.5119331, "lon": 36.1920981}, {"type": "node", "id": 1571696147, "lat": 32.5145342, "lon": 36.1946193}, {"type": "node", "id": 1571696179, "lat": 32.5084054, "lon": 36.19139}, {"type": "node", "id": 1571696244, "lat": 32.51182, "lon": 36.1949627}, {"type": "node", "id": 1571696265, "lat": 32.5123855, "lon": 36.2016467}, {"type": "node", "id": 1571696301, "lat": 32.51595, "lon": 36.1983208}, {"type": "node", "id": 1571696322, "lat": 32.5108836, "lon": 36.1890511}, {"type": "node", "id": 1571696324, "lat": 32.5159455, "lon": 36.2000481}, {"type": "node", "id": 1571696364, "lat": 32.5082552, "lon": 36.1990825}, {"type": "node", "id": 1571696368, "lat": 32.5084416, "lon": 36.2026982}, {"type": "node", "id": 1571696399, "lat": 32.5086769, "lon": 36.1983208}, {"type": "node", "id": 1571696400, "lat": 32.5155158, "lon": 36.2009172}, {"type": "node", "id": 1571696480, "lat": 32.5142673, "lon": 36.201518}, {"type": "node", "id": 1571696482, "lat": 32.5096721, "lon": 36.2004022}, {"type": "node", "id": 1571696506, "lat": 32.5093464, "lon": 36.202784}, {"type": "node", "id": 1571696570, "lat": 32.5078807, "lon": 36.1957244}, {"type": "node", "id": 1571696579, "lat": 32.5065778, "lon": 36.198471}, {"type": "node", "id": 1571696595, "lat": 32.5058901, "lon": 36.1988143}, {"type": "node", "id": 1571696621, "lat": 32.5149503, "lon": 36.1972801}, {"type": "node", "id": 1571696627, "lat": 32.5072292, "lon": 36.1921839}, {"type": "node", "id": 1571696634, "lat": 32.5059625, "lon": 36.1956171}, {"type": "node", "id": 1571696649, "lat": 32.5114626, "lon": 36.2015824}, {"type": "node", "id": 1571696680, "lat": 32.5131997, "lon": 36.1941795}, {"type": "node", "id": 1571696716, "lat": 32.5115169, "lon": 36.2007455}, {"type": "node", "id": 1571696795, "lat": 32.5081702, "lon": 36.188815}, {"type": "node", "id": 1571696828, "lat": 32.5065959, "lon": 36.2002091}, {"type": "node", "id": 1571696832, "lat": 32.5057815, "lon": 36.1936859}, {"type": "node", "id": 1571696860, "lat": 32.5151675, "lon": 36.1979667}, {"type": "node", "id": 1571696949, "lat": 32.5130007, "lon": 36.1945657}, {"type": "node", "id": 1571696984, "lat": 32.5112998, "lon": 36.1903171}, {"type": "node", "id": 1571697090, "lat": 32.5131816, "lon": 36.2010459}, {"type": "node", "id": 1571697105, "lat": 32.5085502, "lon": 36.2017326}, {"type": "node", "id": 1571697123, "lat": 32.5112952, "lon": 36.1919801}, {"type": "node", "id": 1571697135, "lat": 32.5068492, "lon": 36.1935572}, {"type": "node", "id": 2358802644, "lat": 32.5110588, "lon": 36.1960556, "tags": {"int_name": "Jaber", "name": "\u062c\u0627\u0628\u0631 \u0627\u0644\u0633\u0631\u062d\u0627\u0646", "name:en": "Jaber as-Sirhan", "name:fr": "Jaber as-Sirhan", "name:ml": "\u0d1c\u0d3e\u0d2c\u0d7c \u0d05\u0d38\u0d4d-\u0d38\u0d3f\u0d7c\u0d39\u0d3e\u0d7b", "name:nl": "Jaber as-Sirhan", "place": "town", "wikidata": "Q33772030"}}, {"type": "node", "id": 3774848267, "lat": 32.505904, "lon": 36.1715063}, {"type": "node", "id": 3823795773, "lat": 32.5086069, "lon": 36.00517}, {"type": "node", "id": 3823795774, "lat": 32.5131082, "lon": 35.9831176}, {"type": "node", "id": 3823795775, "lat": 32.5269235, "lon": 36.0143624}, {"type": "node", "id": 3823795776, "lat": 32.5305237, "lon": 36.0440242}, {"type": "node", "id": 3823795777, "lat": 32.5308451, "lon": 35.9888945}, {"type": "node", "id": 3823795778, "lat": 32.5460157, "lon": 35.9765418}, {"type": "node", "id": 3823795779, "lat": 32.5739718, "lon": 35.9759318}, {"type": "node", "id": 3823795780, "lat": 32.5744353, "lon": 36.042752}, {"type": "node", "id": 3823795781, "lat": 32.5830957, "lon": 35.9806594}, {"type": "node", "id": 3823795782, "lat": 32.5818634, "lon": 36.0334127}, {"type": "node", "id": 3823795783, "lat": 32.5887496, "lon": 35.9983497}, {"type": "node", "id": 3885116195, "lat": 32.7352321, "lon": 36.2051012, "tags": {"name": "\u062e\u0631\u0628\u0629 \u063a\u0632\u0627\u0644\u0629", "name:ar": "\u062e\u0631\u0628\u0629 \u063a\u0632\u0627\u0644\u0629", "name:de": "Chirbat Gasala", "name:en": "Khirbat Ghazala", "name:fr": "Khirbat Ghazala", "name:he": "\u05d7\u05f3\u05e8\u05d1\u05ea \u05e2\u05f3\u05d6\u05d0\u05dc\u05d4", "name:ja": "\u30d2\u30eb\u30d0\u30c8\u30fb\u30ac\u30b6\u30fc\u30e9", "name:ko": "\ud0a4\ub974\ubc14\ud2b8\uac00\uc798\ub77c", "name:ml": "\u0d16\u0d3f\u0d7c\u0d2c\u0d24\u0d4d \u0d17\u0d38\u0d3e\u0d32", "name:ru": "\u0425\u0438\u0440\u0431\u0430\u0442-\u0413\u0430\u0437\u0430\u043b\u0430", "place": "town", "population": "16240", "population:date": "2004", "source:population": "\u0627\u0644\u0645\u0643\u062a\u0628 \u0627\u0644\u0645\u0631\u0643\u0632\u064a \u0644\u0644\u0625\u062d\u0635\u0627\u0621"}}, {"type": "node", "id": 5758978345, "lat": 32.5808034, "lon": 36.0389353}, {"type": "node", "id": 5758978352, "lat": 32.5761994, "lon": 36.0414828}, {"type": "node", "id": 5903234027, "lat": 32.5320544, "lon": 35.9879099}, {"type": "node", "id": 6848887836, "lat": 32.6394347, "lon": 35.9895072, "tags": {"name": "\u0627\u0644\u0637\u0631\u0647", "name:ceb": "A\u0163 \u0162urrah", "name:en": "Al-Turah", "name:es": "At-Turrah", "name:fr": "At Turrah", "name:ml": "\u0d05\u0d24\u0d4d\u0d24\u0d41\u0d31", "name:sv": "A\u0163 \u0162urrah", "place": "town"}}, {"type": "node", "id": 6947432624, "lat": 32.5346399, "lon": 36.043905}, {"type": "node", "id": 6960008234, "lat": 32.5747711, "lon": 36.0425104}, {"type": "node", "id": 6960008236, "lat": 32.5748471, "lon": 36.0424557}, {"type": "node", "id": 7054837132, "lat": 32.526817, "lon": 36.2000959}, {"type": "node", "id": 7054837133, "lat": 32.5273959, "lon": 36.1968987}, {"type": "node", "id": 7054837137, "lat": 32.5182592, "lon": 36.1721365}, {"type": "node", "id": 7054837138, "lat": 32.5076738, "lon": 36.1725657}, {"type": "node", "id": 7054837139, "lat": 32.500761, "lon": 36.2035935}, {"type": "node", "id": 7054837140, "lat": 32.5016519, "lon": 36.2090008}, {"type": "node", "id": 7549550949, "lat": 32.5107028, "lon": 35.8558559, "tags": {"alt_name": "Aidoon", "name": "\u0627\u064a\u062f\u0648\u0646", "name:en": "Aydoun", "name:fr": "Aydoun", "place": "town", "wikidata": "Q27125371"}}, {"type": "node", "id": 7549551008, "lat": 32.5043316, "lon": 35.8959286, "tags": {"alt_name": "As-Sarih", "name": "\u0627\u0644\u0635\u0631\u064a\u062d", "name:en": "Sarieh", "name:fr": "Sarieh", "place": "town", "wikidata": "Q4165625"}}, {"type": "node", "id": 9647063460, "lat": 32.5826206, "lon": 36.0295529}, {"type": "node", "id": 11901820570, "lat": 32.5188976, "lon": 36.1763329}, {"type": "node", "id": 11901820571, "lat": 32.519639, "lon": 36.1816591}, {"type": "node", "id": 11901820572, "lat": 32.5226886, "lon": 36.190113}, {"type": "node", "id": 11901820577, "lat": 32.5296971, "lon": 36.1999903}, {"type": "node", "id": 11901820578, "lat": 32.5298545, "lon": 36.1999978}, {"type": "node", "id": 11901820579, "lat": 32.5293618, "lon": 36.2010864}, {"type": "node", "id": 11901820580, "lat": 32.5276486, "lon": 36.2047}, {"type": "node", "id": 11901820581, "lat": 32.5261132, "lon": 36.2055853}, {"type": "node", "id": 11901820582, "lat": 32.5217957, "lon": 36.2063111}, {"type": "node", "id": 11901820583, "lat": 32.5196415, "lon": 36.2066732}, {"type": "node", "id": 11901820584, "lat": 32.5142227, "lon": 36.2061174}, {"type": "node", "id": 11901820585, "lat": 32.5077389, "lon": 36.2054523}, {"type": "node", "id": 11901820586, "lat": 32.5058426, "lon": 36.2066198}, {"type": "node", "id": 11901820588, "lat": 32.5291503, "lon": 36.2015536}, {"type": "way", "id": 143615493, "nodes": [1571696301, 1571696324, 1571696400, 1571696480, 1571697090, 1571696265, 1571696649, 1571696716, 1571696482, 1571696506, 1571696368, 1571697105, 1571696828, 1571696595, 1571696579, 1571696364, 1571696399, 1571696570, 1571696634, 1571696832, 1571697135, 1571696627, 1571696179, 1571696795, 1571696322, 1571696984, 1571697123, 1571696142, 1571696244, 1571696949, 1571696680, 1571696147, 1571696621, 1571696860, 1571696301], "tags": {"name": "\u062c\u0627\u0628\u0631 \u0627\u0644\u0633\u0631\u062d\u0627\u0646", "name:en": "Jaber as-Sirhan", "name:fr": "Jaber as-Sirhan", "name:nl": "Jaber as-Sirhan", "place": "town"}}, {"type": "way", "id": 379035377, "nodes": [3823795781, 3823795779, 3823795778, 5903234027, 3823795777, 3823795774, 3823795773, 3823795775, 3823795776, 6947432624, 3823795780, 6960008234, 6960008236, 5758978352, 5758978345, 3823795782, 9647063460, 3823795783, 3823795781], "tags": {"int_name": "Ar Ramth\u0101; Al Ramtha; Al Remtha", "is_in": "Jordan, \u0627\u0644\u0623\u0631\u062f\u0646", "name": "\u0627\u0644\u0631\u0645\u062b\u0627", "name:ar": "\u0627\u0644\u0631\u0645\u062b\u0627", "name:de": "Al Ramtha", "name:en": "Al Ramtha", "name:fr": "Al Ramtha", "name:ru": "\u042d\u0440-\u0420\u0430\u043c\u0442\u0430", "place": "town", "wikidata": "Q31594", "wikipedia": "en:Ar Ramtha"}}, {"type": "way", "id": 755223453, "nodes": [11901820577, 7054837132, 7054837133, 11901820572, 11901820571, 11901820570, 7054837137, 7054837138, 3774848267, 1216503297, 7054837139, 7054837140, 11901820586, 11901820585, 11901820584, 11901820583, 11901820582, 11901820581, 11901820580, 11901820588, 11901820579, 11901820578, 11901820577], "tags": {"name": "\u062c\u0627\u0628\u0631 \u0627\u0644\u0633\u0631\u062d\u0627\u0646", "name:en": "Jaber as-Sirhan", "name:fr": "Jaber as-Sirhan", "name:nl": "Jaber as-Sirhan", "place": "town"}}]}