{"version": 0.6, "generator": "Overpass API 0.7.62.4 2390de5a", "osm3s": {"timestamp_osm_base": "2025-01-08T06:50:13Z", "copyright": "The data included in this document is from www.openstreetmap.org. The data is made available under ODbL."}, "elements": [{"type": "node", "id": 288491858, "lat": 32.7609529, "lon": 21.7577175, "tags": {"alt_name": "El Beida", "name": "\u0627\u0644\u0628\u064a\u0636\u0627\u0621", "name:ar": "\u0627\u0644\u0628\u064a\u0636\u0627\u0621", "name:de": "al-Baida", "name:en": "Bayda", "name:et": "Al-Bay\u1e11\u0101\u2019", "name:eu": "Baida", "name:fi": "Beida", "name:fr": "El Be\u00efda", "name:kab": "Lbay\u1e0da", "name:pl": "Al-Bajda", "name:ru": "\u0410\u043b\u044c-\u0411\u0430\u0439\u0434\u0430", "name:uk": "\u0410\u043b\u044c-\u0411\u0430\u0439\u0434\u0430", "name:zh": "\u8d1d\u8fbe", "place": "city", "population": "310329", "wikidata": "Q35784", "wikipedia": "en:Bayda, Libya"}}, {"type": "node", "id": 1565511354, "lat": 32.751944, "lon": 21.626667, "tags": {"int_name": "Massah", "name": "\u0645\u0633\u0629", "name:ar": "\u0645\u0633\u0629", "name:en": "Massa", "name:fr": "Massa", "name:it": "Massa", "pcode": "LY-17-10735", "place": "town", "population": "3104", "shabya_cd": "17", "source": "NGA;OCHA"}}, {"type": "node", "id": 1565511715, "lat": 32.5373828, "lon": 21.5764655, "tags": {"name": "\u0642\u0646\u062f\u0648\u0644\u0629", "name:ar": "\u0642\u0646\u062f\u0648\u0644\u0629", "name:en": "Qandulah", "name:fr": "Qandulah", "pcode": "LY-17-10643", "place": "town", "population": "2422", "shabya_cd": "17", "source": "NGA;OCHA"}}, {"type": "node", "id": 1565512736, "lat": 32.590278, "lon": 21.715833, "tags": {"name": "\u0627\u0633\u0644\u0646\u0637\u0629", "name:ar": "\u0627\u0633\u0644\u0646\u0637\u0629", "name:en": "ASuluntah", "name:fr": "ASuluntah", "pcode": "LY-17-10670", "place": "town", "population": "2512", "shabya_cd": "17", "source": "NGA;OCHA", "wikidata": "Q7541322", "wikipedia": "ar:\u0627\u0633\u0644\u0646\u0637\u0629"}}]}