{"version": 0.6, "generator": "Overpass API 0.7.62.4 2390de5a", "osm3s": {"timestamp_osm_base": "2025-01-08T06:22:27Z", "copyright": "The data included in this document is from www.openstreetmap.org. The data is made available under ODbL."}, "elements": [{"type": "node", "id": 1223261573, "lat": 13.780236, "lon": 43.869006, "tags": {"GNS:dsg_code": "PPLA2", "GNS:dsg_name": "captial of a second-order administrative division", "GNS:id": "297348", "alt_name": "Rub\u016b\u2018 Ban\u012b Sha\u2018b; Dar Yahud; Rubu` Bani Sha`b; D\u0101r Yah\u016bd", "int_name": "Ar Rub\u016b\u2018", "name": "\u0627\u0644\u0631\u0628\u0648\u0639", "name:ar": "\u0627\u0644\u0631\u0628\u0648\u0639", "name:de": "Ar Rubu`", "name:en": "Ar Rubu`", "name:fr": "Ar Rubu`", "place": "town", "population": "510", "population:date": "2004-12-17", "source:name": "GNS", "source:population": "YCSO2004:15-2-32-2"}}, {"type": "node", "id": 1224322317, "lat": 13.931702, "lon": 43.483099, "tags": {"GNS:dsg_code": "PPLA2", "GNS:dsg_name": "captial of a second-order administrative division", "GNS:id": "-3187630", "alt_name": "Hais; \u1e24ais; Haiz", "int_name": "\u1e28ays", "name": "\u062d\u064a\u0633", "name:ar": "\u062d\u064a\u0633", "name:de": "Hays", "name:en": "Hays", "name:fr": "Hays", "name:uk": "\u0425\u0430\u0439\u0441", "place": "town", "population": "14974", "population:date": "2004-12-17", "source:name": "GNS", "source:population": "YCSO2004:18-19-21-1"}}, {"type": "node", "id": 1224323267, "lat": 13.7620093, "lon": 43.7999418, "tags": {"GNS:dsg_code": "PPLA2", "GNS:dsg_name": "captial of a second-order administrative division", "GNS:id": "-3789296", "int_name": "Ar Rawnah", "name": "\u0627\u0644\u0631\u0648\u0646\u0629", "name:ar": "\u0627\u0644\u0631\u0648\u0646\u0629", "name:de": "Ar Rawnah", "name:en": "Ar Rawnah", "name:fr": "Ar Rawnah", "place": "town", "population": "3040", "source:name": "GNS", "source:population": "YCSO2004:15-3-27-1"}}, {"type": "node", "id": 1224326627, "lat": 13.6606446, "lon": 43.6859492, "tags": {"GNS:dsg_code": "PPLA2", "GNS:dsg_name": "captial of a second-order administrative division", "GNS:id": "297407", "int_name": "Maqbanah", "name": "\u0645\u0642\u0628\u0646\u0629", "name:ar": "\u0645\u0642\u0628\u0646\u0629", "name:de": "Maqbanah", "name:en": "Maqbanah", "name:fr": "Maqbanah", "place": "town", "population": "2302", "population:date": "2004-12-17", "source:name": "GNS", "source:population": "YCSO2004:15-4-28-1"}}, {"type": "node", "id": 6936501816, "lat": 13.756177, "lon": 43.798513, "tags": {"GNS:dsg_code": "PPL", "GNS:dsg_name": "populated place", "GNS:id": "14618807", "int_name": "Ar Rawnah", "name": "\u0627\u0644\u0631\u0648\u0646\u0629", "name:ar": "\u0627\u0644\u0631\u0648\u0646\u0629", "name:en": "Ar Rawnah", "place": "town", "population": "3040", "population:date": "2004-12-17", "source:name": "GNS", "source:population": "YCSO2004:15-3-27-1"}}]}