{"version": 0.6, "generator": "Overpass API 0.7.62.4 2390de5a", "osm3s": {"timestamp_osm_base": "2025-01-08T06:27:42Z", "copyright": "The data included in this document is from www.openstreetmap.org. The data is made available under ODbL."}, "elements": [{"type": "node", "id": 5434897939, "lat": 31.4985112, "lon": 35.7800943, "tags": {"int_name": "Dhiban", "name": "\u0630\u064a\u0628\u0627\u0646", "name:ar": "\u0630\u064a\u0628\u0627\u0646", "name:de": "Dhiban", "name:en": "Dhiban", "name:fr": "Dhiban", "name:he": "\u05d3\u05d9\u05d1\u05d5\u05df", "name:id": "Dhiban", "name:ml": "\u0d27\u0d3f\u0d2c\u0d3e\u0d7b", "name:nl": "Dhiban", "name:nn": "Dhiban", "name:pl": "Ziban", "name:ru": "\u0414\u0438\u0432\u043e\u043d", "name:sq": "Dhiban", "name:ur": "\u0630\u06cc\u0628\u0627\u0646", "place": "town", "wikidata": "Q1019166", "wikipedia": "en:Dhiban, Jordan"}}, {"type": "node", "id": 5434934089, "lat": 31.2692159, "lon": 35.737769, "tags": {"int_name": "Rabba", "name": "\u0627\u0644\u0631\u0628\u0629", "name:ar": "\u0627\u0644\u0631\u0628\u0629\u200e", "name:bn": "\u09b0\u09be\u09ac\u09cd\u09ac\u09be", "name:de": "Rabbat-Moab", "name:en": "Rabba", "name:fr": "Rabba", "name:ml": "\u0d31\u0d2c\u0d4d\u0d2c", "old_name": "Areopolis", "place": "town", "wikidata": "Q847351", "wikipedia": "en:Rabba"}}]}