{"version": 0.6, "generator": "Overpass API 0.7.62.4 2390de5a", "osm3s": {"timestamp_osm_base": "2025-01-08T06:24:35Z", "copyright": "The data included in this document is from www.openstreetmap.org. The data is made available under ODbL."}, "elements": [{"type": "node", "id": 1721858794, "lat": 23.9228931, "lon": 57.1694318, "tags": {"alt_name": "\u0627\u0644\u0628\u062f\u0627\u064a\u0629", "int_name": "Al Bud\u0101yah, Al Budayah", "name": "\u0627\u0644\u0628\u062f\u0627\u064a\u0629", "name:ar": "\u0627\u0644\u0628\u062f\u0627\u064a\u0629", "name:ar1": "\u0627\u0644\u0628\u062f\u0627\u064a\u0629", "name:de": "Al Budayah", "name:en": "Al Budayah", "name:fr": "Al Budayah", "name:ml": "\u0d05\u0d7d-\u0d2c\u0d41\u0d26\u0d3e\u0d2f", "place": "town"}}, {"type": "node", "id": 2501618275, "lat": 23.9708646, "lon": 57.0910976, "tags": {"name": "\u0627\u0644\u062e\u0627\u0628\u0648\u0631\u0629", "name:ar": "\u0627\u0644\u062e\u0627\u0628\u0648\u0631\u0629", "name:en": "Al Khaburah", "name:he": "\u05d0\u05dc \u05d7\u05d1\u05d5\u05e8\u05d4", "name:hi": "\u0905\u0932 \u0916\u093e\u092c\u0941\u0930\u093e\u0939", "name:ml": "\u0d05\u0d7d-\u0d16\u0d3e\u0d2c\u0d41\u0d31", "place": "city", "population": "42119", "wikidata": "Q26201571", "wikipedia": "ar:\u0627\u0644\u062e\u0627\u0628\u0648\u0631\u0629 (\u0627\u0644\u062e\u0627\u0628\u0648\u0631\u0629)"}}, {"type": "node", "id": 11874547780, "lat": 23.6059196, "lon": 56.9692777, "tags": {"alt_name": "Suri, S\u016br\u012b, swry, \u0633\u0648\u0631\u064a", "name": "Suri", "name:en": "Suri", "name:es": "Suri", "name:fr": "Suri", "place": "town", "source": "https://www.mindat.org/feature-286231.html"}}, {"type": "node", "id": 11874558593, "lat": 23.6268057, "lon": 56.9537957, "tags": {"alt_name": "Majzi, Majz\u012b, Mijzi, Mijz\u012b, mjzy, \u0645\u062c\u0632\u064a", "name": "Majzi", "name:en": "Majzi", "name:es": "Majzi", "name:fr": "Majzi", "place": "town", "source": "https://www.mindat.org/feature-287375.html"}}, {"type": "node", "id": 11874573713, "lat": 23.6040992, "lon": 56.9574547, "tags": {"alt_name": "Hayl Kalabi, Hayl Kilabi, hyl klaby, \u062d\u064a\u0644 \u0643\u0644\u0627\u0628\u064a, \u1e24ayl Kal\u0101b\u012b, \u1e28ayl Kil\u0101b\u012b", "name": "Hayl Kalabi", "name:en": "Hayl Kalabi", "name:es": "Hayl Kalabi", "name:fr": "Hayl Kalabi", "place": "town", "source": "https://www.mindat.org/feature-11800165.html"}}, {"type": "node", "id": 11874634666, "lat": 23.6701041, "lon": 56.924752, "tags": {"alt_name": "Al Harmali, Al Harmaliyah, Al \u1e24armal\u012b, Al \u1e28armal\u012b, Al \u1e28armal\u012byah, Harmali, Harmaliyah, alhrmly, \u0627\u0644\u062d\u0631\u0645\u0644\u064a, \u1e28armal\u012b", "name": "Al Harmali", "name:de": "Al Harmali", "name:en": "Al Harmali", "name:es": "Al Harmali", "name:fr": "Al Harmali", "place": "town", "source": "https://www.mindat.org/feature-288051.html"}}, {"type": "node", "id": 11874643432, "lat": 23.6534045, "lon": 56.9255608, "tags": {"alt_name": "Zahrat as Salam, Z\u0327ahrat as Salam, zhrt alslm, \u0638\u0647\u0631\u0629 \u0627\u0644\u0633\u0644\u0645, \u1e92ahrat as Salam", "name": "Zahrat as Salam", "name:en": "Zahrat as Salam", "name:es": "Zahrat as Salam", "name:fr": "Zahrat as Salam", "place": "town", "source": "https://www.mindat.org/feature-11800157.html"}}, {"type": "node", "id": 11874644146, "lat": 23.6223929, "lon": 56.938441, "tags": {"alt_name": "Al Harim, Al \u1e24ar\u012bm, Al \u1e28ar\u012bm, Harim, alhrym, \u0627\u0644\u062d\u0631\u064a\u0645, \u1e28ar\u012bm", "name": "Al Harim", "name:en": "Al Harim", "name:es": "Al Harim", "name:fr": "Al Harim", "place": "town", "source": "https://www.mindat.org/feature-288059.html"}}, {"type": "node", "id": 11874757721, "lat": 23.665454, "lon": 56.910483, "tags": {"alt_name": "Al Mandil, Al Mand\u012bl, Al Mindayl, almndyl, \u0627\u0644\u0645\u0646\u062f\u064a\u0644", "name": "Al Mandil", "name:en": "Al Mandil", "name:es": "Al Mandil", "name:fr": "Al Mandil", "place": "town", "source": "https://www.mindat.org/feature-11800159.html"}}, {"type": "node", "id": 11874808913, "lat": 23.6930038, "lon": 56.9151781, "tags": {"alt_name": "Al Ghub, Ghab, Shakhbut, Shakhb\u016bt, Shakhb\u016b\u0163, Shakhb\u016b\u1e6d, shkhbwt, \u0634\u062e\u0628\u0648\u0637", "name": "Shakhb\u016b\u0163", "name:en": "Shakhb\u016b\u0163", "name:es": "Shakhb\u016b\u0163", "name:fr": "Shakhb\u016b\u0163", "place": "town", "source": "https://www.mindat.org/feature-286481.html"}}, {"type": "node", "id": 11874824949, "lat": 23.70403, "lon": 56.9081479, "tags": {"alt_name": "Falaj al Maj\u0101ji\u2018ah, Al Batinah North Governorate, Oman", "name": "Falaj al Majaji`ah", "name:en": "Falaj al Majaji`ah", "name:es": "Falaj al Majaji`ah", "name:fr": "Falaj al Majaji`ah", "place": "town", "source": "https://www.mindat.org/feature-11800161.html"}}, {"type": "node", "id": 11874830205, "lat": 23.7157057, "lon": 56.9051911, "tags": {"alt_name": "Al Falaj, Al Falaj al Hadith, Al Falaj al \u1e28adith, Falaj, Fulayj", "name": "Fulayj", "name:en": "Fulayj", "name:es": "Fulayj", "name:fr": "Fulayj", "place": "town", "source": "https://www.mindat.org/feature-288341.html"}}, {"type": "node", "id": 11874851796, "lat": 23.7620098, "lon": 56.8933603, "tags": {"alt_name": "Al Qaryah, alqryt, \u0627\u0644\u0642\u0631\u064a\u0629", "name": "Al Qaryah", "name:en": "Al Qaryah", "name:es": "Al Qaryah", "name:fr": "Al Qaryah", "place": "town", "source": "https://www.mindat.org/feature-11799985.html"}}, {"type": "node", "id": 11874852016, "lat": 23.7562019, "lon": 56.8947194, "tags": {"alt_name": "`Uwaynat al Murrah, \u0639\u0648\u064a\u0646\u0629 \u0627\u0644\u0645\u0631\u0651\u0629, \u2018Uwaynat al Murrah", "name": "\u2018Uwaynat al Murrah", "name:en": "\u2018Uwaynat al Murrah", "name:es": "\u2018Uwaynat al Murrah", "name:fr": "\u2018Uwaynat al Murrah", "place": "town", "source": "https://www.mindat.org/feature-11799986.html"}}, {"type": "node", "id": 11874854889, "lat": 23.7216201, "lon": 56.9039435, "tags": {"alt_name": "Al Biday`ah, Al Biday\u2018ah, Al Buday`ah, Al Buday\u2018ah, Badiyah, Buday`ah, Buday\u2018ah, B\u0101diyah, \u0627\u0644\u0628\u062f\u064a\u0639\u0629", "name": "Al Buday\u2018ah", "name:de": "Al Buday\u2018ah", "name:en": "Al Buday\u2018ah", "name:es": "Al Buday\u2018ah", "name:fr": "Al Buday\u2018ah", "place": "town", "source": "https://www.mindat.org/feature-288656.html"}}, {"type": "node", "id": 11874856479, "lat": 23.7162378, "lon": 56.8888173, "tags": {"alt_name": "Matid, Mat\u012bd, Mitayd, Mi\u1e6dayd, Mutayd, Mu\u0163ayd, mtyd, \u0645\u0637\u064a\u062f", "name": "Mu\u0163ayd", "name:de": "Mu\u0163ayd", "name:en": "Mu\u0163ayd", "name:es": "Mu\u0163ayd", "name:fr": "Mu\u0163ayd", "place": "town", "source": "https://www.mindat.org/feature-411847.html"}}]}