{"version": 0.6, "generator": "Overpass API 0.7.62.4 2390de5a", "osm3s": {"timestamp_osm_base": "2025-01-08T06:26:38Z", "copyright": "The data included in this document is from www.openstreetmap.org. The data is made available under ODbL."}, "elements": [{"type": "node", "id": 1676664890, "lat": 25.2856329, "lon": 51.5264162, "tags": {"admin_level": "2", "alt_name:el": "\u0394\u1ff6\u03b1", "alt_name:grc": "\u0394\u1ff6\u03b1", "alt_name:pl": "Ad-Dauha", "capital": "yes", "capital_ISO3166-1": "yes", "is_capital": "country", "name": "\u0627\u0644\u062f\u0648\u062d\u0629", "name:ace": "Doha", "name:af": "Doha", "name:am": "\u12f6\u1203", "name:an": "Doha", "name:ar": "\u0627\u0644\u062f\u0648\u062d\u0629", "name:ast": "Do\u1e25a", "name:awa": "\u0926\u094b\u0939\u093e(\u091c\u0917\u0939)", "name:az": "Doha", "name:azb": "\u062f\u0648\u062d\u0647", "name:ba": "\u0414\u043e\u04bb\u0430", "name:ban": "Doha", "name:bat-smg": "Duoha", "name:be": "\u0414\u043e\u0445\u0430", "name:bg": "\u0414\u043e\u0445\u0430", "name:bn": "\u09a6\u09cb\u09b9\u09be", "name:bo": "\u0f51\u0fb7\u0f7c\u0f0b\u0f67\u0f0d", "name:br": "Doha", "name:bs": "Doha", "name:ca": "Doha", "name:ce": "\u0414\u0443\u0445\u044c\u0430", "name:ceb": "Doha", "name:ckb": "\u062f\u06d5\u0648\u062d\u06d5", "name:cs": "Dauh\u00e1", "name:cy": "Doha", "name:da": "Doha", "name:de": "Doha", "name:diq": "Dewhe", "name:dty": "\u0926\u094b\u0939\u093e", "name:el": "\u039d\u03c4\u03cc\u03c7\u03b1", "name:en": "Doha", "name:eo": "Doho", "name:es": "Doha", "name:et": "Doha", "name:eu": "Doha", "name:ext": "Doha", "name:fa": "\u062f\u0648\u062d\u0647", "name:fi": "Doha", "name:fr": "Doha", "name:frp": "Doha", "name:fy": "Doha", "name:ga": "Doha", "name:gd": "Doha", "name:gl": "Doha", "name:gn": "Doha", "name:grc": "\u0394\u03bf\u03c7\u03ae", "name:gu": "\u0aa6\u0acb\u0ab9\u0abe", "name:ha": "Doha", "name:hak": "Doha", "name:he": "\u05d3\u05d5\u05d7\u05d4", "name:hi": "\u0926\u094b\u0939\u093e", "name:hif": "Doha", "name:hr": "Doha", "name:hsb": "Doha", "name:ht": "Doha", "name:hu": "Doha", "name:hy": "\u0534\u0578\u0570\u0561", "name:ia": "Doha", "name:id": "Doha", "name:ie": "Doha", "name:is": "Doha", "name:it": "Doha", "name:ja": "\u30c9\u30fc\u30cf", "name:jv": "Doha", "name:ka": "\u10d3\u10dd\u10f0\u10d0", "name:kab": "Daw\u1e25a", "name:kk": "\u0414\u043e\u04bb\u0430", "name:kl": "Doha", "name:km": "\u178a\u17bc\u17a0\u17b6", "name:kn": "\u0ca6\u0cca\u0cb9\u0cbe", "name:ko": "\ub3c4\ud558", "name:ku": "Dohe", "name:ky": "\u0414\u043e\u0445\u0430", "name:la": "Doha", "name:lb": "Doha", "name:lij": "Doha", "name:lmo": "Doha", "name:lt": "Doha", "name:lv": "Doha", "name:mai": "\u0926\u094b\u0939\u093e", "name:mg": "Doha", "name:mk": "\u0414\u043e\u0445\u0430", "name:ml": "\u0d26\u0d4b\u0d39", "name:mn": "\u0414\u043e\u0445\u0430", "name:mr": "\u0926\u094b\u0939\u093e", "name:ms": "Doha", "name:my": "\u1012\u102d\u102f\u101f\u102c\u1019\u103c\u102d\u102f\u1037", "name:mzn": "\u062f\u0648\u062d\u0647", "name:nah": "Doha", "name:ne": "\u0926\u094b\u0939\u093e", "name:nl": "Doha", "name:no": "Doha", "name:oc": "Doha", "name:os": "\u0414\u043e\u0445\u00e6", "name:pa": "\u0a26\u0a4b\u0a39\u0a3e", "name:pap": "Doha", "name:pl": "Doha", "name:pms": "Doha", "name:ps": "\u062f\u0648\u0647\u0627", "name:pt": "Doha", "name:ro": "Doha", "name:ru": "\u0414\u043e\u0445\u0430", "name:rue": "\u0414\u043e\u0443\u0433\u0430", "name:rw": "Doha", "name:sat": "\u1c6b\u1c5a\u1c66\u1c5f", "name:sc": "Doha", "name:scn": "Doha", "name:sco": "Doha", "name:sh": "Doha", "name:sk": "Dauha", "name:sl": "Doha", "name:sn": "Doha", "name:so": "Dooxa", "name:sq": "Doha", "name:sr": "\u0414\u043e\u0445\u0430", "name:sr-Latn": "Doha", "name:sv": "Doha", "name:sw": "Doha", "name:szl": "Doha", "name:ta": "\u0ba4\u0bcb\u0b95\u0bbe", "name:tg": "\u0414\u043e\u04b3\u0430", "name:th": "\u0e42\u0e14\u0e2e\u0e32", "name:tk": "Doha", "name:tl": "Doha", "name:tr": "Doha", "name:tt": "Doha", "name:udm": "\u0414\u043e\u0445\u0430", "name:ug": "\u062f\u0648\u06be\u0627", "name:uk": "\u0414\u043e\u0445\u0430", "name:ur": "\u062f\u0648\u062d\u06c1", "name:uz": "Do\u02bbha", "name:vec": "Doha", "name:vep": "Doh", "name:vi": "Doha", "name:vo": "D\u00e4uha", "name:war": "Doha", "name:wuu": "\u591a\u54c8", "name:xmf": "\u10d3\u10dd\u10f0\u10d0", "name:yi": "\u05d3\u05d0\u05db\u05d0", "name:yo": "Doha", "name:zh": "\u591a\u54c8", "old_name": "\u0627\u0644\u0628\u062f\u0639", "old_name:ar": "\u0627\u0644\u0628\u062f\u0639", "old_name:pl": "Al-Bida", "old_name:ur": "\u0627\u0644\u0628\u062f\u0639", "place": "city", "population": "1312947", "source:population": "http://www.qsa.gov.qa/QatarCensus/Populations.aspx", "wikidata": "Q3861", "wikipedia": "ar:\u0627\u0644\u062f\u0648\u062d\u0629"}}, {"type": "node", "id": 1736113516, "lat": 25.4228888, "lon": 51.5197163, "tags": {"name": "\u0644\u0648\u0633\u064a\u0644", "name:ar": "\u0644\u0648\u0633\u064a\u0644", "name:bn": "\u09b2\u09c1\u09b8\u09be\u0987\u09b2", "name:de": "Lusail", "name:en": "Lusail", "name:es": "Lusail", "name:fr": "Lusail", "name:ml": "\u0d32\u0d41\u0d38\u0d48\u0d7d", "place": "city", "wikidata": "Q935886", "wikipedia": "ar:\u0644\u0648\u0633\u064a\u0644"}}, {"type": "node", "id": 1736130075, "lat": 25.5772027, "lon": 51.4838309, "tags": {"int_name": "Simaisma", "name": "\u0633\u0645\u064a\u0633\u0645\u0629", "name:ar": "\u0633\u0645\u064a\u0633\u0645\u0629", "name:en": "Simaisma", "name:ml": "\u0d38\u0d3f\u0d2e\u0d48\u0d38\u0d4d\u0d2e", "place": "town", "wikidata": "Q7542566"}}, {"type": "node", "id": 2189240942, "lat": 25.4136174, "lon": 51.4068455, "tags": {"name": "\u0623\u0645 \u0635\u0644\u0627\u0644 \u0645\u062d\u0645\u062f", "name:ar": "\u0623\u0645 \u0635\u0644\u0627\u0644 \u0645\u062d\u0645\u062f", "name:en": "Umm Salal Muhammad", "name:fr": "Umm Salal Muhammad", "name:ml": "\u0d09\u0d2e\u0d4d\u0d2e\u0d41\u0d38\u0d32\u0d3e\u0d7d \u0d2e\u0d41\u0d39\u0d2e\u0d4d\u0d2e\u0d26\u0d4d", "place": "town", "short_name:ar": "\u0623\u0645 \u0635\u0644\u0627\u0644", "wikidata": "Q3298627", "wikipedia": "ar:\u0623\u0645 \u0635\u0644\u0627\u0644"}}, {"type": "node", "id": 2189253861, "lat": 25.296619, "lon": 51.434626, "tags": {"alt_name:en": "Ar Rayyan", "name": "\u0627\u0644\u0631\u064a\u0627\u0646", "name:ar": "\u0627\u0644\u0631\u064a\u0627\u0646", "name:bn": "\u09b0\u09be\u0987\u09df\u09be\u09a8", "name:cs": "ar-Rajj\u00e1n", "name:en": "Al Rayyan", "name:fr": "Al-Rayyan", "name:ml": "\u0d05\u0d7d-\u0d31\u0d2f\u0d4d\u0d2f\u0d3e\u0d7b", "place": "city", "wikidata": "Q18576873", "wikipedia": "ar:\u0627\u0644\u0631\u064a\u0627\u0646 (\u0645\u062f\u064a\u0646\u0629)"}}, {"type": "node", "id": 12409403565, "lat": 25.4698144, "lon": 51.3976347, "tags": {"capital": "7", "name": "\u0623\u0645 \u0635\u0644\u0627\u0644 \u0639\u0644\u064a", "name:en": "Umm Salal Ali", "place": "town"}}]}