{"version": 0.6, "generator": "Overpass API 0.7.62.4 2390de5a", "osm3s": {"timestamp_osm_base": "2025-01-08T07:03:25Z", "copyright": "The data included in this document is from www.openstreetmap.org. The data is made available under ODbL."}, "elements": [{"type": "node", "id": 416687911, "lat": 36.7388133, "lon": 7.1062378, "tags": {"author": "Fares Restes", "name": "Azzaba", "name:ar": "\u0639\u0632\u0627\u0628\u0629", "name:ber": "\u2d44\u2d3b\u2d63\u2d63\u2d30\u2d31\u2d30", "name:en": "Azzaba", "name:fr": "Azzaba", "name:kab": "\u0190ezzaba", "old_name": "Jemmapes", "place": "town", "population": "56922", "wikidata": "Q2214091", "wikimedia_commons": "Category:Azzaba", "wikipedia": "fr:Azzaba (Alg\u00e9rie)"}}, {"type": "node", "id": 416689292, "lat": 36.6514052, "lon": 6.8360907, "tags": {"name": "El Harrouch", "name:ar": "\u0627\u0644\u062d\u0631\u0648\u0634", "name:ber": "\u2d4d\u2d43\u2d3b\u2d54\u2d54\u2d53\u2d5b", "name:en": "El Harrouch", "name:fr": "El Harrouch", "name:kab": "L\u1e25erruc", "place": "town", "population": "48994", "wikidata": "Q947333", "wikipedia": "fr:El Harrouch"}}, {"type": "node", "id": 428235508, "lat": 36.755281, "lon": 6.8931785, "tags": {"name": "Ramdane Djamel", "name:ar": "\u0631\u0645\u0636\u0627\u0646 \u062c\u0645\u0627\u0644", "name:ber": "\u2d54\u2d3b\u2d4e\u2d39\u2d30\u2d4f \u2d35\u2d30\u2d4e\u2d30\u2d4d", "name:en": "Ramdane Djamel", "name:fr": "Ramdane Djamel", "name:kab": "Rem\u1e0dan \u01e6amal", "place": "town", "population": "27194"}}, {"type": "node", "id": 2852022479, "lat": 36.8441177, "lon": 6.929106, "tags": {"name": "Hamadi Krouma", "name:ar": "\u062d\u0645\u0627\u062f\u064a \u0643\u0631\u0648\u0645\u0629", "name:ber": "\u2d43\u2d3b\u2d4e\u2d4e\u2d30\u2d37\u2d49 \u2d3d\u2d54\u2d53\u2d4e\u2d30", "name:en": "Hammadi Krouma", "name:fr": "Hammadi Krouma", "name:kab": "\u1e24emmadi Kruma", "place": "town", "population": "30404", "wikidata": "Q1649336", "wikipedia": "fr:Hamadi Krouma"}}, {"type": "node", "id": 2953775300, "lat": 36.5327005, "lon": 6.7091586, "tags": {"name": "Zighoud Youcef", "name:ar": "\u0632\u064a\u063a\u0648\u062f \u064a\u0648\u0633\u0641", "name:ber": "\u2d63\u2d49\u2d56\u2d53\u2d37 \u2d62\u2d53\u2d59\u2d3b\u2d3c", "name:en": "Zighoud Youcef", "name:fr": "Zighoud Youcef", "name:kab": "Zi\u0263ud Yusef", "place": "town"}}, {"type": "node", "id": 3017340456, "lat": 36.7051396, "lon": 6.8043312, "tags": {"name": "Emdjez Edchich", "name:ar": "\u0627\u0645\u062c\u0627\u0632 \u0627\u062f\u0634\u064a\u0634", "name:ber": "\u2d4e\u2d35\u2d30\u2d63 \u2d37\u2d5b\u2d49\u2d5b", "name:en": "Emdjaz Edchich", "name:fr": "Emdjaz Edchich", "name:kab": "Mjezz Ddcic", "place": "town", "population": "20079", "wikidata": "Q3052141", "wikipedia": "fr:Emdjez Edchich"}}, {"type": "node", "id": 3017350123, "lat": 36.6782249, "lon": 6.7218242, "tags": {"name": "Sidi Mezghich", "name:ar": "\u0633\u064a\u062f\u064a \u0645\u0632\u063a\u064a\u0634", "name:ber": "\u2d59\u2d49\u2d37\u2d49 \u2d4e\u2d3b\u2d63\u2d56\u2d49\u2d5b", "name:en": "Sidi Mezghiche", "name:fr": "Sidi Mezghich", "name:kab": "Sidi Mez\u0263ic", "place": "town"}}, {"type": "node", "id": 3042693423, "lat": 36.8252292, "lon": 6.8890251, "tags": {"name": "El Hadaik", "name:ar": "\u0627\u0644\u062d\u062f\u0627\u0626\u0642", "name:ber": "\u2d4d\u2d3b\u2d43\u2d37\u2d30\u2d62\u2d3b\u2d47", "name:en": "El Hadaiek", "name:fr": "El Hada\u00efek", "name:kab": "Le\u1e25dayeq", "place": "town", "population": "18002", "wikidata": "Q3049911", "wikipedia": "fr:El Hadaiek"}}, {"type": "node", "id": 3452916441, "lat": 36.7044252, "lon": 6.8563693, "tags": {"name": "Salah Bouchaour", "name:ar": "\u0635\u0627\u0644\u062d \u0628\u0648\u0627\u0644\u0634\u0639\u0648\u0631", "name:ber": "\u2d59\u2d30\u2d4d\u2d3b\u2d43 \u2d31\u2d53\u2d5b\u2d44\u2d53\u2d54", "name:en": "Salah Bouchaour", "name:fr": "Salah Bouchaour", "name:kab": "\u1e62ale\u1e25 Bucca\u025bur", "place": "town", "population": "29764", "wikidata": "Q1650111", "wikipedia": "fr:Salah Bouchaour"}}]}