{"version": 0.6, "generator": "Overpass API 0.7.62.4 2390de5a", "osm3s": {"timestamp_osm_base": "2025-01-08T06:32:48Z", "copyright": "The data included in this document is from www.openstreetmap.org. The data is made available under ODbL."}, "elements": [{"type": "node", "id": 99474380, "lat": 36.8542598, "lon": 42.9924528, "tags": {"alt_name": "\u0646\u0648\u0647\u064e\u062f\u0631\u0627", "alt_name:ar": "\u0646\u0648\u0647\u062f\u0631\u0627", "alt_name:ckb": "\u0646\u0627\u06be\u06c6\u062f\u0631\u0627", "alt_name:en": "Nohadra", "capital": "4", "int_name": "Dah\u016bk, Dih\u014dk, Dohuk, Duhok, D\u00fbhok, Duhuk, \u062f\u064e\u0647\u064f\u06a9\u0652, \u062f\u0647\u0648\u06a9, \u062f\u06be\u06c6\u06a9, Dahuk", "name": "\u062f\u06be\u06c6\u06a9", "name:ar": "\u062f\u0647\u0648\u0643", "name:arc": "\u0723\u0718\u072a\u071d\u071d\u0710", "name:azb": "\u062f\u0647\u0648\u06a9", "name:ckb": "\u062f\u06be\u06c6\u06a9", "name:cs": "Dah\u00fak", "name:de": "Dohuk", "name:en": "Duhok", "name:es": "Dahuk", "name:et": "Dah\u016bk", "name:eu": "Dahuk", "name:fa": "\u062f\u0647\u0648\u06a9", "name:fr": "Dahouk", "name:he": "\u05d3\u05d4\u05d5\u05e7", "name:hi": "\u0926\u0941\u0939\u094b\u0915", "name:hr": "Duhok", "name:ja": "\u30c9\u30db\u30fc\u30af", "name:kmr": "Dihok", "name:ku": "Dihok", "name:ml": "\u0d26\u0d41\u0d39\u0d4b\u0d15\u0d4d\u0d15\u0d4d", "name:mzn": "\u062f\u0647\u0648\u06a9", "name:pl": "Dahuk", "name:pnb": "\u062f\u0647\u0648\u0643", "name:ru": "\u0414\u0443\u0445\u043e\u043a", "name:sdh": "\u062f\u0647\u06c6\u06a9", "name:syc": "\u0723\u0718\u072a\u071d\u071d\u0710", "name:syr": "\u0723\u0718\u072a\u071d\u071d\u0710", "name:tr": "Duhok", "name:uk": "\u0414\u0443\u0433\u043e\u043a", "name:ur": "\u062f\u06c1\u0648\u06a9", "place": "city", "population": "226899", "population:date": "2008", "postal_code": "42001", "wikidata": "Q152831", "wikipedia": "ckb:\u062f\u06be\u06c6\u06a9"}}, {"type": "node", "id": 2449374221, "lat": 36.7851064, "lon": 42.9650434}, {"type": "node", "id": 2449374224, "lat": 36.7857363, "lon": 42.9733226}, {"type": "node", "id": 2449374253, "lat": 36.7834506, "lon": 42.9710695}, {"type": "node", "id": 2449374261, "lat": 36.7866922, "lon": 42.9847906}, {"type": "node", "id": 2449374265, "lat": 36.7902751, "lon": 42.9788576}, {"type": "node", "id": 2449374282, "lat": 36.7891315, "lon": 42.9777209}, {"type": "node", "id": 2449374284, "lat": 36.7870963, "lon": 42.9638189}, {"type": "node", "id": 2449374290, "lat": 36.7836246, "lon": 42.9714869}, {"type": "node", "id": 2449374294, "lat": 36.7912095, "lon": 42.9823026}, {"type": "node", "id": 2449374296, "lat": 36.7952825, "lon": 42.977644}, {"type": "node", "id": 2449374304, "lat": 36.7852207, "lon": 42.9739556}, {"type": "node", "id": 2449374334, "lat": 36.7836332, "lon": 42.9823445}, {"type": "node", "id": 2449374338, "lat": 36.7871454, "lon": 42.9688808}, {"type": "node", "id": 2449374340, "lat": 36.782082, "lon": 42.9691517}, {"type": "node", "id": 2449374362, "lat": 36.7851778, "lon": 42.9725179}, {"type": "node", "id": 2449374363, "lat": 36.7904706, "lon": 42.9672501}, {"type": "node", "id": 2449374364, "lat": 36.7880562, "lon": 42.9699001}, {"type": "node", "id": 2449374365, "lat": 36.7844388, "lon": 42.9740199}, {"type": "node", "id": 2449374366, "lat": 36.7802304, "lon": 42.9735575}, {"type": "node", "id": 2449374379, "lat": 36.7893712, "lon": 42.962465}, {"type": "node", "id": 2449374392, "lat": 36.7938064, "lon": 42.9804991}, {"type": "node", "id": 2449374394, "lat": 36.7793064, "lon": 42.9710748}, {"type": "node", "id": 2449374398, "lat": 36.7843271, "lon": 42.970458}, {"type": "node", "id": 2449374422, "lat": 36.7800994, "lon": 42.9704687}, {"type": "node", "id": 2449374430, "lat": 36.7903503, "lon": 42.9767343}, {"type": "node", "id": 2449374432, "lat": 36.7807136, "lon": 42.9675219}, {"type": "node", "id": 2449374434, "lat": 36.7899143, "lon": 42.9658757}, {"type": "node", "id": 2449374446, "lat": 36.785326, "lon": 42.9719053}, {"type": "node", "id": 2449374448, "lat": 36.7828278, "lon": 42.9663526}, {"type": "node", "id": 2449374464, "lat": 36.7860735, "lon": 42.9655646}, {"type": "node", "id": 2449374466, "lat": 36.786018, "lon": 42.9644775}, {"type": "node", "id": 2449374472, "lat": 36.791072, "lon": 42.9668316}, {"type": "node", "id": 2449374478, "lat": 36.7892248, "lon": 42.9691491}, {"type": "node", "id": 2449374489, "lat": 36.7867695, "lon": 42.9678498}, {"type": "node", "id": 2449374497, "lat": 36.792296, "lon": 42.9672533}, {"type": "node", "id": 2449374501, "lat": 36.7834249, "lon": 42.9720995}, {"type": "node", "id": 2449374538, "lat": 36.79537, "lon": 42.9796622}, {"type": "node", "id": 2449374543, "lat": 36.7796451, "lon": 42.9681539}, {"type": "node", "id": 2449374560, "lat": 36.7909346, "lon": 42.9807147}, {"type": "node", "id": 2449374568, "lat": 36.7936687, "lon": 42.9702056}, {"type": "node", "id": 2449374576, "lat": 36.7911756, "lon": 42.9664561}, {"type": "node", "id": 2449374601, "lat": 36.7954998, "lon": 42.9754032}, {"type": "node", "id": 2449374629, "lat": 36.7925326, "lon": 42.9674217}, {"type": "node", "id": 2449374632, "lat": 36.783876, "lon": 42.9658026}, {"type": "node", "id": 2449374646, "lat": 36.7801046, "lon": 42.9679025}, {"type": "node", "id": 2449374648, "lat": 36.7849243, "lon": 42.9857508}, {"type": "node", "id": 2452275953, "lat": 36.7503489, "lon": 42.9288468}, {"type": "node", "id": 2480179007, "lat": 36.734772, "lon": 43.097405, "tags": {"alt_name": "\u0642\u0648\u0634", "capital": "7", "ele": "532", "int_name": "\u0623\u0644\u0642\u0648\u0634\u200e", "name": "\u0623\u0644\u0642\u0648\u0634", "name:ar": "\u0623\u0644\u0642\u0648\u0634\u200e", "name:arc": "\u0710\u0720\u0729\u0718\u072b", "name:ckb": "\u0642\u0648\u0634\u062a\u06d5\u067e\u06d5", "name:de": "Alqosch", "name:en": "Alqosh", "name:fr": "Alqosh", "name:ku": "Elk\u00ee\u015f", "name:ru": "\u0410\u043b\u044c\u043a\u0430\u0448", "place": "town", "population": "15000", "source": "Wikipedia research", "wikidata": "Q1150394", "wikipedia": "en:Alqosh"}}, {"type": "node", "id": 2482486470, "lat": 36.906658, "lon": 43.146902, "tags": {"alt_name:ar": "\u0632\u0627\u0648\u064a\u062a\u0647", "capital": "7", "int_name": "Zawita, Z\u0101w\u012bta, Z\u0101w\u012bta i Zh\u0113r\u012b, Z\u0101w\u012btah, \u0632\u0627\u0648\u064a\u062a\u0629, Zawita, Zawita, Zawita i Zheri, Zawitah, \u0632\u0627\u0648\u064a\u062a\u0629", "name": "\u0632\u0627\u0648\u06cc\u062a\u06d5", "name:ar": "\u0632\u0627\u0648\u064a\u062a\u0629", "name:ckb": "\u0632\u0627\u0648\u06cc\u062a\u06d5", "name:de": "Zawita", "name:en": "Zawita", "name:fr": "Zawita", "name:ku": "Zaw\u00eete", "name:ku-Arab": "\u0632\u0627\u0648\u06cc\u062a\u06d5", "place": "town", "wikidata": "Q4119311", "wikipedia": "ar:\u0632\u0627\u0648\u064a\u062a\u0629"}}, {"type": "node", "id": 2488213208, "lat": 36.7596273, "lon": 42.9287981, "tags": {"alt_name": "\u0641\u0627\u06cc\u062f\u06ce", "alt_name:ku": "Fayd\u00ea", "capital": "7", "int_name": "Faidah, \u0641\u0627\u0626\u062f\u0629", "is_in": "Iraq , \u062c\u0645\u0647\u0648\u0631\u064a\u0629 \u0627\u0644\u0639\u0631\u0627\u0642", "is_in:country": "Iraq", "is_in:country_code": "IQ", "name": "\u0641\u0627\u064a\u062f\u0629", "name:ar": "\u0641\u0627\u064a\u062f\u0629", "name:ckb": "\u0641\u0627\u06cc\u062f\u06d5", "name:de": "Faidah", "name:en": "Faidah", "name:fr": "Faidah", "name:ku": "Fayd\u00ea", "name:ru": "\u0424\u0430\u0439\u0434\u0430", "place": "town", "wikidata": "Q12230247"}}, {"type": "node", "id": 2488233281, "lat": 36.5718112, "lon": 43.3730226, "tags": {"alt_name": "Zaylk\u0101n, Zeilk\u0101n, Zilkan, Zaylkan, Zeilkan, Zilkan", "capital": "7", "int_name": "Zaylkan, \u0632\u064a\u0644\u0643\u0627\u0646", "is_in": "Iraq , \u062c\u0645\u0647\u0648\u0631\u064a\u0629 \u0627\u0644\u0639\u0631\u0627\u0642", "name": "\u0632\u06cc\u0644\u06a9\u0627\u0646", "name:ar": "\u0632\u064a\u0644\u0643\u0627\u0646", "name:ckb": "\u0632\u06cc\u0644\u06a9\u0627\u0646", "name:de": "Zilkan", "name:en": "Zilkan", "name:fr": "Zilkan", "name:ku": "z\u00eelkan", "place": "town"}}, {"type": "node", "id": 2488235822, "lat": 36.838056, "lon": 43.335833, "tags": {"alt_name": "\u0623\u062a\u0631\u0648\u0634", "capital": "7", "int_name": "Atrush, Atr\u016bsh, Atrush, Atrush", "is_in": "Iraq , \u062c\u0645\u0647\u0648\u0631\u064a\u0629 \u0627\u0644\u0639\u0631\u0627\u0642", "name": "\u0626\u06d5\u062a\u0631\u0648\u0634", "name:ar": "\u0623\u062a\u0631\u0648\u0634", "name:de": "Atrush", "name:en": "Atrush", "name:fr": "Atrush", "name:ku-Arab": "\u0626\u06d5\u062a\u0631\u0648\u0634", "place": "town", "wikidata": "Q15193542"}}, {"type": "node", "id": 2488236876, "lat": 36.9393473, "lon": 43.411646, "tags": {"alt_name": "Cham\u0101nk\u012b, Chamank\u012b as Sufl\u00e1, Chamanky, Jam\u0101nk\u012b, \u0686\u0645\u0646\u0643\u064a \u0627\u0644\u0633\u0641\u0644\u0649, Chamanki, Chamanki as Sufla, Chamanky, Jamanki, \u0686\u0645\u0646\u0643\u064a \u0627\u0644\u0633\u0641\u0644\u0649", "capital": "7", "int_name": "Chamanki\u060c \u062c\u0645\u0646\u0643\u064a", "is_in": "Iraq , \u062c\u0645\u0647\u0648\u0631\u064a\u0629 \u0627\u0644\u0639\u0631\u0627\u0642", "name": "\u0686\u06d5\u0645\u0627\u0646\u06a9\u06ce", "name:ar": "\u062c\u0645\u0646\u0643\u064a", "name:de": "Chamanki", "name:en": "Chamanki", "name:fr": "Chamanki", "name:ku": "\u00c7emenk\u00ea", "place": "town", "wikidata": "Q38372119"}}, {"type": "node", "id": 2488246719, "lat": 36.6968676, "lon": 43.3530626, "tags": {"alt_name:ckb": "\u0634\u06ce\u062e\u0627\u0646", "alt_name:ku": "\u015e\u00eaxan", "capital": "6", "name": "\u0639\u064a\u0646 \u0633\u0641\u0646\u064a", "name:ar": "\u0639\u064a\u0646 \u0633\u0641\u0646\u064a", "name:ckb": "\u0626\u06ce\u0633\u0641\u0646\u06ce", "name:de": "En Sifne", "name:en": "En Sifne", "name:fr": "Shekhan", "name:ku": "\u00easifn\u00ea", "name:ru": "\u0410\u0439\u043d-\u0421\u0438\u0444\u043d\u0438", "place": "town", "wikidata": "Q5987917", "wikipedia": "ar:\u0639\u064a\u0646 \u0633\u0641\u0646\u064a"}}, {"type": "node", "id": 2488246722, "lat": 36.7243784, "lon": 43.2526094, "tags": {"alt_name": "\u0628\u0627\u0639\u062f\u0631\u0629;\u0628\u0627\u0639\u062f\u0631\u0647;\u0628\u0627\u0639\u062f\u0631\u0629", "alt_name:ckb": "\u0628\u0627\u0639\u06d5\u062f\u0631\u06ce", "alt_name:en": "Bet Edrai;Ba'adra;Ba'adra;Baedr\u00ea, Ba\u2018adre;Badra;Bathra;Baadre", "capital": "7", "ele": "496", "name": "\u0628\u0627\u0639\u0630\u0631\u0629", "name:ar": "\u0628\u0627\u0639\u0630\u0631\u0629", "name:arc": "\u0712\u071d\u072c \u0725\u0715\u072a\u0710", "name:ckb": "\u0628\u0627\u0639\u06d5\u062f\u0631\u06ce", "name:de": "Bahadre", "name:en": "Bahadre", "name:fr": "Bahadre", "name:ku": "Ba'edr\u00ea", "place": "town", "population": "14000", "wikidata": "Q4837020", "wikipedia": "ar:\u0628\u0627\u0639\u0630\u0631\u0629"}}, {"type": "node", "id": 2488247394, "lat": 36.6013272, "lon": 43.1070542, "tags": {"alt_name": "\u062a\u0644\u0633\u0642\u06c6\u0641", "capital": "9", "name": "\u072c\u0720\u0710 \u0719\u0729\u071d\u0726\u0710 / \u062a\u0644 \u0623\u0633\u0642\u0641", "name:ar": "\u062a\u0644 \u0623\u0633\u0642\u0641", "name:ckb": "\u062a\u0644\u0633\u0642\u06c6\u0641", "name:de": "Tall Asqaf", "name:en": "Tesqopa", "name:fr": "Tall Asqaf", "name:ku": "Til Asqif", "place": "town", "wikidata": "Q4115673", "wikipedia": "arc:\u072c\u0720\u0710 \u0719\u0729\u071d\u0726\u0710"}}, {"type": "node", "id": 2941929700, "lat": 36.752248, "lon": 42.9239136}, {"type": "node", "id": 2941930601, "lat": 36.7525776, "lon": 42.9250166}, {"type": "node", "id": 2941930602, "lat": 36.7528439, "lon": 42.9321472}, {"type": "node", "id": 2941930603, "lat": 36.7526044, "lon": 42.9309298}, {"type": "node", "id": 2941930604, "lat": 36.7528921, "lon": 42.9277087}, {"type": "node", "id": 2941930605, "lat": 36.7530161, "lon": 42.9324087}, {"type": "node", "id": 2941930607, "lat": 36.7515869, "lon": 42.9285435}, {"type": "node", "id": 2941930609, "lat": 36.7557523, "lon": 42.9215679}, {"type": "node", "id": 2941930610, "lat": 36.7562174, "lon": 42.9245492}, {"type": "node", "id": 2941930611, "lat": 36.7569513, "lon": 42.9245492}, {"type": "node", "id": 2941930612, "lat": 36.7569237, "lon": 42.93143}, {"type": "node", "id": 2941930613, "lat": 36.7577602, "lon": 42.9253531}, {"type": "node", "id": 2941930614, "lat": 36.7585989, "lon": 42.9253905}, {"type": "node", "id": 2941930615, "lat": 36.7588086, "lon": 42.9244184}, {"type": "node", "id": 2941930616, "lat": 36.7602057, "lon": 42.9241819}, {"type": "node", "id": 2941930617, "lat": 36.7601716, "lon": 42.9306251}, {"type": "node", "id": 2941930618, "lat": 36.7608186, "lon": 42.9246691}, {"type": "node", "id": 2941930619, "lat": 36.7619994, "lon": 42.9253276}, {"type": "node", "id": 2941930622, "lat": 36.7629032, "lon": 42.9257557}, {"type": "node", "id": 2941930624, "lat": 36.763167, "lon": 42.9282509}, {"type": "node", "id": 2941930625, "lat": 36.7632074, "lon": 42.9301094}, {"type": "node", "id": 3025093803, "lat": 36.6444593, "lon": 43.4087542}, {"type": "node", "id": 3025093804, "lat": 36.6461087, "lon": 43.4205197}, {"type": "node", "id": 3025093805, "lat": 36.6505022, "lon": 43.3979137}, {"type": "node", "id": 3025093806, "lat": 36.6534012, "lon": 43.4005593}, {"type": "node", "id": 3025094118, "lat": 36.6405703, "lon": 43.4168678}, {"type": "node", "id": 3025094127, "lat": 36.6417263, "lon": 43.4204215}, {"type": "node", "id": 3171307523, "lat": 36.6630798, "lon": 43.0487072}, {"type": "node", "id": 3171307524, "lat": 36.6651538, "lon": 43.0460077}, {"type": "node", "id": 3171307525, "lat": 36.6674887, "lon": 43.0421374}, {"type": "node", "id": 3171307526, "lat": 36.6679974, "lon": 43.039194}, {"type": "node", "id": 3171307527, "lat": 36.6668496, "lon": 43.0363482}, {"type": "node", "id": 3171307528, "lat": 36.6666017, "lon": 43.0339902}, {"type": "node", "id": 3171307529, "lat": 36.6649582, "lon": 43.0317136}, {"type": "node", "id": 3171307530, "lat": 36.6647234, "lon": 43.0293556}, {"type": "node", "id": 3171307531, "lat": 36.6634711, "lon": 43.0286563}, {"type": "node", "id": 3171307532, "lat": 36.6620623, "lon": 43.0327381}, {"type": "node", "id": 3171307533, "lat": 36.6594402, "lon": 43.0326405}, {"type": "node", "id": 3171307534, "lat": 36.65764, "lon": 43.0315672}, {"type": "node", "id": 3171307535, "lat": 36.6561658, "lon": 43.0313233}, {"type": "node", "id": 3171307536, "lat": 36.6558266, "lon": 43.0340065}, {"type": "node", "id": 3171307537, "lat": 36.6543916, "lon": 43.0362018}, {"type": "node", "id": 3171307538, "lat": 36.6535305, "lon": 43.0376979}, {"type": "node", "id": 3171307539, "lat": 36.6535957, "lon": 43.040934}, {"type": "node", "id": 3171307540, "lat": 36.6541567, "lon": 43.0448206}, {"type": "node", "id": 3171307541, "lat": 36.6549395, "lon": 43.0476502}, {"type": "node", "id": 3171307542, "lat": 36.6570399, "lon": 43.0500895}, {"type": "node", "id": 3171307543, "lat": 36.6575356, "lon": 43.0518783}, {"type": "node", "id": 3171307544, "lat": 36.659375, "lon": 43.0524312}, {"type": "node", "id": 3171307545, "lat": 36.6616449, "lon": 43.049374}, {"type": "node", "id": 4469421835, "lat": 36.6871712, "lon": 43.337293}, {"type": "node", "id": 5220581141, "lat": 36.7921873, "lon": 42.9787353, "tags": {"addr:city": "\u062f\u0647\u0648\u0643", "addr:country": "IQ", "addr:postcode": "42001", "addr:street": "Sharya Road", "amenity": "community_centre", "name": "\u0645\u062c\u0645\u0639 \u0634\u0627\u0631\u064a\u0627", "name:en": "Sharya Complex", "name:ku": "Komelgeha Sharya"}}, {"type": "node", "id": 5240746180, "lat": 36.7811365, "lon": 42.9759905}, {"type": "node", "id": 5420576829, "lat": 36.7544445, "lon": 42.9220873}, {"type": "node", "id": 5420576830, "lat": 36.7546766, "lon": 42.9233319}, {"type": "node", "id": 5605077879, "lat": 36.7902086, "lon": 42.9786614}, {"type": "node", "id": 5696170087, "lat": 36.7602077, "lon": 42.9246219}, {"type": "node", "id": 5696170098, "lat": 36.7587521, "lon": 42.9246805}, {"type": "node", "id": 5696231915, "lat": 36.7527753, "lon": 42.9267093}, {"type": "node", "id": 5696231918, "lat": 36.7516381, "lon": 42.928037}, {"type": "node", "id": 8067578742, "lat": 36.8405969, "lon": 43.3367812}, {"type": "node", "id": 8067578743, "lat": 36.8402555, "lon": 43.3376941}, {"type": "node", "id": 8067578744, "lat": 36.8383163, "lon": 43.3376429}, {"type": "node", "id": 8067578745, "lat": 36.8383027, "lon": 43.3380951}, {"type": "node", "id": 8067578746, "lat": 36.8373126, "lon": 43.338078}, {"type": "node", "id": 8067578747, "lat": 36.8371897, "lon": 43.3371054}, {"type": "node", "id": 8067578748, "lat": 36.8374901, "lon": 43.3368154}, {"type": "node", "id": 8067578749, "lat": 36.836978, "lon": 43.3354247}, {"type": "node", "id": 8067578750, "lat": 36.8367117, "lon": 43.3355783}, {"type": "node", "id": 8067578751, "lat": 36.8363703, "lon": 43.3348275}, {"type": "node", "id": 8067578752, "lat": 36.8366435, "lon": 43.3345375}, {"type": "node", "id": 8067578753, "lat": 36.8362064, "lon": 43.3333516}, {"type": "node", "id": 8067578754, "lat": 36.8352095, "lon": 43.3327373}, {"type": "node", "id": 8067578755, "lat": 36.8355919, "lon": 43.33185}, {"type": "node", "id": 8067578756, "lat": 36.8349637, "lon": 43.3309542}, {"type": "node", "id": 8067578757, "lat": 36.8373809, "lon": 43.3292138}, {"type": "node", "id": 8067578758, "lat": 36.8385417, "lon": 43.3312187}, {"type": "node", "id": 8067578759, "lat": 36.8381456, "lon": 43.3321145}, {"type": "node", "id": 8067578760, "lat": 36.8396478, "lon": 43.3344948}, {"type": "node", "id": 8117007187, "lat": 36.8403936, "lon": 43.3373249}, {"type": "node", "id": 8757797144, "lat": 36.8471628, "lon": 43.0672912, "tags": {"name": "\u0626\u06ce\u062a\u06cc\u062a\u0627 \u0646\u0648\u06cc", "place": "town"}}, {"type": "node", "id": 8789459434, "lat": 36.7518295, "lon": 42.9300972}, {"type": "node", "id": 8789459435, "lat": 36.7526095, "lon": 42.9298955}, {"type": "node", "id": 8789459437, "lat": 36.7534601, "lon": 42.930697}, {"type": "node", "id": 8789459438, "lat": 36.7527382, "lon": 42.9302748}, {"type": "node", "id": 8789459439, "lat": 36.7534731, "lon": 42.9301318}, {"type": "node", "id": 8789459440, "lat": 36.755856, "lon": 42.9316296}, {"type": "node", "id": 8789459441, "lat": 36.7544274, "lon": 42.9319951}, {"type": "node", "id": 8789459442, "lat": 36.7629169, "lon": 42.927191}, {"type": "node", "id": 8789459443, "lat": 36.7630927, "lon": 42.9271922}, {"type": "node", "id": 8789459444, "lat": 36.7609406, "lon": 42.9252612}, {"type": "node", "id": 8789459530, "lat": 36.7502649, "lon": 42.9283045}, {"type": "node", "id": 8789459558, "lat": 36.755367, "lon": 42.9216586}, {"type": "node", "id": 8789459559, "lat": 36.7554, "lon": 42.9219186}, {"type": "node", "id": 8875624977, "lat": 36.571758, "lon": 43.3682873}, {"type": "node", "id": 8875624978, "lat": 36.5716627, "lon": 43.3700998}, {"type": "node", "id": 8875624979, "lat": 36.5716193, "lon": 43.3708065}, {"type": "node", "id": 8875624980, "lat": 36.571472, "lon": 43.3707903}, {"type": "node", "id": 8875624981, "lat": 36.5713681, "lon": 43.3725436}, {"type": "node", "id": 8875624982, "lat": 36.5705579, "lon": 43.3725004}, {"type": "node", "id": 8875624983, "lat": 36.5706792, "lon": 43.371524}, {"type": "node", "id": 8875624984, "lat": 36.5704106, "lon": 43.3715294}, {"type": "node", "id": 8875624985, "lat": 36.5704842, "lon": 43.3706717}, {"type": "node", "id": 8875624986, "lat": 36.5705016, "lon": 43.3701915}, {"type": "node", "id": 8875624987, "lat": 36.5701853, "lon": 43.3702023}, {"type": "node", "id": 8875624988, "lat": 36.570181, "lon": 43.369911}, {"type": "node", "id": 8875624989, "lat": 36.5695224, "lon": 43.3698301}, {"type": "node", "id": 8875624990, "lat": 36.5695614, "lon": 43.3688915}, {"type": "node", "id": 8875624991, "lat": 36.5687209, "lon": 43.3686649}, {"type": "node", "id": 8875624992, "lat": 36.5687685, "lon": 43.3682495}, {"type": "node", "id": 8875624993, "lat": 36.5691498, "lon": 43.3675806}, {"type": "node", "id": 8875624994, "lat": 36.569934, "lon": 43.3676615}, {"type": "node", "id": 8875624995, "lat": 36.569986, "lon": 43.3680014}, {"type": "node", "id": 8875624996, "lat": 36.5705536, "lon": 43.3680445}, {"type": "node", "id": 8875624997, "lat": 36.5705449, "lon": 43.3681902}, {"type": "node", "id": 8875624998, "lat": 36.5725927, "lon": 43.3694846}, {"type": "node", "id": 8875624999, "lat": 36.5717742, "lon": 43.3669902}, {"type": "node", "id": 8875625000, "lat": 36.5722222, "lon": 43.3667166}, {"type": "node", "id": 8875625001, "lat": 36.5724032, "lon": 43.367355}, {"type": "node", "id": 8875625002, "lat": 36.5725367, "lon": 43.3673442}, {"type": "node", "id": 8875625003, "lat": 36.5728383, "lon": 43.368224}, {"type": "node", "id": 8875625004, "lat": 36.5731743, "lon": 43.3680148}, {"type": "node", "id": 8875625005, "lat": 36.5733337, "lon": 43.368444}, {"type": "node", "id": 8875625006, "lat": 36.5730494, "lon": 43.3686156}, {"type": "node", "id": 8875625007, "lat": 36.5730365, "lon": 43.3692593}, {"type": "node", "id": 8875625008, "lat": 36.5733079, "lon": 43.3701498}, {"type": "node", "id": 8875625009, "lat": 36.5734457, "lon": 43.370123}, {"type": "node", "id": 8875625010, "lat": 36.5735707, "lon": 43.3704288}, {"type": "node", "id": 8875625011, "lat": 36.5739843, "lon": 43.3702893}, {"type": "node", "id": 8875625012, "lat": 36.5742815, "lon": 43.3702357}, {"type": "node", "id": 8875625013, "lat": 36.5745314, "lon": 43.3705039}, {"type": "node", "id": 8875625014, "lat": 36.5748372, "lon": 43.3704073}, {"type": "node", "id": 8875625015, "lat": 36.5755308, "lon": 43.3704556}, {"type": "node", "id": 8875625016, "lat": 36.5754748, "lon": 43.3712066}, {"type": "node", "id": 8875625017, "lat": 36.5752982, "lon": 43.3728374}, {"type": "node", "id": 8875625018, "lat": 36.5754361, "lon": 43.3734382}, {"type": "node", "id": 8875625019, "lat": 36.575729, "lon": 43.3755464}, {"type": "node", "id": 8875625020, "lat": 36.5758884, "lon": 43.3757127}, {"type": "node", "id": 8875625021, "lat": 36.5762158, "lon": 43.3774079}, {"type": "node", "id": 8875625022, "lat": 36.5764657, "lon": 43.3788241}, {"type": "node", "id": 8875625023, "lat": 36.5759444, "lon": 43.3788992}, {"type": "node", "id": 8875625024, "lat": 36.5755179, "lon": 43.3786417}, {"type": "node", "id": 8875625025, "lat": 36.5749363, "lon": 43.3781857}, {"type": "node", "id": 8875625026, "lat": 36.5746391, "lon": 43.377939}, {"type": "node", "id": 8875625027, "lat": 36.5742643, "lon": 43.3785452}, {"type": "node", "id": 8875625028, "lat": 36.5738679, "lon": 43.3785559}, {"type": "node", "id": 8875625029, "lat": 36.5738335, "lon": 43.377821}, {"type": "node", "id": 8875625030, "lat": 36.573506, "lon": 43.3778746}, {"type": "node", "id": 8875625031, "lat": 36.573351, "lon": 43.3767481}, {"type": "node", "id": 8875625032, "lat": 36.5725453, "lon": 43.3768285}, {"type": "node", "id": 8875625033, "lat": 36.5724204, "lon": 43.3759756}, {"type": "node", "id": 8875625034, "lat": 36.5722782, "lon": 43.374613}, {"type": "node", "id": 8875625035, "lat": 36.572666, "lon": 43.3744682}, {"type": "node", "id": 8875625036, "lat": 36.5726875, "lon": 43.3741249}, {"type": "node", "id": 8875625037, "lat": 36.5725281, "lon": 43.3737762}, {"type": "node", "id": 8875625038, "lat": 36.5724506, "lon": 43.3730949}, {"type": "node", "id": 8875625039, "lat": 36.5724376, "lon": 43.3723653}, {"type": "node", "id": 8875625040, "lat": 36.5730322, "lon": 43.3724029}, {"type": "node", "id": 8875625041, "lat": 36.5730752, "lon": 43.3709169}, {"type": "node", "id": 8916648680, "lat": 36.653718, "lon": 43.3996708}, {"type": "node", "id": 8916648681, "lat": 36.6539769, "lon": 43.4008803}, {"type": "node", "id": 8916648682, "lat": 36.6505907, "lon": 43.4099179}, {"type": "node", "id": 8916648683, "lat": 36.6439994, "lon": 43.4206596}, {"type": "node", "id": 8916648684, "lat": 36.6423471, "lon": 43.4205283}, {"type": "node", "id": 8916648685, "lat": 36.6412459, "lon": 43.4200289}, {"type": "node", "id": 8916648686, "lat": 36.6400657, "lon": 43.4181667}, {"type": "node", "id": 8916648687, "lat": 36.6413285, "lon": 43.4161102}, {"type": "node", "id": 8916648688, "lat": 36.6408745, "lon": 43.414842}, {"type": "node", "id": 8916648689, "lat": 36.6422691, "lon": 43.4132428}, {"type": "node", "id": 8916648690, "lat": 36.6427355, "lon": 43.4135022}, {"type": "node", "id": 8916648691, "lat": 36.6432045, "lon": 43.4117649}, {"type": "node", "id": 8916648692, "lat": 36.6434242, "lon": 43.4118695}, {"type": "node", "id": 8916648693, "lat": 36.6458671, "lon": 43.405637}, {"type": "node", "id": 8916648694, "lat": 36.6463701, "lon": 43.4048669}, {"type": "node", "id": 8916648695, "lat": 36.6470655, "lon": 43.405225}, {"type": "node", "id": 8916648696, "lat": 36.6483271, "lon": 43.4011133}, {"type": "node", "id": 8916648697, "lat": 36.6494097, "lon": 43.4002206}, {"type": "node", "id": 8916648698, "lat": 36.6502261, "lon": 43.3983938}, {"type": "node", "id": 8919312277, "lat": 36.6880595, "lon": 43.3357052}, {"type": "node", "id": 8919312278, "lat": 36.6872121, "lon": 43.3351365}, {"type": "node", "id": 8919312279, "lat": 36.6865754, "lon": 43.3346967}, {"type": "node", "id": 8919312280, "lat": 36.6867518, "lon": 43.3340207}, {"type": "node", "id": 8919312281, "lat": 36.6861624, "lon": 43.3333019}, {"type": "node", "id": 8919312282, "lat": 36.6856871, "lon": 43.3325723}, {"type": "node", "id": 8919312283, "lat": 36.6873734, "lon": 43.3290962}, {"type": "node", "id": 8919312284, "lat": 36.6868055, "lon": 43.3286885}, {"type": "node", "id": 8919312285, "lat": 36.6861861, "lon": 43.329697}, {"type": "node", "id": 8919312286, "lat": 36.6833296, "lon": 43.327401}, {"type": "node", "id": 8919312287, "lat": 36.6826757, "lon": 43.3285383}, {"type": "node", "id": 8919312288, "lat": 36.6801805, "lon": 43.3263925}, {"type": "node", "id": 8919312289, "lat": 36.6790963, "lon": 43.3281521}, {"type": "node", "id": 8919312290, "lat": 36.6742605, "lon": 43.3237693}, {"type": "node", "id": 8919312291, "lat": 36.6733656, "lon": 43.3272723}, {"type": "node", "id": 8919312292, "lat": 36.672178, "lon": 43.3263925}, {"type": "node", "id": 8919312293, "lat": 36.6712272, "lon": 43.3293537}, {"type": "node", "id": 8919312294, "lat": 36.6720533, "lon": 43.3300081}, {"type": "node", "id": 8919312295, "lat": 36.6717521, "lon": 43.3310059}, {"type": "node", "id": 8919312296, "lat": 36.6722856, "lon": 43.3313707}, {"type": "node", "id": 8919312297, "lat": 36.6716918, "lon": 43.3331302}, {"type": "node", "id": 8919312298, "lat": 36.6742218, "lon": 43.3347932}, {"type": "node", "id": 8919312299, "lat": 36.6728622, "lon": 43.3383123}, {"type": "node", "id": 8919312300, "lat": 36.6750392, "lon": 43.3397285}, {"type": "node", "id": 8919312301, "lat": 36.6752027, "lon": 43.3403829}, {"type": "node", "id": 8919312302, "lat": 36.6757965, "lon": 43.340973}, {"type": "node", "id": 8919312303, "lat": 36.6781972, "lon": 43.3425394}, {"type": "node", "id": 8919312304, "lat": 36.67744, "lon": 43.3456293}, {"type": "node", "id": 8919312305, "lat": 36.6779648, "lon": 43.3472172}, {"type": "node", "id": 8919312306, "lat": 36.6769323, "lon": 43.3487192}, {"type": "node", "id": 8919312307, "lat": 36.6767344, "lon": 43.3489982}, {"type": "node", "id": 8919312308, "lat": 36.6755469, "lon": 43.3469168}, {"type": "node", "id": 8919312309, "lat": 36.6742045, "lon": 43.3450285}, {"type": "node", "id": 8919312310, "lat": 36.6735678, "lon": 43.3459834}, {"type": "node", "id": 8919312311, "lat": 36.6753662, "lon": 43.3497063}, {"type": "node", "id": 8919312312, "lat": 36.6747811, "lon": 43.3506397}, {"type": "node", "id": 8919312313, "lat": 36.672234, "lon": 43.3495454}, {"type": "node", "id": 8919312314, "lat": 36.6720877, "lon": 43.3502749}, {"type": "node", "id": 8919312315, "lat": 36.6737485, "lon": 43.3511225}, {"type": "node", "id": 8919312316, "lat": 36.6753748, "lon": 43.3517233}, {"type": "node", "id": 8919320717, "lat": 36.6748155, "lon": 43.353397}, {"type": "node", "id": 8919320718, "lat": 36.6742992, "lon": 43.3533005}, {"type": "node", "id": 8919320719, "lat": 36.6742476, "lon": 43.3538262}, {"type": "node", "id": 8919320720, "lat": 36.6748069, "lon": 43.3540407}, {"type": "node", "id": 8919320721, "lat": 36.6747294, "lon": 43.3549312}, {"type": "node", "id": 8919320722, "lat": 36.6752802, "lon": 43.3550171}, {"type": "node", "id": 8919320723, "lat": 36.6762009, "lon": 43.3546523}, {"type": "node", "id": 8919320724, "lat": 36.6770011, "lon": 43.3546952}, {"type": "node", "id": 8919320725, "lat": 36.6771904, "lon": 43.3538584}, {"type": "node", "id": 8919320726, "lat": 36.6791092, "lon": 43.3549849}, {"type": "node", "id": 8919320727, "lat": 36.679419, "lon": 43.3546845}, {"type": "node", "id": 8919320728, "lat": 36.6799439, "lon": 43.3538691}, {"type": "node", "id": 8919320729, "lat": 36.6810022, "lon": 43.3535579}, {"type": "node", "id": 8919320730, "lat": 36.6821896, "lon": 43.3541909}, {"type": "node", "id": 8919320731, "lat": 36.6817336, "lon": 43.3560899}, {"type": "node", "id": 8919320732, "lat": 36.6823272, "lon": 43.3564011}, {"type": "node", "id": 8919320733, "lat": 36.6833511, "lon": 43.3566264}, {"type": "node", "id": 8919320734, "lat": 36.68342, "lon": 43.3576993}, {"type": "node", "id": 8919320735, "lat": 36.6846675, "lon": 43.357828}, {"type": "node", "id": 8919320736, "lat": 36.6851235, "lon": 43.3577422}, {"type": "node", "id": 8919320737, "lat": 36.6853558, "lon": 43.3558217}, {"type": "node", "id": 8919320738, "lat": 36.6868787, "lon": 43.3561651}, {"type": "node", "id": 8919320739, "lat": 36.6874551, "lon": 43.3560363}, {"type": "node", "id": 8919320740, "lat": 36.6873863, "lon": 43.3554569}, {"type": "node", "id": 8919320741, "lat": 36.6879283, "lon": 43.3552746}, {"type": "node", "id": 8919320742, "lat": 36.6880574, "lon": 43.354266}, {"type": "node", "id": 8919320743, "lat": 36.6888231, "lon": 43.3544377}, {"type": "node", "id": 8919320744, "lat": 36.6902512, "lon": 43.3508972}, {"type": "node", "id": 8919320745, "lat": 36.6906125, "lon": 43.3510367}, {"type": "node", "id": 8919320746, "lat": 36.6911373, "lon": 43.3507148}, {"type": "node", "id": 8919320747, "lat": 36.6918686, "lon": 43.3510581}, {"type": "node", "id": 8919320748, "lat": 36.6922041, "lon": 43.3504037}, {"type": "node", "id": 8919320749, "lat": 36.6927547, "lon": 43.3504037}, {"type": "node", "id": 8919320750, "lat": 36.6922987, "lon": 43.3514014}, {"type": "node", "id": 8919320751, "lat": 36.6918428, "lon": 43.3515946}, {"type": "node", "id": 8919320752, "lat": 36.6917912, "lon": 43.3533112}, {"type": "node", "id": 8919320753, "lat": 36.691318, "lon": 43.3534507}, {"type": "node", "id": 8919320754, "lat": 36.6910513, "lon": 43.3544484}, {"type": "node", "id": 8919320755, "lat": 36.6912406, "lon": 43.3548025}, {"type": "node", "id": 8919320756, "lat": 36.693159, "lon": 43.3553926}, {"type": "node", "id": 8919320757, "lat": 36.6930558, "lon": 43.3559183}, {"type": "node", "id": 8919320758, "lat": 36.6941398, "lon": 43.3571414}, {"type": "node", "id": 8919320759, "lat": 36.6959119, "lon": 43.3569697}, {"type": "node", "id": 8919320760, "lat": 36.6960323, "lon": 43.3566049}, {"type": "node", "id": 8919320761, "lat": 36.6962474, "lon": 43.3566908}, {"type": "node", "id": 8919320762, "lat": 36.6963937, "lon": 43.3584396}, {"type": "node", "id": 8919320763, "lat": 36.6968324, "lon": 43.3583645}, {"type": "node", "id": 8919320764, "lat": 36.6970905, "lon": 43.3560899}, {"type": "node", "id": 8919320765, "lat": 36.6978303, "lon": 43.3563045}, {"type": "node", "id": 8919320766, "lat": 36.6980625, "lon": 43.3577529}, {"type": "node", "id": 8919320767, "lat": 36.6991808, "lon": 43.3578817}, {"type": "node", "id": 8919320768, "lat": 36.6992238, "lon": 43.3586112}, {"type": "node", "id": 8919320769, "lat": 36.6995421, "lon": 43.3586005}, {"type": "node", "id": 8919320770, "lat": 36.6995765, "lon": 43.3599845}, {"type": "node", "id": 8919320771, "lat": 36.7012453, "lon": 43.360006}, {"type": "node", "id": 8919320772, "lat": 36.7013399, "lon": 43.3589331}, {"type": "node", "id": 8919320773, "lat": 36.7024926, "lon": 43.3590833}, {"type": "node", "id": 8919320774, "lat": 36.7031635, "lon": 43.3555857}, {"type": "node", "id": 8919320775, "lat": 36.7035076, "lon": 43.3557252}, {"type": "node", "id": 8919320776, "lat": 36.7035162, "lon": 43.3561651}, {"type": "node", "id": 8919320777, "lat": 36.7046602, "lon": 43.356208}, {"type": "node", "id": 8919320778, "lat": 36.7049441, "lon": 43.3534936}, {"type": "node", "id": 8919320779, "lat": 36.7042904, "lon": 43.3530108}, {"type": "node", "id": 8919320780, "lat": 36.7036796, "lon": 43.3534721}, {"type": "node", "id": 8919320781, "lat": 36.7033184, "lon": 43.3542553}, {"type": "node", "id": 8919320782, "lat": 36.7027421, "lon": 43.3538047}, {"type": "node", "id": 8919320783, "lat": 36.7027076, "lon": 43.3524421}, {"type": "node", "id": 8919320784, "lat": 36.7036108, "lon": 43.3524743}, {"type": "node", "id": 8919320785, "lat": 36.7039377, "lon": 43.3514014}, {"type": "node", "id": 8919320786, "lat": 36.7054172, "lon": 43.3516268}, {"type": "node", "id": 8919320787, "lat": 36.7059591, "lon": 43.3499423}, {"type": "node", "id": 8919320788, "lat": 36.7050043, "lon": 43.3495883}, {"type": "node", "id": 8919320789, "lat": 36.703284, "lon": 43.3493415}, {"type": "node", "id": 8919320790, "lat": 36.702527, "lon": 43.3500067}, {"type": "node", "id": 8919320791, "lat": 36.7010475, "lon": 43.3505431}, {"type": "node", "id": 8919320792, "lat": 36.700798, "lon": 43.3495883}, {"type": "node", "id": 8919320793, "lat": 36.6995679, "lon": 43.350114}, {"type": "node", "id": 8919320794, "lat": 36.6989486, "lon": 43.349717}, {"type": "node", "id": 8919320795, "lat": 36.698484, "lon": 43.3497707}, {"type": "node", "id": 8919320796, "lat": 36.6986819, "lon": 43.3494166}, {"type": "node", "id": 8919320797, "lat": 36.6990776, "lon": 43.3484188}, {"type": "node", "id": 8919320798, "lat": 36.6995507, "lon": 43.3485261}, {"type": "node", "id": 8919320799, "lat": 36.6998346, "lon": 43.3477966}, {"type": "node", "id": 8919320800, "lat": 36.6994217, "lon": 43.3470992}, {"type": "node", "id": 8919320801, "lat": 36.6984238, "lon": 43.3465735}, {"type": "node", "id": 8919320802, "lat": 36.6982346, "lon": 43.3469812}, {"type": "node", "id": 8919320803, "lat": 36.6979679, "lon": 43.3468846}, {"type": "node", "id": 8919320804, "lat": 36.6977356, "lon": 43.3473781}, {"type": "node", "id": 8919320805, "lat": 36.6967722, "lon": 43.3463589}, {"type": "node", "id": 8919320806, "lat": 36.6969184, "lon": 43.34505}, {"type": "node", "id": 8919320807, "lat": 36.6959549, "lon": 43.344653}, {"type": "node", "id": 8919320808, "lat": 36.6957141, "lon": 43.3448676}, {"type": "node", "id": 8919320809, "lat": 36.6952839, "lon": 43.346155}, {"type": "node", "id": 8919320810, "lat": 36.6946559, "lon": 43.3456401}, {"type": "node", "id": 8919320811, "lat": 36.6943548, "lon": 43.3462731}, {"type": "node", "id": 8919320812, "lat": 36.6947333, "lon": 43.3466271}, {"type": "node", "id": 8919320813, "lat": 36.6936236, "lon": 43.3486334}, {"type": "node", "id": 8919320814, "lat": 36.6922127, "lon": 43.3476356}, {"type": "node", "id": 8919320815, "lat": 36.6920234, "lon": 43.3480219}, {"type": "node", "id": 8919320816, "lat": 36.6910169, "lon": 43.3473781}, {"type": "node", "id": 8919320817, "lat": 36.6910255, "lon": 43.3466325}, {"type": "node", "id": 8919320818, "lat": 36.690733, "lon": 43.3457474}, {"type": "node", "id": 8919320819, "lat": 36.6902254, "lon": 43.3449212}, {"type": "node", "id": 8919320820, "lat": 36.6897178, "lon": 43.3442882}, {"type": "node", "id": 8919320821, "lat": 36.6898383, "lon": 43.3441166}, {"type": "node", "id": 8919320822, "lat": 36.691817, "lon": 43.3442882}, {"type": "node", "id": 8919320823, "lat": 36.6921525, "lon": 43.3424858}, {"type": "node", "id": 8919320824, "lat": 36.6914126, "lon": 43.3415202}, {"type": "node", "id": 8919320825, "lat": 36.6903717, "lon": 43.341488}, {"type": "node", "id": 8919320826, "lat": 36.690277, "lon": 43.3411018}, {"type": "node", "id": 8919320827, "lat": 36.6914729, "lon": 43.3405117}, {"type": "node", "id": 8919320828, "lat": 36.6909825, "lon": 43.3390418}, {"type": "node", "id": 8919320829, "lat": 36.6899157, "lon": 43.3393315}, {"type": "node", "id": 8919320830, "lat": 36.6888833, "lon": 43.3370999}, {"type": "node", "id": 8919320831, "lat": 36.6878509, "lon": 43.3370141}, {"type": "node", "id": 8919320832, "lat": 36.6874723, "lon": 43.3378617}, {"type": "node", "id": 8946532308, "lat": 36.6777939, "lon": 43.3270051}, {"type": "node", "id": 8946532309, "lat": 36.6780384, "lon": 43.3266625}, {"type": "node", "id": 8946765478, "lat": 36.6910126, "lon": 43.346139}, {"type": "node", "id": 8955446295, "lat": 36.8637238, "lon": 42.9018623, "tags": {"name": "\u062a\u06d5\u0646\u0627\u0647\u06cc", "name:ar": "\u062a\u0646\u0627\u0647\u064a", "name:ckb": "\u062a\u06d5\u0646\u0627\u0647\u06cc", "name:en": "Tanahi", "name:ku": "Tenah\u00ee", "name:ml": "\u0d24\u0d28\u0d3e\u0d39\u0d3f", "place": "town", "wikipedia": "ckb:\u062a\u06d5\u0646\u0627\u06be\u06cc"}}, {"type": "node", "id": 11908857526, "lat": 36.8754408, "lon": 43.0042466, "tags": {"place": "city"}}, {"type": "node", "id": 12135971914, "lat": 36.6469647, "lon": 43.4103747, "tags": {"name": "\u0645\u06d5\u0647\u06d5\u062a\u06ce", "name:ar": "\u0645\u0647\u062a\u064a", "name:ckb": "\u0645\u06d5\u0647\u06d5\u062a\u06ce", "name:de": "Mahate", "name:en": "Mahate", "name:fr": "Mahate", "place": "town"}}, {"type": "way", "id": 236985682, "nodes": [2449374576, 2449374379, 2449374284, 2449374466, 2449374464, 2449374221, 2449374632, 2449374448, 2449374398, 2449374446, 2449374362, 2449374224, 2449374304, 2449374365, 2449374501, 2449374290, 2449374253, 2449374340, 2449374432, 2449374646, 2449374543, 2449374422, 2449374394, 2449374366, 5240746180, 2449374334, 2449374648, 2449374261, 2449374294, 2449374560, 2449374265, 5605077879, 2449374282, 2449374430, 5220581141, 2449374392, 2449374538, 2449374296, 2449374601, 2449374568, 2449374629, 2449374497, 2449374478, 2449374364, 2449374338, 2449374489, 2449374434, 2449374363, 2449374472, 2449374576], "tags": {"name": "\u0634\u0627\u0631\u064a\u0627", "name:ku": "\u0645\u062c\u0645\u0639 \u0634\u0627\u0631\u064a\u0627", "place": "town", "source": "Bing"}}, {"type": "way", "id": 290684252, "nodes": [2941930624, 8789459442, 8789459443, 2941930622, 2941930619, 8789459444, 2941930618, 5696170087, 2941930616, 2941930615, 5696170098, 2941930614, 2941930613, 2941930611, 2941930610, 2941930609, 8789459558, 8789459559, 5420576829, 5420576830, 2941929700, 2941930601, 5696231915, 2941930604, 5696231918, 8789459530, 2452275953, 2941930607, 8789459434, 8789459435, 8789459438, 8789459439, 8789459437, 2941930603, 2941930602, 2941930605, 8789459441, 8789459440, 2941930612, 2941930617, 2941930625, 2941930624], "tags": {"landuse": "residential", "place": "town"}}, {"type": "way", "id": 298619113, "nodes": [3025093806, 8916648681, 8916648682, 3025093804, 8916648683, 8916648684, 3025094127, 8916648685, 8916648686, 3025094118, 8916648687, 8916648688, 8916648689, 8916648690, 8916648691, 8916648692, 3025093803, 8916648693, 8916648694, 8916648695, 8916648696, 8916648697, 8916648698, 3025093805, 8916648680, 3025093806], "tags": {"landuse": "residential", "name": "\u0645\u06d5\u0647\u06d5\u062a\u06ce", "name:ckb": "\u0645\u06d5\u0647\u06d5\u062a\u06ce", "place": "town"}}, {"type": "way", "id": 311474541, "nodes": [3171307523, 3171307524, 3171307525, 3171307526, 3171307527, 3171307528, 3171307529, 3171307530, 3171307531, 3171307532, 3171307533, 3171307534, 3171307535, 3171307536, 3171307537, 3171307538, 3171307539, 3171307540, 3171307541, 3171307542, 3171307543, 3171307544, 3171307545, 3171307523], "tags": {"landuse": "residential", "place": "town"}}, {"type": "way", "id": 865541494, "nodes": [8067578742, 8117007187, 8067578743, 8067578744, 8067578745, 8067578746, 8067578747, 8067578748, 8067578749, 8067578750, 8067578751, 8067578752, 8067578753, 8067578754, 8067578755, 8067578756, 8067578757, 8067578758, 8067578759, 8067578760, 8067578742], "tags": {"landuse": "residential", "name": "\u0626\u06d5\u062a\u0631\u0648\u0634", "name:ckb": "\u0626\u06d5\u062a\u0631\u0648\u06cc\u0634", "place": "town"}}, {"type": "way", "id": 959185322, "nodes": [8875624977, 8875624978, 8875624979, 8875624980, 8875624981, 8875624982, 8875624983, 8875624984, 8875624985, 8875624986, 8875624987, 8875624988, 8875624989, 8875624990, 8875624991, 8875624992, 8875624993, 8875624994, 8875624995, 8875624996, 8875624997, 8875624977], "tags": {"landuse": "residential", "name": "\u0632\u06cc\u0644\u06a9\u0627\u0646", "name:ar": "\u0632\u06cc\u0644\u06a9\u0627\u0646", "place": "town"}}, {"type": "way", "id": 959185323, "nodes": [8875624998, 8875624999, 8875625000, 8875625001, 8875625002, 8875625003, 8875625004, 8875625005, 8875625006, 8875625007, 8875625008, 8875625009, 8875625010, 8875625011, 8875625012, 8875625013, 8875625014, 8875625015, 8875625016, 8875625017, 8875625018, 8875625019, 8875625020, 8875625021, 8875625022, 8875625023, 8875625024, 8875625025, 8875625026, 8875625027, 8875625028, 8875625029, 8875625030, 8875625031, 8875625032, 8875625033, 8875625034, 8875625035, 8875625036, 8875625037, 8875625038, 8875625039, 8875625040, 8875625041, 8875624998], "tags": {"landuse": "residential", "name": "\u0632\u06cc\u0644\u06a9\u0627\u0646", "name:ckb": "\u0632\u06cc\u0644\u06a9\u0627\u0646", "place": "town"}}, {"type": "way", "id": 964272084, "nodes": [8919320744, 8919320743, 8919320742, 8919320741, 8919320740, 8919320739, 8919320738, 8919320737, 8919320736, 8919320735, 8919320734, 8919320733, 8919320732, 8919320731, 8919320730, 8919320729, 8919320728, 8919320727, 8919320726, 8919320725, 8919320724, 8919320723, 8919320722, 8919320721, 8919320720, 8919320719, 8919320718, 8919320717, 8919312316, 8919312315, 8919312314, 8919312313, 8919312312, 8919312311, 8919312310, 8919312309, 8919312308, 8919312307, 8919312306, 8919312305, 8919312304, 8919312303, 8919312302, 8919312301, 8919312300, 8919312299, 8919312298, 8919312297, 8919312296, 8919312295, 8919312294, 8919312293, 8919312292, 8919312291, 8919312290, 8946532309, 8946532308, 8919312289, 8919312288, 8919312287, 8919312286, 8919312285, 8919312284, 8919312283, 8919312282, 8919312281, 8919312280, 8919312279, 8919312278, 8919312277, 8919320831, 4469421835, 8919320832, 8919320830, 8919320829, 8919320828, 8919320827, 8919320826, 8919320825, 8919320824, 8919320823, 8919320822, 8919320821, 8919320820, 8919320819, 8919320818, 8946765478, 8919320817, 8919320816, 8919320815, 8919320814, 8919320813, 8919320812, 8919320811, 8919320810, 8919320809, 8919320808, 8919320807, 8919320806, 8919320805, 8919320804, 8919320803, 8919320802, 8919320801, 8919320800, 8919320799, 8919320798, 8919320797, 8919320796, 8919320795, 8919320794, 8919320793, 8919320792, 8919320791, 8919320790, 8919320789, 8919320788, 8919320787, 8919320786, 8919320785, 8919320784, 8919320783, 8919320782, 8919320781, 8919320780, 8919320779, 8919320778, 8919320777, 8919320776, 8919320775, 8919320774, 8919320773, 8919320772, 8919320771, 8919320770, 8919320769, 8919320768, 8919320767, 8919320766, 8919320765, 8919320764, 8919320763, 8919320762, 8919320761, 8919320760, 8919320759, 8919320758, 8919320757, 8919320756, 8919320755, 8919320754, 8919320753, 8919320752, 8919320751, 8919320750, 8919320749, 8919320748, 8919320747, 8919320746, 8919320745, 8919320744], "tags": {"capital": "7", "landuse": "residential", "name": "\u0639\u064a\u0646 \u0633\u0641\u0646\u064a", "name:ar": "\u0639\u064a\u0646 \u0633\u0641\u0646\u064a", "name:ckb": "\u0626\u06ce\u0633\u0641\u0646\u06ce", "name:en": "En Sifne", "name:ku": "\u00easifn\u00ea", "place": "town", "wikidata": "Q4058903", "wikipedia": "ar:\u0639\u064a\u0646 \u0633\u0641\u0646\u064a"}}]}