{"version": 0.6, "generator": "Overpass API 0.7.62.4 2390de5a", "osm3s": {"timestamp_osm_base": "2025-01-08T06:13:30Z", "copyright": "The data included in this document is from www.openstreetmap.org. The data is made available under ODbL."}, "elements": [{"type": "node", "id": 1253986403, "lat": 23.1358335, "lon": 53.7881048, "tags": {"name": "\u0644\u064a\u0648\u0627", "name:ar": "\u0644\u064a\u0648\u0627", "name:ar1": "\u0644\u064a\u0648\u0627 \u0627\u0644\u063a\u0631\u0628\u064a\u0629", "name:en": "Liwa", "name:uk": "\u041b\u0456\u0432\u0430", "place": "town", "wikidata": "Q615949", "wikipedia": "ar:\u0644\u064a\u0648\u0627"}}, {"type": "node", "id": 9976911326, "lat": 23.0001164, "lon": 53.4553521, "tags": {"name": "\u0627\u0644\u0645\u062d\u0627\u0636\u0631 \u0627\u0644\u063a\u0631\u0628\u064a\u0629", "name:ar": "\u0627\u0644\u0645\u062d\u0627\u0636\u0631 \u0627\u0644\u063a\u0631\u0628\u064a\u0629", "name:en": "Western Mahadir", "place": "town"}}, {"type": "node", "id": 9976911327, "lat": 23.0974185, "lon": 53.7794488, "tags": {"name": "\u0645\u0632\u064a\u0631\u0639\u0629", "name:ar": "\u0645\u0632\u064a\u0631\u0639\u0629", "name:en": "Mzeer\u02bbah", "place": "town"}}, {"type": "node", "id": 12320454283, "lat": 23.1059004, "lon": 53.5842443, "tags": {"GNS:id": "-783333", "alt_name": "Khann\u016br", "name": "Khannur", "name:ar": "\u062e\u0646\u0648\u0631", "name:en": "Khannur", "name:es": "Khannur", "name:fr": "Khannur", "place": "town", "source": "The national atlas of the United Arab Emirates / Khann\u016br"}}]}