{"version": 0.6, "generator": "Overpass API 0.7.62.4 2390de5a", "osm3s": {"timestamp_osm_base": "2025-01-08T06:51:12Z", "copyright": "The data included in this document is from www.openstreetmap.org. The data is made available under ODbL."}, "elements": [{"type": "node", "id": 1312442225, "lat": 32.1200168, "lon": 20.0812174, "tags": {"UNOSAT:ref": "4", "admin_level": "4", "alt_name:cs": "Beng\u00e1z\u00ed", "capital": "4", "name": "\u0628\u0646\u063a\u0627\u0632\u064a", "name:ar": "\u0628\u0646\u063a\u0627\u0632\u064a", "name:cs": "Bengh\u00e1z\u00ed", "name:de": "Bengasi", "name:el": "\u0392\u03b5\u03b3\u03b3\u03ac\u03b6\u03b7", "name:en": "Benghazi", "name:es": "Bengasi", "name:et": "Benghazi", "name:eu": "Bengazi", "name:fi": "Bengasi", "name:fr": "Benghazi", "name:hu": "Beng\u00e1zi", "name:it": "Bengasi", "name:kab": "Ben\u0263azi", "name:nl": "Benghazi", "name:pl": "Bengazi", "name:ru": "\u0411\u0435\u043d\u0433\u0430\u0437\u0438", "name:sk": "Beng\u00e1zi", "name:uk": "\u0411\u0435\u043d\u0433\u0430\u0437\u0456", "name:zh": "\u73ed\u52a0\u897f", "name:zh-Hans": "\u73ed\u52a0\u897f", "place": "city", "population": "631555", "population:date": "2011", "wikidata": "Q40816", "wikipedia": "ar:\u0628\u0646\u063a\u0627\u0632\u064a"}}, {"type": "node", "id": 1565510468, "lat": 32.0873756, "lon": 20.2548987, "tags": {"int_name": "Benina", "name": "\u0628\u0646\u064a\u0646\u0627", "name:ar": "\u0628\u0646\u064a\u0646\u0627", "name:en": "Benina", "name:it": "Benina", "pcode": "LY-12-10401", "place": "town", "shabya_cd": "12", "source": "NGA;OCHA"}}, {"type": "node", "id": 1565510740, "lat": 32.3480012, "lon": 20.3111096, "tags": {"name": "\u062f\u0631\u064a\u0627\u0646\u0629", "name:ar": "\u062f\u0631\u064a\u0627\u0646\u0629", "name:en": "Daryanah", "name:fr": "Daryanah", "pcode": "LY-12-10548", "place": "town", "population": "4097", "shabya_cd": "12", "source": "NGA;OCHA"}}]}