{"version": 0.6, "generator": "Overpass API 0.7.62.4 2390de5a", "osm3s": {"timestamp_osm_base": "2025-01-08T06:28:44Z", "copyright": "The data included in this document is from www.openstreetmap.org. The data is made available under ODbL."}, "elements": [{"type": "node", "id": 192326308, "lat": 34.9271069, "lon": 36.7323977, "tags": {"name": "\u0627\u0644\u0631\u0633\u062a\u0646", "name:ar": "\u0627\u0644\u0631\u0633\u062a\u0646", "name:cs": "ar-Rastan", "name:de": "ar-Rastan", "name:en": "Ar-Rastan", "name:fr": "Rastane", "name:he": "\u05d0-\u05e8\u05e1\u05ea\u05df", "name:ja": "\u30a2\u30c3\u30a0\u30e9\u30b9\u30bf\u30f3", "name:ko": "\uc544\ub77c\uc2a4\ud0c4", "name:ml": "\u0d05\u0d7c-\u0d31\u0d38\u0d4d\u0d24\u0d7b", "name:ru": "\u0410\u0440-\u0420\u0430\u0441\u0442\u0430\u043d", "name:uk": "\u0410\u0440-\u0420\u0430\u0441\u0442\u0430\u043d", "place": "town", "population": "39834", "population:date": "2004", "source:population": "\u0627\u0644\u0645\u0643\u062a\u0628 \u0627\u0644\u0645\u0631\u0643\u0632\u064a \u0644\u0644\u0625\u062d\u0635\u0627\u0621", "wikidata": "Q1867822", "wikipedia": "en:Al-Rastan"}}, {"type": "node", "id": 270690634, "lat": 35.011746, "lon": 37.0546349, "tags": {"name": "\u0627\u0644\u0633\u0644\u0645\u064a\u0629", "name:ar": "\u0627\u0644\u0633\u0644\u0645\u064a\u0629", "name:azb": "\u0633\u0644\u0645\u06cc\u0647", "name:ckb": "\u0633\u06d5\u0644\u06d5\u0645\u06cc\u06d5", "name:cs": "Salm\u00edja", "name:de": "as-Salamija", "name:el": "\u03a3\u03b1\u03bb\u03b1\u03bc\u03af\u03b3\u03b9\u03b1", "name:en": "As-Salamiye", "name:es": "Salam\u00eda", "name:et": "Salam\u012byah", "name:fr": "Selemi\u00e9", "name:he": "\u05d0-\u05e1\u05dc\u05de\u05d9\u05d4", "name:hu": "Szalamijja", "name:ja": "\u30a2\u30c3\u30a0\u30b5\u30e9\u30df\u30e4", "name:ko": "\uc544\uc0b4\ub78c\uc774\uc608", "name:lt": "Salamija", "name:ml": "\u0d05\u0d7d-\u0d38\u0d32\u0d2e\u0d3f\u0d2f", "name:mzn": "\u0633\u0644\u0645\u06cc\u0647", "name:ru": "\u0410\u0441-\u0421\u0430\u043b\u0430\u043c\u0438\u0301\u0439\u044f", "name:uk": "\u0421\u0430\u043b\u0430\u043c\u0456\u044f", "name:ur": "\u0633\u0644\u0645\u06cc\u06c1", "place": "city", "population": "66724", "population:date": "2004", "source:population": "\u0627\u0644\u0645\u0643\u062a\u0628 \u0627\u0644\u0645\u0631\u0643\u0632\u064a \u0644\u0644\u0625\u062d\u0635\u0627\u0621", "wikidata": "Q75621", "wikipedia": "ar:\u0627\u0644\u0633\u0644\u0645\u064a\u0629 (\u0633\u0648\u0631\u064a\u0627)"}}, {"type": "node", "id": 567211214, "lat": 35.1958397, "lon": 36.6679653, "tags": {"name": "\u062e\u0637\u0627\u0628", "name:ar": "\u062e\u0637\u0627\u0628", "name:de": "Chattab", "name:en": "Khattab", "name:fr": "Khattab", "name:he": "\u05d7\u05f3\u05d8\u05d8\u05d0\u05d1", "name:ja": "\u30cf\u30c3\u30bf\u30fc\u30d6", "name:ko": "\uce7b\ub530\ube0c", "name:ml": "\u0d16\u0d24\u0d4d\u0d24\u0d3e\u0d2c\u0d4d", "name:ru": "\u0425\u0430\u0442\u0442\u0430\u0431", "place": "town", "population": "10830", "population:date": "2004", "source:population": "\u0627\u0644\u0645\u0643\u062a\u0628 \u0627\u0644\u0645\u0631\u0643\u0632\u064a \u0644\u0644\u0625\u062d\u0635\u0627\u0621", "wikidata": "Q15237855", "wikipedia": "ar:\u062e\u0637\u0627\u0628 (\u062d\u0645\u0627\u0629)"}}, {"type": "node", "id": 567214108, "lat": 35.2077952, "lon": 36.8547679, "tags": {"name": "\u0645\u0639\u0631 \u0634\u062d\u0648\u0631", "name:ar": "\u0645\u0639\u0631 \u0634\u062d\u0648\u0631", "name:de": "Maar Schehur", "name:en": "Ma'ar Shehur", "name:fr": "Maar Chehur", "name:he": "\u05de\u05e2\u05e8 \u05e9\u05d7\u05d5\u05e8", "name:ja": "\u30de\u30a2\u30eb\u30fb\u30b8\u30a7\u30db\u30a5\u30fc\u30eb", "name:ko": "\ub9c8\uc544\ub974\uc170\ud6c4\ub974", "name:ml": "\u0d2e\u0d3e\u0d7c \u0d37\u0d46\u0d39\u0d42\u0d7c", "name:ru": "\u041c\u0430\u0430\u0440-\u0428\u0435\u0445\u0443\u0440", "place": "town", "population": "5595", "population:date": "2004", "source:population": "\u0627\u0644\u0645\u0643\u062a\u0628 \u0627\u0644\u0645\u0631\u0643\u0632\u064a \u0644\u0644\u0625\u062d\u0635\u0627\u0621"}}, {"type": "node", "id": 571184771, "lat": 35.1034614, "lon": 36.803084, "tags": {"name": "\u0633\u0631\u064a\u062d\u064a\u0646", "name:ar": "\u0633\u0631\u064a\u062d\u064a\u0646", "name:de": "Sereihin", "name:en": "Sereihin", "name:fr": "Sereihine", "name:he": "\u05e1\u05e8\u05d9\u05d7\u05d9\u05df", "name:ja": "\u30b9\u30ec\u30a4\u30d2\u30f3", "name:ko": "\uc2a4\ub808\uc774\ud78c", "name:ru": "\u0421\u0435\u0440\u0430\u0439\u0445\u0438\u043d", "place": "town", "population": "7466", "population:date": "2004", "source:population": "\u0627\u0644\u0645\u0643\u062a\u0628 \u0627\u0644\u0645\u0631\u0643\u0632\u064a \u0644\u0644\u0625\u062d\u0635\u0627\u0621"}}, {"type": "node", "id": 572549135, "lat": 34.8425659, "lon": 36.730683, "tags": {"name": "\u062a\u0644\u0628\u064a\u0633\u0629", "name:ar": "\u062a\u0644\u0628\u064a\u0633\u0629", "name:de": "Talbisa", "name:en": "Talbisa", "name:fr": "Talbisa", "name:he": "\u05ea\u05dc\u05d1\u05d9\u05e1\u05d4", "name:ja": "\u30bf\u30eb\u30d3\u30fc\u30b5", "name:ko": "\ud0c8\ube44\uc0ac", "name:ml": "\u0d24\u0d7d\u0d2c\u0d40\u0d38", "name:ru": "\u0422\u0430\u043b\u044c\u0431\u0438\u0441\u0430", "place": "town", "population": "30796", "population:date": "2004", "source:population": "\u0627\u0644\u0645\u0643\u062a\u0628 \u0627\u0644\u0645\u0631\u0643\u0632\u064a \u0644\u0644\u0625\u062d\u0635\u0627\u0621", "wikidata": "Q3458895", "wikipedia": "en:Talbiseh"}}, {"type": "node", "id": 572549981, "lat": 34.8942837, "lon": 36.6797799, "tags": {"alt_name": "\u063a\u062c\u0631 \u0627\u0644\u0623\u0645\u064a\u0631", "alt_name:ar": "\u063a\u062c\u0631 \u0627\u0644\u0623\u0645\u064a\u0631", "alt_name:de": "Gedschar al-Amir", "alt_name:en": "Ghajar al-Amir", "alt_name:fr": "Ghadjar al-Amir", "alt_name:ru": "\u0413\u0430\u0434\u0436\u0430\u0440-\u0430\u043b\u044c-\u0410\u043c\u0438\u0440", "name": "\u063a\u0631\u0646\u0627\u0637\u0629", "name:ar": "\u063a\u0631\u0646\u0627\u0637\u0629", "name:de": "Garnata", "name:en": "Gharnata", "name:fr": "Gharnata", "name:he": "\u05e2\u05f3\u05e8\u05e0\u05d0\u05d8\u05d4", "name:ja": "\u30ac\u30eb\u30ca\u30fc\u30bf", "name:ko": "\uac00\ub974\ub098\ud0c0", "name:ru": "\u0413\u0430\u0440\u043d\u0430\u0442\u0430", "place": "town", "population": "5366", "population:date": "2004", "source:population": "\u0627\u0644\u0645\u0643\u062a\u0628 \u0627\u0644\u0645\u0631\u0643\u0632\u064a \u0644\u0644\u0625\u062d\u0635\u0627\u0621"}}, {"type": "node", "id": 572550922, "lat": 34.8920775, "lon": 36.7787388, "tags": {"name": "\u0627\u0644\u0632\u0639\u0641\u0631\u0627\u0646\u064a\u0629", "name:ar": "\u0627\u0644\u0632\u0639\u0641\u0631\u0627\u0646\u064a\u0629", "name:de": "as-Safaranija", "name:en": "Az-Za'faraniya", "name:fr": "Az-Zafarania", "name:he": "\u05d0-\u05d6\u05e2\u05e4\u05e8\u05d0\u05e0\u05d9\u05d4", "name:ja": "\u30a2\u30c3\u30a0\u30b6\u30d5\u30a1\u30e9\u30cb\u30e4", "name:ko": "\uc544\uc9dc\ud30c\ub77c\ub2c8\uc57c", "name:ru": "\u0410\u0437-\u0417\u0430\u0444\u0430\u0440\u0430\u043d\u0438\u0439\u044f", "place": "town", "population": "5102", "population:date": "2004", "source:population": "\u0627\u0644\u0645\u0643\u062a\u0628 \u0627\u0644\u0645\u0631\u0643\u0632\u064a \u0644\u0644\u0625\u062d\u0635\u0627\u0621"}}, {"type": "node", "id": 572551073, "lat": 34.9776068, "lon": 36.6445326, "tags": {"name": "\u062f\u064a\u0631 \u0627\u0644\u0641\u0631\u062f\u064a\u0633", "name:ar": "\u062f\u064a\u0631 \u0627\u0644\u0641\u0631\u062f\u064a\u0633", "name:de": "Deir al-Fardis", "name:en": "Deir al-Fardis", "name:fr": "De\u00efr al-Fardise", "name:he": "\u05d3\u05d9\u05e8 \u05d0\u05dc-\u05e4\u05e8\u05d3\u05d9\u05e1", "name:ja": "\u30c7\u30a4\u30eb\u30fb\u30a2\u30eb\u30a0\u30d5\u30a1r\u30c7\u30a3\u30b9", "name:ko": "\ub370\uc774\ub974\uc54c\ud30c\ub974\ub514\uc2a4", "name:ru": "\u0414\u0435\u0439\u0440-\u0430\u043b-\u0424\u0430\u0440\u0434\u0438\u0441", "place": "town", "population": "5890", "population:date": "2004", "source:population": "\u0627\u0644\u0645\u0643\u062a\u0628 \u0627\u0644\u0645\u0631\u0643\u0632\u064a \u0644\u0644\u0625\u062d\u0635\u0627\u0621"}}, {"type": "node", "id": 572553584, "lat": 35.0306651, "lon": 36.9403356, "tags": {"name": "\u062a\u0644\u062f\u0631\u0629", "name:ar": "\u062a\u0644\u062f\u0631\u0629", "name:de": "Telldara", "name:en": "Talldara", "name:fr": "Talldara", "name:he": "\u05ea\u05dc\u05d3\u05e8\u05d4", "name:ja": "\u30bf\u30c3\u30eb\u30c0\u30e9", "name:ko": "\ud0c8\ub2e4\ub77c", "name:ru": "\u0422\u0430\u043b\u043b\u0434\u0430\u0440\u0430", "place": "town", "population": "5986", "population:date": "2004", "source:population": "\u0627\u0644\u0645\u0643\u062a\u0628 \u0627\u0644\u0645\u0631\u0643\u0632\u064a \u0644\u0644\u0625\u062d\u0635\u0627\u0621", "wikidata": "Q12203156", "wikimedia_commons": "Category:Taldara"}}, {"type": "node", "id": 572554837, "lat": 35.1261739, "lon": 36.6524504, "tags": {"name": "\u062a\u064a\u0632\u064a\u0646", "name:ar": "\u062a\u064a\u0632\u064a\u0646", "name:de": "Teisin", "name:en": "Teizin", "name:fr": "Teizin", "name:ml": "\u0d24\u0d40\u0d38\u0d40\u0d7b", "name:ru": "\u0422\u0435\u0439\u0437\u0438\u043d", "place": "town", "population": "5072", "population:date": "2004", "source:population": "\u0627\u0644\u0645\u0643\u062a\u0628 \u0627\u0644\u0645\u0631\u0643\u0632\u064a \u0644\u0644\u0625\u062d\u0635\u0627\u0621"}}, {"type": "node", "id": 572555766, "lat": 35.0605812, "lon": 36.6975753, "tags": {"name": "\u0643\u0641\u0631 \u0628\u0647\u0645", "name:ar": "\u0643\u0641\u0631 \u0628\u0647\u0645", "name:de": "Kafr Buhum", "name:en": "Kafr Buhum", "name:fr": "Kafr Buhume", "name:he": "\u05db\u05e4\u05e8 \u05d1\u05d4\u05dd", "name:ja": "\u30ab\u30d5\u30eb\u30fb\u30d6\u30db\u30a5\u30e0", "name:ko": "\uce74\ud504\ub974\ubd80\ud6d4", "name:ml": "\u0d15\u0d2b\u0d7c \u0d2c\u0d41\u0d39\u0d41\u0d02", "name:ru": "\u041a\u0430\u0444\u0440-\u0411\u0443\u0445\u0443\u043c", "place": "town", "population": "12194", "population:date": "2004", "source:population": "\u0627\u0644\u0645\u0643\u062a\u0628 \u0627\u0644\u0645\u0631\u0643\u0632\u064a \u0644\u0644\u0625\u062d\u0635\u0627\u0621"}}, {"type": "node", "id": 572557865, "lat": 35.1343368, "lon": 36.7496276, "tags": {"name": "\u062d\u0645\u0627\u0629", "name:am": "\u1210\u121b\u1275", "name:ar": "\u062d\u0645\u0627\u0629", "name:arc": "\u071a\u0721\u072c", "name:az": "H\u0259ma", "name:azb": "\u062d\u0645\u0627\u0647", "name:ckb": "\u062d\u06d5\u0645\u0627", "name:cnr": "Hama", "name:cs": "Ham\u00e1", "name:de": "Hama", "name:el": "\u03a7\u03ac\u03bc\u03b1", "name:en": "Hama", "name:es": "Hama", "name:et": "\u1e28am\u0101h", "name:eu": "Hama", "name:fa": "\u062d\u0645\u0627\u062a", "name:fr": "Hama", "name:he": "\u05d7\u05de\u05d4", "name:he1": "\u05d7\u05de\u05ea", "name:he2": "\u05d7\u05de\u05d0\u05d4", "name:he3": "\u05d7\u05de\u05d0\u05ea", "name:hr": "Hama", "name:hu": "Ham\u00e1", "name:hy": "\u0540\u0561\u0574\u0561", "name:it": "Hama", "name:ja": "\u30cf\u30de\u30fc", "name:ko": "\ud558\ub9c8", "name:ku": "Hema", "name:la": "Epiphania", "name:lt": "Hama", "name:ml": "\u0d39\u0d2e\u0d3e", "name:mzn": "\u062d\u0645\u0627\u0647", "name:nl": "Hama", "name:no": "Hama", "name:pl": "Hama", "name:pt": "Hama", "name:ru": "\u0425\u0430\u043c\u0430", "name:sr": "\u0425\u0430\u043c\u0430", "name:sv": "Hamah", "name:tr": "Hama", "name:uk": "\u0425\u0430\u043c\u0430", "name:ur": "\u062d\u0645\u0627\u06c1", "name:zh": "\u54c8\u99ac", "place": "city", "population": "312994", "population:date": "2004", "source:population": "\u0627\u0644\u0645\u0643\u062a\u0628 \u0627\u0644\u0645\u0631\u0643\u0632\u064a \u0644\u0644\u0625\u062d\u0635\u0627\u0621", "wikipedia": "ar:\u062d\u0645\u0627\u0629"}}, {"type": "node", "id": 572558263, "lat": 35.1981764, "lon": 36.7336122, "tags": {"name": "\u0642\u0645\u062d\u0627\u0646\u0629", "name:ar": "\u0642\u0645\u062d\u0627\u0646\u0629", "name:de": "Kamhana", "name:en": "Qamhana", "name:fr": "Qamhana", "name:he": "\u05e7\u05de\u05d7\u05d0\u05e0\u05d4", "name:ja": "\u30ab\u30de\u30cf\u30fc\u30ca", "name:ko": "\uce74\ubbc0\ud558\ub098", "name:ml": "\u0d16\u0d02\u0d39\u0d3e\u0d28", "name:ru": "\u041a\u0430\u043c\u0445\u0430\u043d\u0430", "place": "town", "population": "13228", "population:date": "2004", "source:population": "\u0627\u0644\u0645\u0643\u062a\u0628 \u0627\u0644\u0645\u0631\u0643\u0632\u064a \u0644\u0644\u0625\u062d\u0635\u0627\u0621"}}, {"type": "node", "id": 572558424, "lat": 34.8358061, "lon": 36.8528136, "tags": {"name": "\u0627\u0644\u0645\u0634\u0631\u0641\u0629", "name:ar": "\u0627\u0644\u0645\u0634\u0631\u0641\u0629", "name:de": "al-Maschrafa", "name:en": "Al-Mashrafa", "name:fr": "Al-Machrafa", "name:he": "\u05d0\u05dc\u05de\u05e9\u05e8\u05e4\u05d4", "name:ja": "\u30a2\u30eb\u30a0\u30de\u30b7\u30e5\u30e9\u30d5\u30a1", "name:ko": "\uc54cma\uc288\ub77c\ud30c", "name:ml": "\u0d05\u0d7d-\u0d2e\u0d37\u0d4d\u200c\u0d31\u0d2b", "name:ru": "\u0410\u043b\u044c-\u041c\u0430\u0448\u0440\u0430\u0444\u0430", "place": "town", "population": "14868", "population:date": "2004", "source:population": "\u0627\u0644\u0645\u0643\u062a\u0628 \u0627\u0644\u0645\u0631\u0643\u0632\u064a \u0644\u0644\u0625\u062d\u0635\u0627\u0621"}}, {"type": "node", "id": 12173135263, "lat": 35.1175514, "lon": 36.7981976, "tags": {"name": "\u0627\u0644\u062c\u0627\u062c\u064a\u0629", "name:ar": "\u0627\u0644\u062c\u0627\u062c\u064a\u0629", "name:de": "al-Dschadschija", "name:en": "Al-Jajiya", "name:fr": "Al-Djadjia", "name:he": "\u05d0\u05dc-\u05d2\u05f3\u05d0\u05d2\u05f3\u05d9\u05d4", "name:ja": "\u30a2\u30eb\u30a0\u30b8\u30e3\u30fc\u30b8\u30fc\u30e4", "name:ko": "\uc54c\uc790\uc9c0\uc57c", "name:ml": "\u0d05\u0d7d-\u0d1c\u0d3e\u0d1c\u0d3f\u0d2f", "name:ru": "\u0410\u043b\u044c-\u0414\u0436\u0430\u0434\u0436\u0438\u0301\u0439\u044f", "place": "town", "population": "6419", "population:date": "2004", "source:population": "\u0627\u0644\u0645\u0643\u062a\u0628 \u0627\u0644\u0645\u0631\u0643\u0632\u064a \u0644\u0644\u0625\u062d\u0635\u0627\u0621"}}, {"type": "node", "id": 12193218587, "lat": 35.0988813, "lon": 36.6139923, "tags": {"name": "\u0627\u0644\u0631\u0628\u064a\u0639\u0629", "name:ar": "\u0627\u0644\u0631\u0628\u064a\u0639\u0629", "name:de": "ar-Rabia", "name:en": "Ar-Rabi'a", "name:fr": "Ar-Rabia", "name:he": "\u05d0-\u05e8\u05d1\u05d9\u05e2\u05d4", "name:ja": "\u30a2\u30c3\u30a0\u30e9\u30d3\u30fc\u30a2", "name:ko": "\uc544\ub77c\ube44\uc544", "name:ml": "\u0d05\u0d7c-\u0d31\u0d2c\u0d40\u0d2f", "name:ru": "\u0410\u0440-\u0420\u0430\u0431\u0438\u0430", "place": "town", "population": "7508", "population:date": "2004", "source:population": "\u0627\u0644\u0645\u0643\u062a\u0628 \u0627\u0644\u0645\u0631\u0643\u0632\u064a \u0644\u0644\u0625\u062d\u0635\u0627\u0621"}}, {"type": "node", "id": 12387387196, "lat": 35.1851798, "lon": 36.7220196}, {"type": "node", "id": 12387387197, "lat": 35.1380771, "lon": 36.7085448}, {"type": "node", "id": 12387387198, "lat": 35.1302204, "lon": 36.6894301}, {"type": "node", "id": 12387387199, "lat": 35.1131213, "lon": 36.6887966}, {"type": "node", "id": 12387387200, "lat": 35.1001834, "lon": 36.7330342}, {"type": "node", "id": 12387405401, "lat": 35.0982339, "lon": 36.7593875}, {"type": "node", "id": 12387405402, "lat": 35.0984793, "lon": 36.8141772}, {"type": "node", "id": 12387405403, "lat": 35.1159446, "lon": 36.8164671}, {"type": "node", "id": 12387405404, "lat": 35.1790972, "lon": 36.8112034}, {"type": "node", "id": 12387405405, "lat": 35.1834764, "lon": 36.7880507}, {"type": "node", "id": 12387405406, "lat": 35.1589198, "lon": 36.70365}, {"type": "way", "id": 1339151545, "nodes": [12387387196, 12387405405, 12387405404, 12387405403, 12387405402, 12387405401, 12387387200, 12387387199, 12387387198, 12387387197, 12387405406, 12387387196]}, {"type": "relation", "id": 18354844, "members": [{"type": "way", "ref": 1339151545, "role": "outer"}, {"type": "node", "ref": 572557865, "role": "admin_centre"}], "tags": {"name": "\u062d\u0645\u0627\u0629", "name:am": "\u1210\u121b\u1275", "name:ar": "\u062d\u0645\u0627\u0629", "name:arc": "\u071a\u0721\u072c", "name:azb": "\u062d\u0645\u0627\u0647", "name:ckb": "\u062d\u06d5\u0645\u0627", "name:cs": "Ham\u00e1", "name:de": "Hama", "name:el": "\u03a7\u03ac\u03bc\u03b1", "name:en": "Hama", "name:es": "Hama", "name:et": "\u1e28am\u0101h", "name:eu": "Hama", "name:fa": "\u062d\u0645\u0627\u062a", "name:fr": "Hama", "name:he": "\u05d7\u05de\u05d0\u05d4", "name:hr": "Hama", "name:hu": "Ham\u00e1", "name:it": "Hama", "name:ja": "\u30cf\u30de\u30fc", "name:ko": "\ud558\ub9c8", "name:ku": "Hema", "name:la": "Epiphania", "name:lt": "Hama", "name:ml": "\u0d39\u0d2e\u0d3e", "name:mzn": "\u062d\u0645\u0627\u0647", "name:nl": "Hama", "name:no": "Hama", "name:pl": "Hama", "name:pt": "Hama", "name:ru": "\u0425\u0430\u043c\u0430", "name:sv": "Hamah", "name:tr": "Hama", "name:uk": "\u0425\u0430\u043c\u0430", "name:ur": "\u062d\u0645\u0627\u06c1", "name:zh": "\u54c8\u99ac", "place": "city", "population": "312994", "population:date": "2004", "source:population": "\u0627\u0644\u0645\u0643\u062a\u0628 \u0627\u0644\u0645\u0631\u0643\u0632\u064a \u0644\u0644\u0625\u062d\u0635\u0627\u0621", "type": "multipolygon", "wikidata": "Q173545", "wikipedia": "ar:\u062d\u0645\u0627\u0629"}}]}