{"version": 0.6, "generator": "Overpass API 0.7.62.4 2390de5a", "osm3s": {"timestamp_osm_base": "2025-01-08T06:27:42Z", "copyright": "The data included in this document is from www.openstreetmap.org. The data is made available under ODbL."}, "elements": [{"type": "node", "id": 799014327, "lat": 32.06, "lon": 35.830833, "tags": {"int_name": "\u2018Ayn al B\u0101sh\u0101;Ayn al Basha", "name": "\u0639\u064a\u0646 \u0627\u0644\u0628\u0627\u0634\u0627", "name:ar": "\u0639\u064a\u0646 \u0627\u0644\u0628\u0627\u0634\u0627", "name:de": "Ayn al Basha", "name:en": "Ayn al Basha", "name:fr": "Ayn al Basha", "name:ml": "\u0d10\u0d7b \u0d05\u0d7d-\u0d2c\u0d3e\u0d37", "place": "town"}}, {"type": "node", "id": 799097498, "lat": 31.7165941, "lon": 35.7943856, "tags": {"alt_name": "\u0645\u0623\u062f\u0628\u0627", "alt_name:ar": "\u0645\u0623\u062f\u0628\u0627", "alt_name:grc": "\u039c\u03ae\u03b4\u03b1\u03b2\u03b1", "name": "\u0645\u0627\u062f\u0628\u0627", "name:ar": "\u0645\u0627\u062f\u0628\u0627", "name:ar-Latn": "M\u0101dab\u0101", "name:az-Arab": "\u0645\u0627\u062f\u0628\u0627", "name:azb": "\u0645\u0627\u062f\u0628\u0627", "name:de": "Madaba", "name:el": "\u039c\u03ac\u03bd\u03c4\u03b1\u03bc\u03c0\u03b1", "name:en": "Madaba", "name:es": "Madaba", "name:eu": "Madaba", "name:fr": "Madaba", "name:grc": "\u039c\u03b1\u03b9\u03b4\u03b1\u03b2\u03ac", "name:he": "\u05de\u05d9\u05d3\u05d1\u05d0", "name:hi": "\u092e\u0926\u093e\u092c\u093e", "name:ks": "\u0645\u0627\u062f\u0628\u0627", "name:ml": "\u0d2e\u0d3e\u0d26\u0d2c", "name:pt": "Madaba", "name:ru": "\u041c\u0430\u0434\u0430\u0431\u0430", "name:uk": "\u041c\u0430\u0434\u0430\u0431\u0430", "name:ur": "\u0645\u0627\u062f\u0628\u0627", "place": "city", "population": "65000", "wikidata": "Q1683958", "wikipedia": "ar:\u0645\u0627\u062f\u0628\u0627"}}, {"type": "node", "id": 802869352, "lat": 31.8786659, "lon": 36.0043148, "tags": {"int_name": "Sahab", "name": "\u0633\u062d\u0627\u0628", "name:ar": "\u0633\u062d\u0627\u0628", "name:de": "Sahab", "name:en": "Sahab", "name:fr": "Sahab", "name:ml": "\u0d38\u0d39\u0d3e\u0d2c\u0d4d", "name:uk": "\u0421\u0430\u0445\u0430\u0431", "place": "city", "wikidata": "Q1020853", "wikipedia": "en:Sahab, Jordan"}}, {"type": "node", "id": 802870056, "lat": 32.0174989, "lon": 36.0434611, "tags": {"int_name": "Er Refeia;Al Refeia;Al Rusayfah;Ruseifa", "name": "\u0627\u0644\u0631\u0635\u064a\u0641\u0629", "name:ar": "\u0627\u0644\u0631\u0635\u064a\u0641\u0629", "name:de": "Russeifa", "name:en": "Al-Ruseifa", "name:es": "Russeifa", "name:fr": "Russeifa", "name:he": "\u05e8\u05d5\u05e1\u05d9\u05d9\u05e4\u05d4", "name:ml": "\u0d31\u0d41\u0d38\u0d48\u0d2b", "name:uk": "\u0415\u0440-\u0420\u0443\u0441\u0441\u0430\u0439\u0444\u0430", "place": "city", "wikidata": "Q2361176", "wikipedia": "en:Russeifa"}}, {"type": "node", "id": 802876374, "lat": 31.7, "lon": 35.95, "tags": {"int_name": "Al J\u012bzah;Al Jizah", "name": "\u0627\u0644\u062c\u064a\u0632\u0629", "name:ar": "\u0627\u0644\u062c\u064a\u0632\u0629", "name:de": "Al Jizah", "name:en": "Al Jizah", "name:fr": "Al Jizah", "name:ml": "\u0d05\u0d7d-\u0d1c\u0d40\u0d38", "place": "town", "wikidata": "Q759726"}}, {"type": "node", "id": 1451377737, "lat": 32.0803913, "lon": 36.0224849}, {"type": "node", "id": 1506264134, "lat": 32.0668425, "lon": 36.0885771, "tags": {"int_name": "az-Zarqa;Al Zarqa;ez-Zerga;Zarqa;Zarka;Al Zarka", "name": "\u0627\u0644\u0632\u0631\u0642\u0627\u0621", "name:ar": "\u0627\u0644\u0632\u0631\u0642\u0627\u0621", "name:be": "\u042d\u0437-\u0417\u0430\u0440\u043a\u0430", "name:bg": "\u0417\u0430\u0440\u043a\u0430", "name:de": "Zarka", "name:en": "Zarqa", "name:es": "Zarqa", "name:et": "Az-Zarq\u0101\u2019", "name:eu": "Zarqa", "name:fr": "Zarka", "name:he": "\u05d6\u05e8\u05e7\u05d0", "name:hi": "\u091c\u093c\u093e\u0930\u094d\u0915\u093e", "name:ks": "\u0632\u0631\u0642\u0627\u0621", "name:ml": "\u0d38\u0d7c\u0d16", "name:ru": "\u042d\u0437-\u0417\u0430\u0440\u043a\u0430", "name:uk": "\u0415\u0437-\u0417\u0430\u0440\u043a\u0430", "name:ur": "\u0632\u0631\u0642\u0627\u0621", "place": "city", "population": "395227", "wikidata": "Q148062", "wikimedia_commons": "Category:Az Zarqa", "wikipedia": "ar:\u0627\u0644\u0632\u0631\u0642\u0627\u0621 (\u0645\u062f\u064a\u0646\u0629)"}}, {"type": "node", "id": 1643504896, "lat": 31.9515694, "lon": 35.9239625, "tags": {"admin_level": "2", "alt_name:ar": "\u0639\u0645\u0651\u0627\u0646", "capital": "yes", "capital_ISO3166-1": "yes", "int_name": "Amman", "is_capital": "country", "name": "\u0639\u0645\u0627\u0646", "name:am": "\u12a0\u121b\u1295", "name:ar": "\u0639\u0645\u0627\u0646", "name:arc": "\u0725\u0721\u0710\u0722", "name:bat-smg": "Amans", "name:be": "\u0410\u043c\u0430\u043d", "name:bg": "\u0410\u043c\u0430\u043d", "name:bn": "\u0986\u09ae\u09cd\u09ae\u09be\u09a8", "name:bo": "\u0f68\u0f58\u0f0b\u0f58\u0f53\u0f0d", "name:br": "Amman", "name:bs": "Aman", "name:ckb": "\u0639\u06d5\u0645\u0645\u0627\u0646", "name:cs": "Amm\u00e1n", "name:cv": "\u0410\u043c\u043c\u0430\u043d", "name:da": "Amman", "name:de": "Amman", "name:el": "\u0391\u03bc\u03bc\u03ac\u03bd", "name:en": "Amman", "name:eo": "Amano", "name:es": "Am\u00e1n", "name:et": "Amman", "name:eu": "Amman", "name:fa": "\u0627\u0645\u0627\u0646", "name:fi": "Amman", "name:fr": "Amman", "name:gl": "Am\u00e1n - \u0639\u0645\u0627\u0646", "name:he": "\u05e8\u05d1\u05ea \u05e2\u05de\u05d5\u05df", "name:hi": "\u0905\u092e\u094d\u092e\u093e\u0928", "name:hr": "Amman", "name:ht": "Am\u00e0n", "name:hu": "Amm\u00e1n", "name:hy": "\u0531\u0574\u0574\u0561\u0576", "name:is": "Amman", "name:it": "Amman", "name:ja": "\u30a2\u30f3\u30de\u30f3", "name:ka": "\u10d0\u10db\u10d0\u10dc\u10d8", "name:kab": "\u0190emman", "name:kk": "\u0410\u043c\u043c\u0430\u043d", "name:kn": "\u0c85\u0cae\u0ccd\u0cae\u0cbe\u0ca8\u0ccd", "name:ko": "\uc554\ub9cc", "name:ks": "\u0639\u0645\u0627\u0646", "name:ku": "Amman", "name:lt": "Amanas", "name:lv": "Amm\u0101na", "name:mk": "\u0410\u043c\u0430\u043d", "name:ml": "\u0d05\u0d2e\u0d4d\u0d2e\u0d3e\u0d7b", "name:mn": "\u0410\u043c\u043c\u0430\u043d", "name:mr": "\u0905\u092e\u094d\u092e\u093e\u0928", "name:mzn": "\u0627\u0645\u0627\u0646", "name:nah": "Amm\u0101n", "name:nl": "Amman", "name:no": "Amman", "name:nov": "Aman", "name:oc": "Amman", "name:os": "\u0410\u043c\u043c\u0430\u043d", "name:pl": "Amman", "name:pnb": "\u0639\u0645\u0627\u0646 \u0634\u06c1\u0631", "name:pt": "Am\u00e3", "name:ro": "Amman", "name:ru": "\u0410\u043c\u043c\u0430\u043d", "name:sk": "Amm\u00e1n", "name:sl": "Aman", "name:sr": "\u0410\u043c\u0430\u043d", "name:sv": "Amman", "name:ta": "\u0b85\u0bae\u0bcd\u0bae\u0bbe\u0ba9\u0bcd", "name:te": "\u0c05\u0c2e\u0c4d\u0c2e\u0c3e\u0c28\u0c4d", "name:tg": "\u0410\u043c\u043c\u043e\u043d", "name:th": "\u0e2d\u0e31\u0e21\u0e21\u0e32\u0e19", "name:tr": "Amman", "name:tt": "\u0410\u043c\u043c\u0430\u043d", "name:ug": "\u0626\u0627\u0645\u0645\u0627\u0646", "name:uk": "\u0410\u043c\u043c\u0430\u043d", "name:ur": "\u0639\u0645\u0627\u0646", "name:wuu": "\u5b89\u66fc", "name:yi": "\u05d0\u05de\u05d0\u05df", "name:zh": "\u5b89\u66fc", "name:zh-Hans": "\u5b89\u66fc", "name:zh-Hant": "\u5b89\u66fc", "place": "city", "population": "4000000", "source:name:br": "ofis publik ar brezhoneg", "website": "https://www.ammancity.gov.jo/", "wikidata": "Q3805", "wikipedia": "ar:\u0639\u0645\u0627\u0646 (\u0645\u062f\u064a\u0646\u0629)"}}, {"type": "node", "id": 2859219638, "lat": 31.9880592, "lon": 35.8113021, "tags": {"name": "\u062f\u0627\u0628\u0648\u0642", "name:ar": "\u062f\u0627\u0628\u0648\u0642", "name:en": "Dabouq", "name:fr": "Dabouq", "place": "town", "wikidata": "Q6767330", "wikipedia": "ar:\u062f\u0627\u0628\u0648\u0642 (\u0627\u0644\u0623\u0631\u062f\u0646)"}}, {"type": "node", "id": 3823816569, "lat": 31.6951454, "lon": 35.7890528}, {"type": "node", "id": 3823816570, "lat": 31.6952161, "lon": 35.8032712}, {"type": "node", "id": 3823816571, "lat": 31.6969848, "lon": 35.8131659}, {"type": "node", "id": 3823816572, "lat": 31.6974093, "lon": 35.7819852}, {"type": "node", "id": 3823816573, "lat": 31.7039884, "lon": 35.7758322}, {"type": "node", "id": 3823816574, "lat": 31.7099304, "lon": 35.7724231}, {"type": "node", "id": 3823816575, "lat": 31.7126183, "lon": 35.7678499}, {"type": "node", "id": 3823816576, "lat": 31.7198329, "lon": 35.7681825}, {"type": "node", "id": 3823816577, "lat": 31.7199037, "lon": 35.8218133}, {"type": "node", "id": 3823816578, "lat": 31.7218133, "lon": 35.7740029}, {"type": "node", "id": 3823816579, "lat": 31.7281078, "lon": 35.8154109}, {"type": "node", "id": 3823816580, "lat": 31.7314317, "lon": 35.7780772}, {"type": "node", "id": 3823816581, "lat": 31.7395641, "lon": 35.8293799}, {"type": "node", "id": 3823816582, "lat": 31.7469887, "lon": 35.7848122}, {"type": "node", "id": 3823816583, "lat": 31.7481201, "lon": 35.8169907}, {"type": "node", "id": 3823816584, "lat": 31.7527866, "lon": 35.7996958}, {"type": "node", "id": 3823830570, "lat": 32.0197184, "lon": 36.1012495}, {"type": "node", "id": 3823830571, "lat": 32.0197563, "lon": 36.0774707}, {"type": "node", "id": 3823830572, "lat": 32.0225961, "lon": 36.0765744}, {"type": "node", "id": 3823830573, "lat": 32.023986, "lon": 36.0750058}, {"type": "node", "id": 3823830574, "lat": 32.0271956, "lon": 36.0686372}, {"type": "node", "id": 3823830575, "lat": 32.0305793, "lon": 36.0592171}, {"type": "node", "id": 3823830576, "lat": 32.0335967, "lon": 36.1129489}, {"type": "node", "id": 3823830577, "lat": 32.034199, "lon": 36.0572323}, {"type": "node", "id": 3823830578, "lat": 32.0364047, "lon": 36.0479255}, {"type": "node", "id": 3823830579, "lat": 32.0375558, "lon": 36.1166757}, {"type": "node", "id": 3823830580, "lat": 32.038271, "lon": 36.0435723}, {"type": "node", "id": 3823830581, "lat": 32.0393879, "lon": 36.0382684}, {"type": "node", "id": 3823830582, "lat": 32.0409855, "lon": 36.0351495}, {"type": "node", "id": 3823830583, "lat": 32.0431724, "lon": 36.1144461}, {"type": "node", "id": 3823830584, "lat": 32.0450431, "lon": 36.0286781}, {"type": "node", "id": 3823830585, "lat": 32.0510316, "lon": 36.1338946}, {"type": "node", "id": 3823830586, "lat": 32.0536383, "lon": 36.0218731}, {"type": "node", "id": 3823830587, "lat": 32.0721009, "lon": 36.1163455}, {"type": "node", "id": 3823830588, "lat": 32.0730203, "lon": 36.1199308}, {"type": "node", "id": 3823830589, "lat": 32.074501, "lon": 36.0174699}, {"type": "node", "id": 3823830590, "lat": 32.0817368, "lon": 36.033615}, {"type": "node", "id": 3823830591, "lat": 32.0824152, "lon": 36.0242081}, {"type": "node", "id": 3823830592, "lat": 32.0870704, "lon": 36.1141047}, {"type": "node", "id": 3823830593, "lat": 32.0902721, "lon": 36.0386854}, {"type": "node", "id": 3823830594, "lat": 32.0917982, "lon": 36.047225}, {"type": "node", "id": 3823830595, "lat": 32.0960937, "lon": 36.070442}, {"type": "node", "id": 3823830596, "lat": 32.0977614, "lon": 36.1153076}, {"type": "node", "id": 3823830597, "lat": 32.1002191, "lon": 36.1143877}, {"type": "node", "id": 3823830598, "lat": 32.1017777, "lon": 36.1141283}, {"type": "node", "id": 3823830599, "lat": 32.1038157, "lon": 36.1144113}, {"type": "node", "id": 3823830600, "lat": 32.1051145, "lon": 36.115001}, {"type": "node", "id": 3823830601, "lat": 32.106549, "lon": 36.0707756}, {"type": "node", "id": 3823830602, "lat": 32.1111264, "lon": 36.0822507}, {"type": "node", "id": 3823830603, "lat": 32.1115282, "lon": 36.1044679}, {"type": "node", "id": 3823830604, "lat": 32.1118107, "lon": 36.1189785}, {"type": "node", "id": 3823830605, "lat": 32.1183655, "lon": 36.0891233}, {"type": "node", "id": 3823830606, "lat": 32.1185633, "lon": 36.094594}, {"type": "node", "id": 4011090994, "lat": 32.0880545, "lon": 36.0964475, "tags": {"name": "\u0627\u0644\u0632\u0631\u0642\u0627\u0621 \u0627\u0644\u062c\u062f\u064a\u062f\u0629", "name:en": "New Zarqa", "name:fr": "New Zarqa", "name:ml": "\u0d2a\u0d41\u0d24\u0d3f\u0d2f \u0d38\u0d7c\u0d16", "place": "town", "wikidata": "Q12188083", "wikipedia": "ar:\u0627\u0644\u0632\u0631\u0642\u0627\u0621 \u0627\u0644\u062c\u062f\u064a\u062f\u0629"}}, {"type": "node", "id": 4013661913, "lat": 32.0566025, "lon": 36.1209984, "tags": {"name": "\u0645\u062f\u064a\u0646\u0629 \u0627\u0644\u0634\u0631\u0642", "name:en": "Orient City", "name:fr": "Madinat Al-Sharq", "name:ml": "\u0d2e\u0d26\u0d40\u0d28\u0d24\u0d4d\u0d24\u0d4d \u0d05\u0d7d-\u0d37\u0d7c\u0d16\u0d4d", "place": "town"}}, {"type": "node", "id": 4281301244, "lat": 32.0075954, "lon": 36.0402394}, {"type": "node", "id": 4281301245, "lat": 31.9996254, "lon": 36.0329224}, {"type": "node", "id": 4281301246, "lat": 32.0081049, "lon": 35.9994269}, {"type": "node", "id": 4281301247, "lat": 32.0095059, "lon": 35.9974957}, {"type": "node", "id": 4281301248, "lat": 32.0189852, "lon": 36.0016585}, {"type": "node", "id": 4281301249, "lat": 32.0251889, "lon": 35.9999419}, {"type": "node", "id": 4281301250, "lat": 32.0323927, "lon": 36.0029245}, {"type": "node", "id": 4281301251, "lat": 32.0414512, "lon": 36.0031606}, {"type": "node", "id": 4281301252, "lat": 32.0431973, "lon": 36.0313774}, {"type": "node", "id": 4281301253, "lat": 32.0408328, "lon": 36.035111}, {"type": "node", "id": 4281301254, "lat": 32.0391958, "lon": 36.0382868}, {"type": "node", "id": 4281301255, "lat": 32.0363176, "lon": 36.0482932}, {"type": "node", "id": 4281301256, "lat": 32.0339935, "lon": 36.0570193}, {"type": "node", "id": 4281301257, "lat": 32.0187741, "lon": 36.0744142}, {"type": "node", "id": 4281301258, "lat": 32.0168938, "lon": 36.0685631}, {"type": "node", "id": 4281301259, "lat": 32.0146082, "lon": 36.0614509}, {"type": "node", "id": 4281301260, "lat": 32.0125059, "lon": 36.0537568}, {"type": "node", "id": 4281301261, "lat": 32.0108758, "lon": 36.047589}, {"type": "node", "id": 4281301262, "lat": 32.0086333, "lon": 36.0417219}, {"type": "node", "id": 4281301263, "lat": 32.0055402, "lon": 36.0384677}, {"type": "node", "id": 4281301264, "lat": 32.0039131, "lon": 36.037013}, {"type": "node", "id": 4281301265, "lat": 32.0007012, "lon": 36.0340842}, {"type": "node", "id": 4281301266, "lat": 31.9994138, "lon": 36.0326729}, {"type": "node", "id": 4281301267, "lat": 31.9983856, "lon": 36.0314605}, {"type": "node", "id": 4281301268, "lat": 31.998049, "lon": 36.0310636}, {"type": "node", "id": 4281301269, "lat": 31.9978355, "lon": 36.0305418}, {"type": "node", "id": 4281301270, "lat": 31.9972758, "lon": 36.0279763}, {"type": "node", "id": 4281301271, "lat": 31.9968172, "lon": 36.0258745}, {"type": "node", "id": 4281301272, "lat": 31.9968245, "lon": 36.0248545}, {"type": "node", "id": 4281301273, "lat": 31.9972176, "lon": 36.0233381}, {"type": "node", "id": 4281301274, "lat": 31.998172, "lon": 36.0204879}, {"type": "node", "id": 4281301275, "lat": 31.998662, "lon": 36.0190304}, {"type": "node", "id": 4281301276, "lat": 31.9999485, "lon": 36.0155431}, {"type": "node", "id": 4281301277, "lat": 32.0001932, "lon": 36.0154138}, {"type": "node", "id": 4281301278, "lat": 32.001762, "lon": 36.0108092}, {"type": "node", "id": 4281301279, "lat": 32.0025713, "lon": 36.0087696}, {"type": "node", "id": 4281301280, "lat": 32.0037801, "lon": 36.006189}, {"type": "node", "id": 4281301281, "lat": 32.0052745, "lon": 36.0038843}, {"type": "node", "id": 4281301282, "lat": 32.0072181, "lon": 36.0008235}, {"type": "node", "id": 4281301283, "lat": 32.0088945, "lon": 35.9983386}, {"type": "node", "id": 4281301284, "lat": 32.0094231, "lon": 35.9976099}, {"type": "node", "id": 4281301285, "lat": 32.0101589, "lon": 35.9977931}, {"type": "node", "id": 4281301286, "lat": 32.0139317, "lon": 35.9995113}, {"type": "node", "id": 4281301287, "lat": 32.0163234, "lon": 36.000576}, {"type": "node", "id": 4281301288, "lat": 32.0215214, "lon": 36.0007731}, {"type": "node", "id": 4281301589, "lat": 32.0232334, "lon": 36.0001754}, {"type": "node", "id": 4281301590, "lat": 32.0245652, "lon": 35.9999904}, {"type": "node", "id": 4281301591, "lat": 32.0249752, "lon": 35.9999585}, {"type": "node", "id": 4281301592, "lat": 32.0257461, "lon": 36.0001726}, {"type": "node", "id": 4281301593, "lat": 32.0310686, "lon": 36.0023763}, {"type": "node", "id": 4281301594, "lat": 32.0370987, "lon": 36.0030472}, {"type": "node", "id": 4281301595, "lat": 32.0402005, "lon": 36.003128}, {"type": "node", "id": 4281301596, "lat": 32.0410827, "lon": 36.003151}, {"type": "node", "id": 4281301597, "lat": 32.0413004, "lon": 36.0031566}, {"type": "node", "id": 4281301598, "lat": 32.0416791, "lon": 36.0068425}, {"type": "node", "id": 4281301599, "lat": 32.0420535, "lon": 36.0128927}, {"type": "node", "id": 4281301600, "lat": 32.0423416, "lon": 36.0175492}, {"type": "node", "id": 4281301601, "lat": 32.0427633, "lon": 36.0243633}, {"type": "node", "id": 4281301602, "lat": 32.0430329, "lon": 36.0287195}, {"type": "node", "id": 4281301603, "lat": 32.0431822, "lon": 36.0311324}, {"type": "node", "id": 4281301604, "lat": 32.0427596, "lon": 36.0320686}, {"type": "node", "id": 4281301605, "lat": 32.0417286, "lon": 36.0336965}, {"type": "node", "id": 4281301606, "lat": 32.0396462, "lon": 36.0374129}, {"type": "node", "id": 4281301607, "lat": 32.038671, "lon": 36.040111}, {"type": "node", "id": 4281301608, "lat": 32.0380371, "lon": 36.0423151}, {"type": "node", "id": 4281301609, "lat": 32.0376508, "lon": 36.0436582}, {"type": "node", "id": 4281301610, "lat": 32.0370658, "lon": 36.045692}, {"type": "node", "id": 4281301611, "lat": 32.0366018, "lon": 36.0473049}, {"type": "node", "id": 4281301612, "lat": 32.0355016, "lon": 36.0513568}, {"type": "node", "id": 4281301613, "lat": 32.0347169, "lon": 36.0543029}, {"type": "node", "id": 4281301614, "lat": 32.0322006, "lon": 36.0580709}, {"type": "node", "id": 4281301615, "lat": 32.0305697, "lon": 36.0590839}, {"type": "node", "id": 4281301616, "lat": 32.0301137, "lon": 36.0596552}, {"type": "node", "id": 4281301617, "lat": 32.0296396, "lon": 36.0609912}, {"type": "node", "id": 4281301618, "lat": 32.0286734, "lon": 36.0637136}, {"type": "node", "id": 4281301619, "lat": 32.0273531, "lon": 36.067434}, {"type": "node", "id": 4281301620, "lat": 32.0261785, "lon": 36.0699728}, {"type": "node", "id": 4281301621, "lat": 32.0240785, "lon": 36.073643}, {"type": "node", "id": 4281301622, "lat": 32.0223137, "lon": 36.0757156}, {"type": "node", "id": 4281301623, "lat": 32.0215885, "lon": 36.0762421}, {"type": "node", "id": 4281301624, "lat": 32.0201692, "lon": 36.0771939}, {"type": "node", "id": 4281301625, "lat": 32.0100366, "lon": 36.0446447}, {"type": "node", "id": 5799582413, "lat": 31.7009425, "lon": 35.7786809}, {"type": "node", "id": 5901199698, "lat": 32.0062647, "lon": 36.0390922}, {"type": "way", "id": 379035955, "nodes": [3823816574, 3823816573, 5799582413, 3823816572, 3823816569, 3823816570, 3823816571, 3823816577, 3823816579, 3823816581, 3823816583, 3823816584, 3823816582, 3823816580, 3823816578, 3823816576, 3823816575, 3823816574], "tags": {"alt_name": "\u0645\u0623\u062f\u0628\u0627", "alt_name:ar": "\u0645\u0623\u062f\u0628\u0627", "alt_name:grc": "\u039c\u03ae\u03b4\u03b1\u03b2\u03b1", "name": "\u0645\u0627\u062f\u0628\u0627", "name:ar": "\u0645\u0627\u062f\u0628\u0627", "name:ar-Latn": "M\u0101dab\u0101", "name:az-Arab": "\u0645\u0627\u062f\u0628\u0627", "name:azb": "\u0645\u0627\u062f\u0628\u0627", "name:de": "Madaba", "name:el": "\u039c\u03ac\u03bd\u03c4\u03b1\u03bc\u03c0\u03b1", "name:en": "Madaba", "name:es": "Madaba", "name:eu": "Madaba", "name:fr": "Madaba", "name:grc": "\u039c\u03b1\u03b9\u03b4\u03b1\u03b2\u03ac", "name:he": "\u05de\u05d9\u05d3\u05d1\u05d0", "name:hi": "\u092e\u0926\u093e\u092c\u093e", "name:ks": "\u0645\u0627\u062f\u0628\u0627", "name:ml": "\u0d2e\u0d21\u0d2c", "name:pt": "Madaba", "name:ru": "\u041c\u0430\u0434\u0430\u0431\u0430", "name:ur": "\u0645\u0627\u062f\u0628\u0627", "place": "town", "population": "65000", "wikidata": "Q1683958", "wikipedia": "ar:\u0645\u0627\u062f\u0628\u0627"}}, {"type": "way", "id": 379036545, "nodes": [3823830571, 3823830572, 3823830573, 3823830574, 3823830575, 3823830577, 4281301255, 3823830578, 3823830580, 3823830581, 3823830582, 3823830584, 3823830586, 3823830589, 1451377737, 3823830591, 3823830590, 3823830593, 3823830594, 3823830595, 3823830601, 3823830602, 3823830605, 3823830606, 3823830603, 3823830604, 3823830600, 3823830599, 3823830598, 3823830597, 3823830596, 3823830592, 3823830587, 3823830588, 3823830585, 3823830583, 3823830579, 3823830576, 3823830570, 3823830571], "tags": {"int_name": "az-Zarqa;Al Zarqa;ez-Zerga;Zarqa;Zarka;Al Zarka", "name": "\u0627\u0644\u0632\u0631\u0642\u0627\u0621", "name:ar": "\u0627\u0644\u0632\u0631\u0642\u0627\u0621", "name:be": "\u042d\u0437-\u0417\u0430\u0440\u043a\u0430", "name:bg": "\u0417\u0430\u0440\u043a\u0430", "name:de": "Zarka", "name:en": "Zarqa", "name:es": "Zarqa", "name:fr": "Zarka", "name:hi": "\u091c\u093c\u093e\u0930\u094d\u0915\u093e", "name:ks": "\u0632\u0631\u0642\u0627\u0621", "name:pt": "Zarqa", "name:ru": "\u042d\u0437-\u0417\u0430\u0440\u043a\u0430", "name:uk": "\u0415\u0437-\u0417\u0430\u0440\u043a\u0430", "name:ur": "\u0632\u0631\u0642\u0627\u0621", "place": "city", "population": "395227", "ref:LOCODE": "JOZAR", "wikidata": "Q148062", "wikimedia_commons": "Category:Az Zarqa", "wikipedia": "ar:\u0627\u0644\u0632\u0631\u0642\u0627\u0621 (\u0645\u062f\u064a\u0646\u0629)"}}, {"type": "way", "id": 428999316, "nodes": [3823830571, 4281301257, 4281301258, 4281301259, 4281301260, 4281301261, 4281301625, 4281301262, 4281301244, 5901199698, 4281301263, 4281301264, 4281301265, 4281301245, 4281301266, 4281301267, 4281301268, 4281301269, 4281301270, 4281301271, 4281301272, 4281301273, 4281301274, 4281301275, 4281301276, 4281301277, 4281301278, 4281301279, 4281301280, 4281301281, 4281301282, 4281301246, 4281301283, 4281301284, 4281301247, 4281301285, 4281301286, 4281301287, 4281301248, 4281301288, 4281301589, 4281301590, 4281301591, 4281301249, 4281301592, 4281301593, 4281301250, 4281301594, 4281301595, 4281301596, 4281301597, 4281301251, 4281301598, 4281301599, 4281301600, 4281301601, 4281301602, 4281301603, 4281301252, 4281301604, 4281301605, 4281301253, 4281301606, 4281301254, 4281301607, 4281301608, 4281301609, 4281301610, 4281301611, 4281301612, 4281301613, 4281301256, 4281301614, 4281301615, 4281301616, 4281301617, 4281301618, 4281301619, 4281301620, 4281301621, 4281301622, 4281301623, 4281301624, 3823830571], "tags": {"name": "\u0627\u0644\u0631\u0635\u064a\u0641\u0629", "name:en": "Al Ruseifa", "name:fr": "Russeifa", "name:uk": "\u0415\u0440-\u0420\u0443\u0441\u0441\u0430\u0439\u0444\u0430", "place": "city"}}]}