{"version": 0.6, "generator": "Overpass API 0.7.62.4 2390de5a", "osm3s": {"timestamp_osm_base": "2025-01-08T07:08:34Z", "copyright": "The data included in this document is from www.openstreetmap.org. The data is made available under ODbL."}, "elements": [{"type": "node", "id": 394266907, "lat": 36.2657178, "lon": 1.9701347, "tags": {"alt_name:fr": "A\u00efn-Defla", "capital": "4", "name": "A\u00efn Defla", "name:ar": "\u0639\u064a\u0646 \u0627\u0644\u062f\u0641\u0644\u0649", "name:ber": "\u2d49\u2d4f \u2d37\u2d3b\u2d3c\u2d4d\u2d30", "name:de": "Ain Defla", "name:el": "\u0391\u0390\u03bd \u039d\u03c4\u03ad\u03c6\u03bb\u03b1", "name:en": "Ain Defla", "name:es": "A\u00efn Defla", "name:fr": "A\u00efn Defla", "name:it": "Ain Defla", "name:kab": "\u0190in n Defla", "name:ru": "\u0410\u0439\u043d-\u0414\u0435\u0444\u043b\u0430", "name:zh": "\u827e\u56e0\u8fea\u592b\u62c9", "old_name": "Duperr\u00e9", "place": "town", "population": "65453", "population:date": "2008", "ref:ONS": "4401", "wikidata": "Q168846", "wikipedia": "fr:A\u00efn Defla"}}, {"type": "node", "id": 394267731, "lat": 36.2448216, "lon": 1.8055909, "tags": {"name": "Rouina", "name:ar": "\u0627\u0644\u0631\u0648\u064a\u0646\u0629", "name:ber": "\u2d54\u2d61\u2d49\u2d4f\u2d30", "name:en": "Rouina", "name:fr": "Rouina", "name:kab": "Rwina", "place": "town", "population": "21572", "wikidata": "Q1885134", "wikimedia_commons": "Category:Rouina", "wikipedia": "fr:Rouina", "wikipedia:ar": "\u0627\u0644\u0631\u0648\u064a\u0646\u0629"}}, {"type": "node", "id": 454619814, "lat": 36.2750279, "lon": 1.6854432, "tags": {"name": "El Abadia", "name:ar": "\u0627\u0644\u0639\u0628\u0627\u062f\u064a\u0629", "name:ber": "\u2d3b\u2d4d \u2d44\u2d3b\u2d31\u2d31\u2d30\u2d37\u2d62\u2d30", "name:en": "El Abadia", "name:fr": "El Abadia", "name:kab": "L\u025bebbadeyya", "place": "town", "population": "40697", "wikidata": "Q1649058", "wikipedia": "fr:El Abadia"}}, {"type": "node", "id": 1019447024, "lat": 36.2027341, "lon": 2.0795157, "tags": {"name": "Djelida", "name:ar": "\u062c\u0644\u064a\u062f\u0629", "name:ber": "\u2d35\u2d4d\u2d49\u2d37\u2d30", "name:en": "Djelida", "name:fr": "Djelida", "name:kab": "\u01e6lida", "place": "town", "population": "36076", "wikidata": "Q1649112", "wikipedia": "fr:Djelida"}}, {"type": "node", "id": 1019508437, "lat": 36.3050171, "lon": 1.8482739, "tags": {"name": "El Amra", "name:ar": "\u0627\u0644\u0639\u0627\u0645\u0631\u0629", "name:ber": "\u2d3b\u2d4d \u2d30\u2d4e\u2d54\u2d30", "name:fr": "El Amra", "name:kab": "L\u025bamra", "old_name": "Kherba", "place": "town", "population": "31073", "source": "Algerie Mapper Team", "wikidata": "Q5350753", "wikipedia": "fr:El Amra"}}, {"type": "node", "id": 3028239347, "lat": 36.2919441, "lon": 2.0683322, "tags": {"alt_name": "Frikat", "name": "Arib", "name:ar": "\u0639\u0631\u064a\u0628", "name:ber": "\u2d30\u2d54\u2d49\u2d31", "name:en": "Arib", "name:fr": "Arib", "name:kab": "\u0190rib", "place": "town", "population": "24980", "wikidata": "Q2861226", "wikimedia_commons": "Category:Arib", "wikipedia": "fr:Arib"}}]}