{"version": 0.6, "generator": "Overpass API 0.7.62.4 2390de5a", "osm3s": {"timestamp_osm_base": "2025-01-08T06:58:15Z", "copyright": "The data included in this document is from www.openstreetmap.org. The data is made available under ODbL."}, "elements": [{"type": "node", "id": 287559510, "lat": 33.8759878, "lon": 10.8571532, "tags": {"addr:city": "\u062d\u0648\u0645\u0629 \u0627\u0644\u0633\u0648\u0642", "addr:island": "\u062c\u0631\u0628\u0629", "addr:postcode": "4180", "name": "\u062d\u0648\u0645\u0629 \u0627\u0644\u0633\u0648\u0642", "name:ar": "\u062d\u0648\u0645\u0629 \u0627\u0644\u0633\u0648\u0642", "name:en": "Houmt Souk", "name:fr": "Houmet Souk", "name:ru": "\u0425\u0443\u043c\u0442-\u0421\u0443\u043a", "place": "town", "population": "75904", "wikidata": "Q995360", "wikipedia": "ar:\u062d\u0648\u0645\u0629 \u0627\u0644\u0633\u0648\u0642"}}, {"type": "node", "id": 287613682, "lat": 33.8074152, "lon": 10.9910666, "tags": {"name": "\u0645\u064a\u062f\u0648\u0646", "name:ar": "\u0645\u064a\u062f\u0648\u0646", "name:ca": "Midoun", "name:de": "Midoun", "name:en": "Midoun", "name:fr": "Midoun", "name:it": "Midoun", "name:kab": "Midun", "name:pl": "Midun", "name:pt": "Midoun", "name:ru": "\u041c\u0438\u0434\u0443\u043d", "name:uk": "\u041c\u0456\u0434\u0443\u043d", "name:zu": "Midoun", "place": "town", "wikidata": "Q687088", "wikipedia": "ar:\u0645\u064a\u062f\u0648\u0646 (\u062a\u0648\u0646\u0633)"}}, {"type": "node", "id": 297765267, "lat": 33.8190783, "lon": 10.8543339, "tags": {"long_name:ar": "\u0627\u0644\u062d\u0627\u0631\u0629 \u0627\u0644\u0635\u063a\u064a\u0631\u0629 \u0627\u0644\u0631\u064a\u0627\u0636", "name": "Erriadh", "name:ar": "\u0627\u0644\u0631\u064a\u0627\u0636", "name:en": "Erriadh", "name:fr": "Erriadh", "place": "town", "wikidata": "Q9158760"}}, {"type": "node", "id": 1926362521, "lat": 33.8011894, "lon": 10.8833275, "tags": {"alt_name": "El Mey", "int_name": "El Mey", "name": "\u0627\u0644\u0645\u0627\u064a", "name:ar": "\u0627\u0644\u0645\u0627\u064a", "name:en": "El Mey", "name:es": "El May", "name:fr": "El Mey", "place": "town", "population": "9131", "wikidata": "Q3050082"}}]}