{"version": 0.6, "generator": "Overpass API 0.7.62.4 2390de5a", "osm3s": {"timestamp_osm_base": "2025-01-08T07:09:35Z", "copyright": "The data included in this document is from www.openstreetmap.org. The data is made available under ODbL."}, "elements": [{"type": "node", "id": 393990510, "lat": 36.0650746, "lon": 1.1278681, "tags": {"alt_name:ar": "\u0628\u0648\u0642\u062f\u064a\u0631", "name": "Boukadir", "name:ar": "\u0628\u0648\u0642\u0627\u062f\u064a\u0631", "name:ber": "\u2d31\u2d53\u2d47\u2d30\u2d37\u2d49\u2d54", "name:en": "Boukadir", "name:fr": "Boukadir", "name:kab": "Buqadir", "old_name": "Charon", "place": "town", "population": "51340", "wikidata": "Q1648911", "wikipedia": "fr:Boukadir"}}, {"type": "node", "id": 424957233, "lat": 36.4038198, "lon": 0.9161822, "tags": {"name": "El Marsa", "name:ar": "\u0627\u0644\u0645\u0631\u0633\u0649", "name:ber": "\u2d4d\u2d4e\u2d3b\u2d55\u2d59\u2d30", "name:en": "El Marsa", "name:fr": "El Marsa", "name:kab": "Lme\u1e5bsa", "place": "town", "population": "10807", "wikidata": "Q3050053", "wikipedia": "fr:El Marsa (Chlef)"}}, {"type": "node", "id": 462633911, "lat": 36.1246927, "lon": 0.7483582, "tags": {"name": "Mediouna", "name:ar": "\u0645\u062f\u064a\u0648\u0646\u0629", "name:ber": "\u2d4e\u2d3b\u2d37\u2d62\u2d53\u2d4f\u2d30", "name:en": "Mediouna", "name:fr": "Mediouna", "name:kab": "Medyuna", "place": "town", "population": "30744", "population:date": "2008", "ref:ONS": "4809", "wikidata": "Q3304056", "wikimedia_commons": "Category:Mediouna (Relizane Province)", "wikipedia": "fr:Mediouna (Relizane)"}}, {"type": "node", "id": 462633913, "lat": 36.1433373, "lon": 0.8442389, "tags": {"name": "Sidi M'hamed Ben Ali", "name:ar": "\u0633\u064a\u062f\u064a \u0645\u062d\u0645\u062f \u0628\u0646 \u0639\u0644\u064a", "name:ber": "\u2d59\u2d49\u2d37\u2d49 \u2d4e\u2d43\u2d3b\u2d4e\u2d4e\u2d3b\u2d37 \u2d31\u2d3b\u2d4f \u2d44\u2d4d\u2d49", "name:en": "Sidi M'hamed Ben Ali", "name:fr": "Sidi M'hamed Ben Ali", "name:kab": "Sidi M\u1e25emmed Ben \u0190li", "place": "town", "population": "20096", "ref:ONS": "4808", "wikidata": "Q3483256", "wikimedia_commons": "Category:Sidi M'Hamed Ben Ali (Relizane Province)", "wikipedia": "fr:Sidi M'Hamed Ben Ali"}}, {"type": "node", "id": 462633914, "lat": 36.1262742, "lon": 0.8801926, "tags": {"name": "Mazouna", "name:ar": "\u0645\u0627\u0632\u0648\u0646\u0629", "name:ber": "\u2d4e\u2d30\u2d63\u2d53\u2d4f\u2d30", "name:en": "Mazouna", "name:fr": "Mazouna", "name:kab": "Mazuna", "place": "town", "population": "26044", "population:date": "2008", "wikidata": "Q978267", "wikimedia_commons": "Category:Mazouna", "wikipedia": "fr:Mazouna"}}, {"type": "node", "id": 1025765744, "lat": 36.1620671, "lon": 0.9758629, "tags": {"name": "Ain Merane", "name:ar": "\u0639\u064a\u0646 \u0645\u0631\u0627\u0646", "name:ber": "\u2d44\u2d49\u2d4f \u2d4e\u2d3b\u2d54\u2d54\u2d30\u2d4f", "name:en": "Ain Merane", "name:fr": "A\u00efn Merane", "name:kab": "\u0190in Merran", "old_name": "Rabelais", "place": "town", "population": "51326", "postal_code": "02330", "ref:ONS": "0232"}}, {"type": "node", "id": 1026201342, "lat": 36.2545642, "lon": 0.8518821, "tags": {"name": "Dahra", "name:ar": "\u0627\u0644\u0638\u0647\u0631\u0629", "name:ber": "\u2d39\u2d39\u2d30\u2d40\u2d54\u2d30", "name:en": "Dahra", "name:fr": "Dahra", "name:kab": "\u1e0c\u1e0dehra", "place": "town", "population": "23802", "wikidata": "Q3011993", "wikimedia_commons": "Category:Dahra (Chlef)", "wikipedia": "fr:Dahra (Chlef)"}}, {"type": "node", "id": 1057262436, "lat": 36.1115307, "lon": 0.6639245, "tags": {"name": "Beni Zentis", "name:ar": "\u0628\u0646\u064a \u0632\u0646\u062a\u064a\u0633", "name:ber": "\u2d31\u2d3b\u2d4f\u2d49 \u2d63\u2d3b\u2d4f\u2d5c\u2d49\u2d59", "name:en": "Beni Zentis", "name:fr": "Beni Zentis", "name:kab": "Bni Zentis", "place": "town"}}, {"type": "node", "id": 1057795568, "lat": 36.2445994, "lon": 0.6355803, "tags": {"name": "Achaacha", "name:ar": "\u0639\u0634\u0639\u0627\u0634\u0629", "name:ber": "\u2d44\u2d3b\u2d5b\u2d44\u2d30\u2d5b\u2d30", "name:en": "Achacha", "name:fr": "Achaacha", "name:kab": "\u0190ec\u025baca", "name:ms": "Achacha", "name:pt": "Achacha", "place": "town", "population": "34789", "wikidata": "Q2822975", "wikimedia_commons": "Category:Achaacha", "wikipedia": "fr:Achaacha"}}]}