{"version": 0.6, "generator": "Overpass API 0.7.62.4 2390de5a", "osm3s": {"timestamp_osm_base": "2025-01-08T06:31:42Z", "copyright": "The data included in this document is from www.openstreetmap.org. The data is made available under ODbL."}, "elements": [{"type": "node", "id": 2489367814, "lat": 34.8246861, "lon": 45.5084793, "tags": {"alt_name": "\u0628\u0627\u0648\u06d5 \u0646\u0648\u0648\u0631", "is_in": "Iraq , \u062c\u0645\u0647\u0648\u0631\u064a\u0629 \u0627\u0644\u0639\u0631\u0627\u0642", "name": "\u0628\u0627\u0648\u06d5\u0646\u0648\u0648\u0631", "name:ar": "\u0628\u0627\u0628\u0627\u0646\u0648\u0631", "name:ar1": "\u0628\u0627\u0648\u0629 \u0646\u0648\u0631", "name:de": "Baba Nur", "name:en": "Bawanur", "name:fr": "Baba Nur", "name:ku": "Bawe N\u00fbr", "place": "town", "wikidata": "Q61391056", "wikipedia": "ckb:\u0628\u0627\u0648\u06d5\u0646\u0648\u0631"}}, {"type": "node", "id": 2489369255, "lat": 35.0192688, "lon": 45.4599108, "tags": {"alt_name": "\u0634\u064a\u062e \u0637\u0648\u064a\u0644", "capital": "7", "int_name": "Shaikh Taw\u012bl, Shaykh \u0162aw\u012bl, Shekh Tawel, \u0634\u064a\u062e \u0637\u0648\u064a\u0644, Shaikh Tawil, Shaykh Tawil, Shekh Tawel, \u0634\u064a\u062e \u0637\u0648\u064a\u0644", "is_in": "Iraq , \u062c\u0645\u0647\u0648\u0631\u064a\u0629 \u0627\u0644\u0639\u0631\u0627\u0642", "name": "\u0634\u06ce\u062e \u062a\u06d5\u0648\u06ce\u06b5", "name:ar": "\u0634\u064a\u062e \u0637\u0648\u064a\u0644", "name:ckb": "\u0634\u06ce\u062e \u062a\u06d5\u0648\u06cc\u0644", "name:de": "Shaikh Tawil", "name:en": "Shaikh Tawil", "name:fr": "Shaikh Tawil", "name:ml": "\u0d37\u0d46\u0d2f\u0d4d\u0d16\u0d4d \u0d24\u0d4d\u0d35\u0d35\u0d40\u0d7d", "place": "town", "wikidata": "Q61391166", "wikipedia": "ckb:\u0634\u06ce\u062e \u062a\u06d5\u0648\u06cc\u0644"}}, {"type": "node", "id": 2489389322, "lat": 35.174979, "lon": 45.614026, "tags": {"capital": "7", "int_name": "B\u0101w Kh\u016bsayn, Bawa Khoshain, Bawa Khoshen, B\u0101wa Khosh\u0113n, B\u0101wah Kh\u014dshayn, \u0628\u0627\u0648 \u062e\u0648\u0633\u064a\u0646, Baw Khusayn, Bawa Khoshain, Bawa Khoshen, Bawa Khoshen, Bawah Khoshayn, \u0628\u0627\u0648 \u062e\u0648\u0633\u064a\u0646", "name": "\u0628\u0627\u0648\u06d5\u062e\u06c6\u0634\u06ce\u0646", "name:ar": "\u0628\u0627\u0648\u062e\u0648\u0634\u064a\u0646", "name:ckb": "\u0628\u0627\u0648\u06d5\u062e\u06c6\u0634\u06ce\u0646", "name:de": "Bawakhoshen", "name:en": "Bawakhoshen", "name:fr": "Bawakhoshen", "name:ku": "Bawexo\u015f\u00ean", "place": "town", "wikidata": "Q61385900", "wikipedia": "ckb:\u0628\u0627\u0648\u06d5\u062e\u06c6\u0634\u06ce\u0646"}}, {"type": "node", "id": 7480351298, "lat": 35.0232217, "lon": 45.1007792, "tags": {"name": "\u062e\u0627\u0646 \u0695\u06c6\u0633\u062a\u06d5\u0645", "name:en": "Khan Rostam", "place": "town", "wikidata": "Q61391532", "wikipedia": "ckb:\u062e\u0627\u0646 \u0695\u06c6\u0633\u062a\u06d5\u0645"}}]}