{"version": 0.6, "generator": "Overpass API 0.7.62.4 2390de5a", "osm3s": {"timestamp_osm_base": "2025-01-08T06:21:22Z", "copyright": "The data included in this document is from www.openstreetmap.org. The data is made available under ODbL."}, "elements": [{"type": "node", "id": 1223194610, "lat": 14.1063523, "lon": 45.4481909, "tags": {"GNS:dsg_code": "PPLX", "GNS:dsg_name": "section of populated place", "GNS:id": "10669106", "int_name": "Al Munqa\u0163i\u2018", "name": "\u0627\u0644\u0645\u0646\u0642\u0637\u0639", "name:ar": "\u0627\u0644\u0645\u0646\u0642\u0637\u0639", "name:de": "Al Munqati`", "name:en": "Al Munqati`", "name:fr": "Al Munqati`", "place": "town", "population": "4584", "population:date": "2004-12-17", "source:name": "GNS", "source:population": "YCSO2004:14-6-21-1"}}, {"type": "node", "id": 1225623090, "lat": 14.210554, "lon": 45.387324, "tags": {"GNS:dsg_code": "PPLA2", "GNS:dsg_name": "captial of a second-order administrative division", "GNS:id": "-3183778", "alt_name": "\u0627\u0644\u062d\u0643\u0648\u0645\u0629; \u0627\u0644\u0637\u0641\u0629; Al Huk\u016bmah; Al Hukumah; Qaryat \u0100l Ma\u2018\u016bdah; A\u0163 \u0163affah; Al Qa`; Qaryat Al Ma`udah; Al Q\u0101\u2018; At taffah", "int_name": "\u0100l Ma\u2018\u016bdah", "name": "\u0627\u0644 \u0645\u0639\u0648\u0636\u0629", "name:ar": "\u0627\u0644 \u0645\u0639\u0648\u0636\u0629", "name:de": "Al Ma`udah", "name:en": "Al Ma`udah", "name:fr": "Al Ma`udah", "place": "town", "population": "184", "population:date": "2004-12-17", "source:name": "GNS", "source:population": "YCSO2004:14-7-21-1"}}]}