{"version": 0.6, "generator": "Overpass API 0.7.62.4 2390de5a", "osm3s": {"timestamp_osm_base": "2025-01-08T07:11:40Z", "copyright": "The data included in this document is from www.openstreetmap.org. The data is made available under ODbL."}, "elements": [{"type": "node", "id": 424065923, "lat": 35.3025458, "lon": -1.382036, "tags": {"int_name": "B\u00e9ni-Saf", "name": "B\u00e9ni-Saf", "name:ar": "\u0628\u0646\u064a \u0635\u0627\u0641", "name:ber": "\u2d31\u2d4f\u2d49 \u2d59\u2d30\u2d3c", "name:fr": "B\u00e9ni-Saf", "name:kab": "Bni \u1e62af", "place": "town", "population": "42284", "postal_code": "46001", "wikidata": "Q80408", "wikipedia": "ar:\u0628\u0646\u064a \u0635\u0627\u0641"}}, {"type": "node", "id": 443422563, "lat": 35.3048421, "lon": -1.1457771, "tags": {"capital": "4", "name": "A\u00efn T\u00e9mouchent", "name:ar": "\u0639\u064a\u0646 \u062a\u0645\u0648\u0634\u0646\u062a", "name:az-Arab": "\u0639\u06cc\u0646 \u062a\u0645\u0648\u0634\u0646\u062a", "name:azb": "\u0639\u06cc\u0646 \u062a\u0645\u0648\u0634\u0646\u062a", "name:ber": "\u2d49\u2d4f \u2d5c\u2d49\u2d4e\u2d53\u2d5b\u2d3b\u2d4f\u2d5c", "name:de": "Ain Tumuschant", "name:el": "\u0391\u0390\u03bd \u03a4\u03b5\u03bc\u03bf\u03c5\u03c3\u03ad\u03bd\u03c4", "name:en": "Ain Temouchent", "name:es": "A\u00edn Temushent", "name:fa": "\u0639\u06cc\u0646 \u062a\u0645\u0648\u0634\u0646\u062a", "name:fr": "A\u00efn T\u00e9mouchent", "name:it": "Ain Temouchent", "name:kab": "\u0190in Timucent", "name:kab-Arab": "\u0639\u064a\u0646 \u062a\u0645\u0648\u0634\u0646\u062a", "name:ks": "\u0639\u06cc\u0646 \u062a\u0645\u0648\u0634\u0646\u062a", "name:lt": "Ain Temu\u0161entas", "name:pl": "Ajn Tumuszanat", "name:pnb": "\u0639\u06cc\u0646 \u062a\u0645\u0648\u0634\u0646\u062a", "name:ru": "\u0410\u0439\u043d-\u0422\u0435\u043c\u0443\u0448\u0435\u043d\u0442", "name:ur": "\u0639\u06cc\u0646 \u062a\u0645\u0648\u0634\u0646\u062a", "name:zh": "\u827e\u56e0\u6cf0\u7a46\u5c1a\u7279", "place": "town", "population": "75558", "population:date": "2010", "postal_code": "46000", "ref:ONS": "4601", "wikidata": "Q770504", "wikipedia": "fr:A\u00efn T\u00e9mouchent"}}, {"type": "node", "id": 443422903, "lat": 35.3042768, "lon": -1.1815248, "tags": {"name": "Sidi Ben Adda", "name:ar": "\u0633\u064a\u062f\u064a \u0628\u0646 \u0639\u062f\u0629", "name:azb": "\u0633\u06cc\u062f\u06cc \u0628\u0646 \u0639\u062f\u0647", "name:ber": "\u2d59\u2d49\u2d37\u2d49 \u2d31\u2d3b\u2d4f \u2d30\u2d37\u2d37\u2d30", "name:de": "Sayyidi bin Adda", "name:en": "Sidi Ben Adda", "name:fa": "\u0633\u06cc\u062f\u06cc \u0628\u0646 \u0639\u062f\u0647", "name:fr": "Sidi Ben Adda", "name:kab": "Sidi Ben \u0190edda", "old_name:ar": "\u062b\u0644\u0627\u062b\u0629 \u0645\u0631\u0627\u0628\u0637\u064a\u0646", "old_name:fr": "Les Trois Marabouts", "place": "town", "population": "14086", "postal_code": "46013", "wikidata": "Q1657415", "wikimedia_commons": "Category:Sidi Ben Adda", "wikipedia": "ar:\u0633\u064a\u062f\u064a \u0628\u0646 \u0639\u062f\u0629"}}, {"type": "node", "id": 464632065, "lat": 35.3899817, "lon": -1.0959775, "tags": {"name": "El Malah", "name:ar": "\u0627\u0644\u0645\u0627\u0644\u062d", "name:azb": "\u0645\u0627\u0644\u062d", "name:ber": "\u2d4d\u2d4e\u2d30\u2d4d\u2d3b\u2d43", "name:de": "Al-Malih", "name:en": "Al Malih", "name:es": "R\u00edo Salado", "name:fa": "\u0645\u0627\u0644\u062d", "name:fr": "El Malah", "name:kab": "Lmale\u1e25", "old_name:ar": "\u0631\u064a\u0648 \u0633\u0627\u0644\u0627\u062f\u0648", "old_name:es": "R\u00edo Salado", "place": "town", "population": "18944", "postal_code": "46007", "wikidata": "Q1649298", "wikipedia": "ar:\u0627\u0644\u0645\u0627\u0644\u062d (\u062a\u0645\u0648\u0634\u0646\u062a)"}}, {"type": "node", "id": 464683403, "lat": 35.3367018, "lon": -1.1020618, "tags": {"name": "Cha\u00e2bat El Leham", "name:ar": "\u0634\u0639\u0628\u0629 \u0627\u0644\u0644\u062d\u0645", "name:azb": "\u0634\u0639\u0628\u0647 \u0644\u062d\u0645", "name:ber": "\u2d5b\u2d30\u2d44\u2d31\u2d30\u2d5c \u2d4d\u2d43\u2d3b\u2d4e", "name:en": "Chaabat El Leham", "name:fa": "\u0634\u0639\u0628\u0647 \u0644\u062d\u0645", "name:fr": "Cha\u00e2bat El Leham", "name:kab": "Ce\u025bbet Ll\u1e25em", "place": "town", "population": "14730", "postal_code": "46160", "wikidata": "Q788029", "wikimedia_commons": "Category:Chaabat El Leham", "wikipedia": "ar:\u0634\u0639\u0628\u0629 \u0627\u0644\u0644\u062d\u0645"}}, {"type": "node", "id": 837023849, "lat": 35.2332708, "lon": -1.505403, "tags": {"alt_name:ar": "\u0648\u0644\u0647\u0627\u0635\u0647;\u0648\u0644\u0647\u0627\u0635\u0629 \u0627\u0644\u063a\u0631\u0627\u0628\u0629", "alt_name:kab": "Ulha\u1e63a L\u0263erraba", "name": "Souk El Tenine", "name:ar": "\u0633\u0648\u0642 \u0627\u0644\u0625\u062b\u0646\u064a\u0646", "name:ber": "\u2d59\u2d49\u2d33\u2d30", "name:de": "Souk El Tenine", "name:en": "Souk El Tenine", "name:fr": "Souk El Tenine", "name:kab": "Suq Letnin", "place": "town", "population": "15972", "wikidata": "Q1657453", "wikipedia": "ar:\u0648\u0644\u0647\u0627\u0635\u0629"}}, {"type": "node", "id": 1944484024, "lat": 35.083108, "lon": -1.5578444, "tags": {"alt_name:ar": "\u0628\u0646\u064a \u0648\u0631\u0633\u0648\u0633", "name": "Bordj Arima - B\u00e9ni Ouarsous", "name:ar": "\u0628\u0631\u062c \u0639\u0631\u064a\u0645\u0629", "name:en": "Bordj Arima - B\u00e9ni Ouarsous", "name:fr": "Bordj Arima - B\u00e9ni Ouarsous", "name:kab": "Bur\u01e7 \u0190erima", "place": "town"}}, {"type": "node", "id": 1974927358, "lat": 35.0617268, "lon": -1.4318326, "tags": {"name": "Remchi", "name:ar": "\u0627\u0644\u0631\u0645\u0634\u064a", "name:ber": "\u2d54\u2d54\u2d3b\u2d4e\u2d5b\u2d49", "name:el": "\u03a1\u03ad\u03bc\u03c4\u03c3\u03b9", "name:en": "Remchi", "name:fr": "Remchi", "name:kab": "Remci", "old_name": "Montagnac", "place": "town", "population": "46999", "ref:ons": "1304", "wikidata": "Q3424477", "wikimedia_commons": "Category:Remchi", "wikipedia": "fr:Remchi"}}]}