{"version": 0.6, "generator": "Overpass API 0.7.62.4 2390de5a", "osm3s": {"timestamp_osm_base": "2025-01-08T07:20:36Z", "copyright": "The data included in this document is from www.openstreetmap.org. The data is made available under ODbL."}, "elements": [{"type": "node", "id": 401232144, "lat": 32.115048, "lon": -1.230396, "tags": {"alt_name": "\u0641\u06af\u064a\u06af;\u0641\u06ad\u064a\u06ad", "alt_name:ar": "\u0641\u062c\u064a\u062c", "capital": "5", "name": "Figuig \u2d49\u2d3c\u2d49\u2d62\u2d62\u2d49\u2d62 \u0641\u0643\u064a\u0643", "name:ar": "\u0641\u0643\u064a\u0643", "name:ber": "\u2d49\u2d3c\u2d49\u2d62\u2d62\u2d49\u2d62", "name:ca": "Figuig", "name:cy": "Figuig", "name:de": "Figuig", "name:en": "Figuig", "name:es": "Figuig", "name:eu": "Figuig", "name:fa": "\u0641\u06a9\u06cc\u06a9", "name:fr": "Figuig", "name:it": "Figuig", "name:kab": "Ifiyyiy", "name:lt": "Figigas", "name:nl": "Figuig", "name:pl": "Fid\u017cid\u017c", "name:pt": "Figuig", "name:ro": "Figuig", "name:ru": "\u0424\u0438\u0433\u0438\u0442", "name:sv": "Figuig", "name:uk": "\u0424\u0456\u0433\u0456\u0433", "name:zgh": "\u2d49\u2d3c\u2d49\u2d62\u2d62\u2d49\u2d62", "place": "city", "population": "13306", "postal_code": "61001", "wikidata": "Q425646", "wikimedia_commons": "Category:Figuig", "wikipedia": "ar:\u0641\u062c\u064a\u062c"}}, {"type": "node", "id": 424638440, "lat": 32.0501891, "lon": -1.2486808, "tags": {"alt_name:ar": "\u0628\u0646\u064a \u0623\u0648\u0646\u064a\u0641", "name": "Beni Ounif", "name:ar": "\u0628\u0646\u064a \u0648\u0646\u064a\u0641", "name:azb": "\u0628\u0646\u06cc \u0648\u0646\u06cc\u0641", "name:ber": "\u2d31\u2d4f\u2d49 \u2d61\u2d3b\u2d4f\u2d4f\u2d49\u2d3c", "name:de": "Bani Wunif", "name:en": "Beni Ounif", "name:fa": "\u0628\u0646\u06cc \u0648\u0646\u06cc\u0641", "name:fr": "B\u00e9ni Ounif", "name:kab": "At Winifen", "place": "town", "population": "11209", "postal_code": "08100", "wikidata": "Q1648984", "wikimedia_commons": "Category:Beni Ounif", "wikipedia": "ar:\u0628\u0646\u064a \u0648\u0646\u064a\u0641"}}]}