{"version": 0.6, "generator": "Overpass API 0.7.62.4 2390de5a", "osm3s": {"timestamp_osm_base": "2025-01-08T06:04:14Z", "copyright": "The data included in this document is from www.openstreetmap.org. The data is made available under ODbL."}, "elements": [{"type": "node", "id": 1237961376, "lat": 16.597222, "lon": 42.943889, "tags": {"GNS:dsg_code": "ADM2", "GNS:dsg_name": "second-order administrative division", "GNS:id": "13470252", "capital": "6", "int_name": "\u015e\u0101mi\u0163ah", "name": "\u0635\u0627\u0645\u0637\u0629", "name:ar": "\u0635\u0627\u0645\u0637\u0629", "name:de": "Samitah", "name:en": "Samitah", "name:fr": "Samitah", "place": "town", "population": "32458", "population:date": "2010", "source:population": "stats.gov.sa", "wikidata": "Q4164177", "wikipedia": "ar:\u0645\u062d\u0627\u0641\u0638\u0629 \u0635\u0627\u0645\u0637\u0629"}}, {"type": "node", "id": 1237961432, "lat": 16.5802082, "lon": 42.911944, "tags": {"GNS:dsg_code": "PPL", "GNS:dsg_name": "populated place", "GNS:id": "-3091928", "int_name": "Al Jar\u0101d\u012byah", "name": "\u0627\u0644\u062c\u0631\u0627\u062f\u064a\u0629", "name:ar": "\u0627\u0644\u062c\u0631\u0627\u062f\u064a\u0629", "name:de": "Al Jaradiyah", "name:en": "Al Jaradiyah", "name:fr": "Al Jaradiyah", "place": "town", "population": "8488", "population:date": "2010", "source:population": "stats.gov.sa"}}, {"type": "node", "id": 1237961475, "lat": 16.5308201, "lon": 42.9690073, "tags": {"GNS:dsg_code": "PPL", "GNS:dsg_name": "populated place", "GNS:id": "354121", "capital": "6", "int_name": "A\u0163 \u0162uw\u0101l", "name": "\u0627\u0644\u0637\u0648\u0627\u0644", "name:ar": "\u0627\u0644\u0637\u0648\u0627\u0644", "name:de": "At Tuwal", "name:en": "At Tuwal", "name:fr": "At Tuwal", "place": "town", "source:name": "GNS", "wikidata": "Q107527228", "wikipedia": "ar:\u0627\u0644\u0637\u0648\u0627\u0644"}}, {"type": "node", "id": 7699743951, "lat": 16.7106851, "lon": 42.9531097, "tags": {"capital": "6", "name": "\u0623\u062d\u062f \u0627\u0644\u0645\u0633\u0627\u0631\u062d\u0629", "name:ar": "\u0623\u062d\u062f \u0627\u0644\u0645\u0633\u0627\u0631\u062d\u0629", "name:en": "Ahad al Musarihah", "name:fr": "Ahad al Masarihah", "place": "town", "population": "25007", "population:date": "2010", "source:population": "stats.gov.sa"}}]}