{"version": 0.6, "generator": "Overpass API 0.7.62.4 2390de5a", "osm3s": {"timestamp_osm_base": "2025-01-08T07:32:50Z", "copyright": "The data included in this document is from www.openstreetmap.org. The data is made available under ODbL."}, "elements": [{"type": "node", "id": 316809239, "lat": 11.1071149, "lon": 42.3687433, "tags": {"GNS:dsg_code": "PPLA", "GNS:dsg_name": "populated place", "GNS:id": "-2034338", "GNS:modify_date": "2018-04-11", "alt_name": "Dikil;Dikkil;Dicchil;Dicchil \u062f\u062e\u064a\u0644", "alt_name:ar": "\u062f\u0643\u0644;\u062f\u0643\u0651\u0644", "ele": "507", "name": "Dikhil \u062f\u062e\u064a\u0644", "name:ar": "\u062f\u062e\u064a\u0644", "name:azb": "\u062f\u062e\u06cc\u0644", "name:be": "\u0414\u044b\u0445\u0456\u043b", "name:da": "Dikhil", "name:de": "Dikhil", "name:el": "\u039d\u03c4\u03b9\u03ba\u03af\u03bb", "name:en": "Dikhil", "name:et": "Dikhil", "name:fa": "\u062f\u062e\u06cc\u0644", "name:fr": "Dikhil", "name:id": "Dikhil", "name:it": "Dikhil", "name:ja": "\u30c7\u30a3\u30ad\u30eb", "name:ka": "\u10d3\u10d8\u10d9\u10d8\u10da\u10d8", "name:ko": "\ub514\ud0ac", "name:ks": "\u062f\u062e\u06cc\u0644", "name:lt": "Dikilis", "name:nl": "Dikhil (stad)", "name:pl": "Dikhil", "name:ro": "Dikhil", "name:ru": "\u0414\u0438\u043a\u0438\u043b\u044c", "name:sv": "Dikhil", "name:tr": "Dikhil", "name:ur": "\u062f\u062e\u06cc\u0644", "name:zh": "\u8fea\u57fa\u52d2", "name:zu": "Dikhil", "place": "town", "population": "35000", "population:date": "2012", "wikidata": "Q620625", "wikipedia": "ar:\u062f\u062e\u064a\u0644 (\u0645\u062f\u064a\u0646\u0629)", "wikipedia:ar": "\u062f\u062e\u064a\u0644 (\u0645\u062f\u064a\u0646\u0629)"}}]}