{"version": 0.6, "generator": "Overpass API 0.7.62.4 2390de5a", "osm3s": {"timestamp_osm_base": "2025-01-08T06:23:32Z", "copyright": "The data included in this document is from www.openstreetmap.org. The data is made available under ODbL."}, "elements": [{"type": "node", "id": 1719440345, "lat": 26.14, "lon": 56.15, "tags": {"GNS:id": "-786615", "alt_name": "Bukh\u0101;Bakha;Bakhah, Bukha;Bakha;Bakhah", "alt_name:ar": "\u0628\u062e\u0627\u0621", "image": "https://commons.wikimedia.org/wiki/File:Musandam_fjord.jpg", "int_name": "Bukh\u0101;Bakha;Bakhah, Bukha;Bakha;Bakhah", "name": "\u0628\u062e\u0627\u0621", "name:ar": "\u0628\u062e\u0627\u0621", "name:de": "Bukha", "name:en": "Bukha", "name:es": "Bukha", "name:fr": "Bukha", "name:ml": "\u0d2c\u0d41\u0d16", "place": "town", "wikidata": "Q997847", "wikimedia_commons": "Category:Bukha, Musandam", "wikipedia": "en:Bukha"}}, {"type": "node", "id": 2920136601, "lat": 26.1271971, "lon": 56.1324757}, {"type": "node", "id": 2920136602, "lat": 26.1261094, "lon": 56.131173}, {"type": "node", "id": 2920136603, "lat": 26.1241679, "lon": 56.1307431}, {"type": "node", "id": 2920136604, "lat": 26.1233608, "lon": 56.1303523}, {"type": "node", "id": 2920136605, "lat": 26.1232439, "lon": 56.13116}, {"type": "node", "id": 2920136606, "lat": 26.123045, "lon": 56.1318244}, {"type": "node", "id": 2920136607, "lat": 26.1233257, "lon": 56.1329707}, {"type": "node", "id": 2920136608, "lat": 26.1235256, "lon": 56.1335887}, {"type": "node", "id": 2920136609, "lat": 26.123435, "lon": 56.1341888}, {"type": "node", "id": 2920136610, "lat": 26.1230557, "lon": 56.1347698}, {"type": "node", "id": 2920136611, "lat": 26.1227669, "lon": 56.1348418}, {"type": "node", "id": 2920136612, "lat": 26.1226289, "lon": 56.1351491}, {"type": "node", "id": 2920136613, "lat": 26.1224105, "lon": 56.1361125}, {"type": "node", "id": 2920136614, "lat": 26.1238443, "lon": 56.1365891}, {"type": "node", "id": 2920136615, "lat": 26.1243632, "lon": 56.135377}, {"type": "node", "id": 2920136616, "lat": 26.1251869, "lon": 56.1345624}, {"type": "node", "id": 2920136617, "lat": 26.1254025, "lon": 56.1341042}, {"type": "node", "id": 2920136618, "lat": 26.1261597, "lon": 56.1340325}, {"type": "node", "id": 2920136619, "lat": 26.1264247, "lon": 56.1329672}, {"type": "node", "id": 2920136620, "lat": 26.1268484, "lon": 56.1329253}, {"type": "node", "id": 2920138918, "lat": 26.1262493, "lon": 56.1331421}, {"type": "node", "id": 2920346050, "lat": 26.074714, "lon": 56.0988312}, {"type": "node", "id": 2920346051, "lat": 26.07543, "lon": 56.0993826}, {"type": "node", "id": 2920346052, "lat": 26.0758123, "lon": 56.0996463}, {"type": "node", "id": 2920346053, "lat": 26.078294, "lon": 56.1004974}, {"type": "node", "id": 2920346054, "lat": 26.0794568, "lon": 56.100803}, {"type": "node", "id": 2920346055, "lat": 26.0799073, "lon": 56.100848}, {"type": "node", "id": 2920346056, "lat": 26.0801187, "lon": 56.1009017}, {"type": "node", "id": 2920346057, "lat": 26.0801672, "lon": 56.1010815}, {"type": "node", "id": 2920346058, "lat": 26.0800272, "lon": 56.1012673}, {"type": "node", "id": 2920346059, "lat": 26.0798011, "lon": 56.101549}, {"type": "node", "id": 2920346060, "lat": 26.0797365, "lon": 56.1021783}, {"type": "node", "id": 2920346061, "lat": 26.0799357, "lon": 56.1030834}, {"type": "node", "id": 2920346062, "lat": 26.0799518, "lon": 56.1033411}, {"type": "node", "id": 2920346063, "lat": 26.079252, "lon": 56.1040843}, {"type": "node", "id": 2920346064, "lat": 26.0789774, "lon": 56.1040483}, {"type": "node", "id": 2920346065, "lat": 26.0788967, "lon": 56.104354}, {"type": "node", "id": 2920346066, "lat": 26.078314, "lon": 56.104678}, {"type": "node", "id": 2920346067, "lat": 26.0768804, "lon": 56.1065512}, {"type": "node", "id": 2920346068, "lat": 26.0749975, "lon": 56.1041251}, {"type": "node", "id": 2920346069, "lat": 26.0746339, "lon": 56.103592}, {"type": "node", "id": 2920346070, "lat": 26.0744211, "lon": 56.1034538}, {"type": "node", "id": 2920346071, "lat": 26.0734811, "lon": 56.1020815}, {"type": "node", "id": 2920346072, "lat": 26.0738624, "lon": 56.100107}, {"type": "node", "id": 2921736754, "lat": 26.1237336, "lon": 56.1374072}, {"type": "node", "id": 2921736755, "lat": 26.1233482, "lon": 56.1376942}, {"type": "node", "id": 2921736756, "lat": 26.1231917, "lon": 56.1374796}, {"type": "node", "id": 2921736757, "lat": 26.1231411, "lon": 56.1363719}, {"type": "node", "id": 5759499172, "lat": 26.0288628, "lon": 56.0857749, "tags": {"GNS:id": "-782369", "name": "Sha'am - \u0634\u0639\u0645", "name:ar": "\u0634\u0639\u0645", "name:en": "Sha'am", "name:es": "Sha'am", "name:fr": "Sha'am", "name:ml": "\u0d37\u0d3e\u0d02", "place": "city", "source": "The national atlas of the United Arab Emirates", "wikidata": "Q3696195", "wikipedia": "en:Sha'am"}}, {"type": "node", "id": 5759499173, "lat": 26.035673, "lon": 56.0979187, "tags": {"alt_name": "Al Jir;Al Jeer;Al J\u012br;Al-Jir", "name": "Al Jeer \u0627\u0644\u062c\u064a\u0631", "name:ar": "\u0627\u0644\u062c\u064a\u0631", "name:azb": "\u0627\u0644\u0642\u06cc\u0631", "name:en": "Al Jeer", "name:es": "Al Jeer", "name:fa": "\u0627\u0644\u0642\u06cc\u0631", "name:fr": "Al Jeer", "name:pnb": "\u0627\u0644\u0642\u06cc\u0631", "name:ur": "\u0627\u0644\u0642\u06cc\u0631", "place": "city", "source": "The national atlas of the United Arab Emirates", "wikidata": "Q4704646", "wikipedia": "en:Al Jeer"}}, {"type": "node", "id": 5759509856, "lat": 25.9974973, "lon": 56.0742868, "tags": {"alt_name": "Ghal\u012blah;\u0627\u0644\u062c\u0644\u064a\u0644", "alt_name:ar": "\u0627\u0644\u062c\u0644\u064a\u0644", "name": "\u063a\u0644\u064a\u0644\u0629", "name:ar": "\u063a\u0644\u064a\u0644\u0629", "name:de": "Ghalila", "name:en": "Ghalilah", "name:es": "Ghalilah", "name:fa": "\u063a\u0644\u06cc\u0644\u0647", "name:fr": "Ghalila", "name:ml": "\u0d17\u0d32\u0d40\u0d32", "place": "city", "source": "https://www.mindat.org/feature-292119.html", "wikidata": "Q5555284", "wikipedia": "fa:\u063a\u0644\u06cc\u0644\u0647"}}, {"type": "node", "id": 7015304054, "lat": 25.9658776, "lon": 56.0543258, "tags": {"alt_name": "Khawr Khuwayr;Khor Khuwair;Khuwair", "name": "Khor Khwair \u062e\u0648\u0631 \u062e\u0648\u064a\u0631", "name:ar": "\u062e\u0648\u0631 \u062e\u0648\u064a\u0631", "name:de": "Khor Khwair", "name:en": "Khor Khwair", "name:es": "Khor Khwair", "name:fa": "\u062e\u0648\u0631 \u062e\u0648\u06cc\u0631", "name:fr": "Khor Khwair", "name:ml": "\u0d16\u0d4b\u0d7c \u0d16\u0d41\u0d35\u0d48\u0d7c", "place": "city", "source": "https://www.mindat.org/feature-291693.html", "wikidata": "Q6401069", "wikipedia": "en:Khor Khwair"}}, {"type": "node", "id": 8143186353, "lat": 25.8175473, "lon": 56.023364, "tags": {"alt_name": "Shamal", "alt_name:ar": "\u0634\u0645\u0627\u0644 \u062c\u0644\u0641\u0627\u0631", "name": "\u0634\u0645\u0627\u0644", "name:ar": "\u0634\u0645\u0627\u0644", "name:en": "Shimal", "name:es": "Shimal", "name:fr": "Shimal", "place": "town", "source": "The national atlas of the United Arab Emirates: Shamal", "wikimedia_commons": "Category:Shimal, Ra's Al-Khaimah"}}, {"type": "node", "id": 10652051592, "lat": 26.0172021, "lon": 56.1300253, "tags": {"alt_name": "\u1e24\u0101rat Al Awalah;Al Awalah;Harat Al Awalah", "name": "Harat Al Awalah - \u062d\u0627\u0631\u0629 \u0639\u0648\u0627\u0644\u064a", "name:ar": "\u062d\u0627\u0631\u0629 \u0639\u0648\u0627\u0644\u064a", "name:en": "\u1e28\u0101rat \u2018Aw\u0101l\u012b", "name:es": "Harat Awali", "name:fr": "H\u00e2rat Aw\u00e2l\u00ee", "place": "town", "source": "https://ae.geoview.info/harat_%60awali;388439;The national atlas of the United Arab Emirates;https://www.agda.ae/en/catalogue/tna/fco/18/1861/n/1", "wikidata": "Q5654283"}}, {"type": "node", "id": 10694779544, "lat": 25.8459436, "lon": 56.1718255, "tags": {"GNS:id": "140899", "alt_name": "D\u0435\u0304rat '\u0415\u0304n\u012b;'Ini;Aini, Ayni;Ayn\u012b;ayny;\u0623\u064a\u0646\u064a;\u2019\u012an\u012b", "description": "Alternative Names:\tD\u0435\u0304rat '\u0415\u0304n\u012b, 'Ini, Aini, Ayni, Ayn\u012b, ayny, \u0623\u064a\u0646\u064a, \u2019\u012an\u012b", "name": "Aini", "name:en": "Aini", "name:es": "Aini", "name:fr": "Aini", "place": "town", "source": "https://om.geoview.info/aini;https://www.mindat.org/feature-390009.html;https://www.agda.ae/en/catalogue/tna/fco/18/1863;The national atlas of the United Arab Emirates", "wikidata": "Q125536436"}}, {"type": "node", "id": 10807644030, "lat": 25.8761894, "lon": 56.0778864, "tags": {"description": "Map FCO 18/1920 - 1962 - Boundaries of the Northern Trucial States: prepared and drawn from sketch maps and information supplied by Julian Walker; preliminary edition. The National Archives. London", "name": "Sal Dhayah", "name:en": "Sal Dhayah", "name:es": "Sal Dhayah", "name:fr": "Sal Dhayah", "place": "town", "source": "Map FCO 18/1932 - 1958 Sketch map drawn by Julian Walker for boundary delimitation: Ras Al Khaimah. The National Archives. London;The national atlas of the United Arab Emirates;https://whc.unesco.org/en/tentativelists/6463/"}}, {"type": "node", "id": 10840124200, "lat": 26.0382154, "lon": 56.1092976, "tags": {"alt_name": "Qaf\u2019ah", "name": "\u0642\u0641\u0639\u0629", "name:ar": "\u0642\u0641\u0639\u0629", "name:en": "Qaf'a", "name:es": "Qaf'a", "name:fr": "Qaf'a", "place": "town", "source": "https://www.mindat.org/feature-388444.html"}}, {"type": "node", "id": 10840128311, "lat": 26.0242085, "lon": 56.1101655, "tags": {"alt_name": "Rumayl\u012b", "name": "Rumayli \u0631\u0645\u064a\u0644\u064a", "name:ar": "\u0631\u0645\u064a\u0644\u064a", "name:de": "Rumayli", "name:en": "Rumayl\u012b", "name:es": "Rumayli", "name:fr": "Rumayli", "place": "town", "source": "https://www.mindat.org/feature-291032.html"}}, {"type": "node", "id": 10840139323, "lat": 25.9962307, "lon": 56.0832357, "tags": {"name": "\u0627\u0644\u062c\u062f\u0629", "name:ar": "\u0627\u0644\u062c\u062f\u0629", "name:de": "Algida", "name:en": "Al Jaddah", "name:es": "Algida", "name:fr": "Algida", "place": "town", "source": "https://www.mindat.org/feature-292869.html"}}, {"type": "node", "id": 10840173354, "lat": 26.0431126, "lon": 56.1080106, "tags": {"name": "\u0634\u0631\u064a\u0627\u062a", "name:ar": "\u0634\u0631\u064a\u0627\u062a", "name:de": "Sharyat", "name:en": "Shary\u0101t", "name:es": "Sharyat", "name:fr": "Sharyat", "place": "town", "source": "https://www.mindat.org/feature-388445.html"}}, {"type": "node", "id": 11583736932, "lat": 25.8210303, "lon": 56.1388114, "tags": {"place": "town"}}, {"type": "node", "id": 11584419721, "lat": 25.8175812, "lon": 56.1169891, "tags": {"name": "Atmar", "name:en": "Atmar", "name:es": "Atmar", "name:fr": "Atmar", "place": "town"}}, {"type": "node", "id": 11590955170, "lat": 25.97793, "lon": 56.1253796, "tags": {"name": "Wasideh", "name:en": "Wasideh", "name:es": "Wasideh", "name:fr": "Wasideh", "name:ml": "\u0d35\u0d38\u0d40\u0d26\u0d47", "place": "town", "source": "The national atlas of the United Arab Emirates"}}, {"type": "node", "id": 11795284219, "lat": 26.0501053, "lon": 56.0894052, "tags": {"GNS:id": "14448345", "alt_name": "Ras Al Dahrah;Ra'alat Ad D\u0101rah;Ras Al Dahrah", "name": "Ra'alat Ad Darah", "name:en": "Ra'alat Ad Darah", "name:es": "Ra'alat Ad Darah", "name:fr": "Ra'alat Ad Darah", "name:ml": "\u0d31\u0d3e\u0d32\u0d24\u0d4d\u0d24\u0d4d \u0d05\u0d26\u0d4d\u0d26\u0d31", "place": "town", "source": "The national atlas of the United Arab Emirates", "wikidata": "Q26200594"}}, {"type": "node", "id": 11822086724, "lat": 25.8168933, "lon": 56.1871849, "tags": {"GNS:id": "14423472", "alt_name": "\u1e28afil", "name": "Hafil", "name:en": "Hafil", "name:es": "Hafil", "name:fr": "Hafil", "place": "town", "source": "https://www.mindat.org/feature-11763532.html"}}, {"type": "node", "id": 11828910506, "lat": 25.8289744, "lon": 56.1378433, "tags": {"place": "town"}}, {"type": "node", "id": 11832607336, "lat": 25.8299334, "lon": 56.178589, "tags": {"place": "town"}}, {"type": "node", "id": 11851040609, "lat": 26.0551052, "lon": 56.1500798, "tags": {"place": "town"}}, {"type": "node", "id": 12167720943, "lat": 25.8845737, "lon": 56.0807949}, {"type": "node", "id": 12167720944, "lat": 25.8825145, "lon": 56.0830183}, {"type": "node", "id": 12167720945, "lat": 25.8811025, "lon": 56.0837213}, {"type": "node", "id": 12167720946, "lat": 25.8786461, "lon": 56.0836559}, {"type": "node", "id": 12167720947, "lat": 25.8760278, "lon": 56.0853725}, {"type": "node", "id": 12167720948, "lat": 25.8741891, "lon": 56.0818902}, {"type": "node", "id": 12167720949, "lat": 25.871556, "lon": 56.079912}, {"type": "node", "id": 12167720950, "lat": 25.8692465, "lon": 56.0781627}, {"type": "node", "id": 12167720951, "lat": 25.8684668, "lon": 56.0753998}, {"type": "node", "id": 12167720952, "lat": 25.8700702, "lon": 56.0747785}, {"type": "node", "id": 12167720953, "lat": 25.8759689, "lon": 56.0761682}, {"type": "node", "id": 12167720954, "lat": 25.8821909, "lon": 56.0775578}, {"type": "node", "id": 12167720955, "lat": 25.8847663, "lon": 56.0797667}, {"type": "node", "id": 12167720956, "lat": 25.8785143, "lon": 56.0767366}, {"type": "node", "id": 12171314735, "lat": 26.0779819, "lon": 56.1053102}, {"type": "node", "id": 12237429437, "lat": 25.8880136, "lon": 56.0578977, "tags": {"GNS:id": "-782786", "alt_name": "Dhayah;Dayah;Dhaiah;Dhaiyah;Zayah", "name": "Dhaya", "name:en": "Dhaya", "name:es": "Dhaya", "name:fr": "Dhaya", "place": "town", "source": "https://www.mindat.org/feature-292266.html"}}, {"type": "node", "id": 12302185050, "lat": 26.1636505, "lon": 56.1709528, "tags": {"GNS:id": "-786031", "alt_name": "Al J\u0101d\u012b;Jaal;Jadi;Jadl;Al-Jadi", "name": "\u0627\u0644\u062c\u0627\u062f\u064a", "name:ar": "\u0627\u0644\u062c\u0627\u062f\u064a", "name:en": "Al J\u0101d\u012b", "name:es": "Al J\u0101d\u012b", "name:fr": "Al J\u0101d\u012b", "place": "town", "wikidata": "Q26201609", "wikipedia": "ar:\u0627\u0644\u062c\u0627\u062f\u064a (\u0628\u062e\u0627)"}}, {"type": "way", "id": 288451800, "nodes": [2920136601, 2920136602, 2920136603, 2920136604, 2920136605, 2920136606, 2920136607, 2920136608, 2920136609, 2920136610, 2920136611, 2920136612, 2920136613, 2921736757, 2921736756, 2921736755, 2921736754, 2920136614, 2920136615, 2920136616, 2920136617, 2920136618, 2920138918, 2920136619, 2920136620, 2920136601], "tags": {"GNS:id": "-786812", "alt_name": "Fudgha;Fa\u1e11gh\u0101\u2019;Fa\u1e0dgh\u0101;Fadghah;F\u016bdar;Fu\u1e11gh\u0101;Fudhra", "name": "Fadgha", "name:ar": "\u0641\u0636\u063a\u0627\u0621", "name:en": "Fadgha", "name:es": "Fadgha", "name:fr": "Fadgha", "place": "town", "wikidata": "Q26201443"}}, {"type": "way", "id": 288478712, "nodes": [2920346050, 2920346051, 2920346052, 2920346053, 2920346054, 2920346055, 2920346056, 2920346057, 2920346058, 2920346059, 2920346060, 2920346061, 2920346062, 2920346063, 2920346064, 2920346065, 2920346066, 12171314735, 2920346067, 2920346068, 2920346069, 2920346070, 2920346071, 2920346072, 2920346050], "tags": {"name": "Tibat", "name:en": "Tibat", "name:es": "Tibat", "name:fr": "Tibat", "place": "town", "source": "https://www.mindat.org/feature-286119.html"}}, {"type": "way", "id": 1314588967, "nodes": [12167720943, 12167720944, 12167720945, 12167720946, 12167720947, 12167720948, 12167720949, 12167720950, 12167720951, 12167720952, 12167720953, 12167720956, 12167720954, 12167720955, 12167720943], "tags": {"alt_name": "Sal \u1e0c\u0101yah, Sal Dayah, Sal Dhayah", "name": "Sal Dhayah", "name:en": "Sal Dhayah", "name:es": "Sal Dhayah", "name:fr": "Sal Dhayah", "place": "town", "source": "Map FCO 18/1932 - 1958 Sketch map drawn by Julian Walker for boundary delimitation: Ras Al Khaimah. The National Archives. London;The national atlas of the United Arab Emirates;https://whc.unesco.org/en/tentativelists/6463/", "wikidata": "Q21737909"}}]}