{"version": 0.6, "generator": "Overpass API 0.7.62.4 2390de5a", "osm3s": {"timestamp_osm_base": "2025-01-08T06:28:44Z", "copyright": "The data included in this document is from www.openstreetmap.org. The data is made available under ODbL."}, "elements": [{"type": "node", "id": 573540158, "lat": 35.896069, "lon": 38.6158583, "tags": {"name": "\u0633\u0648\u064a\u062f\u064a\u0629 \u0643\u0628\u064a\u0631\u0629", "name:ar": "\u0633\u0648\u064a\u062f\u064a\u0629 \u0643\u0628\u064a\u0631\u0629", "name:de": "Suweidija Kabira", "name:en": "Suweidiya Kabira", "name:fr": "Soueidia Kabira", "name:he": "\u05e1\u05d5\u05d9\u05d3\u05d9\u05d4 \u05db\u05d1\u05d9\u05e8\u05d4", "name:ja": "\u30b9\u30a6\u30a7\u30a4\u30c7\u30a3\u30e4\u30fb\u30ab\u30d3\u30fc\u30e9", "name:ko": "\uc218\uc6e8\uc774\ub514\uc57c\uce74\ube44\ub77c", "name:ru": "\u0421\u0443\u0432\u0435\u0438\u0434\u0438\u0301\u0439\u044f-\u041a\u0430\u0431\u0438\u0440\u0430", "place": "town", "population": "6106", "population:date": "2004", "source:population": "\u0627\u0644\u0645\u0643\u062a\u0628 \u0627\u0644\u0645\u0631\u0643\u0632\u064a \u0644\u0644\u0625\u062d\u0635\u0627\u0621"}}, {"type": "node", "id": 3885116197, "lat": 35.8311397, "lon": 38.5438685, "tags": {"alt_name": "\u0627\u0644\u0637\u0628\u0642\u0629", "alt_name:ar": "\u0627\u0644\u0637\u0628\u0642\u0629", "alt_name:ckb": "\u062a\u06d5\u0628\u06d5\u0642\u06d5", "alt_name:de": "at-Tabaka", "alt_name:en": "At-Tabaqa", "alt_name:fr": "At-Tabaqa", "alt_name:he": "\u05d0-\u05d8\u05d1\u05e7\u05d4", "alt_name:ja": "\u30a2\u30c3\u30a0\u30bf\u30d6\u30ab", "alt_name:ko": "\uc54c\ud0c0\ubc14\uce74", "alt_name:ml": "\u0d24\u0d2c\u0d4d\u0d16", "alt_name:ru": "\u0410\u0442-\u0422\u0430\u0431\u0430\u043a\u0430", "int_name": "Al-Tabqah", "is_in:country": "Syria", "name": "\u0627\u0644\u062b\u0648\u0631\u0629", "name:ar": "\u0627\u0644\u062b\u0648\u0631\u0629", "name:ckb": "\u062a\u06d5\u0648\u0631\u06d5", "name:cs": "Tabka", "name:de": "as-Saura", "name:en": "Ath-Thawra", "name:es": "Ath Thawrah", "name:eu": "Al-Thawrah", "name:fr": "Ath-Thaoura", "name:he": "\u05d0-\u05ea\u05f3\u05d5\u05e8\u05d4", "name:ja": "\u30a2\u30c3\u30a0\u30b5\u30a6\u30fc\u30e9", "name:ko": "\uc544\uc0ac\uc6b0\ub77c", "name:ku": "Tebqa", "name:ml": "\u0d05\u0d38\u0d4d\u0d38\u0d57\u0d31", "name:ru": "\u0410\u0441-\u0421\u0430\u0432\u0440\u0430", "name:tr": "Al-Thawra", "name:uk": "\u0415\u0441-\u0421\u0430\u0443\u0440\u0430", "place": "city", "population": "69425", "population:date": "2004", "source:population": "\u0627\u0644\u0645\u0643\u062a\u0628 \u0627\u0644\u0645\u0631\u0643\u0632\u064a \u0644\u0644\u0625\u062d\u0635\u0627\u0621", "wikidata": "Q1822804"}}]}