{"version": 0.6, "generator": "Overpass API 0.7.62.4 2390de5a", "osm3s": {"timestamp_osm_base": "2025-01-08T07:18:43Z", "copyright": "The data included in this document is from www.openstreetmap.org. The data is made available under ODbL."}, "elements": [{"type": "node", "id": 1274095863, "lat": 32.334193, "lon": -6.353335, "tags": {"capital": "4", "name": "Beni Mellal \u2d30\u2d62\u2d5c \u2d4e\u2d4d\u2d4d\u2d30\u2d4d \u0628\u0646\u064a \u0645\u0644\u0627\u0644", "name:ar": "\u0628\u0646\u064a \u0645\u0644\u0627\u0644", "name:ber": "\u2d30\u2d62\u2d5c \u2d4e\u2d4d\u2d4d\u2d30\u2d4d", "name:en": "Beni Mellal", "name:fr": "Beni Mellal", "name:kab": "Ayt Mellal", "name:lt": "Beni Melalis", "name:ml": "\u0d2c\u0d46\u0d28\u0d3f \u0d2e\u0d46\u0d32\u0d3e\u0d7d", "name:ru": "\u0411\u0435\u043d\u0438-\u041c\u0435\u043b\u043b\u0430\u043b\u044c", "name:zgh": "\u2d30\u2d62\u2d5c \u2d4e\u2d4d\u2d4d\u2d30\u2d4d", "place": "city", "wikidata": "Q817279", "wikipedia": "fr:B\u00e9ni Mellal"}}, {"type": "node", "id": 1650573952, "lat": 32.1586977, "lon": -6.3556893, "tags": {"capital": "6", "name": "Ouaouizaght \u2d61\u2d30\u2d61\u2d49\u2d63\u2d56\u2d5c \u0648\u0627\u0648\u064a\u0632\u063a\u062a", "name:ar": "\u0648\u0627\u0648\u064a\u0632\u063a\u062a", "name:ber": "\u2d61\u2d30\u2d61\u2d49\u2d63\u2d56\u2d5c", "name:en": "Ouaouizaght", "name:fr": "Ouaouizaght", "name:zgh": "\u2d61\u2d30\u2d61\u2d49\u2d63\u2d56\u2d5c", "place": "town"}}, {"type": "node", "id": 1865118174, "lat": 32.294753, "lon": -6.700659, "tags": {"capital": "6", "name": "Souk Sebt Oulad Nemma \u2d59\u2d53\u2d47 \u2d59\u2d31\u2d5c \u2d61\u2d4d\u2d30\u2d37 \u2d4f\u2d4e\u2d30 \u0633\u0648\u0642 \u0627\u0644\u0633\u0628\u062a \u0623\u0648\u0644\u0627\u062f \u0627\u0644\u0646\u0645\u0629", "name:ar": "\u0633\u0648\u0642 \u0627\u0644\u0633\u0628\u062a \u0623\u0648\u0644\u0627\u062f \u0627\u0644\u0646\u0645\u0629", "name:ber": "\u2d59\u2d53\u2d47 \u2d59\u2d31\u2d5c \u2d61\u2d4d\u2d30\u2d37 \u2d4f\u2d4e\u2d30", "name:en": "Souk Sebt Oulad Nemma", "name:fr": "Souk Sebt Oulad Nemma", "name:zgh": "\u2d59\u2d53\u2d47 \u2d59\u2d31\u2d5c \u2d61\u2d4d\u2d30\u2d37 \u2d4f\u2d4e\u2d30", "place": "town", "wikidata": "Q2616240", "wikipedia": "en:Souk Sebt Ouled Nemma"}}, {"type": "node", "id": 2045444474, "lat": 32.110457, "lon": -6.7104174, "tags": {"capital": "8", "name": "Ait Aatab \u2d30\u2d62\u2d5c \u2d44\u2d5c\u2d30\u2d31 \u0622\u064a\u062a \u0639\u062a\u0627\u0628", "name:ar": "\u0622\u064a\u062a \u0639\u062a\u0627\u0628", "name:ber": "\u2d30\u2d62\u2d5c \u2d44\u2d5c\u2d30\u2d31", "name:en": "Ait Aatab", "name:fr": "Ait Aatab", "place": "town", "wikidata": "Q87063191", "wikimedia_commons": "Category:Ait Attab", "wikipedia": "en:Ait Attab"}}, {"type": "node", "id": 2193588460, "lat": 32.2817629, "lon": -6.4511097, "tags": {"capital": "7", "int_name": "Oulad M'Barek", "name": "Oulad M'Barek \u2d5c\u2d30\u2d54\u2d61\u2d30 \u2d4f \u2d4e\u2d31\u2d30\u2d54\u2d3d \u0623\u0648\u0644\u0627\u062f \u0627\u0645\u0628\u0627\u0631\u0643", "name:ar": "\u0623\u0648\u0644\u0627\u062f \u0627\u0645\u0628\u0627\u0631\u0643", "name:ber": "\u2d5c\u2d30\u2d54\u2d61\u2d30 \u2d4f \u2d4e\u2d31\u2d30\u2d54\u2d3d", "name:en": "Oulad M Barek", "name:fr": "Oulad M'Barek", "name:zgh": "\u2d5c\u2d30\u2d54\u2d61\u2d30 \u2d4f \u2d4e\u2d31\u2d30\u2d54\u2d3d", "place": "town", "population": "19774", "wikidata": "Q3358170", "wikipedia": "en:Oulad M'Barek"}}, {"type": "node", "id": 2193588464, "lat": 32.4511487, "lon": -6.536479, "tags": {"capital": "7", "int_name": "Had Bradia", "name": "Had Bradia \u2d31\u2d54\u2d30\u2d37\u2d62\u2d30 \u0628\u0631\u0627\u062f\u064a\u0629", "name:ar": "\u0628\u0631\u0627\u062f\u064a\u0629", "name:ber": "\u2d31\u2d54\u2d30\u2d37\u2d62\u2d30", "name:en": "Had Bradia", "name:fr": "Had Bradia", "name:zgh": "\u2d31\u2d54\u2d30\u2d37\u2d62\u2d30", "place": "town", "postal_code": "23302"}}, {"type": "node", "id": 4086730013, "lat": 32.3403498, "lon": -6.569883, "tags": {"name": "Al Qsar \u2d4d\u2d47\u2d5a\u2d55 \u0627\u0644\u0642\u0635\u0631", "name:ar": "\u0627\u0644\u0642\u0635\u0631", "name:de": "Al-Qasr", "name:en": "Al Qasr", "name:fr": "Al Qsar", "name:zgh": "\u2d4d\u2d47\u2d5a\u2d55", "place": "town", "wikidata": "Q87063496"}}]}