{"version": 0.6, "generator": "Overpass API 0.7.62.4 2390de5a", "osm3s": {"timestamp_osm_base": "2025-01-08T06:21:22Z", "copyright": "The data included in this document is from www.openstreetmap.org. The data is made available under ODbL."}, "elements": [{"type": "node", "id": 1217719218, "lat": 15.4578788, "lon": 45.3230242, "tags": {"GNS:dsg_code": "PPLA", "GNS:dsg_name": "captial of a first-order administrative division", "GNS:id": "10642624", "alt_name": "Mar`rib;Magreb;Mar\u2018rib", "capital": "4", "int_name": "Ma\u2019rib", "name": "\u0645\u0623\u0631\u0628", "name:ar": "\u0645\u0623\u0631\u0628", "name:cs": "Marib", "name:de": "Marib", "name:en": "Marib", "name:fr": "Marib", "name:he": "\u05de\u05d0\u05e8\u05d9\u05d1", "name:ml": "\u0d2e\u0d3e\u0d31\u0d3f\u0d2c\u0d4d", "name:ru": "\u041c\u0430\u0440\u0438\u0431", "name:uk": "\u041c\u0430\u0440\u0456\u0431", "place": "city", "population": "13863", "source:name": "GNS", "source:population": "YCSO2004:26-12-21-1", "wikidata": "Q335478", "wikipedia": "en:Marib"}}, {"type": "node", "id": 6937083114, "lat": 15.4719147, "lon": 45.3669325, "tags": {"GNS:dsg_code": "PPLA2", "GNS:dsg_name": "captial of a second-order administrative division", "GNS:id": "11181371", "alt_name": "Al Markaz Al Jalal; \u0627\u0644\u0645\u0631\u0643\u0632 \u0627\u0644 \u062c\u0644\u0627\u0644; Al Markaz \u0100l Jal\u0101l", "int_name": "Al \u1e28u\u015f\u016bn", "name": "\u0627\u0644\u062d\u0635\u0648\u0646", "name:ar": "\u0627\u0644\u062d\u0635\u0648\u0646", "name:en": "Al Husun", "place": "town", "population": "4824", "population:date": "2004-12-17", "source:name": "GNS", "source:population": "YCSO2004:26-13-21-1"}}]}