{"version": 0.6, "generator": "Overpass API 0.7.62.4 2390de5a", "osm3s": {"timestamp_osm_base": "2025-01-08T06:27:42Z", "copyright": "The data included in this document is from www.openstreetmap.org. The data is made available under ODbL."}, "elements": [{"type": "node", "id": 1236744823, "lat": 31.333333, "lon": 37.341944, "tags": {"GNS:dsg_code": "PPL", "GNS:dsg_name": "populated place", "GNS:id": "-3092768", "alt_name": "Al-`Akejla;Al-\u2018Akejla;Al `Aqaylah;Al `Uqaylah;Al `Uqaylah Kaf;Al \u2018Aqaylah;Al \u2018Uqaylah;Al \u2018Uqaylah K\u0101f;An Nabk;An Nabk Abu Nakhlah;Nabek", "alt_name:en": "Gurayat", "alt_name:fr": "Gurayat", "capital": "6", "int_name": "Al Qurayy\u0101t", "name": "\u0627\u0644\u0642\u0631\u064a\u0627\u062a", "name:ar": "\u0627\u0644\u0642\u0631\u064a\u0627\u062a", "name:ceb": "Al Qurayy\u0101t", "name:ckb": "\u0642\u0648\u0631\u06d5\u06cc\u0627\u062a", "name:cs": "al-Kurajj\u00e1t", "name:de": "Al-Qurayyat", "name:en": "Al Qurayyat", "name:eo": "Kurejet", "name:es": "Al Gurayat", "name:fr": "Al Qurayyat", "name:he": "\u05d0\u05dc \u05e7\u05d5\u05e8\u05d9\u05d0\u05d8", "name:ku": "Qureyat", "name:ml": "\u0d05\u0d7d-\u0d16\u0d41\u0d31\u0d2f\u0d4d\u0d2f\u0d3e\u0d24\u0d4d\u0d24\u0d4d", "name:mzn": "\u0627\u0644\u0642\u0631\u06cc\u0647", "name:pl": "Al-Kurajjat", "name:tl": "Qurayyat", "name:tr": "Kureyyet", "name:ur": "\u0642\u0631\u06cc\u0627\u062a\u060c \u0633\u0639\u0648\u062f\u06cc \u0639\u0631\u0628", "place": "city", "population": "116162", "population:date": "2010", "source:population": "stats.gov.sa", "wikidata": "Q2829401", "wikipedia": "ar:\u0645\u062d\u0627\u0641\u0638\u0629 \u0627\u0644\u0642\u0631\u064a\u0627\u062a"}}]}