{"version": 0.6, "generator": "Overpass API 0.7.62.4 2390de5a", "osm3s": {"timestamp_osm_base": "2025-01-08T07:03:25Z", "copyright": "The data included in this document is from www.openstreetmap.org. The data is made available under ODbL."}, "elements": [{"type": "node", "id": 462020917, "lat": 34.6830199, "lon": 6.5047333, "tags": {"name": "Zeribet El Oued", "name:ar": "\u0632\u0631\u064a\u0628\u0629 \u0627\u0644\u0648\u0627\u062f\u064a", "name:ber": "\u2d63\u2d54\u2d49\u2d31\u2d3b\u2d5c \u2d4d\u2d61\u2d30\u2d37", "name:en": "Zeribet El Oued", "name:fr": "Zeribet El Oued", "name:kab": "Zribet Lwed", "place": "town", "population": "21541", "wikidata": "Q3575264", "wikipedia": "fr:Zeribet El Oued"}}, {"type": "node", "id": 462020918, "lat": 34.6909245, "lon": 6.0862228, "tags": {"name": "Ain Naga", "name:ar": "\u0639\u064a\u0646 \u0627\u0644\u0646\u0627\u0642\u0629", "name:ber": "\u2d49\u2d4f \u2d4f\u2d30\u2d33\u2d30", "name:en": "Ain Naga", "name:fr": "A\u00efn Naga", "name:kab": "\u0190in Naga", "place": "town"}}]}