{"version": 0.6, "generator": "Overpass API 0.7.62.4 2390de5a", "osm3s": {"timestamp_osm_base": "2025-01-08T07:07:31Z", "copyright": "The data included in this document is from www.openstreetmap.org. The data is made available under ODbL."}, "elements": [{"type": "node", "id": 1435034107, "lat": 35.1526924, "lon": 3.2484615, "tags": {"name": "Hassi El Euch", "name:ar": "\u062d\u0627\u0633\u064a \u0627\u0644\u0639\u0634", "name:ber": "\u2d43\u2d30\u2d59\u2d49 \u2d4d\u2d44\u2d3b\u2d54\u2d5b", "name:en": "Hassi El Euch", "name:fr": "Hassi El Euch", "name:kab": "\u1e24asi L\u025bec", "place": "town"}}, {"type": "node", "id": 3870606925, "lat": 35.4487268, "lon": 2.9073269, "tags": {"name": "A\u00efn Oussara \u2d44\u2d49\u2d4f \u2d61\u2d3b\u2d59\u2d59\u2d30\u2d54\u2d30 \u0639\u064a\u0646 \u0648\u0633\u0627\u0631\u0629", "name:ar": "\u0639\u064a\u0646 \u0648\u0633\u0627\u0631\u0629", "name:ber": "\u2d44\u2d49\u2d4f \u2d61\u2d3b\u2d59\u2d59\u2d30\u2d54\u2d30", "name:de": "Ain Oussara", "name:el": "\u0391\u0390\u03bd \u039f\u03c5\u03c3\u03c3\u03ad\u03c1\u03b1", "name:en": "Ain Oussara", "name:es": "Ain Oussara", "name:fr": "A\u00efn Oussara", "name:it": "A\u00efn Oussara", "name:kab": "\u0190in Wessara", "name:ru": "\u0410\u0439\u043d-\u0423\u0441\u0435\u0440\u0430", "name:zh": "\u827e\u56e0\u70cf\u585e\u62c9", "place": "city", "population": "101239", "wikidata": "Q651497", "wikimedia_commons": "Category:A\u00efn Oussera", "wikipedia": "fr:A\u00efn Oussara"}}]}