{"version": 0.6, "generator": "Overpass API 0.7.62.4 2390de5a", "osm3s": {"timestamp_osm_base": "2025-01-08T07:01:17Z", "copyright": "The data included in this document is from www.openstreetmap.org. The data is made available under ODbL."}, "elements": [{"type": "node", "id": 291964008, "lat": 36.0741121, "lon": 4.7613476, "tags": {"capital": "4", "name": "Bordj Bou Arreridj", "name:ar": "\u0628\u0631\u062c \u0628\u0648\u0639\u0631\u064a\u0631\u064a\u062c", "name:ber": "\u2d31\u2d53\u2d54\u2d35 \u2d31\u2d53 \u2d44\u2d54\u2d49\u2d54\u2d49\u2d35", "name:el": "\u039c\u03c0\u03bf\u03c1\u03bd\u03c4\u03b6 \u039c\u03c0\u03bf\u03c5 \u0391\u03c1\u03b5\u03c1\u03af\u03c4\u03b6", "name:en": "Bordj Bou Arreridjj", "name:fr": "Bordj Bou Arreridj", "name:kab": "Bur\u01e7 Bu A\u025briri\u01e7", "name:lt": "Bord\u017e Bu Arerid\u017eas", "name:ru": "\u0411\u043e\u0440\u0434\u0436-\u0411\u0443-\u0410\u0440\u0440\u0435\u0440\u0438\u0434\u0436", "name:zh": "\u5e03\u963f\u62c9\u91cc\u5b63\u5821", "place": "city", "population": "168346", "population:date": "2008", "postal_code": "34000", "ref:ons": "3401", "short_name": "BBA", "wikidata": "Q544733", "wikimedia_commons": "Category:Bordj Bou Arr\u00e9ridj", "wikipedia": "fr:Bordj Bou Arreridj"}}, {"type": "node", "id": 417598846, "lat": 36.0632388, "lon": 4.6294961, "tags": {"alt_name:kab": "Lyacir", "name": "El Achir", "name:ar": "\u0627\u0644\u064a\u0627\u0634\u064a\u0631", "name:ber": "\u2d4d\u2d62\u2d30\u2d5b\u2d49\u2d54", "name:en": "El Achir", "name:fr": "El Achir", "name:kab": "L\u025bacir", "old_name": "El Yachir", "place": "town", "population": "23101", "wikidata": "Q3049676", "wikimedia_commons": "Category:El Achir", "wikipedia": "fr:El Achir"}}, {"type": "node", "id": 418104397, "lat": 36.4597538, "lon": 4.5289243, "tags": {"name": "Akbou", "name:ar": "\u0623\u0642\u0628\u0648", "name:ber": "\u2d30\u2d47\u2d32\u2d53", "name:en": "Akbou", "name:fr": "Akbou", "name:kab": "Aqbu", "place": "town", "population": "52282", "postal_code": "06001", "ref": "0625", "wikidata": "Q2828968", "wikipedia": "fr:Akbou"}}, {"type": "node", "id": 455511464, "lat": 36.4422585, "lon": 4.8557425, "tags": {"alt_name:ar": "\u0628\u0646\u064a \u0648\u0631\u062a\u064a\u0644\u0627\u0646", "name": "It Wertiran", "name:ar": "\u0628\u0646\u064a \u0648\u0631\u062b\u064a\u0644\u0627\u0646", "name:ber": "\u2d49\u2d5d \u2d61\u2d3b\u2d54\u2d5c\u2d49\u2d4d\u2d30\u2d4f", "name:en": "Beni Ouartilane", "name:fr": "Beni Ouartilane", "name:kab": "It Wertiran", "old_name": "El Djem\u00e2a", "place": "town", "population": "14528", "wikidata": "Q2263714", "wikimedia_commons": "Category:Beni Ourtilane", "wikipedia": "fr:Beni Ourtilane"}}, {"type": "node", "id": 455579590, "lat": 36.2690807, "lon": 4.8402663, "tags": {"name": "Bordj Zemoura", "name:ar": "\u0628\u0631\u062c \u0632\u0645\u0648\u0631\u0629", "name:ber": "\u2d31\u2d53\u2d54\u2d35 \u2d63\u2d3b\u2d4e\u2d4e\u2d53\u2d54\u2d30", "name:de": "Bordj Zemmoura", "name:en": "Bordj Zemmoura", "name:fr": "Bordj Zemoura", "name:kab": "Bur\u01e7 Zemmura", "place": "town", "population": "10296", "wikidata": "Q1648662", "wikimedia_commons": "Category:Bordj Zemoura", "wikipedia": "fr:Bordj Zemoura"}}, {"type": "node", "id": 455579595, "lat": 36.3191815, "lon": 4.8370281, "tags": {"name": "Genzet", "name:ar": "\u063a\u0646\u0632\u0627\u062a", "name:ber": "\u2d33\u2d3b\u2d4f\u2d63\u2d30\u2d5c", "name:en": "Guenzet", "name:fr": "Guenzet", "name:kab": "Genzet", "place": "town", "population": "1844", "population:date": "2008"}}, {"type": "node", "id": 465589390, "lat": 36.3378593, "lon": 4.470196, "tags": {"name": "Ighil Ali", "name:ar": "\u0625\u063a\u064a\u0644 \u0639\u0644\u064a", "name:ber": "\u2d49\u2d56\u2d49\u2d4d \u2d44\u2d4d\u2d49", "name:fr": "Ighil Ali", "name:kab": "I\u03b3il \u0190li", "place": "town", "population": "9526", "postal_code": "06014", "ref": "0617", "wikidata": "Q193945", "wikipedia": "fr:Ighil Ali"}}, {"type": "node", "id": 465589402, "lat": 36.368882, "lon": 4.4866713, "tags": {"description": "Guendouze est le chef-lieu de la commune Ait R'zine", "loc_name": "Genduz", "name": "Guendouz", "name:ar": "\u0642\u0646\u062f\u0648\u0632", "name:ber": "\u2d33\u2d3b\u2d4f\u2d37\u2d53\u2d63", "name:fr": "Guendouz", "name:kab": "Genduz", "place": "town", "population": "14563", "postal_code": "06013", "ref:ons": "0628", "source:population": "ONS 2008", "wikidata": "Q2214615", "wikipedia": "fr:A\u00eft R'zine"}}, {"type": "node", "id": 465589424, "lat": 36.1311024, "lon": 4.669174, "tags": {"name": "Me\u01e7ana", "name:ar": "\u0645\u062c\u0627\u0646\u0629", "name:ber": "\u2d4e\u2d3b\u2d35\u2d30\u2d4f\u2d30", "name:en": "Medjana", "name:fr": "Medjana", "name:kab": "Me\u01e7ana", "place": "town", "population": "22402", "wikidata": "Q1649448", "wikimedia_commons": "Category:Medjana", "wikipedia": "fr:Medjana"}}, {"type": "node", "id": 1117953861, "lat": 36.4450868, "lon": 4.6855035, "tags": {"name": "Bu\u1e25emza", "name:ar": "\u0628\u0648\u062d\u0645\u0632\u0629", "name:ber": "\u2d32\u2d53\u2d43\u2d30\u2d4e\u2d63\u2d30", "name:en": "Bouhamza", "name:fr": "Bouhamza", "name:kab": "Bu\u1e25emza", "place": "town", "population": "9123", "population:date": "2008", "postal_code": "06031", "ref:ons": "0637", "source:population": "ONS 2008", "wikidata": "Q2215134", "wikimedia_commons": "Category:Bouhamza", "wikipedia": "fr:Bouhamza"}}, {"type": "node", "id": 1350849498, "lat": 36.3980867, "lon": 4.6671349, "tags": {"name": "Tamokra", "name:ar": "\u062a\u0645\u0642\u0631\u0629", "name:ber": "\u2d5d\u2d30\u2d4e\u2d53\u2d47\u2d54\u2d30", "name:en": "Tamokra", "name:fr": "Tamokra", "name:kab": "Tamuq\u1e5ba", "place": "town", "wikidata": "Q2217816", "wikimedia_commons": "Category:Tamokra", "wikipedia": "fr:Tamokra"}}, {"type": "node", "id": 1370246767, "lat": 36.4622509, "lon": 4.5042534, "tags": {"alt_name:ar": "\u0625\u063a\u0631\u064e\u0645;\u0622\u063a\u0631\u0627\u0645;\u0627\u063a\u0631\u0627\u0645", "name": "I\u03b3rem", "name:ar": "\u0625\u063a\u0631\u0645", "name:azb": "\u0627\u063a\u0631\u0645", "name:ber": "\u2d49\u2d56\u2d54\u2d3b\u2d4e", "name:en": "Ighram", "name:fa": "\u0627\u063a\u0631\u0627\u0645", "name:fr": "Ighram", "name:kab": "I\u03b3rem", "place": "town", "population": "12387", "population:date": "2008", "postal_code": "06210", "ref:ONS": "0615", "wikidata": "Q2215840", "wikimedia_commons": "Category:Ighram", "wikipedia": "ar:\u0622\u063a\u0631\u0627\u0645", "wikipedia:ar": "\u0622\u063a\u0631\u0627\u0645"}}]}