{"version": 0.6, "generator": "Overpass API 0.7.62.4 2390de5a", "osm3s": {"timestamp_osm_base": "2025-01-08T07:29:58Z", "copyright": "The data included in this document is from www.openstreetmap.org. The data is made available under ODbL."}, "elements": [{"type": "node", "id": 1404222675, "lat": 2.3592887, "lon": 45.3879323, "tags": {"alt_name": "Balcad;Bal'ad;Balad", "name": "Balcad \u0628\u0644\u0639\u062f", "name:ar": "\u0628\u0644\u0639\u062f", "name:en": "Balcad", "name:fr": "Balad", "name:it": "Balad", "pcode": "NA-3807-R09-003", "place": "town", "source": "UNDP - 2006, UNDP - 1997, FSAU"}}, {"type": "node", "id": 1404226588, "lat": 2.2982667, "lon": 45.7985334, "tags": {"alt_name": "Warsheik", "name": "Warshiikh \u0648\u0623\u0631\u0634\u064a\u062e", "name:ar": "\u0648\u0623\u0631\u0634\u064a\u062e", "name:de": "Warsheikh", "name:en": "Warsheikh", "name:fr": "Warsheikh", "name:it": "Uarsceik", "name:pt": "Warsheekh", "name:ro": "Warsheikh", "name:zu": "Warsheikh", "pcode": "NA-3807-S18-001", "place": "town", "source": "UNDP - 2006, UNDP - 1997, FSAU", "wikidata": "Q1016898", "wikipedia": "so:Warshiikh"}}]}