{"version": 0.6, "generator": "Overpass API 0.7.62.4 2390de5a", "osm3s": {"timestamp_osm_base": "2025-01-08T06:50:13Z", "copyright": "The data included in this document is from www.openstreetmap.org. The data is made available under ODbL."}, "elements": [{"type": "node", "id": 1159019627, "lat": 32.808215, "lon": 21.8696836, "tags": {"name": "\u0634\u062d\u0627\u062a", "name:ar": "\u0634\u062d\u0627\u062a", "name:de": "Kyrene", "name:en": "Shahhat", "name:fr": "Cyr\u00e8ne", "name:grc": "\u039a\u03c5\u03c1\u03ae\u03bd\u03b7", "name:it": "Cirene", "name:kab": "Siren", "name:la": "Cyrene", "name:sr": "\u041a\u0438\u0440\u0435\u043d\u0430", "name:uk": "\u041a\u0438\u0440\u0435\u043d\u0430", "place": "town", "population": "43376", "source:imagery": "Landsat", "source:map": "US AMS NI 34-15, 1958", "source:name": "wikipedia", "wikidata": "Q44112", "wikipedia": "ar:\u0634\u062d\u0627\u062a"}}, {"type": "node", "id": 1159019634, "lat": 32.8978426, "lon": 21.9650703, "tags": {"alt_name": "Soussa", "alt_name:es": "Apolonia de Cirene", "alt_name:it": "Marsa Susa", "description:de": "Diese Stadt war im antiken Griechenland als Apollonia bekannt", "name": "\u0633\u0648\u0633\u0629", "name:ar": "\u0633\u0648\u0633\u0629", "name:de": "Susah", "name:el": "\u03a3\u03bf\u03cd\u03c3\u03b1", "name:en": "Susah", "name:es": "Susa", "name:fr": "Susah", "name:it": "Apollonia", "old_name": "Apollonia", "place": "town", "short_name:it": "Susa", "wikipedia": "ar:\u0633\u0648\u0633\u0629"}}, {"type": "node", "id": 1565508919, "lat": 32.786528, "lon": 21.997782, "tags": {"name": "\u0627\u0644\u0623\u0628\u0631\u0642", "name:ar": "\u0627\u0644\u0623\u0628\u0631\u0642", "name:en": "Al Abraq", "name:fr": "Al Abraq", "pcode": "LY-14-10756", "place": "town", "shabya_cd": "14", "source": "NGA;OCHA;wikipedia", "wikidata": "Q3297277", "wikipedia": "ar:\u0627\u0644\u0623\u0628\u0631\u0642"}}]}