{"version": 0.6, "generator": "Overpass API 0.7.62.4 2390de5a", "osm3s": {"timestamp_osm_base": "2025-01-08T06:22:27Z", "copyright": "The data included in this document is from www.openstreetmap.org. The data is made available under ODbL."}, "elements": [{"type": "node", "id": 1217870625, "lat": 14.516353, "lon": 43.324459, "tags": {"GNS:dsg_code": "PPLA2", "GNS:dsg_name": "capital of a second-order administrative division", "GNS:id": "-3185519", "alt_name": "Bayt al-Fak\u012bh; Bayt al Fakih Ibn `Udjayl; Bayt al Fakih al-Saghir; Bait al Faq\u012bh; Bait al Faqih; Beit el-Faq\u012bh; Bayt al Fak\u012bh al-Sagh\u012br; Bayt al Fak\u012bh Ibn \u2018Udjayl; Beit Faqih; Beit el-Faqih; Beit-el-Fakih; Bayt al-Fakih; \u0628\u064a\u062a \u0627\u0644\u0641\u0642\u064a\u0647", "int_name": "Bayt al Faq\u012bh", "name": "\u0628\u064a\u062a \u0627\u0644\u0641\u0642\u064a\u0647", "name:ar": "\u0628\u064a\u062a \u0627\u0644\u0641\u0642\u064a\u0647", "name:de": "Bayt al Faqih", "name:en": "Bayt al Faqih", "name:fr": "Bayt al Faqih", "place": "town", "population": "39116", "population:date": "2004-12-17", "source:name": "GNS", "source:population": "YCSO2004:18-17-21-1", "wikidata": "Q579291"}}, {"type": "node", "id": 1217880503, "lat": 14.6861419, "lon": 43.3004485, "tags": {"GNS:dsg_code": "PPLA2", "GNS:dsg_name": "captial of a second-order administrative division", "GNS:id": "-3183562", "alt_name": "Al Man\u015f\u016br\u012byyah; El-Mansuriyyah; Al Mansuriah; Al Mansuriyyah; Al Man\u015f\u016br\u012bah; El-Man\u015f\u016briyyah; Mansuriyah; Man\u015fur\u012byah; Mansuriya", "int_name": "Al Man\u015f\u016br\u012byah", "name": "\u0627\u0644\u0645\u0646\u0635\u0648\u0631\u064a\u0629", "name:ar": "\u0627\u0644\u0645\u0646\u0635\u0648\u0631\u064a\u0629", "name:de": "Al Mansuriyah", "name:en": "Al Mansuriyah", "name:fr": "Al Mansuriyah", "place": "town", "population": "12369", "population:date": "2004-12-17", "source:name": "GNS", "source:population": "YCSO2004:18-16-21-1"}}, {"type": "node", "id": 1217884003, "lat": 14.637019, "lon": 43.055048, "tags": {"GNS:dsg_code": "PPLA2", "GNS:dsg_name": "captial of a second-order administrative division", "GNS:id": "-3182176", "alt_name": "Ad Dayr Fahmi; Ad Dayr Bahmi; Al Durayhami; Ad Dayr Bahm\u012b; Ad Dayr Fahm\u012b", "int_name": "Ad Durayhim\u012b", "name": "\u0627\u0644\u062f\u0631\u064a\u0647\u0645\u064a", "name:ar": "\u0627\u0644\u062f\u0631\u064a\u0647\u0645\u064a", "name:de": "Ad Durayhimi", "name:en": "Ad Durayhimi", "name:fr": "Ad Durayhimi", "place": "town", "population": "7069", "population:date": "2004-12-17", "source:name": "GNS", "source:population": "YCSO2004:18-14-21-1"}}, {"type": "node", "id": 1222565711, "lat": 14.794076, "lon": 43.436196, "tags": {"GNS:dsg_code": "PPLA2", "GNS:dsg_name": "captial of a second-order administrative division", "GNS:id": "221957", "alt_name": "Sukhnah", "int_name": "As Sukhnah", "name": "\u0627\u0644\u0633\u062e\u0646\u0629", "name:ar": "\u0627\u0644\u0633\u062e\u0646\u0629", "name:de": "As Sukhnah", "name:en": "As Sukhnah", "name:fr": "As Sukhnah", "place": "town", "population": "2230", "population:date": "2004-12-17", "source:name": "GNS", "source:population": "YCSO2004:18-15-22-1"}}, {"type": "node", "id": 1224147868, "lat": 14.830687, "lon": 43.153909, "tags": {"GNS:dsg_code": "PPLA2", "GNS:dsg_name": "captial of a second-order administrative division", "GNS:id": "-3183582", "alt_name": "Maraw'ah; El Marawa`ah; Mur\u0101wa\u2018ah; El Mar\u0101wa\u2018ah; Mar\u0101w\u2019ah; Marawa'ah; Mar\u0101wa\u2019ah; Murawa`ah; Marawi`ah; Mar\u0101wi\u2018ah; Marawa", "int_name": "Al Mar\u0101wi\u2018ah", "name": "\u0627\u0644\u0645\u0631\u0627\u0648\u0639\u0629", "name:ar": "\u0627\u0644\u0645\u0631\u0627\u0648\u0639\u0629", "name:de": "Al Marawi`ah", "name:en": "Al Marawi`ah", "name:fr": "Al Marawi`ah", "place": "town", "population": "22990", "population:date": "2004-12-17", "source:name": "GNS", "source:population": "YCSO2004:18-13-21-1"}}, {"type": "node", "id": 10960054933, "lat": 14.6816306, "lon": 43.2516932, "tags": {"name": "\u0627\u0644\u0643\u064a\u0628\u0646\u064a\u0629", "place": "town", "wikidata": "Q12191933", "wikipedia": "ar:\u0627\u0644\u0643\u064a\u0628\u0646\u064a\u0629 (\u0627\u0644\u062d\u062f\u064a\u062f\u0629)"}}]}