{"version": 0.6, "generator": "Overpass API 0.7.62.4 2390de5a", "osm3s": {"timestamp_osm_base": "2025-01-08T06:31:42Z", "copyright": "The data included in this document is from www.openstreetmap.org. The data is made available under ODbL."}, "elements": [{"type": "node", "id": 599171145, "lat": 34.7254333, "lon": 44.5835396, "tags": {"capital": "6", "int_name": "Amirli - \u0622\u0645\u0631\u0644\u064a", "name": "\u0622\u0645\u0631\u0644\u064a", "name:ar": "\u0622\u0645\u0631\u0644\u064a", "name:ckb": "\u0626\u0627\u0645\u0631\u0644\u06cc", "name:de": "Amerli", "name:en": "Amirli", "name:ml": "\u0d05\u0d2e\u0d3f\u0d7c\u0d32\u0d3f", "name:mzn": "\u0622\u0645\u0631\u0644\u06cc", "name:tr": "Emirli", "place": "town", "population": "26000", "source": "geonames.org", "wikidata": "Q4746778"}}, {"type": "node", "id": 2488619451, "lat": 34.432775, "lon": 44.934786, "tags": {"alt_name": "Qara Tapa, QARA TAPPA, Qara Tepe, Qarah Tepe, Qarat Tabbah, \u0642\u0631\u0629 \u062a\u0628\u0629, Qara Tapa, QARA TAPPA, Qara Tepe, Qarah Tepe, Qarat Tabbah, \u0642\u0631\u0629 \u062a\u0628\u0629", "capital": "7", "int_name": "Sara Tapa", "name": "\u0642\u0631\u0629 \u062a\u0628\u0629", "name:ar": "\u0642\u0631\u0629 \u062a\u0628\u0629", "name:ckb": "\u0642\u06d5\u0631\u06d5\u062a\u06d5\u067e\u06d5", "name:de": "Qara Tapa", "name:en": "Qara Tapa", "name:fr": "Qara Tapa", "name:ku": "Qeretepe", "name:ru": "\u041a\u0430\u0440\u0430-\u0422\u0430\u043f\u043f\u0430", "name:tr": "Karatepe", "place": "town", "wikidata": "Q12232414", "wikipedia": "en:Qara Tapa"}}, {"type": "node", "id": 2488643041, "lat": 34.593047, "lon": 44.934586, "tags": {"int_name": "Jabarah, \u062c\u0628\u0627\u0631\u0629", "name": "\u062c\u0628\u0627\u0631\u0629", "name:ar": "\u062c\u0628\u0627\u0631\u0629", "name:ckb": "\u062c\u06d5\u0628\u0627\u0631\u06d5", "name:en": "Jabara", "name:ku": "Cebare", "place": "town", "wikidata": "Q12204619", "wikipedia": "ckb:\u062c\u06d5\u0628\u0627\u0631\u06d5"}}, {"type": "node", "id": 7195168835, "lat": 34.742806, "lon": 45.0656829, "tags": {"name": "\u0633\u0631\u0642\u0644\u0639\u0629", "name:ar": "\u0633\u0631\u0642\u0644\u0639\u0629", "name:ckb": "\u0633\u06d5\u0631\u0642\u06d5\u06b5\u0627", "name:en": "Sarqala", "name:ku": "Serqella", "name:tr": "Serkala", "place": "town", "population": "10000", "source:population": "wikipedia", "wikidata": "Q61391640", "wikipedia": "ckb:\u0633\u06d5\u0631\u0642\u06d5\u06b5\u0627", "wikipedia:ar": "\u0633\u0631\u0642\u0644\u0639\u0629"}}, {"type": "node", "id": 8465028264, "lat": 34.6865956, "lon": 44.9603501, "tags": {"name": "\u0643\u0641\u0631\u064a", "name:ar": "\u06a9\u0641\u0631\u064a", "name:ckb": "\u06a9\u0641\u0631\u06cc", "name:en": "Kifri", "name:fa": "\u06a9\u0641\u0631\u06cc", "name:ku": "Kifr\u00ee", "name:ml": "\u0d15\u0d3f\u0d2b\u0d4d\u0d30\u0d3f", "name:tr": "Kifri", "place": "town", "population": "32870", "wikidata": "Q2626532", "wikipedia": "ar:\u0643\u0641\u0631\u064a"}}]}