{"version": 0.6, "generator": "Overpass API 0.7.62.4 2390de5a", "osm3s": {"timestamp_osm_base": "2025-01-08T07:25:44Z", "copyright": "The data included in this document is from www.openstreetmap.org. The data is made available under ODbL."}, "elements": [{"type": "node", "id": 277741361, "lat": 16.1523684, "lon": -13.5039868, "tags": {"GNS:dsg_code": "PPLA", "GNS:dsg_name": "populated place", "GNS:id": "-1401609", "GNS:modify_date": "2015-11-17", "alt_name": "Kaedi;Ka\u00e9di", "alt_name:ar": "\u0643\u0647\u064a\u062f\u064a", "alt_name:en": "Kayhaydi", "capital": "4", "int_name": "Ka\u00e9di", "name": "\u0643\u064a\u0647\u064a\u062f\u064a", "name:ar": "\u0643\u064a\u0647\u064a\u062f\u064a", "name:de": "Kaihaidi", "name:en": "Ka\u00e9di", "name:fr": "Ka\u00e9di", "name:kab": "Kahidi", "name:pl": "Kajhajdi", "name:ru": "\u041a\u0430\u044d\u0434\u0438", "note": "rank = 0 + City car Pr\u00e9fecture", "place": "city", "rank": "0", "wikidata": "Q524984", "wikipedia": "ar:\u0643\u064a\u0647\u064a\u062f\u064a"}}, {"type": "node", "id": 1990547260, "lat": 16.1483748, "lon": -13.7871497, "tags": {"GNS:dsg_code": "PPL", "GNS:dsg_name": "populated place", "GNS:id": "-1402277", "GNS:modify_date": "2007-08-23", "alt_name": "Mbagne", "name": "\u0627\u0645\u0628\u0627\u0646\u064a", "name:ar": "\u0627\u0645\u0628\u0627\u0646\u064a", "name:en": "Mbagne", "name:fr": "M'Bagne", "note": "rank = 0 + City car sous-Pr\u00e9fecture", "place": "city", "population": "10383", "rank": "0", "wikidata": "Q3044657", "wikipedia": "fr:M'Bagne"}}, {"type": "node", "id": 3650230301, "lat": 16.0613213, "lon": -13.3743715, "tags": {"GNS:dsg_code": "PPL", "GNS:dsg_name": "populated place", "GNS:id": "-1400176", "GNS:modify_date": "2007-08-27", "alt_name": "Djowol;Djowel;Dyovol;Djeol;Diovol;Djovol", "alt_name:ar": "\u062f\u062c\u0648\u0648\u0648\u0644", "alt_name:en": "Djowol", "name": "\u062c\u0648\u0644", "name:ar": "\u062c\u0648\u0644", "name:en": "Djeol", "name:fr": "Djewol", "note": "rank = 0 + town car commune", "place": "town", "population": "11532", "rank": "0", "wikidata": "Q3032906", "wikipedia": "fr:Djewol"}}]}