{"version": 0.6, "generator": "Overpass API 0.7.62.4 2390de5a", "osm3s": {"timestamp_osm_base": "2025-01-08T07:02:18Z", "copyright": "The data included in this document is from www.openstreetmap.org. The data is made available under ODbL."}, "elements": [{"type": "node", "id": 299682811, "lat": 34.8508816, "lon": 5.729074, "tags": {"capital": "4", "name": "Biskra  \u0628\u0633\u0643\u0631\u0629", "name:ar": "\u0628\u0633\u0643\u0631\u0629", "name:ber": "\u2d5c\u2d49\u2d31\u2d3b\u2d59\u2d3d\u2d3b\u2d54\u2d5c", "name:el": "\u039c\u03c0\u03af\u03c3\u03ba\u03c1\u03b1", "name:en": "Biskra", "name:fr": "Biskra", "name:kab": "Tibsekrett", "name:lt": "Biskra", "name:ru": "\u0411\u0438\u0441\u043a\u0440\u0430", "name:uk": "\u0411\u0456\u0441\u043a\u0440\u0430", "place": "city", "population": "205608", "population:date": "2008", "ref:ONS": "0701", "wikidata": "Q312759", "wikipedia": "fr:Biskra"}}, {"type": "node", "id": 443181299, "lat": 34.8447307, "lon": 5.7939424, "tags": {"name": "Chetma", "name:ar": "\u0634\u062a\u0645\u0629", "name:ber": "\u2d5b\u2d3b\u2d5c\u2d4e\u2d30", "name:el": "\u03a4\u03c3\u03b5\u03c4\u03bc\u03ac", "name:en": "Chetma", "name:fr": "Chetma", "name:kab": "Cetma", "place": "town", "population": "13699", "wikidata": "Q2962881", "wikipedia": "fr:Chetma"}}, {"type": "node", "id": 462020919, "lat": 34.7497613, "lon": 5.9107849, "tags": {"name": "Sidi Okba", "name:ar": "\u0633\u064a\u062f\u064a \u0639\u0642\u0628\u0629", "name:ber": "\u2d59\u2d49\u2d37\u2d49 \u2d3d\u2d31\u2d30 \u043e", "name:en": "Sidi Okba", "name:fr": "Sidi Okba", "name:kab": "Sidi \u0190uqba", "place": "town", "population": "33509", "wikidata": "Q2215485", "wikipedia": "fr:Sidi Okba"}}, {"type": "node", "id": 462231822, "lat": 35.0689799, "lon": 5.8448638, "tags": {"name": "Djemorah", "name:ar": "\u062c\u0645\u0648\u0631\u0629", "name:ber": "\u2d35\u2d4e\u2d53\u2d54\u2d30", "name:en": "Djemourah", "name:fr": "Djemorah", "name:kab": "\u01e6emmu\u1e5ba", "place": "town", "population": "12574", "wikidata": "Q3032882", "wikimedia_commons": "Category:Djemorah", "wikipedia": "fr:Djemorah"}}]}