{"version": 0.6, "generator": "Overpass API 0.7.62.4 2390de5a", "osm3s": {"timestamp_osm_base": "2025-01-08T07:16:40Z", "copyright": "The data included in this document is from www.openstreetmap.org. The data is made available under ODbL."}, "elements": [{"type": "node", "id": 351090944, "lat": 29.0607261, "lon": -9.4233205, "tags": {"capital": "7", "int_name": "Tarhjijt", "name": "Taghjijt \u2d5c\u2d30\u2d56\u2d4a\u2d49\u2d4a\u2d5c \u062a\u063a\u062c\u064a\u062c\u062a", "name:ar": "\u062a\u063a\u062c\u064a\u062c\u062a", "name:ber": "\u2d5c\u2d30\u2d56\u2d4a\u2d49\u2d4a\u2d5c", "name:en": "Taghjijt", "name:fr": "Taghjijt", "name:zgh": "\u2d5c\u2d30\u2d56\u2d4a\u2d49\u2d4a\u2d5c", "place": "town"}}, {"type": "node", "id": 351100571, "lat": 29.177425, "lon": -9.711408, "tags": {"alt_name:ar": "\u0628\u0648 \u064a\u0632\u0643\u0627\u0631\u0646;\u0628\u0632\u0643\u0627\u0631\u0646;\u0628\u0648\u064a\u0632\u0627\u0643\u0627\u0631\u0646", "capital": "6", "name": "Bouizakarne \u2d31\u2d53\u2d62\u2d63\u2d30\u2d3d\u2d30\u2d54\u2d4f \u0628\u0648\u064a\u0632\u0643\u0627\u0631\u0646", "name:ar": "\u0628\u0648\u064a\u0632\u0643\u0627\u0631\u0646", "name:ber": "\u2d31\u2d53\u2d62\u2d63\u2d30\u2d3d\u2d30\u2d54\u2d4f", "name:en": "Bouizakarne", "name:fr": "Bouizakarne", "name:zgh": "\u2d31\u2d53\u2d62\u2d63\u2d30\u2d3d\u2d30\u2d54\u2d4f", "place": "town", "wikidata": "Q2921651", "wikipedia": "ar:\u0628\u0648\u064a\u0632\u0643\u0627\u0631\u0646", "wikipedia:ar": "\u0628\u0648\u064a\u0632\u0643\u0627\u0631\u0646"}}, {"type": "node", "id": 1068452488, "lat": 29.3559521, "lon": -9.7553781, "tags": {"capital": "6", "name": "Lakhsas \u2d4d\u2d30\u2d45\u2d5a\u2d30\u2d5a \u0627\u0644\u0623\u062e\u0635\u0627\u0635", "name:ar": "\u0627\u0644\u0623\u062e\u0635\u0627\u0635", "name:ary": "\u0644\u0627\u062e\u0635\u0627\u0635", "name:ber": "\u2d4d\u2d30\u2d45\u2d5a\u2d30\u2d5a", "name:en": "Lakhsas", "name:es": "Lajsas", "name:fr": "Lakhsas", "name:ur": "\u0644\u06a9\u06be\u0633\u0627\u0633", "name:zgh": "\u2d4d\u2d30\u2d45\u2d5a\u2d30\u2d5a", "place": "town", "wikidata": "Q3216488", "wikipedia": "ar:\u0627\u0644\u0623\u062e\u0635\u0627\u0635 (\u0645\u062f\u064a\u0646\u0629)", "wikipedia:ar": "\u0627\u0644\u0623\u062e\u0635\u0627\u0635 (\u0645\u062f\u064a\u0646\u0629)"}}, {"type": "node", "id": 1886650445, "lat": 29.218819, "lon": -9.491069, "tags": {"capital": "7", "name": "\u0625\u0641\u0631\u0627\u0646 \u0627\u0644\u0623\u0637\u0644\u0633 \u0627\u0644\u0635\u063a\u064a\u0631", "name:ar": "\u0625\u0641\u0631\u0627\u0646 \u0627\u0644\u0623\u0637\u0644\u0633 \u0627\u0644\u0635\u063a\u064a\u0631", "name:en": "Ifrane Atlas-Saghir", "name:fr": "Ifrane Atlas-Saghir", "name:zgh": "\u2d49\u2d3c\u2d54\u2d30\u2d4f \u2d4f \u2d30\u2d5f\u2d4d\u2d30\u2d59 \u2d4e\u2d65\u2d65\u2d49\u2d4f", "place": "town", "wikidata": "Q2281695", "wikipedia": "en:Ifrane Atlas-Saghir"}}]}