{"version": 0.6, "generator": "Overpass API 0.7.62.4 2390de5a", "osm3s": {"timestamp_osm_base": "2025-01-08T07:10:30Z", "copyright": "The data included in this document is from www.openstreetmap.org. The data is made available under ODbL."}, "elements": [{"type": "node", "id": 439898380, "lat": 35.0256882, "lon": -0.8889946, "tags": {"name": "Hassi Zahana", "name:ar": "\u062d\u0627\u0633\u064a \u0632\u0647\u0627\u0646\u0629", "name:ber": "\u2d43\u2d30\u2d59\u2d49 \u2d63\u2d3b\u2d40\u2d40\u2d30\u2d4f\u2d30", "name:en": "Hassi Zahana", "name:fr": "Hassi Zahana", "name:kab": "\u1e24asi Zhana", "place": "town", "population": "8500", "wikidata": "Q3128230", "wikimedia_commons": "Category:Hassi Zahana", "wikipedia": "fr:Hassi Zahana"}}, {"type": "node", "id": 439900723, "lat": 34.9525879, "lon": -0.9165478, "tags": {"name": "Ben Badis", "name:ar": "\u0628\u0646 \u0628\u0627\u062f\u064a\u0633", "name:ber": "\u2d31\u2d3b\u2d4f \u2d31\u2d30\u2d37\u2d49\u2d59", "name:en": "Ben Badis", "name:fr": "Ben Badis", "name:kab": "Ben Badis", "place": "town", "population": "20346", "wikidata": "Q2895336", "wikimedia_commons": "Category:Ben Badis, Sidi Bel Abb\u00e8s", "wikipedia": "fr:Ben Badis (Sidi Bel Abb\u00e8s)"}}, {"type": "node", "id": 442779551, "lat": 34.7797863, "lon": -0.5715147, "tags": {"name": "Telagh", "name:ar": "\u062a\u0644\u0627\u063a", "name:azb": "\u062a\u0644\u0627\u063a", "name:ber": "\u2d5c\u2d30\u2d4d\u2d30\u2d56", "name:en": "Telagh", "name:fa": "\u062a\u0644\u0627\u063a", "name:fr": "Telagh", "name:he": "\u05d8\u05dc\u05d4", "name:kab": "Tala\u0263", "name:ur": "\u062a\u0644\u0627\u063a", "place": "town", "population": "44000", "wikidata": "Q2215476", "wikipedia": "ar:\u062a\u0644\u0627\u063a"}}, {"type": "node", "id": 497155693, "lat": 35.0199515, "lon": -0.5300619, "tags": {"name": "Tenira", "name:ar": "\u062a\u0646\u064a\u0631\u0629", "name:ber": "\u2d5c\u2d49\u2d4f\u2d49\u2d54\u2d30", "name:en": "Tenira", "name:fr": "Tenira", "name:kab": "Tnira", "place": "town", "population": "10049", "wikidata": "Q1650283", "wikimedia_commons": "Category:Tenira", "wikipedia": "fr:Tenira"}}, {"type": "node", "id": 4384390366, "lat": 34.9299907, "lon": -0.9542742, "tags": {"description": "\u0639\u064a\u0646 \u062a\u0627\u0644\u0648\u062a \u0645\u0631\u0643\u0632 \u0647\u064a \u0625\u062d\u062f\u0649 \u0628\u0644\u062f\u064a\u0627\u062a \u062f\u0627\u0626\u0631\u0629 \u0639\u064a\u0646 \u062a\u0627\u0644\u0648\u062a \u0628\u0648\u0644\u0627\u064a\u0629 \u062a\u0644\u0645\u0633\u0627\u0646 \u060c \u062a\u062a\u0645\u064a\u0632 \u0628\u0628\u0633\u0627\u062a\u064a\u0646\u0647\u0627 \u0627\u0644\u062e\u0644\u0627\u0628\u0629 \u0648\u062c\u0628\u0627\u0644\u0647\u0627 \u0630\u0627\u062a \u0627\u0644\u063a\u0627\u0628\u0627\u062a \u0627\u0644\u0643\u062b\u064a\u0641\u0629\u060c \u0625\u0636\u0627\u0641\u0629 \u0625\u0644\u0649 \u064a\u0646\u0627\u0628\u064a\u0639\u0647\u0627 \u0627\u0644\u0645\u0639\u062f\u0646\u064a\u0629 \u0643\u0627\u0644\u0645\u0646\u0628\u0639 \u0627\u0644\u0630\u064a \u064a\u062a\u0648\u0633\u0637 \u0627\u0644\u0645\u0646\u0637\u0642\u0629 \u0648 \u0645\u0646\u0627\u0628\u0639 \u0627\u062e\u0631\u0649 \u0643\u0627\u0646\u062a \u0633\u0628\u0628\u0627 \u0641\u064a \u062c\u0648\u062f\u0629 \u0645\u0646\u062a\u0648\u062c\u0647\u0627 \u0627\u0644\u0641\u0644\u0627\u062d\u064a \u0627\u0644\u0645\u062d\u0644\u064a \u0646\u0630\u0643\u0631 \u0645\u0646\u0647\u0627 \u0639\u064a\u0646 \u0627\u0644\u062d\u0627\u0645\u064a \u060c \u0639\u064a\u0646 \u0642\u0633\u0646\u0637", "description:fr": "la population de la commune de A\u00efn Tallout est \u00e9valu\u00e9e \u00e0 10 286 habitants contre 9 106 en 19983.", "name": "A\u00efn Tallout", "name:ar": "\u0639\u064a\u0646 \u062a\u0627\u0644\u0648\u062a", "name:ber": "\u2d44\u2d49\u2d4f \u2d5c\u2d30\u2d4d\u2d53\u2d5c", "name:en": "Ain Tallout", "name:fr": "A\u00efn Tallout", "name:kab": "\u0190in Talut", "place": "town", "population": "10286", "postal_code": "13012", "postal_code_1": "13012", "power": "portal", "wikidata": "Q1649342", "wikipedia": "fr:A\u00efn Tallout"}}]}