{"version": 0.6, "generator": "Overpass API 0.7.62.4 2390de5a", "osm3s": {"timestamp_osm_base": "2025-01-08T07:32:50Z", "copyright": "The data included in this document is from www.openstreetmap.org. The data is made available under ODbL."}, "elements": [{"type": "node", "id": 1229049286, "lat": -12.1339888, "lon": 44.4272275, "tags": {"name": "Ouani \u0623\u0648\u0627\u0646\u064a", "name:ar": "\u0623\u0648\u0627\u0646\u064a", "name:en": "Ouani", "name:fr": "Ouani", "place": "town", "wikidata": "Q3143004"}}, {"type": "node", "id": 1229049495, "lat": -12.0973976, "lon": 44.4630155, "tags": {"alt_name:fr": "Jamilim\u00e9", "name": "Jimilim\u00e9 \u062c\u064a\u0645\u064a\u0644\u064a\u0645", "name:ar": "\u062c\u064a\u0645\u064a\u0644\u064a\u0645", "name:de": "Jimilim\u00e9", "name:en": "Jimilim\u00e9", "name:fr": "Jimilim\u00e9", "name:hy": "\u054b\u056b\u0574\u056b\u056c\u056b\u0574\u0565", "name:id": "Jimilim\u00e9", "place": "town", "wikidata": "Q6199270", "wikipedia": "fr:Jamilim\u00e9"}}, {"type": "node", "id": 1229049545, "lat": -12.1243932, "lon": 44.4887603, "tags": {"name": "Hajoho \u0647\u0627\u062c\u0647\u0648", "name:ar": "\u0647\u0627\u062c\u0647\u0648", "name:de": "Hajoho", "name:en": "Hajoho", "name:fa": "\u0647\u0627\u062c\u0648\u0647\u0648", "name:fr": "Hajoho", "name:sv": "Hajoho", "place": "town", "wikidata": "Q3125818", "wikipedia": "fr:Hajoho"}}, {"type": "node", "id": 1229049872, "lat": -12.1804726, "lon": 44.4493718, "tags": {"name": "Bazimini \u0628\u0627\u0632\u064a\u0645\u064a\u0646\u064a", "name:ar": "\u0628\u0627\u0632\u064a\u0645\u064a\u0646\u064a", "name:de": "Bazimini", "name:en": "Bazimini", "name:es": "Bazimini", "name:fr": "Bazimini", "place": "town", "wikidata": "Q548071", "wikipedia": "fr:Bazimini"}}, {"type": "node", "id": 1229050356, "lat": -12.2022861, "lon": 44.5166595, "tags": {"name": "Bambao \u0628\u0627\u0645\u0628\u0648", "name:ar": "\u0628\u0627\u0645\u0628\u0648", "name:en": "Bambao", "name:fr": "Bambao", "place": "town", "wikidata": "Q2881770"}}, {"type": "node", "id": 1229050437, "lat": -12.1509075, "lon": 44.4977311, "tags": {"name": "Harembo \u0647\u0627\u0631\u0645\u0628\u0648", "name:ar": "\u0647\u0627\u0631\u0645\u0628\u0648", "name:de": "Harembo", "name:en": "Harembo", "name:fr": "Harembo", "name:sv": "Harembo", "place": "town", "wikidata": "Q3127418", "wikipedia": "fr:Harembo"}}, {"type": "node", "id": 1295700465, "lat": -12.168846, "lon": 44.3942831, "tags": {"name": "Mutsamudu \u0645\u0648\u062a\u0633\u0627\u0645\u0648\u062f\u0648", "name:ar": "\u0645\u0648\u062a\u0633\u0627\u0645\u0648\u062f\u0648", "name:en": "Mutsamudu", "name:fr": "Mutsamudu", "name:ko": "\ubb34\ucc28\ubb34\ub450", "name:zh": "\u7a46\u5bdf\u7a46\u675c", "place": "city", "population": "30000", "source": "US NGA Pub. 112. 2010-11-10.", "wikidata": "Q691016", "wikipedia": "ar:\u0645\u0648\u062a\u0633\u0627\u0645\u0648\u062f\u0648"}}, {"type": "node", "id": 2317281173, "lat": -12.1961321, "lon": 44.3474195, "tags": {"name": "Akibani \u0623\u0643\u064a\u0628\u0627\u0646\u064a", "name:ar": "\u0623\u0643\u064a\u0628\u0627\u0646\u064a", "name:de": "Akibani", "name:en": "Akibani", "name:fa": "\u0627\u06a9\u06cc\u0628\u0627\u0646\u06cc", "name:fr": "Akibani", "place": "town", "wikidata": "Q2829022", "wikipedia": "fr:Akibani"}}, {"type": "node", "id": 2317281174, "lat": -12.1981154, "lon": 44.2732653, "tags": {"name": "\u0633\u064a\u0645\u0627 Sima", "name:ar": "\u0633\u064a\u0645\u0627", "name:de": "Sima", "name:en": "Sima", "name:es": "Sima", "name:fr": "Sima", "name:hy": "\u054d\u056b\u0574\u0561", "place": "town", "wikidata": "Q3110104", "wikipedia": "fr:Sima (Anjouan)"}}, {"type": "node", "id": 2318289090, "lat": -12.1998655, "lon": 44.4641536, "tags": {"name": "Chandra \u0634\u0627\u0646\u062f\u0631\u0627", "name:ar": "\u0634\u0627\u0646\u062f\u0631\u0627", "name:en": "Chandra", "name:fr": "Chandra", "name:hr": "Chandra", "name:pl": "Chandra", "name:ro": "Chandra", "name:sv": "Chandra", "name:sw": "Chandra", "place": "town", "wikidata": "Q2956006", "wikipedia": "fr:Chandra (Comores)"}}, {"type": "node", "id": 7228442367, "lat": -12.2080089, "lon": 44.467106, "tags": {"name": "Tsemb\u00e9hou", "name:fr": "Tsemb\u00e9hou", "place": "town", "wikidata": "Q1885248", "wikipedia": "fr:Tsemb\u00e9hou"}}]}