{"version": 0.6, "generator": "Overpass API 0.7.62.4 2390de5a", "osm3s": {"timestamp_osm_base": "2025-01-08T06:31:42Z", "copyright": "The data included in this document is from www.openstreetmap.org. The data is made available under ODbL."}, "elements": [{"type": "node", "id": 248701647, "lat": 33.7447393, "lon": 44.6328472, "tags": {"alt_name": "Ba\u2018q\u016bbah - \u0628\u0639\u0642\u0648\u0628\u0629, Baq\u016bbah, Baq\u016bba, Bakuba, Baquba, Baqubeh, \u0628\u0639\u0642\u0648\u0628\u0629, Baqubah, Baquba, Bakuba, Baquba, Baqubeh, \u0628\u0639\u0642\u0648\u0628\u0629", "alt_name:fr": "Baqouba, Baaqouba", "alt_name:uk": "\u0411\u0430\u0430\u043a\u0443\u0431\u0430", "capital": "4", "int_name": "Baqubah - \u0628\u0639\u0642\u0648\u0628\u0629", "name": "\u0628\u0639\u0642\u0648\u0628\u0629", "name:ar": "\u0628\u0639\u0642\u0648\u0628\u0629", "name:bn": "\u09ac\u09be\u0995\u09c1\u09ac\u09be", "name:ckb": "\u0628\u06d5\u0639\u0642\u0648\u0648\u0628\u06d5", "name:cs": "Bak\u00faba", "name:de": "Baquba", "name:en": "Baqubah", "name:es": "Baquba", "name:et": "Ba\u2018q\u016bbah", "name:eu": "Baquba", "name:fa": "\u0628\u0639\u0642\u0648\u0628\u0647", "name:fr": "Bakouba", "name:hi": "\u092c\u0915\u093c\u0941\u092c\u093e\u0939", "name:hr": "Bakuba", "name:ja": "\u30d0\u30a2\u30af\u30fc\u30d0", "name:ku": "Baq\u00fbba", "name:ml": "\u0d2c\u0d3e\u0d16\u0d41\u0d2c", "name:pl": "Bakuba", "name:ru": "\u0411\u0430\u0430\u043a\u0443\u0431\u0430", "name:tr": "Bakuba", "name:tt": "\u0411\u04d9\u043a\u0443\u0431\u04d9", "name:uk": "\u0411\u0430\u043a\u0443\u0431\u0430", "place": "city", "population": "268866", "population:date": "2014", "source:population": "https://ar.wikipedia.org/wiki/%D8%A8%D8%B9%D9%82%D9%88%D8%A8%D8%A9", "wikidata": "Q270821", "wikipedia": "ar:\u0628\u0639\u0642\u0648\u0628\u0629"}}, {"type": "node", "id": 599562683, "lat": 33.6892858, "lon": 45.0624033, "tags": {"alt_name:en": "Balad Ruz", "capital": "6", "int_name": "Balad Ruz - \u0628\u0644\u062f\u0631\u0648\u0632", "is_in": "Diyala, Iraq", "name": "\u0628\u0644\u062f\u0631\u0648\u0632", "name:ar": "\u0628\u0644\u062f\u0631\u0648\u0632", "name:en": "Balad Ruz", "name:ml": "\u0d2c\u0d32\u0d26\u0d4d-\u0d31\u0d42\u0d38\u0d4d", "name:ru": "\u0411\u0430\u043b\u0430\u0434-\u0420\u0443\u0437", "place": "town", "wikidata": "Q804598"}}, {"type": "node", "id": 2488590556, "lat": 33.6935887, "lon": 44.7987965, "tags": {"alt_name": "\u0643\u0646\u0639\u0627\u0646", "capital": "7", "int_name": "Kan\u0101n, \u0643\u0646\u0639\u0627\u0646, Kanan, \u0643\u0646\u0639\u0627\u0646", "is_in": "Iraq , \u062c\u0645\u0647\u0648\u0631\u064a\u0629 \u0627\u0644\u0639\u0631\u0627\u0642", "name": "\u0643\u0646\u0639\u0627\u0646", "name:ar": "\u0643\u0646\u0639\u0627\u0646", "name:de": "Kanan", "name:en": "Kanan", "name:fr": "Kanan", "name:ml": "\u0d15\u0d28\u0d3e\u0d7b", "name:ru": "\u041a\u0430\u043d\u044a\u0430\u043d", "place": "town"}}, {"type": "node", "id": 2489319362, "lat": 33.814426, "lon": 44.657916, "tags": {"alt_name": "\u0627\u0644\u0639\u0628\u0627\u0631\u0629", "capital": "7", "int_name": "Al Abb\u0101rah, \u0627\u0644\u0639\u0628\u0627\u0631\u0629, Al Abbarah, \u0627\u0644\u0639\u0628\u0627\u0631\u0629", "name": "\u0627\u0644\u0639\u0628\u0627\u0631\u0629", "name:ar": "\u0627\u0644\u0639\u0628\u0627\u0631\u0629", "name:de": "Al Abbarah", "name:en": "Al Abbarah", "name:fr": "Al Abbarah", "place": "town"}}]}