{"version": 0.6, "generator": "Overpass API 0.7.62.4 2390de5a", "osm3s": {"timestamp_osm_base": "2025-01-08T06:22:27Z", "copyright": "The data included in this document is from www.openstreetmap.org. The data is made available under ODbL."}, "elements": [{"type": "node", "id": 1217963348, "lat": 14.058517, "lon": 44.0923082, "tags": {"GNS:dsg_code": "PPL", "GNS:dsg_name": "populated place", "GNS:id": "10664536", "alt_name": "Ar Rabu`; Ar Rab\u016b\u2018", "int_name": "Ar Rub\u016b\u2018", "name": "\u0627\u0644\u0631\u0628\u0648\u0639", "name:ar": "\u0627\u0644\u0631\u0628\u0648\u0639", "name:de": "Ar Rubu`", "name:en": "Ar Rubu`", "name:fr": "Ar Rubu`", "place": "town", "source:name": "GNS"}}, {"type": "node", "id": 1222016521, "lat": 14.228759, "lon": 44.1844543, "tags": {"GNS:dsg_code": "PPLA2", "GNS:dsg_name": "captial of a second-order administrative division", "GNS:id": "-3191094", "int_name": "Ri\u1e29\u0101b", "name": "\u0631\u062d\u0627\u0628", "name:ar": "\u0631\u062d\u0627\u0628", "name:de": "Rihab", "name:en": "Rihab", "name:fr": "Rihab", "place": "town", "population": "5043", "population:date": "2004-12-17", "source:name": "GNS", "source:population": "YCSO2004:11-1-21-1"}}, {"type": "node", "id": 1224311373, "lat": 14.102296, "lon": 44.09404, "tags": {"GNS:dsg_code": "PPLA2", "GNS:dsg_name": "captial of a second-order administrative division", "GNS:id": "-3789337", "alt_name": "\u0638\u0644\u0645\u0629 \u062d\u0628\u064a\u0634", "int_name": "Zalmat \u1e28ubaysh, Z\u0327ulmah, Z\u0327almat \u1e28ubaysh, Zalmat Hubaysh, Zulmah, Zalmat Hubaysh", "name": "\u0638\u0644\u0645\u0629 \u062d\u0628\u064a\u0634", "name:ar": "\u0638\u0644\u0645\u0629 \u062d\u0628\u064a\u0634", "name:de": "Zalmat Hubaysh", "name:en": "Zalmat Hubaysh", "name:fr": "Zalmat Hubaysh", "place": "town", "population": "6124", "population:date": "2004-12-17", "source:name": "GNS", "source:population": "YCSO2004:11-8-21-1"}}]}