{"version": 0.6, "generator": "Overpass API 0.7.62.4 2390de5a", "osm3s": {"timestamp_osm_base": "2025-01-08T06:22:27Z", "copyright": "The data included in this document is from www.openstreetmap.org. The data is made available under ODbL."}, "elements": [{"type": "node", "id": 1226373936, "lat": 15.9882697, "lon": 43.9534903, "tags": {"GNS:dsg_code": "PPLA2", "GNS:dsg_name": "captial of a second-order administrative division", "GNS:id": "-3188691", "alt_name": "H\u0331amr;Hamir;Khamr;Hamr", "int_name": "Khamir", "name": "\u062e\u0645\u0631", "name:ar": "\u062e\u0645\u0631", "name:de": "Khamir", "name:en": "Khamir", "name:fr": "Khamir", "name:ml": "\u0d16\u0d2e\u0d40\u0d7c", "name:uk": "\u0425\u0430\u043c\u0456\u0440", "place": "town", "population": "15036", "population:date": "2004-12-17", "source:name": "GNS", "source:population": "YCSO2004:29-19-21-1"}}, {"type": "node", "id": 1226374048, "lat": 15.977123, "lon": 44.129167, "tags": {"GNS:dsg_code": "PPLA2", "GNS:dsg_name": "captial of a second-order administrative division", "GNS:id": "-3186374", "alt_name": "Dh\u012b B\u012bn; \u1e0e\u012b B\u012bn; Dhubayn; Dhi Bin; Dh\u012b Bayn; Di Bin; Dhi Bayn; \u0630\u064a \u0628\u064a\u0646", "int_name": "Dhayb\u012bn", "name": "\u0630\u064a\u0628\u064a\u0646", "name:ar": "\u0630\u064a\u0628\u064a\u0646", "name:de": "Dhaybin", "name:en": "Dhaybin", "name:fr": "Dhaybin", "place": "town", "population": "1326", "population:date": "2004-12-17", "source:name": "GNS", "source:population": "YCSO2004:29-9-23-1"}}, {"type": "node", "id": 1227124686, "lat": 15.8256403, "lon": 44.0620487, "tags": {"GNS:dsg_code": "PPLA2", "GNS:dsg_name": "captial of a second-order administrative division", "GNS:id": "-3185581", "alt_name": "Bayt Hirash; S\u016bq Bayt Harr\u0101sh; Suq Bayt Harrash; Bayt Hir\u0101sh; \u0627\u0644\u0633\u0648\u0642 \u0627\u0644\u062c\u062f\u064a\u062f", "int_name": "As S\u016bq al Jad\u012bd", "name": "\u0627\u0644\u0633\u0648\u0642 \u0627\u0644\u062c\u062f\u064a\u062f", "name:ar": "\u0627\u0644\u0633\u0648\u0642 \u0627\u0644\u062c\u062f\u064a\u062f", "name:de": "As Suq al Jadid", "name:en": "As Suq al Jadid", "name:fr": "As Suq al Jadid", "place": "town", "population": "2108", "population:date": "2004-12-17", "source:name": "GNS", "source:population": "YCSO2004:29-10-24-1", "wikidata": "Q4874891"}}, {"type": "node", "id": 1227124818, "lat": 15.814206, "lon": 44.040852, "tags": {"GNS:dsg_code": "PPLA2", "GNS:dsg_name": "captial of a second-order administrative division", "GNS:id": "-3191016", "alt_name": "Ridah; R\u012bdah", "int_name": "Raydah", "name": "\u0631\u064a\u062f\u0629", "name:ar": "\u0631\u064a\u062f\u0629", "name:de": "Raydah", "name:en": "Raydah", "name:fr": "Raydah", "place": "town", "population": "13971", "population:date": "2004-12-17", "source:name": "GNS", "source:population": "YCSO2004:29-11-22-1", "wikidata": "Q985467", "wikipedia": "en:Raydah"}}]}