{"version": 0.6, "generator": "Overpass API 0.7.62.4 2390de5a", "osm3s": {"timestamp_osm_base": "2025-01-08T06:56:05Z", "copyright": "The data included in this document is from www.openstreetmap.org. The data is made available under ODbL."}, "elements": [{"type": "node", "id": 260715532, "lat": 26.5909391, "lon": 12.7695658, "tags": {"name": "\u0623\u0648\u0628\u0627\u0631\u064a", "name:ar": "\u0623\u0648\u0628\u0627\u0631\u064a", "name:azb": "\u0627\u0648\u0628\u0627\u0631\u06cc", "name:bg": "\u0410\u0443\u0431\u0430\u0440\u0438", "name:de": "Ubari", "name:en": "Awbari", "name:eo": "A\u016dbari", "name:es": "Awbari", "name:fa": "\u0627\u0648\u0628\u0627\u0631\u06cc", "name:fr": "Oubari", "name:it": "Ubari", "name:ka": "\u10d0\u10d5\u10d1\u10d0\u10e0\u10d8", "name:kab": "Ubari", "name:ko": "\uc6b0\ubc14\ub9ac", "name:ks": "\u0627\u0648\u0628\u0627\u0631\u06cc", "name:lt": "Ubaris", "name:pl": "Aubari", "name:pt": "Awbari", "name:ro": "Ubari", "name:ru": "\u0410\u0432\u0431\u0430\u0440\u0438", "name:tr": "Ubari", "name:uk": "\u0410\u0443\u0431\u0430\u0440\u0456", "name:ur": "\u0627\u0648\u0628\u0627\u0631\u06cc", "name:vi": "Ubari", "name:vo": "\u00c4ubari", "place": "city", "population": "35000", "population:date": "2009", "wikidata": "Q1424460", "wikipedia": "ar:\u0623\u0648\u0628\u0627\u0631\u064a"}}]}