{"version": 0.6, "generator": "Overpass API 0.7.62.4 2390de5a", "osm3s": {"timestamp_osm_base": "2025-01-08T06:04:14Z", "copyright": "The data included in this document is from www.openstreetmap.org. The data is made available under ODbL."}, "elements": [{"type": "node", "id": 1218092648, "lat": 16.9478316, "lon": 43.2750258, "tags": {"GNS:dsg_code": "PPL", "GNS:dsg_name": "populated place", "GNS:id": "-3183804", "alt_name": "\u0642\u0644\u0639\u0629 \u063a\u0645\u0627\u0631;Qalat Ghumar", "int_name": "Al Qal\u2018ah, Al Qalah", "name": "\u0627\u0644\u0642\u0644\u0639\u0629", "name:ar": "\u0627\u0644\u0642\u0644\u0639\u0629", "name:de": "Al Qalah", "name:en": "Al Qalah", "name:fr": "Al Qalah", "place": "town", "population": "803", "population:date": "2004-12-17", "source:name": "GNS", "source:population": "YCSO2004:22-5-21-1"}}, {"type": "node", "id": 1218094473, "lat": 16.9089526, "lon": 43.2622562, "tags": {"GNS:dsg_code": "PPLA2", "GNS:dsg_name": "captial of a second-order administrative division", "GNS:id": "-3778642", "alt_name": "\u0627\u0644\u0646\u0636\u064a\u0631", "int_name": "An Na\u1e11\u012br, An Nadir", "name": "\u0627\u0644\u0646\u0636\u064a\u0631", "name:ar": "\u0627\u0644\u0646\u0636\u064a\u0631", "name:de": "An Nadir", "name:en": "An Nadir", "name:fr": "An Nadir", "place": "town", "population": "7199", "population:date": "2004-12-17", "source:name": "GNS", "source:population": "YCSO2004:22-5-32-2"}}, {"type": "node", "id": 1218101570, "lat": 16.7684564, "lon": 43.2751217, "tags": {"GNS:dsg_code": "PPLA2", "GNS:dsg_name": "captial of a second-order administrative division", "GNS:id": "-3189434", "alt_name": "Mal\u0101hit; Malahit; Suq al Malahit; S\u016bq al Mal\u0101\u1e29\u012b\u0163", "int_name": "Al Mal\u0101\u1e29\u012b\u0163", "name": "\u0627\u0644\u0645\u0644\u0627\u062d\u064a\u0637", "name:ar": "\u0627\u0644\u0645\u0644\u0627\u062d\u064a\u0637", "name:de": "Al Malahit", "name:en": "Al Malahit", "name:fr": "Al Malahit", "place": "town", "source:name": "GNS"}}, {"type": "node", "id": 1219278489, "lat": 17.0706595, "lon": 43.5753402, "tags": {"GNS:dsg_code": "PPLA2", "GNS:dsg_name": "captial of a second-order administrative division", "GNS:id": "10646959", "alt_name": "Majadh", "int_name": "Majz", "name": "\u0645\u062c\u0632", "name:ar": "\u0645\u062c\u0632", "name:de": "Majz", "name:en": "Majz", "name:fr": "Majz", "place": "town", "population": "1514", "population:date": "2004-12-17", "source:name": "GNS", "source:population": "YCSO2004:22-10-21-1"}}, {"type": "node", "id": 1219295189, "lat": 17.1811391, "lon": 43.2882088, "tags": {"GNS:dsg_code": "PPLA2", "GNS:dsg_name": "captial of a second-order administrative division", "GNS:id": "10647575", "int_name": "S\u016bq al Kham\u012bs", "name": "\u0633\u0648\u0642 \u0627\u0644\u062e\u0645\u064a\u0633", "name:ar": "\u0633\u0648\u0642 \u0627\u0644\u062e\u0645\u064a\u0633", "name:de": "Suq al Khamis", "name:en": "Suq al Khamis", "name:fr": "Suq al Khamis", "place": "town", "population": "603", "population:date": "2004-12-17", "source:name": "GNS", "source:population": "YCSO2004:22-3-21-1"}}, {"type": "node", "id": 1225521629, "lat": 16.77899, "lon": 43.433716, "tags": {"GNS:dsg_code": "PPLA2", "GNS:dsg_name": "captial of a second-order administrative division", "GNS:id": "354641", "int_name": "\u1e28ayd\u0101n", "name": "\u062d\u064a\u062f\u0627\u0646", "name:ar": "\u062d\u064a\u062f\u0627\u0646", "name:de": "Haydan", "name:en": "Haydan", "name:fr": "Haydan", "place": "town", "population": "3728", "population:date": "2004-12-17", "source:name": "GNS", "source:population": "YCSO2004:22-8-21-1"}}, {"type": "node", "id": 1225540641, "lat": 16.876998, "lon": 43.524987, "tags": {"GNS:dsg_code": "PPLA2", "GNS:dsg_name": "captial of a second-order administrative division", "GNS:id": "270899", "int_name": "S\u0101qayn", "name": "\u0633\u0627\u0642\u064a\u0646", "name:ar": "\u0633\u0627\u0642\u064a\u0646", "name:de": "Saqayn", "name:en": "Saqayn", "name:fr": "Saqayn", "place": "town", "population": "2352", "population:date": "2004-12-17", "source:name": "GNS", "source:population": "YCSO2004:22-9-21-1", "wikidata": "Q20307044"}}, {"type": "node", "id": 1237961271, "lat": 16.7890158, "lon": 43.2231329, "tags": {"GNS:dsg_code": "PPL", "GNS:dsg_name": "populated place", "GNS:id": "-3096647", "alt_name": "Al Khubah;Al Kh\u016bbah;Khauba;Kuba;K\u016bb\u0101;Kubah;K\u016bbah", "capital": "6", "int_name": "Al Khawbah", "name": "\u0627\u0644\u062e\u0648\u0628\u0629", "name:ar": "\u0627\u0644\u062e\u0648\u0628\u0629", "name:de": "Al Khawbah", "name:en": "Al Khawbah", "name:fr": "Al Khawbah", "place": "town", "source:name": "GNS", "wikidata": "Q4704234", "wikipedia": "ar:\u0627\u0644\u062e\u0648\u0628\u0629 (\u062c\u0627\u0632\u0627\u0646)"}}]}