{"version": 0.6, "generator": "Overpass API 0.7.62.4 2390de5a", "osm3s": {"timestamp_osm_base": "2025-01-08T06:58:15Z", "copyright": "The data included in this document is from www.openstreetmap.org. The data is made available under ODbL."}, "elements": [{"type": "node", "id": 1187534930, "lat": 35.3981921, "lon": 10.0508652, "tags": {"addr:city": "Sidi Amor Bou Hajla", "addr:governorate": "Kairouan", "addr:postcode": "3180", "is_in": "Kairouan;Tunisia;Africa", "is_in:country": "Tunisia", "is_in:country_code": "TN", "is_in:governorate": "Kairouan", "name": "\u0633\u064a\u062f\u064a \u0639\u0645\u0631 \u0628\u0648\u062d\u062c\u0644\u0629", "name:ar": "\u0633\u064a\u062f\u064a \u0639\u0645\u0631 \u0628\u0648\u062d\u062c\u0644\u0629", "name:en": "Sidi Amor Bou Hajla", "name:fr": "Sidi Amor Bou Hajla", "place": "town"}}, {"type": "node", "id": 1187534934, "lat": 35.388364, "lon": 9.7569732, "tags": {"addr:city": "\u0633\u064a\u062f\u064a \u0633\u0639\u062f", "name": "\u0633\u064a\u062f\u064a \u0633\u0639\u062f", "name:ar": "\u0633\u064a\u062f\u064a \u0633\u0639\u062f", "name:de": "Sayyidi Sa'ad", "name:en": "Sayyidi Sa'ad", "name:fr": "Sidi Saad", "name:ru": "\u0421\u0438\u0434\u0438-\u0421\u0430\u0430\u0434", "place": "town"}}, {"type": "node", "id": 6215539235, "lat": 35.3528502, "lon": 9.8275155, "tags": {"name": "\u0646\u0635\u0631 \u0627\u0644\u0644\u0647", "name:ar": "\u0646\u0635\u0631 \u0627\u0644\u0644\u0647", "name:de": "Nasrallah", "name:en": "Nasr Allah", "name:fr": "Nasrallah", "place": "town"}}]}