{"version": 0.6, "generator": "Overpass API 0.7.62.4 2390de5a", "osm3s": {"timestamp_osm_base": "2025-01-08T06:21:22Z", "copyright": "The data included in this document is from www.openstreetmap.org. The data is made available under ODbL."}, "elements": [{"type": "node", "id": 1218214654, "lat": 14.1007088, "lon": 44.4766803, "tags": {"GNS:dsg_code": "PPLA2", "GNS:dsg_name": "captial of a second-order administrative division", "GNS:id": "-3184116", "int_name": "An N\u0101dirah", "name": "\u0627\u0644\u0646\u0627\u062f\u0631\u0629", "name:ar": "\u0627\u0644\u0646\u0627\u062f\u0631\u0629", "name:de": "An Nadirah", "name:en": "An Nadirah", "name:fr": "An Nadirah", "place": "town", "population": "6424", "population:date": "2004-12-17", "source:name": "GNS", "source:population": "YCSO2004:11-4-27-1", "wikidata": "Q4118324"}}, {"type": "node", "id": 1218214829, "lat": 14.1221, "lon": 44.42139, "tags": {"GNS:dsg_code": "PPLA2", "GNS:dsg_name": "captial of a second-order administrative division", "GNS:id": "-3184625", "alt_name": "Sauda; Sadda", "int_name": "As Saddah", "name": "\u0627\u0644\u0633\u062f\u0629", "name:ar": "\u0627\u0644\u0633\u062f\u0629", "name:de": "As Saddah", "name:en": "As Saddah", "name:fr": "As Saddah", "place": "town", "population": "5039", "population:date": "2004-12-17", "source:name": "GNS", "source:population": "YCSO2004:11-6-21-1"}}, {"type": "node", "id": 1219352994, "lat": 14.463922, "lon": 44.548658, "tags": {"GNS:dsg_code": "PPLA2", "GNS:dsg_name": "captial of a second-order administrative division", "GNS:id": "319769", "int_name": "Al Mayfa\u2019ah", "name": "\u0627\u0644\u0645\u064a\u0641\u0639\u0629", "name:ar": "\u0627\u0644\u0645\u064a\u0641\u0639\u0629", "name:de": "Al Mayfa'ah", "name:en": "Al Mayfa'ah", "name:fr": "Al Mayfa'ah", "place": "town", "population": "926", "population:date": "2004-12-17", "source:name": "GNS", "source:population": "YCSO2004:20-9-24-1"}}, {"type": "node", "id": 1223205612, "lat": 14.271788, "lon": 44.786994, "tags": {"GNS:dsg_code": "PPLA2", "GNS:dsg_name": "captial of a second-order administrative division", "GNS:id": "10669504", "alt_name:ar": "\u0627\u0644\u0639\u0642\u0628\u0629", "int_name": "Al \u2018Aqabah", "name": "\u0627\u0644\u0639\u0642\u0628\u0629 \u0627\u0644\u062d\u0645\u0631\u0627\u0621", "name:ar": "\u0627\u0644\u0639\u0642\u0628\u0629 \u0627\u0644\u062d\u0645\u0631\u0627\u0621", "name:de": "Al `Aqabah", "name:en": "Al `Aqabah", "name:fr": "Al `Aqabah", "place": "town", "population": "1617", "population:date": "2004-12-17", "source:name": "GNS", "source:population": "YCSO2004:14-18-21-1"}}, {"type": "node", "id": 1223206056, "lat": 14.294963, "lon": 44.685041, "tags": {"GNS:dsg_code": "PPLA2", "GNS:dsg_name": "captial of a second-order administrative division", "GNS:id": "319897", "int_name": "Zakhim", "name": "\u0632\u062e\u0645", "name:ar": "\u0632\u062e\u0645", "name:de": "Zakhim", "name:en": "Zakhim", "name:fr": "Zakhim", "place": "town", "population": "2113", "population:date": "2004-12-17", "source:name": "GNS", "source:population": "YCSO2004:14-17-21-1"}}, {"type": "node", "id": 1223210811, "lat": 14.2922553, "lon": 44.4210386, "tags": {"GNS:dsg_code": "PPLX", "GNS:dsg_name": "section of populated place", "GNS:id": "-3188749", "int_name": "Kh\u0101w", "name": "\u062e\u0627\u0648", "name:ar": "\u062e\u0627\u0648", "name:de": "Khaw", "name:en": "Khaw", "name:fr": "Khaw", "place": "town", "population": "5324", "population:date": "2004-12-17", "source:name": "GNS", "source:population": "YCSO2004:11-2-22-3"}}, {"type": "node", "id": 1223210830, "lat": 14.2990691, "lon": 44.3794492, "tags": {"GNS:dsg_code": "PPLA2", "GNS:dsg_name": "captial of a second-order administrative division", "GNS:id": "-3193037", "alt_name": "Yerim", "int_name": "Yar\u012bm", "name": "\u064a\u0631\u064a\u0645", "name:ar": "\u064a\u0631\u064a\u0645", "name:de": "Yarim", "name:en": "Yarim", "name:fr": "Yarim", "name:uk": "\u042f\u0440\u0456\u043c", "place": "town", "population": "46498", "population:date": "2004-12-17", "source": "wikipedia", "source:name": "GNS", "source:name:uk": "https://1drv.ms/b/s!Ar-WXIFaX7UdgQuO6WpVrTr6YYsQ", "source:population": "YCSO2004:11-2-21-1", "wikidata": "Q568905", "wikipedia": "en:Yarim"}}, {"type": "node", "id": 1223215043, "lat": 14.2213588, "lon": 44.5870947, "tags": {"GNS:dsg_code": "PPLA2", "GNS:dsg_name": "captial of a second-order administrative division", "GNS:id": "319831", "int_name": "Ar Ra\u1e11mah", "name": "\u0627\u0644\u0631\u0636\u0645\u0629", "name:ar": "\u0627\u0644\u0631\u0636\u0645\u0629", "name:de": "Ar Radmah", "name:en": "Ar Radmah", "name:fr": "Ar Radmah", "place": "town", "population": "4422", "population:date": "2004-12-17", "source:name": "GNS", "source:population": "YCSO2004:11-3-21-1"}}, {"type": "node", "id": 1223217278, "lat": 14.0885129, "lon": 44.6707046, "tags": {"GNS:dsg_code": "PPLA2", "GNS:dsg_name": "captial of a second-order administrative division", "GNS:id": "319863", "alt_name": "Damt; \u062f\u0645\u062a", "int_name": "\u1e28amm\u0101m Damt", "name": "\u062d\u0645\u0627\u0645 \u062f\u0645\u062a", "name:ar": "\u062d\u0645\u0627\u0645 \u062f\u0645\u062a", "name:de": "Hammam Damt", "name:en": "Hammam Damt", "name:fr": "Hammam Damt", "place": "town", "population": "13590", "population:date": "2004-12-17", "source:name": "GNS", "source:population": "YCSO2004:30-2-21-1"}}, {"type": "node", "id": 1224301927, "lat": 14.4154238, "lon": 44.7844809, "tags": {"GNS:dsg_code": "PPLA2", "GNS:dsg_name": "captial of a second-order administrative division", "GNS:id": "-3189460", "alt_name": "Mal\u0101\u1e29;Malah;Malla\u1e29;Mallah", "int_name": "Mil\u0101\u1e29", "name": "\u0645\u0644\u0627\u062d", "name:ar": "\u0645\u0644\u0627\u062d", "name:de": "Milah", "name:en": "Milah", "name:es": "Milah", "name:fr": "Milah", "place": "town", "population": "7419", "population:date": "2004-12-17", "source:name": "GNS", "source:population": "YCSO2004:14-16-21-1"}}, {"type": "node", "id": 12407930304, "lat": 14.3427426, "lon": 44.8994715}, {"type": "node", "id": 12407930305, "lat": 14.3515066, "lon": 44.8957121}, {"type": "node", "id": 12407930306, "lat": 14.3826656, "lon": 44.855665}, {"type": "node", "id": 12407930307, "lat": 14.381814, "lon": 44.845157}, {"type": "node", "id": 12407930308, "lat": 14.3802933, "lon": 44.8382074}, {"type": "node", "id": 12407930309, "lat": 14.3800702, "lon": 44.8327441}, {"type": "node", "id": 12407930310, "lat": 14.3771098, "lon": 44.81851}, {"type": "node", "id": 12407930311, "lat": 14.3719594, "lon": 44.8100534}, {"type": "node", "id": 12407930312, "lat": 14.3750416, "lon": 44.8005919}, {"type": "node", "id": 12407930313, "lat": 14.360908, "lon": 44.7881999}, {"type": "node", "id": 12407930314, "lat": 14.3458407, "lon": 44.7879488}, {"type": "node", "id": 12407930315, "lat": 14.3398582, "lon": 44.787551}, {"type": "node", "id": 12407930316, "lat": 14.3333481, "lon": 44.7859602}, {"type": "node", "id": 12407930317, "lat": 14.3302249, "lon": 44.7825901}, {"type": "node", "id": 12407930318, "lat": 14.323674, "lon": 44.7821714}, {"type": "node", "id": 12407930319, "lat": 14.3256346, "lon": 44.8167148}, {"type": "node", "id": 12407930320, "lat": 14.3184412, "lon": 44.8139258}, {"type": "node", "id": 12407930321, "lat": 14.3169404, "lon": 44.8251456}, {"type": "way", "id": 1341374972, "nodes": [12407930304, 12407930305, 12407930306, 12407930307, 12407930308, 12407930309, 12407930310, 12407930311, 12407930312, 12407930313, 12407930314, 12407930315, 12407930316, 12407930317, 12407930318, 12407930319, 12407930320, 12407930321, 12407930304], "tags": {"name": "\u0642\u0631\u0646 \u0627\u0644\u0623\u0633\u062f", "name:ar": "\u0642\u0631\u0646 \u0627\u0644\u0623\u0633\u062f", "name:en": "Qarn Al-Asad", "place": "town", "population": "6941", "population:date": "01-01-2004", "residential": "urban", "source": "https://ar.m.wikipedia.org/wiki/%D9%82%D8%B1%D9%86_%D8%A7%D9%84%D8%A3%D8%B3%D8%AF_(%D8%A7%D9%84%D8%A8%D9%8A%D8%B6%D8%A7%D8%A1)", "source:population": "http://www.yemen-nic.info/sectors/popul/#%D8%AA%D9%88%D8%B2%D9%8A%D8%B9_%D8%A7%D9%84%D8%B3%D9%83%D8%A7%D9%86_%D8%AD%D8%B3%D8%A8_%D8%A7%D9%84%D8%AA%D9%82%D8%B3%D9%8A%D9%85%D8%A7%D8%AA_%D8%A7%D9%84%D8%A5%D8%AF%D8%A7%D8%B1%D9%8A%D9%80%D8%A9_:%C2%A0__"}}]}