{"version": 0.6, "generator": "Overpass API 0.7.62.4 2390de5a", "osm3s": {"timestamp_osm_base": "2025-01-08T07:04:26Z", "copyright": "The data included in this document is from www.openstreetmap.org. The data is made available under ODbL."}, "elements": [{"type": "node", "id": 299824735, "lat": 36.465084, "lon": 7.430647, "tags": {"alt_name": "\u06a8\u0627\u0644\u0645\u0629", "capital": "4", "name": "Guelma", "name:ar": "\u0642\u0627\u0644\u0645\u0629", "name:azb": "\u0642\u0627\u0644\u0645\u0647", "name:ber": "\u2d33\u2d30\u2d4d\u2d4e\u2d30", "name:de": "Guelma", "name:el": "\u0393\u03ba\u03bf\u03c5\u03ad\u03bb\u03bc\u03b1", "name:en": "Guelma", "name:fa": "\u0642\u0627\u0644\u0645\u0647", "name:fr": "Guelma", "name:kab": "Galma", "name:lt": "Gelma", "name:pnb": "\u0642\u0627\u0644\u0645\u06c1", "name:ru": "\u0413\u0435\u043b\u044c\u043c\u0430", "name:ur": "\u0642\u0627\u0644\u0645\u06c1", "name:zh": "\u76d6\u52d2\u9a6c", "old_name": "\u0645\u0627\u0644\u0642\u0627;\u0645\u0627\u0644\u0643\u0627", "old_name:ar": "\u0645\u0627\u0644\u0642\u0627;\u0645\u0627\u0644\u0643\u0627", "old_name:fr": "Calama;Malaca", "place": "city", "population": "157334", "population:date": "2008", "ref:ONS": "2401", "wikidata": "Q609871", "wikipedia": "ar:\u0642\u0627\u0644\u0645\u0629"}}, {"type": "node", "id": 425307289, "lat": 36.8307333, "lon": 7.4663888, "tags": {"name": "Berrahal", "name:ar": "\u0628\u0631\u062d\u0627\u0644", "name:ber": "\u2d31\u2d3b\u2d54\u2d54\u2d30\u2d43\u2d3b\u2d4d", "name:en": "Berrahal", "name:fr": "Berrahal", "name:kab": "Berre\u1e25\u1e25al", "place": "town", "population": "22631", "wikidata": "Q1649131", "wikimedia_commons": "Category:Barrahal", "wikipedia": "fr:Berrahal"}}, {"type": "node", "id": 425309456, "lat": 36.7331778, "lon": 7.2219657, "tags": {"name": "A\u00efn Charchar", "name:ar": "\u0639\u064a\u0646 \u0634\u0631\u0634\u0627\u0631", "name:ber": "\u2d44\u2d49\u2d4f \u2d5b\u2d3b\u2d54\u2d5b\u2d30\u2d54", "name:en": "Ain Charchar", "name:fr": "A\u00efn Charchar", "name:kab": "\u0190in Cercar", "place": "town", "population": "15725", "wikidata": "Q1648592", "wikimedia_commons": "Category:A\u00efn Charchar", "wikipedia": "fr:A\u00efn Charchar"}}, {"type": "node", "id": 443023870, "lat": 36.4704821, "lon": 7.7290561, "tags": {"name": "Boucheghouf", "name:ar": "\u0628\u0648\u0634\u0642\u0648\u0641", "name:ber": "\u2d31\u2d53 \u2d5b\u2d3b\u2d47\u2d47\u2d53\u2d3c", "name:en": "Boucheghouf", "name:fr": "Bouchegouf", "name:kab": "Buceqquf", "old_name": "Duvivier", "place": "town", "population": "25443", "wikidata": "Q2921360", "wikimedia_commons": "Category:Bouchegouf", "wikipedia": "fr:Bouchegouf"}}, {"type": "node", "id": 443024583, "lat": 36.6851201, "lon": 7.7470888, "tags": {"name": "Drean", "name:ar": "\u0627\u0644\u0630\u0631\u0639\u0627\u0646", "name:ber": "\u2d37\u2d37\u2d3b\u2d54\u2d44\u2d30\u2d4f", "name:en": "Drean", "name:fr": "Drean", "name:kab": "Der\u025ban", "old_name": "Mondovi", "place": "town", "population": "37686", "wikidata": "Q1924629", "wikipedia": "fr:Dr\u00e9an"}}, {"type": "node", "id": 443024715, "lat": 36.755843, "lon": 7.7407291, "tags": {"name": "Cheba\u00efta Mokhtar", "name:ar": "\u0634\u0628\u0627\u064a\u0637\u0629 \u0645\u062e\u062a\u0627\u0631", "name:ber": "\u2d5b\u2d31\u2d30\u2d62\u2d5f\u2d30 \u2d4e\u2d53\u2d45\u2d5f\u2d30\u2d54", "name:en": "Chebaita Mokhtar", "name:fr": "Cheba\u00efta Mokhtar", "name:kab": "Cbay\u1e6da Mux\u1e6dar", "place": "town", "population": "23135", "wikidata": "Q2961908", "wikipedia": "fr:Chebaita Mokhtar"}}, {"type": "node", "id": 443025997, "lat": 36.8039598, "lon": 7.7371328, "tags": {"name": "El Hadjar", "name:ar": "\u0627\u0644\u062d\u062c\u0627\u0631", "name:ber": "\u2d4d\u2d43\u2d3b\u2d35\u2d35\u2d30\u2d54", "name:en": "El Hadjar", "name:fr": "El Hadjar", "name:kab": "L\u1e25e\u01e7\u01e7ar", "place": "town"}}, {"type": "node", "id": 443125684, "lat": 36.4634182, "lon": 7.4763788, "tags": {"name": "Belkheir", "name:ar": "\u0628\u0644\u062e\u064a\u0631", "name:ber": "\u2d31\u2d3b\u2d4d\u2d45\u2d49\u2d54", "name:en": "Belkheir", "name:fr": "Belkheir", "name:kab": "Belxir", "place": "town", "population": "17649", "wikidata": "Q2894563", "wikipedia": "fr:Belkheir"}}, {"type": "node", "id": 443126471, "lat": 36.4604068, "lon": 7.5143095, "tags": {"name": "Boumahra Ahmed", "name:ar": "\u0628\u0648\u0645\u0647\u0631\u0629 \u0623\u062d\u0645\u062f", "name:ber": "\u2d31\u2d53\u2d4e\u2d3b\u2d40\u2d54\u2d30 \u2d43\u2d4e\u2d3b\u2d37", "name:en": "Boumahra Ahmed", "name:fr": "Boumahra Ahmed", "name:kab": "Bu Mehra \u1e24med", "place": "town", "population": "18706", "wikidata": "Q1649113", "wikipedia": "fr:Boumahra Ahmed"}}, {"type": "node", "id": 443132308, "lat": 36.5057901, "lon": 7.4423038, "tags": {"alt_name:kab": "Hilyubulis", "name": "Heliopolis", "name:ar": "\u06be\u064a\u0644\u064a\u0648\u0628\u0648\u0644\u064a\u0633", "name:ber": "\u2d40\u2d49\u2d4d\u2d62\u2d53\u2d31\u2d53\u2d4d\u2d49\u2d59", "name:en": "Heliopolis", "name:fr": "H\u00e9liopolis", "name:kab": "Heliopolis", "old_name": "\u0645\u0635\u0631 \u0627\u0644\u062c\u062f\u064a\u062f\u0629", "place": "town", "population": "26328"}}, {"type": "node", "id": 461981724, "lat": 36.7032027, "lon": 7.3040428, "tags": {"name": "Bekkouche Lakhdar", "name:ar": "\u0628\u0643\u0648\u0634 \u0644\u062e\u0636\u0631", "name:ber": "\u2d31\u2d3b\u2d3d\u2d3d\u2d53\u2d5b \u2d4d\u2d3b\u2d45\u2d39\u2d3b\u2d54", "name:en": "Bekouche Lakhdar", "name:fr": "Bekouche Lakhdar", "name:kab": "Bekkuc Lex\u1e0der", "place": "town"}}, {"type": "node", "id": 999885679, "lat": 36.4602654, "lon": 7.2676947, "tags": {"name": "Hammam Debagh", "name:ar": "\u062d\u0645\u0627\u0645 \u062f\u0628\u0627\u063a", "name:ber": "\u2d43\u2d3b\u2d4e\u2d4e\u2d30\u2d4e \u2d37\u2d3b\u2d31\u2d31\u2d30\u2d56", "name:en": "Hammam Debagh", "name:fr": "Hammam Debagh", "name:kab": "\u1e24emmam Debba\u0263", "old_name": "Hammam Meskhoutine", "place": "town", "population": "16391", "wikidata": "Q3126494", "wikipedia": "fr:Hammam Debagh"}}, {"type": "node", "id": 4212497589, "lat": 36.8214092, "lon": 7.7206192, "tags": {"name": "Sidi Amar", "name:ar": "\u0633\u064a\u062f\u064a \u0639\u0645\u0627\u0631", "name:ber": "\u2d59\u2d49\u2d37\u2d49 \u2d30\u2d4e\u2d4e\u2d30\u2d54", "name:en": "Sidi Amar", "name:fr": "Sidi Amar", "name:kab": "Sidi \u0190emmar", "place": "town", "population": "83254", "wikidata": "Q3503823", "wikimedia_commons": "Category:Sidi Amar (Annaba)", "wikipedia": "fr:Sidi Amar (Annaba)"}}, {"type": "node", "id": 11164629632, "lat": 36.6188976, "lon": 7.6972113, "tags": {"name": "Ain Ben Beida", "name:arq": "\u0639\u064a\u0646 \u0628\u0646 \u0628\u064a\u0636\u0627\u0621", "name:fr": "Ain Ben Beida", "note": "Population now is estimated to more than 30000", "place": "town", "population": "9492", "population:date": "2008-01-01", "source:population": "wikipedia"}}]}