{"version": 0.6, "generator": "Overpass API 0.7.62.4 2390de5a", "osm3s": {"timestamp_osm_base": "2025-01-08T06:32:48Z", "copyright": "The data included in this document is from www.openstreetmap.org. The data is made available under ODbL."}, "elements": [{"type": "node", "id": 2488415590, "lat": 34.083784, "lon": 42.3605358, "tags": {"alt_name": "\u0627\u0644\u062d\u0642\u0644\u0627\u0646\u064a\u0629", "capital": "7", "int_name": "Al Haqlaniyah - \u0627\u0644\u062d\u0642\u0644\u0627\u0646\u064a\u0629", "name": "\u0627\u0644\u062d\u0642\u0644\u0627\u0646\u064a\u0629", "name:ar": "\u0627\u0644\u062d\u0642\u0644\u0627\u0646\u064a\u0629", "name:de": "Haqlaniyah", "name:en": "Haqlaniyah", "name:fr": "Haqlaniyah", "name:ml": "\u0d39\u0d16\u0d4d\u0d32\u0d3e\u0d28\u0d3f\u0d2f", "place": "town", "population": "17947", "population:date": "2010", "source:population": "https://ru.wikipedia.org/wiki/%D0%AD%D0%BB%D1%8C-%D0%A5%D0%B0%D0%BA%D0%BB%D0%B0%D0%BD%D0%B8%D1%8F", "wikidata": "Q5653413", "wikipedia": "en:Haqlaniyah"}}, {"type": "node", "id": 2488415798, "lat": 34.095793, "lon": 42.388824, "tags": {"alt_name": "Barwana, Barw\u0101nah, N\u0101\u1e29iyat Barw\u0101nah, \u0646\u0627\u062d\u064a\u0629 \u0628\u0631\u0648\u0627\u0646\u0629, Barwana, Barwanah, Nahiyat Barwanah, \u0646\u0627\u062d\u064a\u0629 \u0628\u0631\u0648\u0627\u0646\u0629", "capital": "7", "int_name": "Barwana, \u0628\u0631\u0648\u0627\u0646\u0629", "name": "\u0628\u0631\u0648\u0627\u0646\u0629", "name:ar": "\u0628\u0631\u0648\u0627\u0646\u0629", "name:de": "Barwana", "name:en": "Barwana", "name:fr": "Barwana", "name:ml": "\u0d2c\u0d7c\u0d35\u0d3e\u0d28", "place": "town"}}, {"type": "node", "id": 2488415849, "lat": 34.1352594, "lon": 42.3778367, "tags": {"alt_name:ko": "\ud558\ub514\uc0ac", "capital": "6", "int_name": "Haditha - \u062d\u062f\u064a\u062b\u0629", "name": "\u062d\u062f\u064a\u062b\u0629", "name:ar": "\u062d\u062f\u064a\u062b\u0629", "name:ar1": "\u0642\u0636\u0627\u0621 \u062d\u062f\u064a\u062b\u0629", "name:bn": "\u09b9\u09be\u09a6\u09bf\u09b8\u09be", "name:ckb": "\u062d\u06d5\u062f\u06cc\u0633\u06d5", "name:de": "Haditha", "name:en": "Haditha", "name:fr": "Haditha", "name:he": "\u05d7\u05d3\u05d9\u05d8\u05d4", "name:hi": "\u0939\u0926\u0940\u0925\u093e", "name:ko": "\ud558\ub514\ud0c0", "name:ku": "Hed\u00eese", "name:ml": "\u0d39\u0d26\u0d40\u0d38", "name:ru": "\u042d\u043b\u044c-\u0425\u0430\u0434\u0438\u0442\u0430", "place": "city", "wikidata": "Q944368"}}]}