{"version": 0.6, "generator": "Overpass API 0.7.62.4 2390de5a", "osm3s": {"timestamp_osm_base": "2025-01-08T06:22:27Z", "copyright": "The data included in this document is from www.openstreetmap.org. The data is made available under ODbL."}, "elements": [{"type": "node", "id": 1224148234, "lat": 14.900749, "lon": 43.205689, "tags": {"GNS:dsg_code": "PPL", "GNS:dsg_name": "populated place", "GNS:id": "-3190833", "alt_name": "Qutay`; Qu\u0163ay\u2018; Qutay`ah; Qu\u0163ay\u2018ah; Qa\u0163\u012b\u2018; Kotaya; Qutai\u2019a; Qutai'a; Qut\u016b\u2018ah; Qati`; Qutu`ah", "int_name": "Al Qu\u0163ay\u2018", "name": "\u0627\u0644\u0642\u0637\u064a\u0639", "name:ar": "\u0627\u0644\u0642\u0637\u064a\u0639", "name:de": "Al Qutay`", "name:en": "Al Qutay`", "name:fr": "Al Qutay`", "place": "town", "population": "14990", "population:date": "2004-12-17", "source:name": "GNS", "source:population": "YCSO2004:18-13-23-2"}}, {"type": "node", "id": 1224156567, "lat": 15.058353, "lon": 43.28506, "tags": {"GNS:dsg_code": "PPLA2", "GNS:dsg_name": "captial of a second-order administrative division", "GNS:id": "-3185102", "alt_name": "B\u00e2djil; B\u0101gil; Badjil; Bagil", "int_name": "B\u0101jil", "name": "\u0628\u0627\u062c\u0644", "name:ar": "\u0628\u0627\u062c\u0644", "name:de": "Bajil", "name:en": "Bajil", "name:fr": "Bajil", "place": "town", "population": "55016", "population:date": "2004-12-17", "source:name": "GNS", "source:population": "YCSO2004:18-10-21-1", "wikidata": "Q20306004"}}, {"type": "node", "id": 1227083975, "lat": 15.2491797, "lon": 43.2552401, "tags": {"GNS:dsg_code": "PPL", "GNS:dsg_name": "populated place", "GNS:id": "224807", "alt_name": "Al Kadan; Hardha; Al Kad\u0101n", "int_name": "Al Kadan", "name": "\u0627\u0644\u0643\u062f\u0646", "name:ar": "\u0627\u0644\u0643\u062f\u0646", "name:de": "Al Kadan", "name:en": "Al Kadan", "name:fr": "Al Kadan", "place": "town", "population": "9853", "population:date": "2004-12-17", "source:name": "GNS", "source:population": "YCSO2004:18-9-22-2"}}]}