{"version": 0.6, "generator": "Overpass API 0.7.62.4 2390de5a", "osm3s": {"timestamp_osm_base": "2025-01-08T07:02:18Z", "copyright": "The data included in this document is from www.openstreetmap.org. The data is made available under ODbL."}, "elements": [{"type": "node", "id": 299701636, "lat": 36.1529057, "lon": 5.6911588, "tags": {"int_name": "El Eulma", "name": "El Eulma", "name:ar": "\u0627\u0644\u0639\u0644\u0645\u0629", "name:ber": "\u2d4d\u2d44\u2d3b\u2d4d\u2d4e\u2d30", "name:en": "El Eulma", "name:fr": "El Eulma", "name:he": "\u05d0\u05dc \u05e2\u05d5\u05dc\u05de\u05d4", "name:kab": "L\u025belma", "name:lt": "Elma", "name:ru": "\u042d\u043b\u044c-\u042d\u0443\u043b\u043c\u0430", "name:zh": "\u6b27\u52d2\u9a6c", "old_name": "Saint Arnaud", "place": "city", "population": "145380", "population:date": "2008", "source:population": "\u2191 \u00ab Wilaya de S\u00e9tif : r\u00e9partition de la population r\u00e9sidente des m\u00e9nages ordinaires et collectifs, selon la commune de r\u00e9sidence et la dispersion \u00bb [archive]. Donn\u00e9es du recensement g\u00e9n\u00e9ral de la population et de l'habitat de 2008 sur le site de l'ONS.", "wikidata": "Q401747", "wikimedia_commons": "Category:El Eulma", "wikipedia": "fr:El Eulma"}}, {"type": "node", "id": 416767390, "lat": 36.1192994, "lon": 5.9857948, "tags": {"name": "Tadjenanet", "name:ar": "\u062a\u0627\u062c\u0646\u0627\u0646\u062a", "name:ber": "\u2d5c\u2d3b\u2d37\u2d4a\u2d3b\u2d4f\u2d30\u2d4f\u2d3b\u2d5c", "name:en": "Tadjenanet", "name:fr": "Tadjenanet", "name:kab": "Ta\u01e7nant", "place": "town", "population": "62000", "population:date": "2008", "ref:ONS": "4308", "wikidata": "Q2215457", "wikipedia": "fr:Tadjenanet"}}, {"type": "node", "id": 461906180, "lat": 36.4073812, "lon": 5.9419603, "tags": {"name": "Ferdjioua", "name:ar": "\u0641\u0631\u062c\u064a\u0648\u0629", "name:ber": "\u2d3c\u2d3b\u2d54\u2d35\u2d49\u2d61\u2d30", "name:en": "Ferdjioua", "name:fr": "Ferdjioua", "name:kab": "Fer\u01e7iwa", "old_name": "Fedj M'zala", "old_name:ar": "\u0641\u062c \u0645\u0632\u0627\u0644\u0629", "place": "town", "population": "50167", "wikidata": "Q1649348", "wikimedia_commons": "Category:Ferdjioua", "wikipedia": "fr:Ferdjioua"}}, {"type": "node", "id": 501761521, "lat": 36.3146187, "lon": 5.7371562, "tags": {"name": "Djemila", "name:ar": "\u062c\u0645\u064a\u0644\u0629", "name:ber": "\u2d35\u2d4e\u2d49\u2d4d\u2d30", "name:fr": "Djemila", "name:kab": "\u01e6milla", "name:la": "Cuicul", "place": "town", "population": "24145"}}, {"type": "node", "id": 501761537, "lat": 36.3959678, "lon": 5.8941024, "tags": {"name": "A\u00efn Beida Harriche", "name:ar": "\u0639\u064a\u0646 \u0627\u0644\u0628\u064a\u0636\u0627\u0621 \u062d\u0631\u064a\u0634", "name:ber": "\u2d44\u2d49\u2d4f \u2d4d\u2d31\u2d30\u2d62\u2d39\u2d30 \u2d43\u2d3b\u2d54\u2d54\u2d49\u2d5b", "name:en": "Ain Beida Harriche", "name:fr": "A\u00efn Beida Harriche", "name:kab": "\u0190in Lbay\u1e0da \u1e24erric", "place": "town", "population": "21013", "wikidata": "Q2876261", "wikimedia_commons": "Category:A\u00efn Beida Harriche", "wikipedia": "fr:A\u00efn Beida Harriche"}}, {"type": "node", "id": 3050365307, "lat": 36.1303925, "lon": 5.8392064, "tags": {"name": "Bir El Arch", "name:ar": "\u0628\u0626\u0631 \u0627\u0644\u0639\u0631\u0634", "name:ber": "\u2d31\u2d49\u2d54 \u2d4d\u2d44\u2d3b\u2d54\u2d5b", "name:fr": "Bir El Arch", "name:kab": "Bir L\u025berc", "place": "town", "population": "24995", "population:date": "2008", "wikidata": "Q2904333", "wikipedia": "fr:Bir El Arch"}}]}