{"version": 0.6, "generator": "Overpass API 0.7.62.4 2390de5a", "osm3s": {"timestamp_osm_base": "2025-01-08T06:28:44Z", "copyright": "The data included in this document is from www.openstreetmap.org. The data is made available under ODbL."}, "elements": [{"type": "node", "id": 2337736413, "lat": 34.2507231, "lon": 36.0099915, "tags": {"alt_name": "Becharre;Bcharre", "capital": "4", "name": "\u0628\u0634\u0631\u064a", "name:ar": "\u0628\u0634\u0631\u064a", "name:de": "Bischarri", "name:el": "\u039c\u03c0\u03c3\u03b1\u03c1\u03af", "name:en": "Bsharri", "name:es": "Bisharri", "name:fr": "Bcharr\u00e9", "name:he": "\u05d1\u05e9\u05e8\u05d9", "name:hr": "B\u0161ari", "name:ml": "\u0d2c\u0d41\u0d37\u0d30\u0d4d\u0d30\u0d3f", "name:pl": "Baszarri", "name:ru": "\u0411\u0430\u0448\u0430\u0440\u0440\u0438", "name:sl": "B\u0161ari", "name:tr": "Bi\u015ferri", "name:uk": "\u0411\u0456\u0448\u0430\u0440\u0456", "place": "town", "postal_code": "1377", "wikidata": "Q181167", "wikipedia": "en:Bsharri"}}, {"type": "node", "id": 5037241110, "lat": 33.9480415, "lon": 36.0322487, "tags": {"alt_name:ar": "\u0643\u0641\u0631\u062f\u0628\u0634", "alt_name:en": "Kfar Dabach", "name": "\u0643\u0641\u0631 \u062f\u0628\u0634", "name:ar": "\u0643\u0641\u0631 \u062f\u0628\u0634", "name:en": "Kfar Dabash", "name:fr": "Kfar Dabach", "name:ml": "\u0d15\u0d2b\u0d7c\u0d26\u0d2c\u0d37\u0d4d", "place": "town", "wikidata": "Q12235678", "wikipedia": "ar:\u0643\u0641\u0631\u062f\u0628\u0634"}}, {"type": "node", "id": 5463227721, "lat": 34.1250724, "lon": 36.1312578, "tags": {"name": "\u062f\u064a\u0631 \u0627\u0644\u0623\u062d\u0645\u0631", "name:ar": "\u062f\u064a\u0631 \u0627\u0644\u0623\u062d\u0645\u0631", "name:de": "Deir El Ahmar", "name:en": "Deir El Ahmar", "name:es": "Deir El Ahmar", "name:fr": "Deir El Ahmar", "name:ml": "\u0d26\u0d46\u0d2f\u0d4d\u0d7c \u0d05\u0d7d-\u0d05\u0d39\u0d4d\u0d2e\u0d7c", "place": "town", "wikidata": "Q4118736", "wikipedia": "ar:\u062f\u064a\u0631 \u0627\u0644\u0623\u062d\u0645\u0631"}}]}