{"version": 0.6, "generator": "Overpass API 0.7.62.4 2390de5a", "osm3s": {"timestamp_osm_base": "2025-01-08T06:30:42Z", "copyright": "The data included in this document is from www.openstreetmap.org. The data is made available under ODbL."}, "elements": [{"type": "node", "id": 237489444, "lat": 30.3917664, "lon": 47.7027042, "tags": {"capital": "6", "int_name": "Al Zubayr - \u0627\u0644\u0632\u0628\u064a\u0631", "name": "\u0627\u0644\u0632\u0628\u064a\u0631", "name:ar": "\u0627\u0644\u0632\u0628\u064a\u0631", "name:bn": "\u0986\u09b2 \u099c\u09c1\u09ac\u09be\u09df\u09c7\u09b0", "name:de": "Zubair", "name:en": "Az Zubayr", "name:es": "Az Zubayr", "name:et": "Az-Zubayr", "name:eu": "Zubair", "name:fa": "\u0632\u0628\u06cc\u0631", "name:fr": "Az Zubayr", "name:he": "\u05d0\u05dc \u05d6\u05d5\u05d1\u05d9\u05e8", "name:hr": "Az-Zubajr", "name:ja": "\u30ba\u30d0\u30a4\u30eb", "name:ml": "\u0d05\u0d7d-\u0d38\u0d41\u0d2c\u0d48\u0d7c", "name:pl": "Az-Zubajr", "name:ru": "\u042d\u0437-\u0417\u0443\u0431\u0430\u0439\u0440", "place": "city", "population": "370000", "population:date": "2014", "source:population": "https://ar.wikipedia.org/wiki/%D8%A7%D9%84%D8%B2%D8%A8%D9%8A%D8%B1_(%D8%A7%D9%84%D8%B9%D8%B1%D8%A7%D9%82)", "wikidata": "Q227509", "wikipedia": "en:Az Zubayr"}}, {"type": "node", "id": 428339490, "lat": 30.4952371, "lon": 47.8090981, "tags": {"alt_name:en": "Al Basrah", "capital": "4", "int_name": "Al- Basrah - \u0627\u0644\u0628\u0635\u0631\u0629", "name": "\u0627\u0644\u0628\u0635\u0631\u0629", "name:ar": "\u0628\u0635\u0631\u0629", "name:bn": "\u09ac\u09b8\u09b0\u09be", "name:ckb": "\u0628\u06d5\u0633\u0631\u06d5", "name:cs": "Basra", "name:de": "Basra", "name:el": "\u0392\u03b1\u03c3\u03cc\u03c1\u03b1", "name:en": "Basra", "name:es": "Basora", "name:et": "Basra", "name:eu": "Basra", "name:fa": "\u0628\u0635\u0631\u0647", "name:fi": "Basra", "name:fr": "Bassorah", "name:he": "\u05d1\u05e6\u05e8\u05d4", "name:hi": "\u092c\u0938\u0930\u093e", "name:hr": "Basra", "name:hu": "Baszra", "name:it": "B\u00e0ssora", "name:ja": "\u30d0\u30b9\u30e9", "name:ku": "Besre", "name:ml": "\u0d2c\u0d38\u0d4d\u0d30", "name:pl": "Basra", "name:pt": "Ba\u00e7or\u00e1", "name:ru": "\u0411\u0430\u0441\u0440\u0430", "name:sk": "Basra", "name:te": "\u0c2c\u0c38\u0c4d\u0c30\u0c3e\u0c39\u0c4d", "name:tr": "Basra", "name:tt": "\u0411\u04d9\u0441\u0440\u04d9", "name:uk": "\u0411\u0430\u0441\u0440\u0430", "place": "city", "population": "2150000", "wikidata": "Q48195", "wikipedia": "en:Basra"}}, {"type": "node", "id": 2487913443, "lat": 30.586446, "lon": 47.760937, "tags": {"alt_name": "\u0627\u0644\u0628\u062f\u0631\u0627\u0646", "int_name": "Al Badr\u0101n, \u0627\u0644\u0628\u062f\u0631\u0627\u0646, Al Badran, \u0627\u0644\u0628\u062f\u0631\u0627\u0646", "is_in": "Iraq , \u062c\u0645\u0647\u0648\u0631\u064a\u0629 \u0627\u0644\u0639\u0631\u0627\u0642", "name": "\u0627\u0644\u0628\u062f\u0631\u0627\u0646", "name:ar": "\u0627\u0644\u0628\u062f\u0631\u0627\u0646", "name:ar1": "\u0627\u0644\u0628\u062f\u0631\u0627\u0646", "name:de": "Al Badran", "name:en": "Al Badran", "name:fr": "Al Badran", "name:ml": "\u0d05\u0d7d-\u0d2c\u0d26\u0d4d\u0d30\u0d3e\u0d7b", "place": "town"}}, {"type": "node", "id": 2487918582, "lat": 30.4474719, "lon": 47.9757737, "tags": {"alt_name": "\u0623\u0628\u0648 \u0627\u0644\u062e\u0635\u064a\u0628", "capital": "6", "int_name": "Abul Khasib - \u0627\u0628\u0648 \u0627\u0644\u062e\u0635\u064a\u0628", "is_in": "Iraq , \u062c\u0645\u0647\u0648\u0631\u064a\u0629 \u0627\u0644\u0639\u0631\u0627\u0642", "is_in:country": "Iraq", "is_in:country_code": "IQ", "name": "\u0623\u0628\u0648 \u0627\u0644\u062e\u0635\u064a\u0628", "name:ar": "\u0623\u0628\u0648 \u0627\u0644\u062e\u0635\u064a\u0628", "name:de": "Abu al Khasib", "name:en": "Abu Al-Khaseeb", "name:es": "Abu al Khasib", "name:fr": "Abu al Khasib", "name:ja": "\u30a2\u30d3\u30e5\u30fc \u30a2\u30eb\u30fb\u30ab\u30b7\u30d6", "name:ml": "\u0d05\u0d2c\u0d41\u0d7d \u0d16\u0d38\u0d40\u0d2c\u0d4d", "name:ru": "\u0410\u0431\u0443-\u044d\u043b\u044c-\u0425\u0430\u0441\u0438\u0431", "place": "town", "population": "240300", "population:date": "2012", "source:population": "https://ar.wikipedia.org/wiki/%D8%A3%D8%A8%D9%88_%D8%A7%D9%84%D8%AE%D8%B5%D9%8A%D8%A8", "wikidata": "Q2618523", "wikipedia": "en:Abu Al-Khaseeb"}}, {"type": "node", "id": 2487918798, "lat": 30.527081, "lon": 47.860848, "tags": {"alt_name": "\u0627\u0644\u062a\u0646\u0648\u0645\u0629", "int_name": "At Tann\u016bmah, Tann\u016bma, Tann\u016bmah, Tan\u016bma, Tan\u016bmah, \u0627\u0644\u062a\u0646\u0648\u0645\u0629, At Tannumah, Tannuma, Tannumah, Tanuma, Tanumah, \u0627\u0644\u062a\u0646\u0648\u0645\u0629", "is_in": "Iraq , \u062c\u0645\u0647\u0648\u0631\u064a\u0629 \u0627\u0644\u0639\u0631\u0627\u0642", "name": "\u0627\u0644\u062a\u0646\u0648\u0645\u0629", "name:ar": "\u0627\u0644\u062a\u0646\u0648\u0645\u0629", "name:ar1": "\u0627\u0644\u062a\u0646\u0648\u0645\u0629", "name:de": "At Tannumah", "name:en": "At Tannumah", "name:fr": "At Tannumah", "name:ml": "\u0d24\u0d28\u0d4d\u0d28\u0d42\u0d2e", "name:ru": "\u042d\u0442-\u0422\u0430\u043d\u043d\u0443\u043c\u0430", "place": "town"}}, {"type": "node", "id": 2487919053, "lat": 30.5325876, "lon": 47.857481, "tags": {"alt_name": "\u0634\u0637 \u0627\u0644\u0639\u0631\u0628", "capital": "6", "int_name": "\u0634\u0637 \u0627\u0644\u0639\u0631\u0628, Shatt al Arab", "is_in": "Iraq , \u062c\u0645\u0647\u0648\u0631\u064a\u0629 \u0627\u0644\u0639\u0631\u0627\u0642", "is_in:country_code": "IQ", "name": "\u0634\u0637 \u0627\u0644\u0639\u0631\u0628", "name:ar": "\u0634\u0637 \u0627\u0644\u0639\u0631\u0628", "name:de": "Schatt al-Arab", "name:en": "Shatt al Arab", "name:es": "Shatt al-Arab", "name:fr": "Chatt-el-Arab", "name:ml": "\u0d37\u0d24\u0d4d\u0d24\u0d4d \u0d05\u0d7d-\u0d05\u0d31\u0d2c\u0d4d", "place": "town"}}, {"type": "node", "id": 4142777089, "lat": 30.5485616, "lon": 47.7646394, "tags": {"name": "5 \u0645\u064a\u0644", "place": "town"}}, {"type": "node", "id": 6872626785, "lat": 30.5316618, "lon": 47.8736893, "tags": {"addr:street": "\u0634\u0627\u0631\u0639 \u0627\u0644\u0644\u0648\u0627\u0621", "name": "\u0627\u0644\u0628\u064a\u0628\u0627\u0646 - \u0627\u0644\u0627\u0643\u0648\u0627\u062a \u0627\u0644\u062b\u0627\u0644\u062b\u0629", "place": "town"}}]}