{"version": 0.6, "generator": "Overpass API 0.7.62.4 2390de5a", "osm3s": {"timestamp_osm_base": "2025-01-08T06:15:30Z", "copyright": "The data included in this document is from www.openstreetmap.org. The data is made available under ODbL."}, "elements": [{"type": "node", "id": 1236740006, "lat": 29.9784008, "lon": 40.2047701, "tags": {"GNS:dsg_code": "PPLA", "GNS:dsg_name": "captial of a first-order administrative division", "GNS:id": "-3098949", "alt_name": "Sakakah;Sak\u0101kah;Skaka;Sk\u00e2ka", "capital": "4", "int_name": "Sak\u0101k\u0101", "name": "\u0633\u0643\u0627\u0643\u0627", "name:ar": "\u0633\u0643\u0627\u0643\u0627", "name:ar_dmg": "Sak\u0101k\u0101", "name:ckb": "\u0633\u06d5\u06a9\u0627\u06a9\u0627", "name:de": "Sakaka", "name:en": "Sakaka", "name:fr": "Sakaka", "name:he": "\u05e1\u05d0\u05e7\u05d0\u05e7\u05d4", "name:hi": "\u0938\u0915\u0915\u094d\u0915\u093e", "name:ko": "\uc0ac\uce74\uce74", "name:ku": "Sekaka", "name:ml": "\u0d38\u0d15\u0d4d\u0d15\u0d3e\u0d15\u0d4d\u0d15", "name:ru": "\u0421\u0430\u043a\u0430\u043a\u0430", "name:uk": "\u0421\u0430\u043a\u0430\u043a\u0430", "place": "city", "population": "150257", "population:date": "2010", "source:population": "stats.gov.sa", "wikidata": "Q27469", "wikipedia": "en:Sakakah"}}]}