{"version": 0.6, "generator": "Overpass API 0.7.62.4 2390de5a", "osm3s": {"timestamp_osm_base": "2025-01-08T06:24:35Z", "copyright": "The data included in this document is from www.openstreetmap.org. The data is made available under ODbL."}, "elements": [{"type": "node", "id": 1719474006, "lat": 24.3445577, "lon": 56.7424766, "tags": {"alt_name": "\u0627\u0644\u0635\u062d\u0627\u0631", "int_name": "As Soh\u0101r, Al Sohar, Soh\u0101r, A\u015f \u015eu\u1e29\u0101r, \u015eu\u1e29\u0101r, As Sohar, Al Sohar, Sohar, As Suhar, Suhar", "is_in:region": "Al Batinah North", "name": "\u0635\u062d\u0627\u0631", "name:ar": "\u0635\u062d\u0627\u0631", "name:ar1": "\u0627\u0644\u0635\u062d\u0627\u0631", "name:cs": "Suh\u00e1r", "name:de": "Suhar", "name:en": "Sohar", "name:fr": "Sohar", "name:he": "\u05e1\u05d5\u05d4\u05e8", "name:hi": "\u0938\u094b\u0939\u093e\u0930", "name:ml": "\u0d38\u0d4b\u0d39\u0d3e\u0d7c", "name:ru": "\u0421\u0443\u0445\u0430\u0440", "name:uk": "C\u0443\u0445\u0430\u0440", "name:zh": "\u8607\u54c8\u723e", "place": "city", "population": "221605", "wikidata": "Q943270", "wikipedia": "ar:\u0635\u062d\u0627\u0631"}}, {"type": "node", "id": 1719504013, "lat": 24.3121829, "lon": 56.7781935, "tags": {"alt_name": "\u0635\u0648\u064a\u062d\u0631\u0629", "int_name": "Sawaiharah, Suwaihara, \u015euway\u1e29irah, Sawaiharah, Suwaihara, Suwayhirah", "name": "\u0627\u0644\u0635\u0648\u064a\u062d\u0631\u0629", "name:ar": "\u0627\u0644\u0635\u0648\u064a\u062d\u0631\u0629", "name:ar1": "\u0635\u0648\u064a\u062d\u0631\u0629", "name:de": "Sawaiharah", "name:en": "Sawaiharah", "name:fr": "Sawaiharah", "place": "town"}}, {"type": "node", "id": 1720860685, "lat": 24.0475968, "lon": 56.9792719, "tags": {"alt_name": "\u062d\u0641\u064a\u062a", "int_name": "\u1e28af\u012bt, Hafit", "name": "\u062d\u0641\u064a\u062a", "name:ar": "\u062d\u0641\u064a\u062a", "name:ar1": "\u062d\u0641\u064a\u062a", "name:de": "Hafit", "name:en": "Hafit", "name:fr": "Hafit", "name:ml": "\u0d39\u0d2b\u0d40\u0d24\u0d4d\u0d24\u0d4d", "name:uk": "\u0425\u0430\u0444\u0456\u0442", "place": "town"}}, {"type": "node", "id": 2503692570, "lat": 24.142469, "lon": 56.8757899, "tags": {"is_in:country": "Oman", "is_in:country_code": "OM", "name": "\u0635\u062d\u0645", "name:ar": "\u0635\u062d\u0645", "name:cs": "Saham", "name:de": "Saham", "name:en": "Saham", "name:es": "Saham", "name:fr": "Saham", "name:he": "\u05e1\u05d0\u05d4\u05d0\u05dd", "name:ml": "\u0d38\u0d39\u0d02", "place": "city", "population": "140000", "wikidata": "Q3461496", "wikipedia": "en:Saham"}}]}