{"version": 0.6, "generator": "Overpass API 0.7.62.4 2390de5a", "osm3s": {"timestamp_osm_base": "2025-01-08T06:03:14Z", "copyright": "The data included in this document is from www.openstreetmap.org. The data is made available under ODbL."}, "elements": [{"type": "node", "id": 1236688965, "lat": 18.546389, "lon": 42.048889, "tags": {"GNS:dsg_code": "PPL", "GNS:dsg_name": "populated place", "GNS:id": "-3097518", "alt_name": "\u0645\u062d\u0627\u0626\u0644", "capital": "6", "int_name": "Mu\u1e29\u0101yil", "name": "\u0645\u062d\u0627\u064a\u0644 \u0639\u0633\u064a\u0631", "name:ar": "\u0645\u062d\u0627\u064a\u0644 \u0639\u0633\u064a\u0631", "name:de": "Muhayil", "name:en": "Muhayil", "name:fr": "Muhayil", "name:ml": "\u0d2e\u0d41\u0d39\u0d3e\u0d2f\u0d3f\u0d7d", "place": "city", "population": "56953", "population:date": "2010", "source:population": "stats.gov.sa", "wikipedia": "ar:\u0645\u062d\u0627\u064a\u0644 \u0639\u0633\u064a\u0631"}}, {"type": "node", "id": 5889480125, "lat": 18.953526, "lon": 42.17026, "tags": {"GNS:dsg_code": "PPL", "GNS:dsg_name": "populated place", "GNS:id": "11248559", "capital": "6", "int_name": "Tan\u016bmah", "name": "\u062a\u0646\u0648\u0645\u0629", "name:ar": "\u062a\u0646\u0648\u0645\u0629", "name:en": "Tanumah", "name:fr": "Tanomah", "name:ml": "\u0d24\u0d28\u0d41\u0d2e", "place": "town", "population": "14684", "population:date": "2010", "source:name": "GNS", "source:population": "stats.gov.sa", "wikidata": "Q3551030", "wikipedia": "ar:\u062a\u0646\u0648\u0645\u0629 (\u0639\u0633\u064a\u0631)"}}, {"type": "node", "id": 6733316507, "lat": 18.9380322, "lon": 41.9464041, "tags": {"alt_name": "Bariq", "capital": "6", "int_name": "Bariq", "name": "\u0628\u0627\u0631\u0642", "name:en": "Bariq", "place": "town", "wikidata": "Q2884439", "wikipedia": "ar:\u0645\u062d\u0627\u0641\u0638\u0629 \u0628\u0627\u0631\u0642"}}, {"type": "node", "id": 11765932662, "lat": 18.5430727, "lon": 42.0514936, "tags": {"name": "\u0645\u062d\u0627\u064a\u0644 \u0639\u0633\u064a\u0631", "name:en": "Muhayil", "place": "city"}}]}