{"version": 0.6, "generator": "Overpass API 0.7.62.4 2390de5a", "osm3s": {"timestamp_osm_base": "2025-01-08T06:49:11Z", "copyright": "The data included in this document is from www.openstreetmap.org. The data is made available under ODbL."}, "elements": [{"type": "node", "id": 277520853, "lat": 32.0773764, "lon": 23.9599988, "tags": {"name": "\u0637\u0628\u0631\u0642", "name:ar": "\u0637\u0628\u0631\u0642", "name:az-Arab": "\u0637\u0628\u0631\u0642", "name:azb": "\u0637\u0628\u0631\u0642", "name:de": "Tobruk", "name:en": "Tobruk", "name:es": "Tobruk", "name:et": "\u0162ubruq", "name:fa": "\u0637\u0628\u0631\u0642", "name:fi": "Tobruk", "name:fr": "Tobrouk", "name:it": "Tobruch", "name:kab": "\u1e6cubruq", "name:ks": "\u0637\u0628\u0631\u0642", "name:lt": "Tubrukas", "name:nl": "Tobroek", "name:ota": "\u0637\u0628\u0631\u0642", "name:pl": "Tobruk", "name:ru": "\u0422\u043e\u0431\u0440\u0443\u043a", "name:sk": "Tobruk", "name:uk": "\u0422\u043e\u0431\u0440\u0443\u043a", "name:ur": "\u0637\u0628\u0631\u0642", "place": "city", "population": "131102", "wikidata": "Q182092", "wikipedia": "ar:\u0637\u0628\u0631\u0642"}}, {"type": "node", "id": 1170259159, "lat": 32.0000224, "lon": 24.0127517, "tags": {"name": "\u0631\u0623\u0633 \u0628\u064a\u0627\u0636", "name:ar": "\u0628\u064a\u0627\u0636", "name:en": "Madinat Ras Bayad", "name:fr": "Bayad", "place": "town"}}, {"type": "node", "id": 9763658889, "lat": 32.0793969, "lon": 23.9653181, "tags": {"image": "https://drive.google.com/file/d/1EnAov_Qu937VaGFXZDU2SJt9Td3nrr8L/view?usp=drivesdk", "name": "\u0645\u062f\u064a\u0646\u0629 \u0637\u0628\u0631\u0642", "name:en": "tobruk city", "place": "town", "website": "https://www.facebook.com/libyanamp.tobruk", "wikidata": "Q182092", "wikipedia": "ar:\u0637\u0628\u0631\u0642"}}]}