{"version": 0.6, "generator": "Overpass API 0.7.62.4 2390de5a", "osm3s": {"timestamp_osm_base": "2025-01-08T07:01:17Z", "copyright": "The data included in this document is from www.openstreetmap.org. The data is made available under ODbL."}, "elements": [{"type": "node", "id": 331970316, "lat": 36.6127914, "lon": 4.6913091, "tags": {"name": "Sidi A\u00efch", "name:ar": "\u0633\u064a\u062f\u064a \u0639\u064a\u0634", "name:ber": "\u2d59\u2d49\u2d38\u2d49 \u2d44\u2d49\u2d5b", "name:de": "Sidi Aich", "name:en": "Sidi Aich", "name:kab": "Sidi \u0190ic", "name:ms": "Sidi-A\u00efch", "name:vi": "Sidi-Aich", "place": "town", "population": "13775", "population:date": "2008", "postal_code": "06005", "source:population": "ONS 2008", "wikidata": "Q1657475", "wikimedia_commons": "Category:Sidi A\u00efch", "wikipedia": "fr:Sidi A\u00efch (Alg\u00e9rie)"}}, {"type": "node", "id": 418104506, "lat": 36.5406178, "lon": 4.6125104, "tags": {"name": "Ighzer Amokrane", "name:ar": "\u0625\u063a\u0632\u0627\u0631 \u0623\u0645\u0642\u0631\u0627\u0646", "name:ber": "\u2d49\u2d56\u2d65\u2d30\u2d55 \u2d30\u2d4e\u2d53\u2d47\u2d55\u2d30\u2d4f", "name:en": "Ighzer Amokrane", "name:fr": "Ighzer Amokrane", "name:he": "\u05e7\u05e8\u05e0\u05d9\u05d9\u05dd \u05e4\u05d5\u05e8\u05d9\u05d5\u05ea", "name:kab": "I\u03b3\u1e93a\u1e5b Amuq\u1e5ban", "name:kab-Arab": "\u0627\u063a\u0632\u0631\u0627\u0645\u0642\u0631\u0627\u0646", "official_name": "Ouzellaguen", "official_name:ar": "\u0623\u0648\u0632\u0644\u0627\u0642\u0646", "official_name:fr": "Ouzellaguen", "place": "town", "population": "22719"}}, {"type": "node", "id": 418104782, "lat": 36.6794351, "lon": 4.8523757, "tags": {"loc_name": "Leq\u1e63er", "name": "El Kseur", "name:ar": "\u0627\u0644\u0642\u0635\u0631", "name:ber": "\u2d4d\u2d3b\u2d47\u2d59\u2d3b\u2d54", "name:en": "El Kseur", "name:fr": "El Kseur", "name:kab": "Leq\u1e63er", "name:ms": "El-Kseur", "name:pt": "El-Kseur", "place": "town", "population": "29842", "wikidata": "Q1649095", "wikimedia_commons": "Category:El Kseur", "wikipedia": "fr:El Kseur"}}, {"type": "node", "id": 442762529, "lat": 36.6929171, "lon": 4.6734299, "tags": {"name": "Adekkar", "name:ar": "\u0623\u062f\u0643\u0627\u0631", "name:ber": "\u2d30\u2d38\u2d3b\u2d3d\u2d3d\u2d30\u2d54", "name:en": "Adekar", "name:es": "Adekar", "name:fr": "Adekar", "name:it": "Adekar", "name:kab": "Adekkar", "name:ms": "Adekar", "name:pt": "Adekar", "name:ro": "Adekar", "name:vi": "Adekar", "name:zh": "\u963f\u4ee3\u5361\u723e", "name:zu": "Adekar", "old_name": "Tuqbal", "place": "town", "population": "13067", "population:date": "2008", "ref:ons": "0624", "source:population": "ONS", "wikidata": "Q2215123", "wikimedia_commons": "Category:Adekar", "wikipedia": "fr:Adekar"}}, {"type": "node", "id": 455500546, "lat": 36.5472337, "lon": 4.6894642, "tags": {"alt_name:ar": "\u0633\u064e\u062f\u064f\u0651\u0648\u0642;\u0633\u062f\u0648\u0642", "name": "Seddouk", "name:ar": "\u0635\u062f\u0648\u0642", "name:ber": "\u2d59\u2d3b\u2d37\u2d37\u2d53\u2d47", "name:en": "Seddouk", "name:fa": "\u0635\u062f\u0648\u0642", "name:fr": "Seddouk", "name:kab": "Sedduq", "place": "town", "population": "20573", "population:date": "2008", "postal_code": "06011", "wikidata": "Q2223541", "wikimedia_commons": "Category:Seddouk", "wikipedia": "fr:Seddouk", "wikipedia:ar": "\u0635\u062f\u0648\u0642"}}, {"type": "node", "id": 455500554, "lat": 36.507327, "lon": 4.7560274, "tags": {"name": "Trouna", "name:ar": "\u062a\u0631\u0648\u0646\u0629", "name:ber": "\u2d5c\u2d54\u2d53\u2d4f\u2d30", "name:en": "Trouna", "name:fr": "Trouna", "name:kab": "Truna", "place": "town", "population": "13412"}}, {"type": "node", "id": 455545064, "lat": 36.6439022, "lon": 4.9036535, "tags": {"name": "Amizour", "name:ar": "\u0623\u0645\u064a\u0632\u0648\u0631", "name:ber": "\u2d30\u2d4e\u2d49\u2d63\u2d53\u2d54", "name:en": "Amizour", "name:fr": "Amizour", "name:kab": "Ami\u1e93ur", "place": "town", "population": "37562", "postal_code": "06300", "ref:ONS": "0602", "wikidata": "Q2214578", "wikimedia_commons": "Category:Amizour", "wikipedia": "fr:Amizour"}}, {"type": "node", "id": 455545066, "lat": 36.5734726, "lon": 4.9693825, "tags": {"loc_name": "Iba\u1e5bbacen", "name": "Barbacha", "name:ar": "\u0628\u0631\u0628\u0627\u0634\u0629", "name:ber": "\u2d49\u2d31\u2d3b\u2d54\u2d31\u2d30\u2d5b\u2d3b\u2d4f", "name:en": "Barbacha", "name:fr": "Barbacha", "name:kab": "Iba\u1e5bbacen", "place": "town", "population": "16901", "population:date": "2008", "ref:ONS": "0634", "source:population": "ONS 2008", "wikidata": "Q2214633", "wikimedia_commons": "Category:Barbacha", "wikipedia": "fr:Barbacha"}}, {"type": "node", "id": 1350849495, "lat": 36.4774607, "lon": 4.63266, "tags": {"name": "Amalou", "name:ar": "\u0623\u0645\u0627\u0644\u0648", "name:ber": "\u2d30\u2d4e\u2d30\u2d4d\u2d53", "name:en": "Amalou", "name:fr": "Amalou", "name:kab": "Amalu", "place": "town", "population": "8602", "postal_code": "06511", "ref:ons": "0616", "source:population": "ONS 2008", "wikidata": "Q1657281", "wikimedia_commons": "Category:Amalou", "wikipedia": "fr:Amalou"}}, {"type": "node", "id": 1356784508, "lat": 36.5162044, "lon": 4.9097421, "tags": {"name": "At Mu\u1e25li", "name:ar": "\u0628\u0646\u064a \u0645\u062d\u0644\u064a", "name:ber": "\u2d30\u2d5c \u2d4e\u2d53\u2d43\u2d4d\u2d49", "name:en": "Beni Mouhli", "name:fr": "Beni Mouhli", "name:kab": "At Mu\u1e25li", "place": "town"}}, {"type": "node", "id": 1356792074, "lat": 36.4684262, "lon": 4.8684047, "tags": {"name": "Beni Chebana", "name:ar": "\u0628\u0646\u064a \u0634\u0628\u0627\u0646\u0629", "name:ber": "\u2d31\u2d4f\u2d49 \u2d5b\u2d3b\u2d31\u2d31\u2d30\u2d4f\u2d30", "name:en": "Beni Chebana", "name:fr": "Beni Chebana", "name:kab": "At Cbana", "place": "town", "population": "13174", "postal_code": "19710", "ref": "1909", "wikidata": "Q2895875", "wikimedia_commons": "Category:Beni Chebana", "wikipedia": "fr:Beni Chebana"}}, {"type": "node", "id": 1357209053, "lat": 36.7525317, "lon": 4.8971215, "tags": {"alt_name:ar": "\u062b\u0648\u062c\u0627", "loc_name": "Tu\u01e7\u01e7a", "name": "Toudja", "name:ar": "\u062b\u0648\u062c\u0627", "name:ber": "\u2d5d\u2d53\u2d35\u2d30", "name:en": "Toudja", "name:fr": "Toudja", "name:kab": "Tu\u01e7a", "place": "town", "population": "9827", "population:date": "2008", "postal_code": "06340", "ref:ons": "0619", "source:population": "ONS 2008", "wikidata": "Q1894468", "wikimedia_commons": "Category:Toudja", "wikipedia": "fr:Toudja"}}, {"type": "node", "id": 1368546179, "lat": 36.6663065, "lon": 4.6974299, "tags": {"name": "Tif\u1e5ba", "name:ar": "\u062b\u064a\u0641\u0631\u0627", "name:ber": "\u2d5d\u2d49\u2d3c\u2d55\u2d30", "name:fr": "Tif\u1e5ba", "name:kab": "Tif\u1e5ba", "place": "town", "population": "8400", "postal_code": "06412", "ref:ons": "0614", "source:population": "ONS 2008", "wikidata": "Q1657386", "wikimedia_commons": "Category:Tifra", "wikipedia": "fr:Tifra"}}, {"type": "node", "id": 1368549541, "lat": 36.6657298, "lon": 4.768617, "tags": {"loc_name": "Ilmaten", "name": "Ilmaten", "name:ar": "\u0625\u0644\u0645\u0627\u062b\u0646", "name:ber": "\u2d49\u2d4d\u2d4e\u2d30\u2d5d\u2d3b\u2d4f", "name:fr": "Ilmaten", "name:kab": "Ilmaten", "place": "town", "population": "11825", "postal_code": "06018"}}, {"type": "node", "id": 1370291698, "lat": 36.6084692, "lon": 4.8224282, "tags": {"alt_name:kab": "I\u1e93ennagen", "loc_name": "Sem\u025bun I\u1e93nayen", "name": "Sem\u025bun", "name:ar": "\u0633\u0645\u0639\u0648\u0646", "name:ber": "\u2d59\u2d3b\u2d4e\u2d44\u2d53\u2d4f", "name:fr": "Semaoun", "name:kab": "Sem\u025bun", "place": "town", "population": "13616", "population:date": "2008", "postal_code": "06020", "ref:ons": "0612", "source:population": "ONS 2008", "wikidata": "Q1765273", "wikimedia_commons": "Category:Semaoun", "wikipedia": "fr:Semaoun"}}, {"type": "node", "id": 1370381871, "lat": 36.5580756, "lon": 4.8660488, "tags": {"loc_name": "Fer\u025bun", "name": "Feraoun", "name:ar": "\u0641\u0631\u0639\u0648\u0646", "name:ber": "\u2d3c\u2d30\u2d54\u2d44\u2d53\u2d4f", "name:en": "Feraoun", "name:fr": "Feraoun", "name:kab": "Fer\u025bun", "name:ro": "Ferraoun", "place": "town", "population": "15482", "population:date": "2008", "postal_code": "06330", "ref:ons": "0603", "source:population": "ONS 2008", "wikidata": "Q2215098", "wikimedia_commons": "Category:Ferraoun", "wikipedia": "fr:Ferraoun"}}, {"type": "node", "id": 2207025298, "lat": 36.5126727, "lon": 4.5855564, "tags": {"name": "Hellouane", "name:ar": "\u0647\u0644\u0648\u0627\u0646", "name:fr": "Hellouane", "name:kab": "Helwan", "old_name": "Timegdal", "place": "town", "population": "20000"}}, {"type": "node", "id": 2852931042, "lat": 36.7106296, "lon": 4.9782915, "tags": {"name": "Oued Ghir", "name:ar": "\u0648\u0627\u062f\u064a \u063a\u064a\u0631", "name:ber": "\u2d61\u2d3b\u2d37 \u2d56\u2d49\u2d54", "name:fr": "Oued Ghir", "name:kab": "Wed \u0393ir", "place": "town", "population": "19345", "population:date": "2008", "postal_code": "06017"}}, {"type": "node", "id": 2936211799, "lat": 36.6179239, "lon": 4.4761469, "tags": {"alt_name:ar": "\u0628\u0648\u0632\u06a4\u0646", "name": "Bouzegu\u00e8ne", "name:ar": "\u0628\u0648\u0632\u06a4\u0646", "name:ber": "\u2d31\u2d53\u2d63\u2d33\u2d30\u2d4f", "name:en": "Bouzeguene", "name:fr": "Bouzegu\u00e8ne", "name:kab": "Buyezgan", "place": "town", "population": "24311", "wikidata": "Q2215269", "wikimedia_commons": "Category:Bouzeguene", "wikipedia": "frBouzegu\u00e8ne"}}, {"type": "node", "id": 3014167925, "lat": 36.881989, "lon": 4.6643892, "tags": {"name": "Beni Ksila", "name:ar": "\u0628\u0646\u064a \u0643\u0633\u064a\u0644\u0629", "name:ber": "\u2d31\u2d4f\u2d49 \u2d3d\u2d59\u2d49\u2d4d\u2d30", "name:fr": "Beni Ksila", "name:kab": "Iksilen", "name:zh": "\u8c9d\u5c3c\u514b\u897f\u62c9", "place": "town", "wikidata": "Q1657273", "wikimedia_commons": "Category:Beni Ksila", "wikipedia": "en:Beni Ksila"}}, {"type": "node", "id": 3088478771, "lat": 36.6995991, "lon": 4.6977077, "tags": {"alt_name:ar": "\u062a\u0627\u0648\u0631\u064a\u0631\u062a \u0625\u063a\u064a\u0644", "loc_name": "Tawrirt n Yi\u03b3il", "loc_name:ar": "\u062a\u0627\u0648\u0631\u064a\u0631\u062a \u0627\u063a\u064a\u0644", "name": "Tawrirt n Yi\u0263il", "name:ar": "\u062a\u0627\u0648\u0631\u064a\u0631\u062a \u0622\u063a\u064a\u0644", "name:ber": "\u2d5d\u2d30\u2d61\u2d54\u2d49\u2d54\u2d5d \u2d4f \u2d62\u2d49\u2d56\u2d49\u2d4d", "name:en": "Taourirt Ighil", "name:fr": "Taourirt Ighil", "name:kab": "Tawrirt n Yi\u0263il", "place": "town", "population": "6653", "population:date": "2008", "postal_code": "06115", "ref:ons": "0604", "wikidata": "Q1034220", "wikimedia_commons": "Category:Taourirt Ighil", "wikipedia": "fr:Taourirt Ighil", "wikipedia:ar": "\u062a\u0627\u0648\u0631\u064a\u0631\u062a \u0622\u063a\u064a\u0644"}}, {"type": "node", "id": 4072579656, "lat": 36.5637897, "lon": 4.7103173, "tags": {"alt_name:ar": "\u0633\u064a\u062f\u064a \u0633\u0639\u064a\u062f", "alt_name:fr": "Sidi Sa\u00efd", "name": "Imessisen", "name:ar": "\u0645\u0633\u064a\u0633\u0646\u0629", "name:ber": "\u2d4e\u2d59\u2d49\u2d59\u2d4f\u2d30", "name:fr": "M'cisna", "name:kab": "Imessisen", "name:kab-Arab": "\u0645\u0633\u064a\u0633\u0646\u0629", "place": "town"}}, {"type": "node", "id": 5339708283, "lat": 36.6155408, "lon": 4.7739725, "tags": {"alt_name:kab": "Time\u1e93rit", "name": "El Had", "name:ar": "\u0627\u0644\u062d\u062f", "name:fr": "El Had", "name:kab": "L\u1e25ed", "place": "town"}}, {"type": "node", "id": 12293582679, "lat": 36.7237588, "lon": 4.9802483, "tags": {"name": "I\u0263zer Uzarif", "name:ar": "\u0625\u063a\u0632\u0631 \u0623\u0648\u0632\u0627\u0631\u064a\u0641", "name:en": "Ighzer Ouzarif", "name:fr": "Ighzer Ouzarif", "name:kab": "I\u0263zer Uzarif", "place": "town"}}]}