{"version": 0.6, "generator": "Overpass API 0.7.62.4 2390de5a", "osm3s": {"timestamp_osm_base": "2025-01-08T06:22:27Z", "copyright": "The data included in this document is from www.openstreetmap.org. The data is made available under ODbL."}, "elements": [{"type": "node", "id": 1224177173, "lat": 15.492774, "lon": 43.134334, "tags": {"GNS:dsg_code": "PPLA2", "GNS:dsg_name": "captial of a second-order administrative division", "GNS:id": "-3183816", "int_name": "Al Qan\u0101wi\u015f", "name": "\u0627\u0644\u0642\u0646\u0627\u0648\u0635", "name:ar": "\u0627\u0644\u0642\u0646\u0627\u0648\u0635", "name:de": "Al Qanawis", "name:en": "Al Qanawis", "name:fr": "Al Qanawis", "place": "town", "population": "4325", "population:date": "2004-12-17", "source:name": "GNS", "source:population": "YCSO2004:18-6-21-1"}}, {"type": "node", "id": 1224181301, "lat": 15.72377, "lon": 42.995821, "tags": {"GNS:dsg_code": "PPLA2", "GNS:dsg_name": "captial of a second-order administrative division", "GNS:id": "-3185005", "alt_name": "Zohra; Zahire; Zahira; Ez-Zohrah; Az Zurah", "int_name": "Az Zuhrah", "name": "\u0627\u0644\u0632\u0647\u0631\u0629", "name:ar": "\u0627\u0644\u0632\u0647\u0631\u0629", "name:de": "Az Zuhrah", "name:en": "Az Zuhrah", "name:fr": "Az Zuhrah", "place": "town", "population": "6945", "population:date": "2004-12-17", "source:name": "GNS", "source:population": "YCSO2004:18-1-21-1"}}, {"type": "node", "id": 1227089339, "lat": 15.328507, "lon": 43.00812, "tags": {"GNS:dsg_code": "PPLA2", "GNS:dsg_name": "captial of a second-order administrative division", "GNS:id": "-3184994", "alt_name": "Zaidiya; Zaid\u012bya; Az Zadiyah; Zayd\u012byah; Zeidie; Zeidiya; Zaida; Zaydiyah; Az Zad\u012byah; Ez-Zaidiyyah", "int_name": "Az Zayd\u012byah", "name": "\u0627\u0644\u0632\u064a\u062f\u064a\u0629", "name:ar": "\u0627\u0644\u0632\u064a\u062f\u064a\u0629", "name:de": "Az Zaydiyah", "name:en": "Az Zaydiyah", "name:fr": "Az Zaydiyah", "place": "town", "population": "18341", "population:date": "2004-12-17", "source:name": "GNS", "source:population": "YCSO2004:18-7-21-1"}}]}