{"version": 0.6, "generator": "Overpass API 0.7.62.4 2390de5a", "osm3s": {"timestamp_osm_base": "2025-01-08T06:21:22Z", "copyright": "The data included in this document is from www.openstreetmap.org. The data is made available under ODbL."}, "elements": [{"type": "node", "id": 1223197136, "lat": 13.935848, "lon": 45.2650285, "tags": {"GNS:dsg_code": "PPLA2", "GNS:dsg_name": "captial of a second-order administrative division", "GNS:id": "-3185203", "alt_name": "Ban\u012b Baq; Bani Bakk; Bani Baq; Ban\u012b Bakk", "int_name": "Ban\u012b Bakr", "name": "\u0628\u0646\u064a \u0628\u0643\u0631", "name:ar": "\u0628\u0646\u064a \u0628\u0643\u0631", "name:de": "Bani Bakr", "name:en": "Bani Bakr", "name:fr": "Bani Bakr", "place": "town", "population": "6214", "population:date": "2004-12-17", "source:name": "GNS", "source:population": "YCSO2004:25-1-21-1"}}, {"type": "node", "id": 1223201743, "lat": 13.8728154, "lon": 45.2405014, "tags": {"GNS:dsg_code": "PPLA2", "GNS:dsg_name": "captial of a second-order administrative division", "GNS:id": "-3187175", "alt_name": "\u062d\u062c\u0631 \u0627\u0644\u0623\u0628\u0639\u0648\u0633", "ele": "2048", "name": "\u0645\u062f\u064a\u0646\u0629 \u0644\u0628\u0639\u0648\u0633", "name:en": "Madinat Lab'\u016bs", "place": "town", "population": "75014", "population:date": "2004-12-17", "source:name": "GNS", "source:population": "YCSO2004:25-2-21-1", "wikidata": "Q12226949", "wikipedia": "ar:\u0639\u0632\u0644\u0629_\u0644\u0628\u0639\u0648\u0633_(\u0644\u062d\u062c)"}}, {"type": "node", "id": 1223231202, "lat": 14.011636, "lon": 44.8746, "tags": {"GNS:dsg_code": "PPLA2", "GNS:dsg_name": "captial of a second-order administrative division", "GNS:id": "-3188430", "alt_name": "Giub\u0101n; Jubun; Giuban; Jubn", "int_name": "Juban", "name": "\u062c\u0628\u0646", "name:ar": "\u062c\u0628\u0646", "name:de": "Juban", "name:en": "Juban", "name:fr": "Juban", "place": "town", "population": "8228", "population:date": "2004-12-17", "source:name": "GNS", "source:population": "YCSO2004:30-1-21-1"}}, {"type": "node", "id": 1225652172, "lat": 13.7760598, "lon": 45.2218102, "tags": {"GNS:dsg_code": "PPLA2", "GNS:dsg_name": "captial of a second-order administrative division", "GNS:id": "-3192314", "alt_name": "As Suwayda'; As Suwayd\u0101\u2019; Suwayd\u0101; \u0627\u0644\u0633\u0648\u064a\u062f\u0627\u0621; Suwayda; \u0627\u0644\u0633\u0648\u064a\u062f\u0627", "int_name": "As Suwayd\u0101", "name": "\u0627\u0644\u0633\u0648\u064a\u062f\u0627\u0621", "name:ar": "\u0627\u0644\u0633\u0648\u064a\u062f\u0627\u0621", "name:de": "As Suwayda", "name:en": "As Suwayda", "name:fr": "As Suwayda", "place": "town", "population": "1983", "population:date": "2004-12-17", "source:name": "GNS", "source:population": "YCSO2004:25-4-21-1"}}, {"type": "node", "id": 1226283807, "lat": 13.837545, "lon": 44.864307, "tags": {"GNS:dsg_code": "PPLA2", "GNS:dsg_name": "captial of a second-order administrative division", "GNS:id": "-3184873", "alt_name": "`Awabil; Abawil; \u2018Aw\u0101bil; \u0639\u0648\u0627\u0628\u0644", "int_name": "Al \u2018Aw\u0101bil", "name": "\u0627\u0644\u0639\u0648\u0627\u0628\u0644", "name:ar": "\u0627\u0644\u0639\u0648\u0627\u0628\u0644", "name:de": "Al `Awabil", "name:en": "Al `Awabil", "name:fr": "Al `Awabil", "place": "town", "population": "4445", "population:date": "2004-12-17", "source:name": "GNS", "source:population": "YCSO2004:30-4-21-1"}}, {"type": "node", "id": 6140140328, "lat": 13.644401, "lon": 44.85097, "tags": {"GNS:dsg_code": "PPLA2", "GNS:dsg_name": "captial of a second-order administrative division", "GNS:id": "11240527", "int_name": "\u1e28ab\u012bl ar Raydah", "name": "\u062d\u0628\u064a\u0644 \u0627\u0644\u0631\u064a\u062f\u0629", "name:ar": "\u062d\u0628\u064a\u0644 \u0627\u0644\u0631\u064a\u062f\u0629", "name:de": "Habil ar Raydah", "name:en": "Habil ar Raydah", "name:fr": "Habil ar Raydah", "place": "town", "population": "2473", "population:date": "2004-12-17", "source:name": "GNS", "source:population": "YCSO2004:25-6-21-1"}}, {"type": "node", "id": 11747834945, "lat": 13.6196571, "lon": 45.1176175, "tags": {"place": "town"}}]}