{"version": 0.6, "generator": "Overpass API 0.7.62.4 2390de5a", "osm3s": {"timestamp_osm_base": "2025-01-08T07:07:31Z", "copyright": "The data included in this document is from www.openstreetmap.org. The data is made available under ODbL."}, "elements": [{"type": "node", "id": 273094269, "lat": 36.747273, "lon": 3.1908953, "tags": {"name": "Bordj El Kiffan", "name:ar": "\u0628\u0631\u062c \u0627\u0644\u0643\u064a\u0641\u0627\u0646", "name:azb": "\u0628\u0631\u062c \u0627\u0644\u06a9\u06cc\u0641\u0627\u0646", "name:ber": "\u2d53\u2d63\u2d4e\u2d49\u2d54 \u2d4f \u2d30\u2d4e\u2d30\u2d4f", "name:de": "Burdsch al-Kifan", "name:en": "Burj Al Kifan", "name:fa": "\u0628\u0631\u062c \u0627\u0644\u06a9\u06cc\u0641\u0627\u0646", "name:fr": "Bordj El Kiffan", "name:kab": "Burj Lkifan", "name:ur": "\u0628\u0631\u062c \u0627\u0644\u06a9\u06cc\u0641\u0627\u0646", "place": "town", "population": "151950", "wikidata": "Q1184993", "wikipedia": "fr:Bordj El Kiffan"}}, {"type": "node", "id": 287172660, "lat": 36.7393938, "lon": 3.0500748, "tags": {"alt_name:ar": "\u0628\u064a\u0631 \u0645\u0631\u0627\u062f \u0631\u0627\u064a\u0633", "name": "Bir Mourad Ra\u00efs \u2d31\u2d49\u2d54 \u2d4e\u2d53\u2d54\u2d30\u2d37 \u2d54\u2d30\u2d62\u2d59 \u0628\u0626\u0631 \u0645\u0631\u0627\u062f \u0631\u0627\u064a\u0633", "name:ar": "\u0628\u0626\u0631 \u0645\u0631\u0627\u062f \u0631\u0627\u064a\u0633", "name:ber": "\u2d31\u2d49\u2d54 \u2d4e\u2d53\u2d54\u2d30\u2d37 \u2d54\u2d30\u2d62\u2d59", "name:de": "Bir Mourad Ra\u00efs", "name:en": "Bir Mourad Ra\u00efs", "name:fr": "Bir Mourad Ra\u00efs", "name:kab": "Bir Murad Rayes", "place": "town", "population": "45345", "wikidata": "Q2534015", "wikipedia": "ar:\u0628\u064a\u0631 \u0645\u0631\u0627\u062f \u0631\u0627\u064a\u0633"}}, {"type": "node", "id": 287485747, "lat": 36.7688818, "lon": 3.030651, "tags": {"alt_name:ar": "\u0627\u0644\u0627\u0628\u064a\u0627\u0631", "name": "El Biar \u2d4d\u2d3b\u2d31\u2d62\u2d30\u2d54 \u0627\u0644\u0623\u0628\u064a\u0627\u0631", "name:ar": "\u0627\u0644\u0623\u0628\u064a\u0627\u0631", "name:ber": "\u2d4d\u2d3b\u2d31\u2d62\u2d30\u2d54", "name:de": "Al-Aby\u0101r", "name:en": "El Biar", "name:fr": "El Biar", "name:kab": "Lebyar", "place": "town", "population": "52582", "wikidata": "Q2673474", "wikipedia": "ar:\u0627\u0644\u0623\u0628\u064a\u0627\u0631 (\u0627\u0644\u062c\u0632\u0627\u0626\u0631 \u0627\u0644\u0639\u0627\u0635\u0645\u0629)"}}, {"type": "node", "id": 288037571, "lat": 36.7220068, "lon": 3.1856291, "tags": {"ele": "19", "image": "https://upload.wikimedia.org/wikipedia/commons/d/d4/Mobilis_-_panoramio.jpg", "name": "Bab Ezzouar \u2d31\u2d30\u2d31 \u2d63\u2d61\u2d30\u2d54 \u0628\u0627\u0628 \u0627\u0644\u0632\u0648\u0627\u0631", "name:ar": "\u0628\u0627\u0628 \u0627\u0644\u0632\u0648\u0627\u0631", "name:ber": "\u2d31\u2d30\u2d31 \u2d63\u2d61\u2d30\u2d54", "name:en": "Bab Ezzouar", "name:fr": "Bab Ezzouar", "name:kab": "Bab Zzewwar", "place": "town", "population": "92000", "wikidata": "Q59579", "wikimedia_commons": "Category:Bab Ezzouar", "wikipedia": "en:Bab Ezzouar"}}, {"type": "node", "id": 288090062, "lat": 36.7800963, "lon": 2.974557, "tags": {"name": "Beni Messous \u2d31\u2d4f\u2d49 \u2d4e\u2d3b\u2d59\u2d59\u2d53\u2d59 \u0628\u0646\u064a \u0645\u0633\u0648\u0633", "name:ar": "\u0628\u0646\u064a \u0645\u0633\u0648\u0633", "name:ber": "\u2d31\u2d4f\u2d49 \u2d4e\u2d3b\u2d59\u2d59\u2d53\u2d59", "name:en": "Beni Messous", "name:fr": "Beni Messous", "name:kab": "Bni Messus", "place": "town", "population": "36191", "wikidata": "Q2895900", "wikimedia_commons": "Category:B\u00e9ni Messous", "wikipedia": "fr:Beni Messous"}}, {"type": "node", "id": 288370371, "lat": 36.7669269, "lon": 2.9602571, "tags": {"admin_level": "7", "name": "Ch\u00e9raga \u2d5b\u2d54\u2d30\u2d33\u2d30 \u0627\u0644\u0634\u0631\u0627\u0642\u0629", "name:ar": "\u0627\u0644\u0634\u0631\u0627\u0642\u0629", "name:arq": "\u0634\u0631\u0627\u06a4\u0629", "name:azb": "\u0634\u0631\u0627\u0642\u0647", "name:ber": "\u2d5b\u2d54\u2d30\u2d33\u2d30", "name:de": "Ch\u00e9raga", "name:en": "Ch\u00e9raga", "name:fa": "\u0634\u0631\u0627\u0642\u0647", "name:fr": "Ch\u00e9raga", "name:kab": "Ccraga", "name:ur": "\u0634\u0631\u0627\u0642\u06c1", "old_name": "Ch\u00e9ragas", "old_name:fr": "Ch\u00e9ragas", "place": "town", "population": "80824", "wikidata": "Q335751", "wikipedia": "fr:Ch\u00e9raga (Alg\u00e9rie)"}}, {"type": "node", "id": 288370377, "lat": 36.7520316, "lon": 2.9815101, "tags": {"admin_level": "7", "alt_name:ar": "\u062f\u0627\u0644\u064a \u0627\u0628\u0631\u0627\u0647\u064a\u0645", "name": "Dely Brahim", "name:ar": "\u062f\u0627\u0644\u064a \u0625\u0628\u0631\u0627\u0647\u064a\u0645", "name:en": "Dely Brahim", "name:es": "Dely Brahim", "name:fr": "Dely Brahim", "name:it": "Dely Brahim", "name:kab": "Dali Brahim", "place": "town", "population": "35230", "postal_code": "16320", "wikidata": "Q3021980", "wikipedia": "fr:Dely Ibrahim"}}, {"type": "node", "id": 288380563, "lat": 36.7139578, "lon": 2.9978257, "tags": {"name": "Draria", "name:ar": "\u062f\u0631\u0627\u0631\u064a\u0629", "name:ber": "\u2d37\u2d54\u2d30\u2d54\u2d62\u2d30", "name:en": "Draria", "name:fr": "Draria", "name:kab": "Drariya", "place": "town"}}, {"type": "node", "id": 288383847, "lat": 36.7027016, "lon": 3.0238994, "tags": {"name": "Saoula", "name:ar": "\u0627\u0644\u0633\u062d\u0627\u0648\u0644\u0629", "name:ber": "\u2d59\u2d30\u2d61\u2d4d\u2d30", "name:en": "Saoula", "name:fr": "Saoula", "name:kab": "Ss\u1e25awla", "place": "town", "population": "41690", "wikidata": "Q1884982", "wikipedia": "fr:Saoula"}}, {"type": "node", "id": 288385642, "lat": 36.716075, "lon": 3.0497361, "tags": {"name": "Birkhadem \u2d31\u2d49\u2d54 \u2d45\u2d30\u2d37\u2d3b\u2d4e \u0628\u0626\u0631 \u062e\u0627\u062f\u0645", "name:ar": "\u0628\u0626\u0631 \u062e\u0627\u062f\u0645", "name:ber": "\u2d31\u2d49\u2d54 \u2d45\u2d30\u2d37\u2d3b\u2d4e", "name:en": "Birkhadem", "name:fr": "Birkhadem", "name:kab": "Birxadem", "place": "town", "population": "77749", "wikidata": "Q2904515", "wikimedia_commons": "Category:Birkhadem", "wikipedia": "fr:Birkhadem"}}, {"type": "node", "id": 288387133, "lat": 36.7323557, "lon": 3.0874783, "tags": {"name": "Kouba \u2d5f\u2d30\u2d47\u2d53\u2d31\u2d30 \u0627\u0644\u0642\u0628\u0629", "name:ar": "\u0627\u0644\u0642\u0628\u0629", "name:ber": "\u2d5f\u2d30\u2d47\u2d53\u2d31\u2d30", "name:en": "Kouba", "name:fr": "Kouba", "name:kab": "Taqubbet", "place": "city", "population": "104708", "wikidata": "Q3086863", "wikipedia": "fr:Kouba"}}, {"type": "node", "id": 288390075, "lat": 36.7024722, "lon": 3.0801951, "tags": {"name": "Ain Naadja", "name:ar": "\u0639\u064a\u0646 \u0627\u0644\u0646\u0639\u062c\u0629", "name:ber": "\u2d44\u2d49\u2d4f \u2d4f\u2d30\u2d44\u2d4a\u2d30", "name:en": "Ain Naadja", "name:fr": "Ain Naadja", "name:kab": "\u0190in Na\u025b\u01e7a", "place": "town", "population": "133247", "wikidata": "Q335744", "wikimedia_commons": "Category:Djasr Kasentina", "wikipedia": "fr:Djasr Kasentina"}}, {"type": "node", "id": 288399489, "lat": 36.7207974, "lon": 3.1373893, "tags": {"name": "El Harrach \u2d4d\u2d43\u2d3b\u2d54\u2d54\u2d30\u2d5b \u0627\u0644\u062d\u0631\u0627\u0634", "name:ar": "\u0627\u0644\u062d\u0631\u0627\u0634", "name:ber": "\u2d4d\u2d43\u2d3b\u2d54\u2d54\u2d30\u2d5b", "name:en": "El Harrach", "name:fr": "El Harrach", "name:kab": "L\u1e25errac", "old_name": "Maison-Carr\u00e9e", "place": "town", "population": "48869", "wikidata": "Q1021018", "wikimedia_commons": "Category:El Harrach", "wikipedia": "fr:El Harrach"}}, {"type": "node", "id": 288402701, "lat": 36.7200591, "lon": 3.1126365, "tags": {"name": "Bachdjarrah", "name:ar": "\u0628\u0627\u0634 \u062c\u0631\u0627\u062d", "name:ber": "\u2d31\u2d30\u2d5b \u2d35\u2d3b\u2d54\u2d54\u2d30\u2d43", "name:en": "Bachdjarrah", "name:fr": "Bachdjarrah", "name:kab": "Bac \u01e6erra\u1e25", "place": "town", "population": "93289", "wikipedia": "fr:Bachdjarrah"}}, {"type": "node", "id": 288656379, "lat": 36.8046778, "lon": 3.0426168, "tags": {"name": "Bologhine \u2d31\u2d53\u2d4d\u2d53\u2d56\u2d49\u2d4f \u0628\u0648\u0644\u0648\u063a\u064a\u0646", "name:ar": "\u0628\u0648\u0644\u0648\u063a\u064a\u0646", "name:azb": "\u0628\u0648\u0644\u0648\u063a\u06cc\u0646", "name:ber": "\u2d31\u2d53\u2d4d\u2d53\u2d56\u2d49\u2d4f", "name:de": "Bologhine", "name:en": "Bologhine", "name:fa": "\u0628\u0648\u0644\u0648\u063a\u06cc\u0646", "name:fr": "Bologhine", "name:kab": "Bulu\u0263in", "name:ur": "\u0628\u0648\u0644\u0648\u063a\u06cc\u0646", "old_name": "Saint-Eug\u00e8ne", "old_name:ar": "\u0633\u0627\u0646\u062a \u0623\u0648\u062c\u0627\u0646", "old_name:fr": "Saint-Eug\u00e8ne", "place": "town", "population": "43835", "wikidata": "Q370406", "wikimedia_commons": "Category:Bologhine", "wikipedia": "fr:Bologhine"}}, {"type": "node", "id": 290029840, "lat": 36.7907677, "lon": 3.0530812, "tags": {"description": "Bab El Oued is a coastal district in Algiers, renowned for its scenic Mediterranean views and a vibrant local atmosphere.", "description:ar": "\u0628\u0627\u0628 \u0627\u0644\u0648\u0627\u062f \u0647\u064a \u0645\u0646\u0637\u0642\u0629 \u0633\u0627\u062d\u0644\u064a\u0629 \u0641\u064a \u0627\u0644\u062c\u0632\u0627\u0626\u0631 \u0627\u0644\u0639\u0627\u0635\u0645\u0629\u060c \u062a\u0634\u062a\u0647\u0631 \u0628\u0625\u0637\u0644\u0627\u0644\u0627\u062a\u0647\u0627 \u0627\u0644\u062e\u0644\u0627\u0628\u0629 \u0639\u0644\u0649 \u0627\u0644\u0628\u062d\u0631 \u0627\u0644\u0623\u0628\u064a\u0636 \u0627\u0644\u0645\u062a\u0648\u0633\u0637 \u0648\u0623\u062c\u0648\u0627\u0621\u0647\u0627 \u0627\u0644\u0645\u062d\u0644\u064a\u0629 \u0627\u0644\u0646\u0627\u0628\u0636\u0629 \u0628\u0627\u0644\u062d\u064a\u0627\u0629.", "description:en": "Bab El Oued is a coastal district in Algiers, renowned for its scenic Mediterranean views and a vibrant local atmosphere.", "description:fr": "Bab El Oued est un quartier c\u00f4tier d'Alger, r\u00e9put\u00e9 pour ses vues panoramiques sur la M\u00e9diterran\u00e9e et son atmosph\u00e8re locale dynamique.", "name": "Bab El Oued \u2d31\u2d30\u2d31 \u2d4d\u2d61\u2d3b\u2d37 \u0628\u0627\u0628 \u0627\u0644\u0648\u0627\u062f\u064a", "name:ar": "\u0628\u0627\u0628 \u0627\u0644\u0648\u0627\u062f\u064a", "name:ber": "\u2d31\u2d30\u2d31 \u2d4d\u2d61\u2d3b\u2d37", "name:de": "Bab El Oued", "name:en": "Bab El Oued", "name:es": "Bab El Oued", "name:fr": "Bab El Oued", "name:it": "Bab El Oued", "name:kab": "Bab Lwad", "place": "town", "population": "64732", "short_name": "BEO", "short_name:fr": "BEO", "wikidata": "Q312019", "wikimedia_commons": "Category:Bab El Oued", "wikipedia": "fr:Bab El Oued"}}, {"type": "node", "id": 299617915, "lat": 36.7729333, "lon": 3.0588445, "tags": {"ISO3166-1:alpha2": "DZ", "admin_level": "2", "alt_name": "Al Djaz\u00e2ir;El Djaza\u00efr", "alt_name:ckb": "\u062c\u06d5\u0632\u0627\u06cc\u0631", "alt_name:fr": "Al Djaz\u00e2ir;El Djaza\u00efr", "capital": "yes", "capital_ISO3166-1": "yes", "ele": "10", "is_capital": "country", "loc_name": "El Bahdja;El Mahrussa;El Beida", "loc_name:ar": "\u0627\u0644\u062f\u0632\u0627\u064a\u0631", "loc_name:fr": "El Bahdja;El Mahrussa;El Beida", "name": "Alger \u2d37\u2d63\u2d30\u2d62\u2d3b\u2d54 \u0627\u0644\u062c\u0632\u0627\u0626\u0631", "name:af": "Algiers", "name:an": "Alcher", "name:ar": "\u0627\u0644\u062c\u0632\u0627\u0626\u0631", "name:arc": "\u0713\u0719\u0710\u0710\u072a", "name:az": "\u018flc\u0259zair", "name:azb": "\u0627\u0644\u062c\u0632\u06cc\u0631\u0647", "name:bat-smg": "Al\u017e\u012brs", "name:be": "\u0410\u043b\u0436\u044b\u0440", "name:be-tarask": "\u0410\u043b\u044c\u0436\u044b\u0440", "name:ber": "\u2d37\u2d63\u2d30\u2d62\u2d3b\u2d54", "name:bg": "\u0410\u043b\u0436\u0438\u0440", "name:bn": "\u0986\u09b2\u099c\u09bf\u09af\u09bc\u09be\u09b0\u09cd\u09b8", "name:bo": "\u0f68\u0f71\u0f63\u0f0b\u0f47\u0f72\u0f0b\u0f61\u0f62\u0f0b\u0f66\u0f72\u0f0d", "name:br": "Aljer", "name:bs": "Al\u017eir", "name:ca": "Alger", "name:ckb": "\u062c\u06d5\u0632\u0627\u0626\u06cc\u0631", "name:cs": "Al\u017e\u00edr", "name:cv": "\u0410\u043b\u04ab\u0438\u0440", "name:cy": "Alger", "name:da": "Algier", "name:de": "Algier", "name:diq": "Cezayir", "name:el": "\u0391\u03bb\u03b3\u03ad\u03c1\u03b9", "name:en": "Algiers", "name:eo": "Al\u011dero", "name:es": "Argel", "name:et": "Al\u017eiir", "name:eu": "Aljer", "name:fa": "\u0627\u0644\u062c\u0632\u06cc\u0631\u0647", "name:fi": "Alger", "name:fo": "Alger", "name:fr": "Alger", "name:frp": "Alg\u00b7\u00e8r", "name:fy": "Algiers", "name:ga": "Cathair na hAilg\u00e9ire", "name:gd": "Algiers", "name:gl": "Alxer", "name:grc": "\u1f08\u03bb\u03b3\u03ad\u03c1\u03b9\u03bf\u03bd", "name:he": "\u05d0\u05dc\u05d2'\u05d9\u05e8", "name:hi": "\u0906\u0932\u094d\u091c\u0947\u0930", "name:hif": "Algiers", "name:hr": "Al\u017eir", "name:hsb": "Al\u017e\u011br", "name:ht": "Alje", "name:hu": "Alg\u00edr", "name:hy": "\u0531\u056c\u056a\u056b\u0580", "name:id": "Aljir", "name:ie": "Alger", "name:io": "Aljer", "name:is": "Algeirsborg", "name:it": "Algeri", "name:ja": "\u30a2\u30eb\u30b8\u30a7", "name:jv": "Aljir", "name:ka": "\u10db\u10d0\u10e0\u10d9\u10d4\u10e2\u10d8", "name:kab": "Zzayer", "name:kk": "\u0410\u043b\u0436\u0438\u0440", "name:kn": "\u0c86\u0cb2\u0ccd\u0c9c\u0cc7\u0cb0\u0ccd", "name:ko": "\uc54c\uc81c", "name:ku": "Cezayir", "name:ky": "\u0410\u043b\u0436\u0438\u0440 \u0448\u0430\u0430\u0440\u044b", "name:la": "Algeria", "name:lad": "Arjel", "name:lb": "Alger", "name:lij": "Alg\u00e8", "name:lmo": "Algeri", "name:ln": "Alje", "name:lt": "Al\u017eyras", "name:lv": "Al\u017e\u012bra", "name:mdf": "\u0410\u043b\u0436\u0438\u0440", "name:mk": "\u0410\u043b\u0436\u0438\u0440", "name:ml": "\u0d05\u0d7e\u0d1c\u0d3f\u0d2f\u0d47\u0d34\u0d4d\u0d38\u0d4d", "name:mr": "\u0905\u0932\u094d\u091c\u0940\u092f\u0930\u094d\u0938", "name:mrj": "\u0410\u043b\u0436\u0438\u0440", "name:ms": "Algiers", "name:nah": "Argel", "name:nan": "Algiers", "name:nl": "Algiers", "name:nn": "Alger", "name:no": "Alger", "name:nov": "Algiers", "name:oc": "Argi\u00e8r", "name:os": "\u0410\u043b\u0436\u0438\u0440", "name:pap": "Algiers", "name:pl": "Algier", "name:pms": "Algeri", "name:pnb": "\u0627\u0644\u062c\u06cc\u0631\u0632", "name:ps": "\u0627\u0644\u062c\u0632\u064a\u0631\u0647", "name:pt": "Argel", "name:ro": "Alger", "name:roa-rup": "Alger", "name:ru": "\u0410\u043b\u0436\u0438\u0440", "name:scn": "Algeri", "name:sco": "Algiers", "name:sh": "Al\u017eir", "name:simple": "Algiers", "name:sk": "Al\u017e\u00edr", "name:sl": "Al\u017eir", "name:so": "Algiers", "name:sr": "\u0410\u043b\u0436\u0438\u0440", "name:su": "Aljir", "name:sv": "Alger", "name:sw": "Algiers", "name:syc": "\u0713\u0719\u0710\u0710\u072a", "name:ta": "\u0b85\u0bb2\u0bcd\u0b9c\u0bbf\u0baf\u0bb0\u0bcd\u0bb8\u0bcd", "name:tg": "\u0410\u043b\u04b7\u0430\u0437\u043e\u0438\u0440", "name:th": "\u0e41\u0e2d\u0e25\u0e40\u0e08\u0e35\u0e22\u0e23\u0e4c", "name:tl": "Algiers", "name:tr": "Cezayir", "name:udm": "\u0410\u043b\u0436\u0438\u0440", "name:ug": "\u0626\u0627\u0644\u062c\u0649\u0631", "name:uk": "\u0410\u043b\u0436\u0438\u0440", "name:ur": "\u0627\u0644\u062c\u0632\u0627\u0626\u0631 \u0634\u06c1\u0631", "name:vec": "Algeri", "name:vep": "Al\u017eir", "name:vi": "Algiers", "name:vo": "C\u00e4sair", "name:war": "Algiers", "name:wo": "Alse", "name:yo": "Algiers", "name:yue": "\u963f\u723e\u53ca\u723e", "name:zh": "\u963f\u723e\u53ca\u723e/\u963f\u5c14\u53ca\u5c14", "name:zh-Hans": "\u963f\u5c14\u53ca\u5c14", "name:zu": "Algiers", "nat_name": "Alger", "nat_name:ar": "\u0627\u0644\u062c\u0632\u0627\u0626\u0631", "nat_name:fr": "Alger", "official_name": "Alger", "official_name:ar": "\u0627\u0644\u062c\u0632\u0627\u0626\u0631", "official_name:fr": "Alger", "old_name:ar": "\u0625\u064a\u0643\u0648\u0633\u064a\u0645", "old_name:fr": "Icosium", "old_name:grc": "\u1f38\u03ba\u03cc\u03c3\u03b9\u03bf\u03bd", "old_name:la": "Icosium", "place": "city", "population": "3415811", "population:date": "2010", "ref:ONS": "1601", "wikidata": "Q3561", "wikipedia": "fr:Alger"}}, {"type": "node", "id": 299837073, "lat": 36.6679961, "lon": 3.0961318, "tags": {"admin_level": "7", "name": "Baraki", "name:ar": "\u0628\u0631\u0627\u0642\u064a", "name:ber": "\u2d31\u2d30\u2d54\u2d54\u2d30\u2d47\u2d49", "name:en": "Baraki", "name:fr": "Baraki", "name:kab": "Berraqi", "place": "town", "population": "116375", "population:date": "2008"}}, {"type": "node", "id": 313983005, "lat": 36.6694089, "lon": 2.9421031, "tags": {"name": "Douera", "name:ar": "\u062f\u0648\u064a\u0631\u0629", "name:ber": "\u2d37\u2d61\u2d49\u2d54\u2d30", "name:en": "Douera", "name:fr": "Dou\u00e9ra", "name:kab": "Dwira", "place": "town", "source": "Algerie Mapper Team", "wikidata": "Q1649106", "wikimedia_commons": "Category:Douera", "wikipedia": "fr:Douera"}}, {"type": "node", "id": 313983060, "lat": 36.6771868, "lon": 2.98177, "tags": {"name": "Khra\u00efcia", "name:ar": "\u062e\u0631\u0627\u064a\u0633\u064a\u0629", "name:ber": "\u2d45\u2d54\u2d30\u2d62\u2d59\u2d62\u2d30", "name:en": "Khraicia", "name:fr": "Khra\u00efcia", "name:kab": "Xrayseyya", "place": "town", "population": "27910", "wikidata": "Q2423749", "wikipedia": "fr:Khraicia"}}, {"type": "node", "id": 313983160, "lat": 36.6823629, "lon": 2.87765, "tags": {"name": "Mahelma", "name:ar": "\u0627\u0644\u0645\u0639\u0627\u0644\u0645\u0629", "name:ber": "\u2d4e\u2d30\u2d43\u2d3b\u2d4d\u2d4e\u2d30", "name:en": "Mahelma", "name:fr": "Mahelma", "name:kab": "M\u1e25alma", "place": "town", "wikidata": "Q2215331", "wikimedia_commons": "Category:Mahelma", "wikipedia": "fr:Mahelma"}}, {"type": "node", "id": 313983223, "lat": 36.7085304, "lon": 2.9116721, "tags": {"name": "Souidania \u2d59\u2d61\u2d49\u2d37\u2d30\u2d4f\u2d62\u2d30 \u0627\u0644\u0633\u0648\u064a\u062f\u0627\u0646\u064a\u0629", "name:ar": "\u0627\u0644\u0633\u0648\u064a\u062f\u0627\u0646\u064a\u0629", "name:ber": "\u2d59\u2d61\u2d49\u2d37\u2d30\u2d4f\u2d62\u2d30", "name:en": "Souidania", "name:fr": "Souidania", "name:kab": "Swidaneyya", "old_name": "Safrdina", "place": "town", "population": "17105", "wikidata": "Q2215718", "wikimedia_commons": "Category:Souidania", "wikipedia": "fr:Souidania"}}, {"type": "node", "id": 314750768, "lat": 36.7188746, "lon": 3.033021, "tags": {"name": "Tixera\u00efne \u2d5c\u2d49\u2d47\u2d59\u2d54\u2d30\u2d56\u2d4f \u062a\u064a\u0642\u0635\u0631\u0627\u064a\u0646", "name:ar": "\u062a\u064a\u0642\u0635\u0631\u0627\u064a\u0646", "name:ber": "\u2d5c\u2d49\u2d47\u2d59\u2d54\u2d30\u2d56\u2d4f", "name:en": "Tixera\u00efne", "name:es": "Tixera\u00efne", "name:fr": "Tixera\u00efne", "name:it": "Tixera\u00efne", "place": "town"}}, {"type": "node", "id": 314767090, "lat": 36.7532755, "lon": 2.8881822, "tags": {"name": "Staoueli \u2d59\u2d5c\u2d30\u2d61\u2d30\u2d4d\u2d49 \u0633\u0637\u0627\u0648\u0627\u0644\u064a", "name:ar": "\u0633\u0637\u0627\u0648\u0627\u0644\u064a", "name:ber": "\u2d59\u2d5c\u2d30\u2d61\u2d30\u2d4d\u2d49", "name:en": "Staoueli", "name:es": "Staoueli", "name:fr": "Staoueli", "name:it": "Staoueli", "name:kab": "S\u1e6dawali", "place": "town", "population": "47664", "source": "Algerie Mapper Team", "wikidata": "Q2217496", "wikimedia_commons": "Category:Staoueli", "wikipedia": "fr:Staoueli"}}, {"type": "node", "id": 314768968, "lat": 36.6805367, "lon": 2.9064684, "tags": {"name": "Rahmania", "name:ar": "\u0627\u0644\u0631\u062d\u0645\u0627\u0646\u064a\u0629", "name:az-Arab": "\u0631\u062d\u0645\u0627\u0646\u06cc\u0647", "name:azb": "\u0631\u062d\u0645\u0627\u0646\u06cc\u0647", "name:ber": "\u2d54\u2d30\u2d43\u2d4e\u2d30\u2d4f\u2d62\u2d30", "name:en": "Rahmania", "name:fa": "\u0631\u062d\u0645\u0627\u0646\u06cc\u0647", "name:fr": "Rahmania", "name:kab": "Re\u1e25maneyya", "name:ks": "\u0631\u062d\u0645\u0627\u0646\u06cc\u06c1", "name:ur": "\u0631\u062d\u0645\u0627\u0646\u06cc\u06c1", "place": "town", "wikidata": "Q7283491", "wikipedia": "ar:\u0627\u0644\u0631\u062d\u0645\u0627\u0646\u064a\u0629 (\u0648\u0644\u0627\u064a\u0629 \u0627\u0644\u062c\u0632\u0627\u0626\u0631)"}}, {"type": "node", "id": 316367211, "lat": 36.5650816, "lon": 3.1540861, "tags": {"name": "Larbaa \u2d4d\u2d30\u2d54\u2d3b\u2d31\u2d44\u2d30 \u0627\u0644\u0623\u0631\u0628\u0639\u0627\u0621", "name:ar": "\u0627\u0644\u0623\u0631\u0628\u0639\u0627\u0621", "name:ber": "\u2d4d\u2d30\u2d54\u2d3b\u2d31\u2d44\u2d30", "name:en": "Larbaa", "name:fr": "Larbaa", "name:kab": "Lareb\u025ba N At Musa", "place": "town", "population": "83819", "wikidata": "Q3217833", "wikipedia": "fr:Larb\u00e2a"}}, {"type": "node", "id": 316373549, "lat": 36.620033, "lon": 3.2229744, "tags": {"name": "Meftah \u2d4e\u2d3b\u2d3c\u2d5c\u2d30\u2d43 \u0645\u0641\u062a\u0627\u062d", "name:ar": "\u0645\u0641\u062a\u0627\u062d", "name:ber": "\u2d4e\u2d3b\u2d3c\u2d5c\u2d30\u2d43", "name:en": "Meftah", "name:fr": "Meftah", "name:kab": "Mefta\u1e25", "place": "town", "population": "64978", "source": "Algerie Mapper Team", "wikidata": "Q2215400", "wikimedia_commons": "Category:Meftah", "wikipedia": "fr:Meftah"}}, {"type": "node", "id": 316374182, "lat": 36.5448652, "lon": 3.0869346, "tags": {"name": "Bougara", "name:ar": "\u0628\u0648\u0642\u0631\u0629", "name:ber": "\u2d31\u2d53\u2d33\u2d3b\u2d54\u2d54\u2d30", "name:en": "Bougara", "name:fr": "Bougara", "name:kab": "Bugerra", "place": "town", "population": "51203", "wikidata": "Q2573679", "wikimedia_commons": "Category:Bougara (Blida)", "wikipedia": "fr:Bougara (Blida)"}}, {"type": "node", "id": 316374305, "lat": 36.5322102, "lon": 2.9918496, "tags": {"name": "Bouinan", "name:ar": "\u0628\u0648\u0639\u064a\u0646\u0627\u0646", "name:ber": "\u2d31\u2d53 \u2d49\u2d4f\u2d30\u2d4f", "name:en": "Bouinan", "name:fr": "Bouinan", "name:kab": "Bwinan", "place": "town", "population": "31070", "wikidata": "Q2921643", "wikimedia_commons": "Category:Bouinan", "wikipedia": "fr:Bouinan"}}, {"type": "node", "id": 316374727, "lat": 36.5184909, "lon": 2.9084853, "tags": {"alt_name:kab": "\u1e62um\u025ba", "name": "Soumaa", "name:ar": "\u0627\u0644\u0635\u0648\u0645\u0639\u0629", "name:ber": "\u2d5a\u2d53\u2d4e\u2d44\u2d3b\u2d5d", "name:el": "\u03a3\u03bf\u03c5\u03bc\u03ac\u03b1", "name:en": "Soumaa", "name:fr": "Soum\u00e2a", "name:kab": "\u1e62um\u025be\u1e6f", "place": "town", "population": "37461", "wikidata": "Q1649886", "wikimedia_commons": "Category:Soumaa", "wikipedia": "fr:Soumaa"}}, {"type": "node", "id": 316376509, "lat": 36.5755523, "lon": 2.9128963, "tags": {"name": "Boufarik", "name:ar": "\u0628\u0648\u0641\u0627\u0631\u064a\u0643", "name:ber": "\u2d31\u2d53 \u2d3c\u2d30\u2d54\u2d49\u2d3d", "name:en": "Boufarik", "name:fr": "Boufarik", "name:kab": "Bufarik", "place": "town", "population": "71446", "wikidata": "Q2344308", "wikimedia_commons": "Category:Boufarik", "wikipedia": "fr:Boufarik"}}, {"type": "node", "id": 316376810, "lat": 36.6449884, "lon": 2.9985533, "tags": {"alt_name:ar": "\u0628\u064a\u0631\u062a\u0648\u062a\u0629", "name": "Birtouta", "name:ar": "\u0628\u0626\u0631 \u062a\u0648\u062a\u0629", "name:ber": "\u2d31\u2d3b\u2d54\u2d5c\u2d53\u2d5c\u2d30", "name:en": "Birtouta", "name:fr": "Birtouta", "name:kab": "Birtuta", "place": "town", "population": "30575", "wikidata": "Q4917124", "wikimedia_commons": "Category:Birtouta", "wikipedia": "fr:Birtouta"}}, {"type": "node", "id": 316376812, "lat": 36.6307193, "lon": 2.9455174, "tags": {"name": "Tessala El Merdja", "name:ar": "\u062a\u0633\u0627\u0644\u0629 \u0627\u0644\u0645\u0631\u062c\u0629", "name:ber": "\u2d5c\u2d30\u2d4d\u2d30 \u2d53\u2d4e\u2d53\u2d54\u2d3b\u2d35", "name:en": "Tessala El Merdja", "name:fr": "Tessala El Merdja", "name:kab": "Tasala Lmerja", "place": "town", "population": "15847", "wikidata": "Q3519005", "wikimedia_commons": "Category:Tessala El Merdja", "wikipedia": "fr:Tessala El Merdja"}}, {"type": "node", "id": 316377925, "lat": 36.5774573, "lon": 3.0090176, "tags": {"name": "Chebli", "name:ar": "\u0627\u0644\u0634\u0628\u0644\u064a", "name:ber": "\u2d5b\u2d3b\u2d31\u2d4d\u2d49", "name:en": "Chebli", "name:fr": "Chebli", "name:kab": "Cebli", "place": "town", "population": "29660", "wikidata": "Q1649700", "wikipedia": "fr:Chebli"}}, {"type": "node", "id": 316378657, "lat": 36.6047961, "lon": 3.088782, "tags": {"name": "Sidi Moussa \u2d59\u2d49\u2d37\u2d49 \u2d4e\u2d53\u2d59\u2d30 \u0633\u064a\u062f\u064a \u0645\u0648\u0633\u0649", "name:ar": "\u0633\u064a\u062f\u064a \u0645\u0648\u0633\u0649", "name:ber": "\u2d59\u2d49\u2d37\u2d49 \u2d4e\u2d53\u2d59\u2d30", "name:en": "Sidi Moussa", "name:fr": "Sidi Moussa", "name:kab": "Sidi Musa", "name:ur": "\u0633\u06cc\u062f\u06cc \u0645\u0648\u0633\u06cc", "place": "town", "wikidata": "Q2215533", "wikimedia_commons": "Category:Sidi Moussa", "wikipedia": "ar:\u0633\u064a\u062f\u064a \u0645\u0648\u0633\u0649"}}, {"type": "node", "id": 316393181, "lat": 36.6567143, "lon": 3.1472616, "tags": {"name": "Les Eucalyptus", "name:ar": "\u0627\u0644\u0643\u0627\u0644\u064a\u062a\u0648\u0633", "name:az-Arab": "\u06a9\u0627\u0644\u06cc\u062a\u0648\u0633", "name:azb": "\u06a9\u0627\u0644\u06cc\u062a\u0648\u0633", "name:ber": "\u2d30\u2d3d\u2d30\u2d4d\u2d49\u2d5c\u2d53\u2d59", "name:en": "Les Eucalyptus", "name:fa": "\u06a9\u0627\u0644\u06cc\u062a\u0648\u0633", "name:fr": "Les Eucalyptus", "name:kab": "Kalitus", "name:ur": "\u0627\u0644\u06a9\u0627\u0644\u06cc\u062a\u0648\u0633", "place": "town", "population": "116107", "wikidata": "Q648163", "wikipedia": "ar:\u0627\u0644\u0643\u0627\u0644\u064a\u062a\u0648\u0633"}}, {"type": "node", "id": 316914591, "lat": 36.7429388, "lon": 3.094027, "tags": {"name": "Hussein Dey \u2d43\u2d53\u2d59\u2d49\u2d4f \u2d37\u2d3b\u2d62 \u062d\u0633\u064a\u0646 \u062f\u0627\u064a", "name:ar": "\u062d\u0633\u064a\u0646 \u062f\u0627\u064a", "name:ber": "\u2d43\u2d53\u2d59\u2d49\u2d4f \u2d37\u2d3b\u2d62", "name:en": "Hussein Dey", "name:fr": "Hussein Dey", "name:kab": "H\u0323usin Day", "place": "town", "population": "40698", "source": "Algerie Mapper Team", "wikidata": "Q1252682", "wikipedia": "fr:Hussein-Dey (commune)"}}, {"type": "node", "id": 317127887, "lat": 36.6617127, "lon": 3.2430611, "tags": {"alt_name:ar": "\u0648\u0644\u0627\u062f \u0628\u0631\u0627\u0647\u064a\u0645", "name": "Ouled Brahim \u2d30\u2d5c \u2d31\u2d54\u2d30\u2d40\u2d49\u2d4e \u0623\u0648\u0644\u0627\u062f \u0625\u0628\u0631\u0627\u0647\u064a\u0645", "name:ar": "\u0623\u0648\u0644\u0627\u062f \u0625\u0628\u0631\u0627\u0647\u064a\u0645", "name:ber": "\u2d30\u2d5c \u2d31\u2d54\u2d30\u2d40\u2d49\u2d4e", "name:en": "Ouled Brahim", "name:es": "Ouled Brahim", "name:fr": "Ouled Brahim", "name:it": "Ouled Brahim", "place": "town"}}, {"type": "node", "id": 317128784, "lat": 36.7364237, "lon": 3.2826417, "tags": {"name": "Rou\u00efba", "name:ar": "\u0631\u0648\u064a\u0628\u0629", "name:ber": "\u2d54\u2d61\u2d49\u2d31\u2d30", "name:en": "Rouiba", "name:fr": "Rou\u00efba", "name:kab": "Rrwiba", "place": "town", "population": "61984", "source": "Algerie Mapper Team", "wikidata": "Q2215980", "wikimedia_commons": "Category:Rou\u00efba", "wikipedia": "fr:Rou\u00efba"}}, {"type": "node", "id": 317155206, "lat": 36.6800253, "lon": 3.2596049, "tags": {"name": "Hammedi \u2d43\u2d3b\u2d4e\u2d4e\u2d30\u2d37\u2d49 \u062d\u0645\u0627\u062f\u064a", "name:ar": "\u062d\u0645\u0627\u062f\u064a", "name:ber": "\u2d43\u2d3b\u2d4e\u2d4e\u2d30\u2d37\u2d49", "name:en": "Hammedi", "name:es": "Hammedi", "name:fr": "Hammedi", "name:kab": "\u1e24emmadi", "place": "town", "population": "40546", "wikidata": "Q3126515", "wikipedia": "fr:Hammedi"}}, {"type": "node", "id": 317353592, "lat": 36.7727459, "lon": 3.3085008, "tags": {"name": "H'raoua", "name:ar": "\u0647\u0631\u0627\u0648\u0629", "name:ber": "\u2d40\u2d30\u2d54\u2d30\u2d61\u2d30", "name:en": "H'raoua", "name:fr": "H'raoua", "name:kab": "Hewwa\u1e5ba", "place": "town", "population": "27565", "wikidata": "Q3124660", "wikimedia_commons": "Category:H'raoua", "wikipedia": "fr:H'raoua"}}, {"type": "node", "id": 317353655, "lat": 36.7912902, "lon": 3.2926194, "tags": {"name": "A\u00efn Taya", "name:ar": "\u0639\u064a\u0646 \u0637\u0627\u064a\u0629", "name:ber": "\u2d49\u2d4f \u2d5f\u2d30\u2d62\u2d30", "name:en": "Ain Taya", "name:fr": "A\u00efn Taya", "name:kab": "\u0190in \u1e6caya", "place": "town", "population": "34501", "wikidata": "Q2876387", "wikimedia_commons": "Category:A\u00efn Taya", "wikipedia": "fr:A\u00efn Taya"}}, {"type": "node", "id": 317353676, "lat": 36.7907949, "lon": 3.2501775, "tags": {"addr:postcode": "16046", "name": "Bordj El Bahri", "name:ar": "\u0628\u0631\u062c \u0627\u0644\u0628\u062d\u0631\u064a", "name:azb": "\u0628\u0631\u062c \u0628\u062d\u0631\u06cc", "name:ber": "\u2d31\u2d3b\u2d54\u2d35 \u2d4d\u2d31\u2d3b\u2d43\u2d54\u2d49", "name:de": "Burdsch al-Bahri", "name:en": "Burj Al Bahri", "name:fa": "\u0628\u0631\u062c \u0628\u062d\u0631\u06cc", "name:fr": "Bordj El Bahri", "name:kab": "Ber\u0323g\u030c Lbeh\u0323ri", "name:ur": "\u0628\u0631\u062c \u0627\u0644\u0628\u062d\u0631\u06cc", "place": "town", "population": "27900", "wikidata": "Q2215503", "wikimedia_commons": "Category:Bordj El Bahri", "wikipedia": "ar:\u0628\u0644\u062f\u064a\u0629 \u0628\u0631\u062c \u0627\u0644\u0628\u062d\u0631\u064a"}}, {"type": "node", "id": 321404042, "lat": 36.7341624, "lon": 2.9905236, "tags": {"name": "El Achour", "name:ar": "\u0627\u0644\u0639\u0627\u0634\u0648\u0631", "name:ber": "\u2d4d\u2d30\u2d5b\u2d53\u2d54", "name:en": "El Achour", "name:fr": "El Achour", "name:kab": "L\u025bacur", "place": "town", "population": "41070", "ref:ONS": "1652", "wikidata": "Q2215090", "wikimedia_commons": "Category:El Achour", "wikipedia": "fr:El Achour"}}, {"type": "node", "id": 330434454, "lat": 36.8033456, "lon": 2.9216788, "tags": {"name": "A\u00efn Benian \u2d49\u2d4f \u2d31\u2d3b\u2d4f\u2d62\u2d30\u2d4f \u0639\u064a\u0646 \u0627\u0644\u0628\u0646\u064a\u0627\u0646", "name:ar": "\u0639\u064a\u0646 \u0627\u0644\u0628\u0646\u064a\u0627\u0646", "name:ber": "\u2d49\u2d4f \u2d31\u2d3b\u2d4f\u2d62\u2d30\u2d4f", "name:en": "Ain Benian", "name:es": "A\u00edn Benian", "name:fr": "A\u00efn Benian", "name:kab": "\u0190in Benyan", "name:ur": "\u0639\u06cc\u0646 \u0627\u0644\u0628\u0646\u06cc\u0627\u0646", "old_name": "Guyotville", "place": "town", "population": "68354", "wikidata": "Q2876264", "wikimedia_commons": "Category:A\u00efn Benian, Algiers Province", "wikipedia": "ar:\u0639\u064a\u0646 \u0627\u0644\u0628\u0646\u064a\u0627\u0646"}}, {"type": "node", "id": 330434836, "lat": 36.8174128, "lon": 3.0114701, "tags": {"alt_name:ar": "\u0631\u0627\u064a\u0633 \u062d\u0645\u064a\u062f\u0648", "name": "Ra\u00efs Hamidou", "name:ar": "\u0627\u0644\u0631\u0626\u064a\u0633 \u062d\u0645\u064a\u062f\u0648", "name:azb": "\u0631\u0627\u06cc\u0633 \u062d\u0645\u06cc\u062f\u0648", "name:ber": "\u2d54\u2d30\u2d62\u2d59 \u2d43\u2d30\u2d4e\u2d49\u2d37\u2d53", "name:en": "Rais Hamidou", "name:fa": "\u0631\u0627\u06cc\u0633 \u062d\u0645\u06cc\u062f\u0648", "name:fr": "Ra\u00efs Hamidou", "name:kab": "Rayes \u1e24amidu", "name:ks": "\u0631\u0627\u06cc\u0633 \u062d\u0645\u06cc\u062f\u0648", "name:ro": "Ra\u00efs Hamidou (Algeria)", "name:ur": "\u0631\u0627\u06cc\u0633 \u062d\u0645\u06cc\u062f\u0648", "name:vi": "Ra\u00efs Hamidou, Alg\u00e9rie", "old_name": "\u0644\u0627 \u0628\u0648\u0627\u0646\u062a \u0628\u0633\u0643\u0627\u062f", "old_name:ar": "\u0644\u0627 \u0628\u0648\u0627\u0646\u062a \u0628\u0633\u0643\u0627\u062f", "old_name:fr": "La Pointe Pescade", "place": "town", "population": "28451", "wikidata": "Q3421420", "wikimedia_commons": "Category:Rais Hamidou, Algiers Province", "wikipedia": "ar:\u0627\u0644\u0631\u0627\u064a\u0633 \u062d\u0645\u064a\u062f\u0648 (\u0628\u0644\u062f\u064a\u0629)", "wikipedia:ar": "\u0627\u0644\u0631\u0627\u064a\u0633 \u062d\u0645\u064a\u062f\u0648 (\u0628\u0644\u062f\u064a\u0629)"}}, {"type": "node", "id": 330435062, "lat": 36.8137612, "lon": 2.9712554, "tags": {"alt_name:fr": "El Hammamet", "name": "Hammamet", "name:ar": "\u0627\u0644\u062d\u0645\u0627\u0645\u0627\u062a", "name:ber": "\u2d4d\u2d43\u2d3b\u2d4e\u2d4e\u2d30\u2d4e\u2d3b\u2d5c", "name:en": "Hammamet", "name:fr": "Hammamet", "name:kab": "L\u1e25emmamat", "old_name": "Bains-Romains", "old_name:fr": "Bains-Romains", "place": "town", "population": "23990", "wikidata": "Q5645553", "wikipedia": "fr:El Hammamet"}}, {"type": "node", "id": 333924930, "lat": 36.7044199, "lon": 3.1681561, "tags": {"alt_name:ar": "\u0648\u0627\u062f \u0627\u0644\u0633\u0645\u0627\u0631", "name": "Oued Smar", "name:ar": "\u0648\u0627\u062f\u064a \u0627\u0644\u0633\u0645\u0627\u0631", "name:azb": "\u0648\u0627\u062f\u06cc \u0633\u0645\u0627\u0631", "name:ber": "\u2d61\u2d3b\u2d37 \u2d59\u2d4e\u2d30\u2d54", "name:de": "Wadi as-Samar", "name:en": "Oued Smar", "name:fa": "\u0648\u0627\u062f\u06cc \u0633\u0645\u0627\u0631", "name:fr": "Oued Smar", "name:kab": "Wad Semmar", "name:ur": "\u0648\u0627\u062f\u06cc \u0633\u0645\u0627\u0631", "place": "town", "population": "32062", "wikidata": "Q335442", "wikimedia_commons": "Category:Oued Smar", "wikipedia": "fr:Oued Smar"}}, {"type": "node", "id": 347434975, "lat": 36.7181819, "lon": 3.1232629}, {"type": "node", "id": 394303114, "lat": 36.5374705, "lon": 2.8206529, "tags": {"name": "Beni Tamou", "name:ar": "\u0628\u0646\u064a \u062a\u0627\u0645\u0648", "name:ber": "\u2d31\u2d4f\u2d49 \u2d5c\u2d30\u2d4e\u2d53", "name:en": "Beni Tamou", "name:fr": "Beni Tamou", "name:kab": "Bni Tamu", "place": "town", "population": "36228", "wikidata": "Q2895916", "wikimedia_commons": "Category:Beni Tamou", "wikipedia": "fr:Beni Tamou"}}, {"type": "node", "id": 418493291, "lat": 36.7565214, "lon": 3.0084296, "tags": {"name": "Ben Aknoun \u2d31\u2d3b\u2d4f \u2d30\u2d3d\u2d4f\u2d53\u2d4f \u0628\u0646 \u0639\u0643\u0646\u0648\u0646", "name:ar": "\u0628\u0646 \u0639\u0643\u0646\u0648\u0646", "name:ber": "\u2d31\u2d3b\u2d4f \u2d30\u2d3d\u2d4f\u2d53\u2d4f", "name:en": "Ben Aknoun", "name:fr": "Ben Aknoun", "name:kab": "Ben\u025beknun", "place": "town", "population": "18838", "wikidata": "Q2895321", "wikimedia_commons": "Category:Ben Aknoun", "wikipedia": "fr:Ben Aknoun"}}, {"type": "node", "id": 472190522, "lat": 36.7215647, "lon": 3.1232107}, {"type": "node", "id": 472223387, "lat": 36.7188879, "lon": 3.1234009}, {"type": "node", "id": 472223451, "lat": 36.7185134, "lon": 3.125544}, {"type": "node", "id": 479717042, "lat": 36.7634505, "lon": 2.9236293, "tags": {"name": "El Karia \u2d47\u2d30\u2d54\u2d62\u2d30 \u0627\u0644\u0642\u0631\u064a\u0629", "name:ar": "\u0627\u0644\u0642\u0631\u064a\u0629", "name:ber": "\u2d47\u2d30\u2d54\u2d62\u2d30", "name:en": "El Karia", "name:es": "El Karia", "name:fr": "El Karia", "name:it": "El Karia", "place": "town"}}, {"type": "node", "id": 533755670, "lat": 36.7474259, "lon": 3.0401832, "tags": {"name": "Hydra \u2d43\u2d49\u2d37\u2d54\u2d30 \u062d\u064a\u062f\u0631\u0629", "name:ar": "\u062d\u064a\u062f\u0631\u0629", "name:ber": "\u2d43\u2d49\u2d37\u2d54\u2d30", "name:en": "Hydra", "name:fr": "Hydra", "name:kab": "\u1e24idra", "place": "town", "population": "31133", "wikidata": "Q1010749", "wikimedia_commons": "Category:Hydra, Algiers Province", "wikipedia": "fr:Hydra (Alger)"}}, {"type": "node", "id": 703355596, "lat": 36.5264595, "lon": 2.886115, "tags": {"name": "Guerrouaou", "name:ar": "\u0642\u0631\u0648\u0627\u0648", "name:ber": "\u2d33\u2d3b\u2d54\u2d61\u2d30\u2d61", "name:el": "\u0393\u03ba\u03bf\u03c5\u03b5\u03c1\u03bf\u03c5\u03ac\u03bf\u03c5", "name:en": "Guerouaou", "name:fr": "Guerouaou", "name:kab": "Gerwaw", "place": "town", "population": "17297", "wikidata": "Q3118934", "wikimedia_commons": "Category:Guerouaou", "wikipedia": "fr:Guerouaou"}}, {"type": "node", "id": 940959854, "lat": 36.5534582, "lon": 3.1153628, "tags": {"name": "Ouled Slama", "name:ar": "\u0627\u0648\u0644\u0627\u062f \u0633\u0644\u0627\u0645\u0629", "name:ber": "\u2d61\u2d4d\u2d3b\u2d37 \u2d59\u2d4d\u2d30\u2d4e\u2d30", "name:en": "Ouled Slama", "name:fr": "Ouled Slama", "name:kab": "Wlad Slama", "place": "town", "population": "29291", "wikidata": "Q925894", "wikimedia_commons": "Category:Ouled Slama", "wikipedia": "fr:Ouled Slama"}}, {"type": "node", "id": 981700021, "lat": 36.6737396, "lon": 2.7900902, "tags": {"name": "Douaouda", "name:ar": "\u062f\u0648\u0627\u0648\u062f\u0629", "name:ber": "\u2d37\u2d61\u2d30\u2d61\u2d37\u2d30", "name:en": "Douaouda", "name:fr": "Douaouda", "name:kab": "Dwawda", "place": "town", "population": "22408", "wikidata": "Q3037408", "wikimedia_commons": "Category:Douaouda", "wikipedia": "fr:Douaouda"}}, {"type": "node", "id": 1011084903, "lat": 36.5877303, "lon": 3.1901603, "tags": {"name": "Sidi Hammad \u0633\u064a\u062f\u064a \u062d\u0645\u0627\u062f", "name:ar": "\u0633\u064a\u062f\u064a \u062d\u0645\u0627\u062f", "name:en": "Sidi Hammad", "name:fr": "Sidi Hammed", "place": "town"}}, {"type": "node", "id": 1460396365, "lat": 36.4970451, "lon": 2.8610493, "tags": {"name": "Ouled Ya\u00efch", "name:ar": "\u0623\u0648\u0644\u0627\u062f \u064a\u0639\u064a\u0634", "name:ber": "\u2d53\u2d4d\u2d3b\u2d37 \u2d49\u2d44\u2d49\u2d5b", "name:el": "\u039f\u03c5\u03bb\u03ad\u03bd\u03c4 \u0393\u03b9\u03b1\u0390\u03c2", "name:en": "Ouled Yaich", "name:fr": "Ouled Ya\u00efch", "name:kab": "Uled I\u025bic", "name:ru": "\u0423\u043b\u0435\u0434-\u042f\u0438\u0448", "old_name": "Dalmatie", "place": "town", "population": "87131", "wikidata": "Q648795", "wikimedia_commons": "Category:Ouled Ya\u00efch", "wikipedia": "fr:Ouled Ya\u00efch (Alg\u00e9rie)"}}, {"type": "node", "id": 1657151225, "lat": 36.7761881, "lon": 3.0583128, "tags": {"admin_level": "7", "name": "Alger-Centre \u0627\u0644\u062c\u0632\u0627\u0626\u0631 \u0627\u0644\u0648\u0633\u0637\u0649 \u2d37\u2d63\u2d30\u2d62\u2d3b\u2d54 \u2d5c\u2d30\u2d4d\u2d3b\u2d4e\u2d4e\u2d30\u2d59\u2d5c", "name:ar": "\u0627\u0644\u062c\u0632\u0627\u0626\u0631 \u0627\u0644\u0648\u0633\u0637\u0649", "name:ber": "\u2d37\u2d63\u2d30\u2d62\u2d3b\u2d54 \u2d5c\u2d30\u2d4d\u2d3b\u2d4e\u2d4e\u2d30\u2d59\u2d5c", "name:de": "Alger-Centre", "name:en": "Alger-Centre", "name:fr": "Alger-Centre", "name:it": "Alger-Centre", "name:kab": "Dzayer Talemmast", "name:ms": "Alger-Centre", "name:ro": "Alger-Centre", "name:ur": "\u0627\u0644\u062c\u0632\u0627\u0626\u0631 \u0648\u0633\u0637\u06cc", "place": "town", "population": "75541", "postal_code": "16004", "wikidata": "Q2835683", "wikipedia": "fr:Alger-Centre"}}, {"type": "node", "id": 1659485676, "lat": 36.7644238, "lon": 3.0496319, "tags": {"admin_level": "7", "name": "Sidi M'Hamed \u2d59\u2d49\u2d37\u2d49 \u2d4e\u2d40\u2d30\u2d4e\u2d3b\u2d37 \u0633\u064a\u062f\u064a \u0627\u0645\u062d\u0645\u062f", "name:ar": "\u0633\u064a\u062f\u064a \u0627\u0645\u062d\u0645\u062f", "name:ber": "\u2d59\u2d49\u2d37\u2d49 \u2d4e\u2d40\u2d30\u2d4e\u2d3b\u2d37", "name:en": "Sidi M'Hamed", "name:fr": "Sidi M'Hamed", "name:kab": "Sidi M\u1e25emmed", "place": "town", "population": "67873", "postal_code": "16014", "wikidata": "Q1650084", "wikipedia": "fr:Sidi M'Hamed (Alger)"}}, {"type": "node", "id": 1659764376, "lat": 36.7857731, "lon": 3.0438543, "tags": {"admin_level": "7", "name": "Oued Koriche \u2d61\u2d3b\u2d37 \u2d47\u2d53\u2d54\u2d3b\u2d62\u2d5b \u0648\u0627\u062f\u064a \u0642\u0631\u064a\u0634", "name:ar": "\u0648\u0627\u062f\u064a \u0642\u0631\u064a\u0634", "name:ber": "\u2d61\u2d3b\u2d37 \u2d47\u2d53\u2d54\u2d3b\u2d62\u2d5b", "name:de": "Oued Koriche", "name:en": "Oued Koriche", "name:fr": "Oued Koriche", "name:kab": "Wad Quric", "old_name:fr": "Climat de France", "place": "town", "population": "42182", "wikidata": "Q3181020", "wikipedia": "fr:Oued Koriche"}}, {"type": "node", "id": 2209242359, "lat": 36.6960642, "lon": 3.0895611, "tags": {"name": "Gu\u00e9 de Constantine", "name:ar": "\u062c\u0633\u0631 \u0642\u0633\u0646\u0637\u064a\u0646\u0629", "name:fr": "Gu\u00e9 de Constantine", "name:kab": "Asaka n Qsen\u1e6dina", "place": "town"}}, {"type": "node", "id": 2391093902, "lat": 36.6943783, "lon": 2.9718223, "tags": {"name": "Baba Hassen", "name:ar": "\u0628\u0627\u0628\u0627 \u062d\u0633\u0646", "name:ber": "\u2d31\u2d30\u2d31\u2d30 \u2d43\u2d30\u2d59\u2d3b\u2d4f", "name:en": "Baba Hassen", "name:fr": "Baba Hassen", "name:kab": "Baba \u1e24sen", "place": "town", "population": "23756", "wikidata": "Q544912", "wikipedia": "fr:Baba Hassen"}}, {"type": "node", "id": 2531694292, "lat": 36.7120392, "lon": 2.8407894, "tags": {"name": "Z\u00e9ralda", "name:ar": "\u0632\u0631\u0627\u0644\u062f\u0629", "name:ber": "\u2d63\u2d49\u2d54\u2d30\u2d4d\u2d37\u2d30", "name:en": "Zeralda", "name:fr": "Z\u00e9ralda", "name:kab": "Ziralda", "place": "town", "population": "51552", "wikidata": "Q2215424", "wikimedia_commons": "Category:Z\u00e9ralda", "wikipedia": "fr:Z\u00e9ralda"}}, {"type": "node", "id": 2574948839, "lat": 36.7206842, "lon": 3.1234118}, {"type": "node", "id": 2574948909, "lat": 36.7192064, "lon": 3.1219007}, {"type": "node", "id": 2574948958, "lat": 36.7198786, "lon": 3.1220081}, {"type": "node", "id": 2574949042, "lat": 36.7202741, "lon": 3.1227081}, {"type": "node", "id": 2574949096, "lat": 36.7200355, "lon": 3.1221315}, {"type": "node", "id": 2574949107, "lat": 36.7195152, "lon": 3.1219625}, {"type": "node", "id": 2641137540, "lat": 36.7149768, "lon": 3.2094611, "tags": {"name": "Dar El Beida", "name:ar": "\u0627\u0644\u062f\u0627\u0631 \u0627\u0644\u0628\u064a\u0636\u0627\u0621", "name:ber": "\u2d37\u2d30\u2d54 \u2d4d\u2d31\u2d30\u2d62\u2d39\u2d30", "name:en": "Dar El Beida", "name:fr": "Dar El Beida", "name:kab": "Dar Lbid\u0323a", "old_name": "Maison-Blanche", "place": "town", "population": "80033", "wikidata": "Q59419", "wikimedia_commons": "Category:Dar El Beida", "wikipedia": "fr:Dar El Be\u00efda"}}, {"type": "node", "id": 2752195875, "lat": 36.7473392, "lon": 3.0506705, "tags": {"name": "El Mouradia \u2d4d\u2d4e\u2d53\u2d54\u2d30\u2d37\u2d62\u2d30 \u0627\u0644\u0645\u0631\u0627\u062f\u064a\u0629", "name:ar": "\u0627\u0644\u0645\u0631\u0627\u062f\u064a\u0629", "name:ber": "\u2d4d\u2d4e\u2d53\u2d54\u2d30\u2d37\u2d62\u2d30", "name:en": "El Mouradia", "name:fr": "El Mouradia", "name:kab": "Lmuradeyya", "place": "town", "population": "22813", "wikidata": "Q2918742", "wikipedia": "fr:El Mouradia"}}, {"type": "node", "id": 2806242913, "lat": 36.523526, "lon": 2.8616102, "tags": {"name": "Beni Mered", "name:ar": "\u0628\u0646\u064a \u0645\u0631\u0627\u062f", "name:ber": "\u2d31\u2d4f\u2d49 \u2d4e\u2d30\u2d54\u2d3b\u2d37", "name:de": "Beni Mered", "name:el": "\u039c\u03c0\u03ad\u03bd\u03b9 \u039c\u03ad\u03c1\u03b5\u03bd\u03c4", "name:en": "Beni Mered", "name:fr": "Beni Mered", "name:kab": "Bni Mared", "place": "town", "population": "34860", "wikidata": "Q2895897", "wikimedia_commons": "Category:Beni Mered", "wikipedia": "fr:Beni Mered"}}, {"type": "node", "id": 2929298156, "lat": 36.7441968, "lon": 3.07822, "tags": {"name": "Belouizdad \u2d31\u2d3b\u2d4d\u2d61\u2d3b\u2d63\u2d37\u2d30\u2d37 \u0628\u0644\u0648\u0632\u062f\u0627\u062f", "name:ar": "\u0628\u0644\u0648\u0632\u062f\u0627\u062f", "name:ber": "\u2d31\u2d3b\u2d4d\u2d61\u2d3b\u2d63\u2d37\u2d30\u2d37", "name:en": "Belouizdad", "name:fr": "Belouizdad", "name:kab": "Belwizdad", "old_name": "Belcourt", "place": "town", "population": "44050", "wikidata": "Q634748", "wikipedia": "fr:Belouizdad"}}, {"type": "node", "id": 2939758266, "lat": 36.5558374, "lon": 2.7896358, "tags": {"alt_name:ar": "\u0648\u0627\u062f \u0627\u0644\u0639\u0644\u0627\u064a\u0642", "name": "Oued El Alleug", "name:ar": "\u0648\u0627\u062f\u064a \u0627\u0644\u0639\u0644\u0627\u064a\u0642", "name:azb": "\u0648\u0627\u062f\u06cc \u0639\u0644\u0627\u06cc\u0642", "name:ber": "\u2d61\u2d3b\u2d37 \u2d4d\u2d44\u2d3b\u2d4d\u2d4d\u2d30\u2d62\u2d3b\u2d33", "name:en": "Oued El Alleug", "name:fa": "\u0648\u0627\u062f\u06cc \u0639\u0644\u0627\u06cc\u0642", "name:fr": "Oued El Alleug", "name:kab": "Wad L\u025bellayeg", "name:ur": "\u0648\u0627\u062f\u06cc \u0627\u0644\u0639\u0644\u0627\u06cc\u0642", "place": "town", "population": "40710", "wikidata": "Q941199", "wikimedia_commons": "Category:Oued Alleug", "wikipedia": "ar:\u0648\u0627\u062f\u064a \u0627\u0644\u0639\u0644\u0627\u064a\u0642"}}, {"type": "node", "id": 2940413374, "lat": 36.7420067, "lon": 3.0665715, "tags": {"name": "El Madania", "name:ar": "\u0627\u0644\u0645\u062f\u0646\u064a\u0629", "name:ber": "\u2d4d\u2d4e\u2d30\u2d37\u2d30\u2d4f\u2d62\u2d30", "name:en": "El Madania", "name:fr": "El Madania", "name:kab": "Lmadaneyya", "place": "town", "population": "40301", "wikidata": "Q1649753", "wikimedia_commons": "Category:El Madania", "wikipedia": "en:El Madania"}}, {"type": "node", "id": 3635144618, "lat": 36.7355249, "lon": 2.9509064, "tags": {"name": "Ouled Fayet \u2d53\u2d4d\u2d3b\u2d37 \u2d3c\u2d30\u2d62\u2d3b\u2d5c \u0623\u0648\u0644\u0627\u062f \u0641\u0627\u064a\u062a", "name:ar": "\u0623\u0648\u0644\u0627\u062f \u0641\u0627\u064a\u062a", "name:ber": "\u2d53\u2d4d\u2d3b\u2d37 \u2d3c\u2d30\u2d62\u2d3b\u2d5c", "name:en": "Ouled Fayet", "name:fr": "Ouled Fayet", "name:kab": "Wled Fayet", "place": "town", "population": "27593", "source": "Algerie Mapper Team", "wikidata": "Q2215680", "wikipedia": "fr:Ouled Fayet"}}, {"type": "node", "id": 3645120159, "lat": 36.7903098, "lon": 3.0172742, "tags": {"name": "Bouzar\u00e9ah \u2d31\u2d53\u2d63\u2d30\u2d54\u2d54\u2d49\u2d44\u2d30 \u0628\u0648\u0632\u0631\u064a\u0639\u0629", "name:ar": "\u0628\u0648\u0632\u0631\u064a\u0639\u0629", "name:ber": "\u2d31\u2d53\u2d63\u2d30\u2d54\u2d54\u2d49\u2d44\u2d30", "name:de": "Bouzar\u00e9ah", "name:fr": "Bouzar\u00e9ah", "name:kab": "Buzerri\u03b5a", "place": "town", "population": "83797", "wikidata": "Q612537", "wikimedia_commons": "Category:Bouzar\u00e9ah", "wikipedia": "fr:Bouzar\u00e9ah"}}, {"type": "node", "id": 3779761638, "lat": 36.7844706, "lon": 3.0578458, "tags": {"alt_name:ar": "\u0642\u0635\u0628\u0629 \u0627\u0644\u062c\u0632\u0627\u0626\u0631", "description": "The Casbah of Algiers is a historic and labyrinthine quarter known for its narrow streets, traditional architecture, and vibrant culture, located in the heart of Algiers.", "description:ar": "\u0642\u0635\u0628\u0629 \u0627\u0644\u062c\u0632\u0627\u0626\u0631 \u0647\u0648 \u062d\u064a \u062a\u0627\u0631\u064a\u062e\u064a \u0648\u0645\u062a\u0627\u0647\u0629 \u0645\u0639\u0631\u0648\u0641 \u0628\u0634\u0648\u0627\u0631\u0639\u0647 \u0627\u0644\u0636\u064a\u0642\u0629 \u0648\u0647\u0646\u062f\u0633\u062a\u0647 \u0627\u0644\u0645\u0639\u0645\u0627\u0631\u064a\u0629 \u0627\u0644\u062a\u0642\u0644\u064a\u062f\u064a\u0629 \u0648\u062b\u0642\u0627\u0641\u062a\u0647 \u0627\u0644\u0646\u0627\u0628\u0636\u0629 \u0628\u0627\u0644\u062d\u064a\u0627\u0629\u060c \u0648\u064a\u0642\u0639 \u0641\u064a \u0642\u0644\u0628 \u0627\u0644\u062c\u0632\u0627\u0626\u0631 \u0627\u0644\u0639\u0627\u0635\u0645\u0629.", "description:en": "The Casbah of Algiers is a historic and labyrinthine quarter known for its narrow streets, traditional architecture, and vibrant culture, located in the heart of Algiers.", "description:fr": "La Casbah d'Alger est un quartier historique et labyrinthique connu pour ses rues \u00e9troites, son architecture traditionnelle et sa culture vibrante, situ\u00e9e au c\u0153ur d'Alger.", "heritage": "1", "heritage:operator": "whc", "name": "Casbah \u2d5d\u2d30\u2d47\u2d5a\u2d3b\u2d32\u2d5d \u0627\u0644\u0642\u0635\u0628\u0629", "name:ar": "\u0627\u0644\u0642\u0635\u0628\u0629", "name:ber": "\u2d5d\u2d30\u2d47\u2d5a\u2d3b\u2d32\u2d5d", "name:fr": "Casbah", "name:kab": "Taq\u1e63ebt", "place": "town", "population": "36762", "population:date": "2008", "ref:whc": "565", "source:population": "https://www.ons.dz/collections/w16_p1.pdf", "whc:inscription_date": "1992", "wikidata": "Q662102", "wikipedia": "fr:Casbah d'Alger"}}, {"type": "node", "id": 4099243525, "lat": 36.7288713, "lon": 3.1469178, "tags": {"alt_name:ar": "\u0645\u062d\u0645\u062f\u064a\u0629", "name": "Mohammadia", "name:ar": "\u0627\u0644\u0645\u062d\u0645\u062f\u064a\u0629", "name:azb": "\u0645\u062d\u0645\u062f\u06cc\u0647", "name:ber": "\u2d4e\u2d53\u2d43\u2d3b\u2d4e\u2d4e\u2d30\u2d37\u2d62\u2d30", "name:de": "Al-Muhammadiyya", "name:en": "Mohammedia", "name:fa": "\u0645\u062d\u0645\u062f\u06cc\u0647", "name:fr": "Mohammadia", "name:kab": "Mu\u1e25emmadeyya", "name:ur": "\u0645\u062d\u0645\u062f\u06cc\u06c1", "place": "town", "population": "62555", "wikidata": "Q2741121", "wikimedia_commons": "Category:Mohammadia, Algiers Province", "wikipedia": "ar:\u0628\u0644\u062f\u064a\u0629 \u0627\u0644\u0645\u062d\u0645\u062f\u064a\u0629 (\u0627\u0644\u062c\u0632\u0627\u0626\u0631)"}}, {"type": "node", "id": 4099281394, "lat": 36.7313349, "lon": 3.1085569, "tags": {"alt_name:ar": "\u0627\u0644\u0645\u063a\u0627\u0631\u064a\u0629", "name": "El Magharia", "name:ar": "\u0627\u0644\u0645\u0642\u0627\u0631\u064a\u0629", "name:ber": "\u2d4d\u2d4e\u2d30\u2d56\u2d30\u2d54\u2d62\u2d30", "name:de": "Al-Maq\u0101r\u012bya", "name:en": "El Magharia", "name:fr": "El Magharia", "name:kab": "Maqareyya", "place": "town", "population": "31453", "wikidata": "Q3050050", "wikipedia": "ar:\u0627\u0644\u0645\u0642\u0627\u0631\u064a\u0629"}}, {"type": "node", "id": 7418153067, "lat": 36.7190477, "lon": 3.1255063}, {"type": "node", "id": 7418153070, "lat": 36.7198045, "lon": 3.1253668}, {"type": "node", "id": 7418169907, "lat": 36.7205003, "lon": 3.1231373}, {"type": "node", "id": 7445173292, "lat": 36.719272, "lon": 3.121978}, {"type": "node", "id": 7445173293, "lat": 36.7192075, "lon": 3.1221818}, {"type": "node", "id": 7445173294, "lat": 36.7191295, "lon": 3.1223533}, {"type": "node", "id": 7445173295, "lat": 36.7190494, "lon": 3.1227693}, {"type": "node", "id": 7445173296, "lat": 36.718964, "lon": 3.1230067}, {"type": "node", "id": 7445173297, "lat": 36.71853, "lon": 3.123331}, {"type": "node", "id": 7445173298, "lat": 36.7182555, "lon": 3.1232773}, {"type": "node", "id": 7445173299, "lat": 36.7178199, "lon": 3.1233188}, {"type": "node", "id": 7445173300, "lat": 36.7176253, "lon": 3.1234374}, {"type": "node", "id": 7445173301, "lat": 36.7175243, "lon": 3.1236099}, {"type": "node", "id": 7445173302, "lat": 36.7174446, "lon": 3.1238864}, {"type": "node", "id": 7445173303, "lat": 36.7174201, "lon": 3.1242103}, {"type": "node", "id": 7445173304, "lat": 36.7175475, "lon": 3.1246805}, {"type": "node", "id": 7445173305, "lat": 36.7177268, "lon": 3.1252007}, {"type": "node", "id": 7445173306, "lat": 36.717892, "lon": 3.1254869}, {"type": "node", "id": 7445173307, "lat": 36.7184013, "lon": 3.1255401}, {"type": "node", "id": 7445173308, "lat": 36.7202309, "lon": 3.1252717}, {"type": "node", "id": 7445173309, "lat": 36.7203384, "lon": 3.124982}, {"type": "node", "id": 7445173310, "lat": 36.7203642, "lon": 3.1248909}, {"type": "node", "id": 7445173311, "lat": 36.720648, "lon": 3.1249284}, {"type": "node", "id": 7445173312, "lat": 36.7207641, "lon": 3.1250142}, {"type": "node", "id": 7445173313, "lat": 36.7209558, "lon": 3.1251776}, {"type": "node", "id": 7445173314, "lat": 36.7213054, "lon": 3.1246358}, {"type": "node", "id": 7445173315, "lat": 36.7216483, "lon": 3.1241426}, {"type": "node", "id": 7445173316, "lat": 36.7218454, "lon": 3.1238757}, {"type": "node", "id": 7445173317, "lat": 36.7221259, "lon": 3.1235213}, {"type": "node", "id": 7445173318, "lat": 36.7223672, "lon": 3.1232995}, {"type": "node", "id": 7445173319, "lat": 36.7225877, "lon": 3.1231657}, {"type": "node", "id": 7445173320, "lat": 36.7226393, "lon": 3.1231644}, {"type": "node", "id": 7445173321, "lat": 36.7225714, "lon": 3.123023}, {"type": "node", "id": 7445173322, "lat": 36.7225052, "lon": 3.1229365}, {"type": "node", "id": 7445173323, "lat": 36.7221503, "lon": 3.1230241}, {"type": "node", "id": 7445173324, "lat": 36.721432, "lon": 3.1231827}, {"type": "node", "id": 7445173325, "lat": 36.7210968, "lon": 3.1233241}, {"type": "node", "id": 9943489347, "lat": 36.7188597, "lon": 3.1254756}, {"type": "node", "id": 11379486680, "lat": 36.7179165, "lon": 3.1233039}, {"type": "way", "id": 795988394, "nodes": [7445173292, 7445173293, 7445173294, 7445173295, 7445173296, 472223387, 7445173297, 7445173298, 347434975, 11379486680, 7445173299, 7445173300, 7445173301, 7445173302, 7445173303, 7445173304, 7445173305, 7445173306, 7445173307, 472223451, 9943489347, 7418153067, 7418153070, 7445173308, 7445173309, 7445173310, 7445173311, 7445173312, 7445173313, 7445173314, 7445173315, 7445173316, 7445173317, 7445173318, 7445173319, 7445173320, 7445173321, 7445173322, 7445173323, 472190522, 7445173324, 7445173325, 2574948839, 7418169907, 2574949042, 2574949096, 2574948958, 2574949107, 2574948909, 7445173292], "tags": {"description": "la ville de diar el afia englobe touts les quartier de diar el afia il s'agit d'une agglom\u00e9ration segondaire de la commune de bourouba", "name": "Diar El Afia", "name:ar": "\u0645\u062f\u064a\u0646\u0629\u062f\u064a\u0627\u0631 \u0627\u0644\u0639\u0627\u0641\u064a\u0629 \u0628\u0648\u0631\u0648\u0628\u0629 \u0628\u0623\u062d\u064a\u0627\u0626\u0647\u0627 \u0627\u0644\u0627\u0631\u0628\u0639", "name:en": "Diar El Afia", "name:fr": "Diar El Afia", "name:kab": "Dyar L\u025bafya", "place": "town", "population": "20000"}}]}