{"version": 0.6, "generator": "Overpass API 0.7.62.4 2390de5a", "osm3s": {"timestamp_osm_base": "2025-01-08T06:54:15Z", "copyright": "The data included in this document is from www.openstreetmap.org. The data is made available under ODbL."}, "elements": [{"type": "node", "id": 419488780, "lat": 24.888852, "lon": 14.531484, "tags": {"alt_name": "Al Katrun;Gatrone;Al Gatrun", "name": "\u0627\u0644\u0642\u0637\u0631\u0648\u0646", "name:ar": "\u0627\u0644\u0642\u0637\u0631\u0648\u0646", "name:de": "Al-Qatrun", "name:en": "Qatrun", "name:es": "Al Qatrun", "name:fi": "Al-Qatrun", "name:fr": "Gatrone", "name:it": "El-Gatrun", "name:nl": "Al Qatrun", "name:pl": "Al-Katrun", "name:sv": "Al Qa\u0163r\u016bn", "name:vi": "Al Qatrun", "place": "city", "wikidata": "Q285287", "wikipedia": "ar:\u0627\u0644\u0642\u0637\u0631\u0648\u0646"}}, {"type": "node", "id": 1190551576, "lat": 24.9182187, "lon": 14.5437553}, {"type": "node", "id": 1190551581, "lat": 24.871588, "lon": 14.5377404}, {"type": "node", "id": 1190551583, "lat": 24.8182359, "lon": 14.4943184}, {"type": "node", "id": 1190551597, "lat": 24.8547479, "lon": 14.4853706}, {"type": "node", "id": 1190551602, "lat": 24.8181775, "lon": 14.5048112}, {"type": "node", "id": 1190551608, "lat": 24.8837049, "lon": 14.5434004}, {"type": "node", "id": 1190551610, "lat": 24.9041737, "lon": 14.5196581}, {"type": "node", "id": 1190551619, "lat": 24.8878904, "lon": 14.5027341}, {"type": "node", "id": 1190551621, "lat": 24.845986, "lon": 14.5116562}, {"type": "node", "id": 1190551625, "lat": 24.8968202, "lon": 14.5478649}, {"type": "node", "id": 1190551627, "lat": 24.8739946, "lon": 14.512429}, {"type": "node", "id": 1565508983, "lat": 24.832511, "lon": 14.4986529, "tags": {"name": "\u0627\u0644\u0628\u062e\u064a", "name:ar": "\u0627\u0644\u0628\u062e\u064a", "name:en": "Al Bakhi", "name:fr": "Al Bakhi", "pcode": "LY-25-10017", "place": "town", "population": "2920", "shabya_cd": "25", "source": "NGA;OCHA"}}, {"type": "node", "id": 3354504501, "lat": 24.9192521, "lon": 14.5346768}, {"type": "node", "id": 3354582738, "lat": 24.8261234, "lon": 14.514832}, {"type": "node", "id": 3354582739, "lat": 24.8225595, "lon": 14.481358}, {"type": "way", "id": 103103748, "nodes": [1190551597, 1190551621, 3354582738, 1190551602, 1190551583, 3354582739, 1190551597], "tags": {"name": "\u0627\u0644\u0628\u062e\u064a", "name:ar": "\u0627\u0644\u0628\u062e\u064a", "name:en": "Al Bakhi", "name:fr": "Al Bakhi", "place": "town"}}, {"type": "way", "id": 103103752, "nodes": [1190551610, 3354504501, 1190551576, 1190551625, 1190551608, 1190551581, 1190551627, 1190551619, 1190551610], "tags": {"name": "\u0627\u0644\u0642\u0637\u0631\u0648\u0646", "name:ar": "\u0627\u0644\u0642\u0637\u0631\u0648\u0646", "name:en": "Qatrun", "name:fr": "Gatrone", "place": "town"}}]}