{"version": 0.6, "generator": "Overpass API 0.7.62.4 2390de5a", "osm3s": {"timestamp_osm_base": "2025-01-08T07:18:43Z", "copyright": "The data included in this document is from www.openstreetmap.org. The data is made available under ODbL."}, "elements": [{"type": "node", "id": 63439010, "lat": 33.894009, "lon": -6.31673, "tags": {"capital": "6", "int_name": "Tiflet", "name": "Tiflet \u2d5c\u2d49\u2d3c\u2d3c\u2d4d\u2d5c \u062a\u064a\u0641\u0644\u062a", "name:ar": "\u062a\u064a\u0641\u0644\u062a", "name:ber": "\u2d5c\u2d49\u2d3c\u2d3c\u2d4d\u2d5c", "name:en": "Tiflet", "name:fr": "Tiflet", "name:ml": "\u0d24\u0d3f\u0d2b\u0d4d\u0d32\u0d24\u0d4d\u0d24\u0d4d", "name:zgh": "\u2d5c\u2d49\u2d3c\u2d3c\u2d4d\u2d5c", "place": "town", "population": "69604", "population:date": "2004", "wikidata": "Q2501786", "wikipedia": "en:Tifelt"}}, {"type": "node", "id": 1864948625, "lat": 34.010715, "lon": -6.532357, "tags": {"capital": "6", "int_name": "Sidi Allal El Bahraoui", "name": "Sidi Allal El Bahraoui \u2d59\u2d49\u2d37\u2d49 \u2d44\u2d4d\u2d4d\u2d30\u2d4d \u2d30\u2d31\u2d43\u2d54\u2d30\u2d61\u2d49 \u0633\u064a\u062f\u064a \u0639\u0644\u0627\u0644 \u0627\u0644\u0628\u062d\u0631\u0627\u0648\u064a", "name:ar": "\u0633\u064a\u062f\u064a \u0639\u0644\u0627\u0644 \u0627\u0644\u0628\u062d\u0631\u0627\u0648\u064a", "name:ber": "\u2d59\u2d49\u2d37\u2d49 \u2d44\u2d4d\u2d4d\u2d30\u2d4d \u2d30\u2d31\u2d43\u2d54\u2d30\u2d61\u2d49", "name:en": "Sidi Allal El Bahraoui", "name:fr": "Sidi Allal El Bahraoui", "name:zgh": "\u2d59\u2d49\u2d37\u2d49 \u2d44\u2d4d\u2d4d\u2d30\u2d4d \u2d30\u2d31\u2d43\u2d54\u2d30\u2d61\u2d49", "place": "town", "wikidata": "Q3483178", "wikipedia": "en:Sidi Allal El Bahraoui"}}, {"type": "node", "id": 1884808332, "lat": 34.1916611, "lon": -6.6844815, "tags": {"capital": "7", "int_name": "Sidi Taibi", "name": "Sidi Taibi \u2d59\u2d49\u2d37\u2d49 \u2d5f\u2d62\u2d62\u2d31\u2d49 \u0633\u064a\u062f\u064a \u0637\u064a\u0628\u064a", "name:ar": "\u0633\u064a\u062f\u064a \u0637\u064a\u0628\u064a", "name:ber": "\u2d59\u2d49\u2d37\u2d49 \u2d5f\u2d62\u2d62\u2d31\u2d49", "name:en": "Sidi Taibi", "name:fr": "Sidi Taibi", "name:zgh": "\u2d59\u2d49\u2d37\u2d49 \u2d5f\u2d62\u2d62\u2d31\u2d49", "place": "town"}}]}