{"version": 0.6, "generator": "Overpass API 0.7.62.4 2390de5a", "osm3s": {"timestamp_osm_base": "2025-01-08T06:26:38Z", "copyright": "The data included in this document is from www.openstreetmap.org. The data is made available under ODbL."}, "elements": [{"type": "node", "id": 38903284, "lat": 26.2235041, "lon": 50.5822436, "tags": {"admin_level": "2", "capital": "yes", "is_capital": "country", "name": "\u0627\u0644\u0645\u0646\u0627\u0645\u0629", "name:ace": "Al-Manamah", "name:af": "Manama", "name:als": "Manama", "name:am": "\u121b\u1293\u121b", "name:an": "Manama", "name:ang": "Manama", "name:ar": "\u0627\u0644\u0645\u0646\u0627\u0645\u0629", "name:arz": "\u0627\u0644\u0645\u0646\u0627\u0645\u0647", "name:ast": "Manama", "name:az": "Manama", "name:azb": "\u0645\u0646\u0627\u0645\u0647", "name:ba": "\u041c\u0430\u043d\u0430\u043c\u0430", "name:bcl": "Manama", "name:be": "\u041c\u0430\u043d\u0430\u043c\u0430", "name:be-tarask": "\u041c\u0430\u043d\u0430\u043c\u0430", "name:bg": "\u041c\u0430\u043d\u0430\u043c\u0430", "name:bn": "\u09ae\u09be\u09a8\u09be\u09ae\u09be", "name:bo": "\u0f58\u0f0b\u0f53\u0f0b\u0f58\u0f0d", "name:br": "Manama", "name:bs": "Manama", "name:ca": "Al-Manama", "name:cdo": "Manama", "name:ce": "\u041c\u0430\u043d\u0430\u043c\u0430", "name:ceb": "Manama", "name:ckb": "\u0645\u06d5\u0646\u0627\u0645\u06d5", "name:cs": "Man\u00e1ma", "name:cy": "Manama", "name:da": "Manama", "name:de": "Manama", "name:diq": "Mename", "name:el": "\u039c\u03b1\u03bd\u03ac\u03bc\u03b1", "name:en": "Manama", "name:eo": "Manamo", "name:es": "Manama", "name:et": "Manama", "name:eu": "Manama", "name:fa": "\u0645\u0646\u0627\u0645\u0647", "name:fi": "Manama", "name:fr": "Manama", "name:frp": "Manama", "name:fy": "Manama", "name:ga": "Manama", "name:gd": "Manama", "name:gl": "Manama", "name:hak": "Manama", "name:he": "\u05de\u05e0\u05d0\u05de\u05d4", "name:hi": "\u092e\u0928\u093e\u092e\u093e", "name:hif": "Manama", "name:hr": "Manama", "name:hsb": "Manama", "name:ht": "Manama", "name:hu": "Man\u00e1ma", "name:hy": "\u0544\u0561\u0576\u0561\u0574\u0561", "name:ia": "Manama", "name:id": "Al-Manamah", "name:ie": "Manama", "name:ilo": "Manama", "name:io": "Al Manamah", "name:is": "Manama", "name:it": "Manama", "name:ja": "\u30de\u30ca\u30fc\u30de", "name:ka": "\u10db\u10d0\u10dc\u10d0\u10db\u10d0", "name:kaa": "Manama", "name:kab": "Manama", "name:ki": "Manama", "name:kk": "\u041c\u0430\u043d\u0430\u043c\u0430", "name:kn": "\u0cae\u0ca8\u0cbe\u0cae", "name:ko": "\ub9c8\ub098\ub9c8", "name:ku": "Mename", "name:ky": "\u041c\u0430\u043d\u0430\u043c\u0430", "name:la": "Manama", "name:lb": "Manama", "name:lij": "Manama", "name:lmo": "Manama", "name:lt": "Menama", "name:lv": "Man\u0101ma", "name:mai": "\u092e\u0928\u093e\u092e\u093e", "name:mg": "Manama", "name:mk": "\u041c\u0430\u043d\u0430\u043c\u0430", "name:ml": "\u0d2e\u0d28\u0d3e\u0d2e", "name:mn": "\u041c\u0430\u043d\u0430\u043c\u0430", "name:mr": "\u092e\u0928\u093e\u092e\u093e", "name:ms": "Manama", "name:mt": "Manama", "name:my": "\u1019\u102c\u1014\u102c\u1019\u102c\u1019\u103c\u102d\u102f\u1037", "name:myv": "\u041c\u0430\u043d\u0430\u043c\u0430", "name:na": "Manama", "name:nah": "Man\u0101mah", "name:ne": "\u092e\u0928\u093e\u092e\u093e", "name:nl": "Manamah", "name:no": "Manama", "name:oc": "Manama", "name:os": "\u041c\u0430\u043d\u0430\u043c\u00e6", "name:pa": "\u0a2e\u0a28\u0a3e\u0a2e\u0a3e", "name:pap": "Manama", "name:pih": "Manaama", "name:pl": "Manama", "name:pms": "Manama", "name:pnb": "\u0645\u0627\u0646\u0627\u0645\u06c1", "name:ps": "\u0645\u0646\u0627\u0645\u0647", "name:pt": "Manama", "name:rm": "Manama", "name:ro": "Manama", "name:ru": "\u041c\u0430\u043d\u0430\u043c\u0430", "name:rw": "Manama", "name:sat": "\u1c62\u1c5f\u1c71\u1c5f\u1c62\u1c5f", "name:sc": "Manama", "name:scn": "Manama", "name:sco": "Manama", "name:sh": "Manama", "name:sk": "Man\u00e1ma", "name:sl": "Manama", "name:sn": "Manama", "name:sq": "Manama", "name:sr": "\u041c\u0430\u043d\u0430\u043c\u0430", "name:su": "Al-Manamah", "name:sv": "Manama", "name:sw": "Manama", "name:ta": "\u0bae\u0ba9\u0bbe\u0bae\u0bbe", "name:tg": "\u041c\u0430\u043d\u0430\u043c\u0430", "name:th": "\u0e21\u0e32\u0e19\u0e32\u0e21\u0e32", "name:tl": "Manama", "name:tr": "Men\u00e2me", "name:udm": "\u041c\u0430\u043d\u0430\u043c\u0430", "name:uk": "\u041c\u0430\u043d\u0430\u043c\u0430", "name:ur": "\u0645\u0646\u0627\u0645\u06c1", "name:uz": "Manama", "name:vep": "Manam", "name:vi": "Manama", "name:vo": "M\u00e4nam\u00e4", "name:war": "Manama", "name:wuu": "\u9ea6\u7eb3\u9ea6", "name:xmf": "\u10db\u10d0\u10dc\u10d0\u10db\u10d0", "name:yo": "Manama", "name:yue": "\u9ea5\u7d0d\u746a", "name:zh": "\u9ea5\u7d0d\u9ea5", "place": "city", "population": "157474", "source:population": "French Wikipedia", "wikidata": "Q3882", "wikipedia": "ar:\u0627\u0644\u0645\u0646\u0627\u0645\u0629"}}, {"type": "node", "id": 315862374, "lat": 26.0484553, "lon": 50.4869845, "tags": {"fixme": "name, name:ar mismatch.", "int_name": "Zallaq", "name": "\u0627\u0644\u0632\u0644\u0627\u0642", "name:ar": "\u0627\u0644\u0632\u0644\u0627\u0642", "name:cs": "Zallak", "name:en": "Zallaq", "name:ko": "\uc54c\uc798\ub77c\ud06c", "name:ml": "\u0d38\u0d32\u0d4d\u0d32\u0d16\u0d4d", "place": "town", "source": "Kaart Ground Survey 2017", "wikidata": "Q4117781", "wikipedia": "ar:\u0627\u0644\u0632\u0644\u0627\u0642"}}, {"type": "node", "id": 659277749, "lat": 26.0651104, "lon": 50.5122187, "tags": {"int_name": "Dar Kulayb", "name": "\u062f\u0627\u0631 \u0643\u0644\u064a\u0628", "name:ar": "\u062f\u0627\u0631 \u0643\u0644\u064a\u0628", "name:cs": "D\u00e1r Kulajb", "name:en": "Dar Kulayb", "name:ml": "\u0d26\u0d3e\u0d7c \u0d15\u0d41\u0d32\u0d48\u0d2c\u0d4d", "place": "town", "wikidata": "Q5221908"}}, {"type": "node", "id": 659360718, "lat": 26.1267463, "lon": 50.4983356, "tags": {"alt_name:en": "Madinat Hamad", "int_name": "Madinat Hamad", "name": "\u0645\u062f\u064a\u0646\u0629 \u062d\u0645\u062f", "name:ar": "\u0645\u062f\u064a\u0646\u0629 \u062d\u0645\u062f", "name:cs": "Mad\u00ednat Hamad", "name:de": "Hamad", "name:en": "Hamad Town", "name:es": "Madinat Hamad", "name:fr": "Hamad Town", "name:ml": "\u0d39\u0d2e\u0d26\u0d4d \u0d1f\u0d57\u0d7a", "place": "town", "population": "133350", "wikidata": "Q2088687", "wikipedia": "en:Hamad Town"}}, {"type": "node", "id": 659462987, "lat": 26.1138329, "lon": 50.4809962, "tags": {"int_name": "Karzakkan", "name": "\u0643\u0631\u0632\u0643\u0627\u0646", "name:ar": "\u0643\u0631\u0632\u0643\u0627\u0646", "name:cs": "Karzakan", "name:de": "Karzakan", "name:en": "Karzakan", "name:es": "Karzakan", "name:fr": "Karzakan", "place": "town", "wikidata": "Q985377"}}, {"type": "node", "id": 2141284320, "lat": 26.1544539, "lon": 50.5273639, "tags": {"name": "\u0639\u0627\u0644\u064a", "name:ar": "\u0639\u0627\u0644\u064a", "name:cs": "\u00c1l\u00ed", "name:de": "A'ali", "name:en": "A'ali", "name:es": "A'ali", "name:fr": "A'ali", "name:ml": "\u0d06\u0d32\u0d3f", "place": "city", "population": "100553", "wikidata": "Q2351767"}}, {"type": "node", "id": 2189162638, "lat": 26.0834264, "lon": 50.5489052, "tags": {"int_name": "Awali", "name": "\u0639\u0648\u0627\u0644\u064a", "name:ar": "\u0639\u0648\u0627\u0644\u064a", "name:en": "Awali", "name:fr": "Awali", "name:ml": "\u0d05\u0d35\u0d3e\u0d32\u0d3f", "place": "town", "wikidata": "Q4115261", "wikipedia": "en:Awali"}}, {"type": "node", "id": 2189166838, "lat": 26.1315261, "lon": 50.5503431, "tags": {"name": "\u0627\u0644\u0631\u0641\u0627\u0639", "name:ar": "\u0627\u0644\u0631\u0641\u0627\u0639", "name:cs": "ar-Riff\u00e1", "name:de": "Ar-Riffa", "name:en": "Riffa", "name:es": "Riffa", "name:fa": "\u0631\u0641\u0627\u0639", "name:fr": "Riffa", "name:he": "\u05e8\u05d9\u05e4\u05d4", "name:ks": "\u0631\u0641\u0627\u0639", "name:ml": "\u0d31\u0d3f\u0d2b\u0d3e", "name:ru": "\u042d\u0440-\u0420\u0438\u0444\u0430", "name:ur": "\u0631\u0641\u0627\u0639", "place": "city", "population": "121566", "wikidata": "Q1771398", "wikipedia": "ar:\u0627\u0644\u0631\u0641\u0627\u0639"}}, {"type": "node", "id": 2189168653, "lat": 26.2156292, "lon": 50.4523545, "tags": {"name": "\u0627\u0644\u0628\u062f\u064a\u0639", "name:ar": "\u0627\u0644\u0628\u062f\u064a\u0639", "name:en": "Budaiya", "name:fr": "Boudaya", "name:ml": "\u0d2c\u0d41\u0d26\u0d48\u0d2f", "place": "town", "population": "30702"}}, {"type": "node", "id": 2363170274, "lat": 26.1741995, "lon": 50.5473432, "tags": {"int_name": "Madinat 'Isa", "name": "\u0645\u062f\u064a\u0646\u0629 \u0639\u064a\u0633\u0649", "name:ar": "\u0645\u062f\u064a\u0646\u0629 \u0639\u064a\u0633\u0649", "name:en": "Isa Town", "name:ml": "\u0d08\u0d38 \u0d1f\u0d57\u0d7a", "place": "town", "population": "36876", "wikidata": "Q1017673", "wikipedia": "en:Isa Town"}}, {"type": "node", "id": 2363180279, "lat": 26.2163449, "lon": 50.5407172, "tags": {"int_name": "Jid Hafs", "name": "\u062c\u062f \u062d\u0641\u0635", "name:ar": "\u062c\u062f \u062d\u0641\u0635", "name:cs": "D\u017eidd Hafs", "name:en": "Jid Hafs", "name:ml": "\u0d1c\u0d3f\u0d26\u0d4d \u0d39\u0d2b\u0d38\u0d4d", "place": "town"}}, {"type": "node", "id": 8717733242, "lat": 26.1898256, "lon": 50.4941714, "tags": {"name": "\u0633\u0627\u0631", "name:ar": "\u0633\u0627\u0631", "name:az-Arab": "\u0633\u0627\u0631", "name:azb": "\u0633\u0627\u0631", "name:de": "Saar", "name:en": "Saar", "name:fa": "\u0633\u0627\u0631", "name:ks": "\u0633\u0627\u0631", "name:ml": "\u0d38\u0d3e\u0d7c", "name:ur": "\u0633\u0627\u0631", "place": "town", "population": "6000"}}, {"type": "node", "id": 8717747963, "lat": 26.1846, "lon": 50.5253883, "tags": {"name": "\u0633\u0644\u0645\u0627\u0628\u0627\u062f", "name:ar": "\u0633\u0644\u0645\u0627\u0628\u0627\u062f", "name:de": "Salmabad", "name:en": "Salmabad", "name:fa": "\u0633\u0644\u0645\u200c\u0622\u0628\u0627\u062f", "name:ml": "\u0d38\u0d7d\u0d2e\u0d3e\u0d2c\u0d3e\u0d26\u0d4d", "place": "town", "population": "19342", "wikidata": "Q3133688", "wikipedia": "ar:\u0633\u0644\u0645\u0627\u0628\u0627\u062f"}}]}