{"version": 0.6, "generator": "Overpass API 0.7.62.4 2390de5a", "osm3s": {"timestamp_osm_base": "2025-01-08T07:00:15Z", "copyright": "The data included in this document is from www.openstreetmap.org. The data is made available under ODbL."}, "elements": [{"type": "node", "id": 253292160, "lat": 36.7137843, "lon": 4.0493919, "tags": {"capital": "4", "name": "Tizi Ouzou \u2d5d\u2d49\u2d63\u2d49 \u2d61\u2d3b\u2d63\u2d53 \u062a\u064a\u0632\u064a \u0648\u0632\u0648", "name:ar": "\u062a\u064a\u0632\u064a \u0648\u0632\u0648", "name:azb": "\u062a\u06cc\u0632\u06cc \u0648\u0632\u0648", "name:ber": "\u2d5d\u2d49\u2d63\u2d49 \u2d61\u2d3b\u2d63\u2d53", "name:de": "Tizi Ouzou", "name:el": "\u03a4\u03af\u03b6\u03b9 \u039f\u03cd\u03b6\u03bf\u03c5", "name:en": "Tizi Ouzou", "name:es": "Tizi Uzu", "name:fa": "\u062a\u06cc\u0632\u06cc \u0648\u0632\u0648", "name:fr": "Tizi Ouzou", "name:it": "Tizi Ouzou", "name:ja": "\u30c6\u30a3\u30b8\u30fb\u30a6\u30ba\u30fc", "name:kab": "Tizi Wezzu", "name:ks": "\u062a\u06cc\u0632\u06cc \u0648\u0632\u0648", "name:lt": "Tizi Ouzou", "name:pnb": "\u062a\u06cc\u0632\u06cc \u0648\u0632\u0648", "name:ru": "\u0422\u0438\u0437\u0438-\u0423\u0437\u0443", "name:ur": "\u062a\u06cc\u0632\u06cc \u0648\u0632\u0648", "name:zh": "\u63d0\u6d4e\u4e4c\u7956", "place": "city", "population": "135088", "population:date": "2008", "ref:ONS": "1501", "wikidata": "Q277201", "wikipedia": "fr:Tizi Ouzou"}}, {"type": "node", "id": 253292622, "lat": 36.7333317, "lon": 3.9587692, "tags": {"loc_name": "Dra\u025b Ben Xedda", "name": "Dra\u00e2 Ben Khedda", "name:ar": "\u0630\u0631\u0627\u0639 \u0628\u0646 \u062e\u062f\u0629", "name:ber": "\u2d38\u2d54\u2d30\u2d44 \u2d31\u2d3b\u2d4f \u2d45\u2d3b\u2d37\u2d37\u2d30", "name:en": "Draa Ben Khedda", "name:fr": "Dra\u00e2 Ben Khedda", "name:kab": "Dra\u025b Ben Xedda", "old_name": "Mirabeau", "place": "town", "population": "31382", "postal_code": "15100", "wikidata": "Q5306152", "wikimedia_commons": "Category:Dra\u00e2 Ben Khedda", "wikipedia": "fr:Dra\u00e2 Ben Khedda"}}, {"type": "node", "id": 253292625, "lat": 36.9140699, "lon": 3.9129556, "tags": {"name": "Dellys \u2d37\u2d3b\u2d4d\u2d3b\u2d59 \u062f\u0644\u0633", "name:ar": "\u062f\u0644\u0633", "name:ber": "\u2d37\u2d3b\u2d4d\u2d3b\u2d59", "name:en": "Dellys", "name:fr": "Dellys", "name:he": "\u05d3\u05dc\u05d9\u05e1", "name:kab": "Delles", "place": "town", "population": "32954", "website": "http://www.communedellys.dz/", "wikidata": "Q3021755", "wikimedia_commons": "Category:Dellys", "wikipedia": "fr:Dellys"}}, {"type": "node", "id": 290255429, "lat": 36.7446573, "lon": 3.9012256, "tags": {"alt_name:ar": "\u062b\u0627\u0630\u0645\u0627\u064a\u062b", "loc_name": "Tadmayt", "name": "Tadma\u00eft", "name:ar": "\u062a\u0627\u062f\u0645\u0627\u064a\u062a", "name:ber": "\u2d5d\u2d30\u2d38\u2d4e\u2d30\u2d62\u2d5d", "name:en": "Tadmait", "name:fr": "Tadma\u00eft", "name:kab": "Tadmayt", "old_name": "Camp-du-Mar\u00e9chal", "place": "town", "population": "22838", "wikidata": "Q3513734", "wikimedia_commons": "Category:Tadma\u00eft", "wikipedia": "fr:Tadma\u00eft"}}, {"type": "node", "id": 425029266, "lat": 36.8926614, "lon": 4.126179, "tags": {"alt_name:ar": "\u062a\u06a4\u0632\u064a\u062b", "loc_name": "Tigzirt", "name": "Tigzirt", "name:ar": "\u062b\u064a\u06a4\u0632\u064a\u0631\u062b", "name:ber": "\u2d5d\u2d49\u2d34\u2d63\u2d49\u2d54\u2d5d", "name:en": "Tigzirt", "name:fr": "Tigzirt", "name:it": "Tigzirt", "name:kab": "Tigzirt", "name:pt": "Tigzirt", "name:vi": "Tigzirt", "old_name": "Tigzirt-sur-Mer", "place": "town", "wikidata": "Q3173842", "wikimedia_commons": "Category:Tigzirt", "wikipedia": "fr:Tigzirt"}}, {"type": "node", "id": 442761948, "lat": 36.6789662, "lon": 4.2086164, "tags": {"name": "Tizi Rached", "name:ar": "\u062a\u064a\u0632\u064a \u0631\u0627\u0634\u062f", "name:ber": "\u2d5d\u2d49\u2d63\u2d49 \u2d54\u2d30\u2d5b\u2d3b\u2d38", "name:de": "Tizi Rached", "name:en": "Tizi Rached", "name:fr": "Tizi Rached", "name:kab": "Tizi Raced", "place": "town", "population": "17161", "wikidata": "Q3529993", "wikimedia_commons": "Category:Tizi Rached", "wikipedia": "fr:Tizi Rached"}}, {"type": "node", "id": 442761953, "lat": 36.6876391, "lon": 4.2681185, "tags": {"loc_name": "Meqle\u03b5", "name": "Mekla", "name:ar": "\u0645\u0642\u0644\u0639", "name:ber": "\u2d4e\u2d3b\u2d47\u2d4d\u2d3b\u2d44", "name:en": "Mekla", "name:fr": "Mekla", "name:kab": "Meqle\u03b5", "place": "town", "population": "24237", "wikidata": "Q1649145", "wikimedia_commons": "Category:Mekla", "wikipedia": "fr:Mekla"}}, {"type": "node", "id": 442762008, "lat": 36.757399, "lon": 4.3194454, "tags": {"loc_name": "Fri\u1e25a", "name": "Freha", "name:ar": "\u0641\u0631\u064a\u062d\u0629", "name:ber": "\u2d3c\u2d55\u2d49\u2d43\u2d30", "name:de": "Freha", "name:en": "Freha", "name:es": "Freha", "name:fr": "Freha", "name:it": "Freha", "name:kab": "Fri\u1e25a", "place": "town", "population": "24228", "wikidata": "Q1895391", "wikimedia_commons": "Category:Freha", "wikipedia": "fr:Freha"}}, {"type": "node", "id": 442762044, "lat": 36.744738, "lon": 4.3716399, "tags": {"name": "Azazga", "name:ar": "\u0639\u0632\u0627\u0632\u0642\u0629", "name:azb": "\u0639\u0632\u0627\u0632\u0642\u0647", "name:ber": "\u2d49\u2d44\u2d30\u2d63\u2d63\u2d53\u2d34\u2d3b\u2d4f", "name:en": "Azazga", "name:fr": "Azazga", "name:kab": "I\u025be\u1e93\u1e93ugen", "place": "town", "population": "34683", "wikidata": "Q2875118", "wikimedia_commons": "Category:Azazga", "wikipedia": "fr:Azazga"}}, {"type": "node", "id": 442789879, "lat": 36.5704326, "lon": 4.3111366, "tags": {"alt_name:kab": "Micli", "name": "A\u00efn El Hammam", "name:ar": "\u0639\u064a\u0646 \u0627\u0644\u062d\u0645\u0627\u0645", "name:ber": "\u2d44\u2d49\u2d4f \u2d4d\u2d43\u2d3b\u2d4e\u2d4e\u2d30\u2d4e", "name:en": "Ain El Hammam", "name:fr": "A\u00efn El Hammam", "name:kab": "\u0190in L\u1e25emmam", "old_name": "Michelet", "place": "town", "population": "20401", "wikidata": "Q276935", "wikimedia_commons": "Category:Ain El Hammam", "wikipedia": "fr:A\u00efn El Hammam"}}, {"type": "node", "id": 442792269, "lat": 36.6374918, "lon": 4.2028466, "tags": {"alt_name:ar": "\u0644\u0627\u0631\u0628\u0639\u0627 \u0646\u0627\u064a\u062a \u064a\u064a\u0631\u0627\u062b\u0646", "name": "Larb\u00e2a n Ath Irathen", "name:ar": "\u0627\u0644\u0623\u0631\u0628\u0639\u0627\u0621 \u0646\u0627\u062b \u0625\u064a\u0631\u0627\u062b\u0646", "name:ber": "\u2d4d\u2d30\u2d54\u2d32\u2d44\u2d30 \u2d4f \u2d30\u2d5d \u2d62\u2d49\u2d54\u2d30\u2d5d\u2d3b\u2d4f", "name:en": "Larbaa Nath Irathen", "name:fr": "Larb\u00e2a N'A\u00eft Irathen", "name:kab": "Lareb\u025ba n At Yiraten", "place": "town", "population": "29376", "wikidata": "Q764741", "wikimedia_commons": "Category:Larba\u00e2 Nath Irathen", "wikipedia": "fr:Larba\u00e2 Nath Irathen"}}, {"type": "node", "id": 443181184, "lat": 36.555223, "lon": 4.0867217, "tags": {"loc_name": "Iwa\u1e0diyen", "name": "Ouadhia", "name:ar": "\u0648\u0627\u0636\u064a\u0629", "name:ber": "\u2d49\u2d61\u2d30\u2d3a\u2d49\u2d62\u2d3b\u2d4f", "name:de": "Ouadhia", "name:en": "Ouadhia", "name:fr": "Ouadhia", "name:kab": "Iwa\u1e0diyen", "place": "town", "population": "15771", "wikidata": "Q2087312", "wikipedia": "fr:Ouadhia"}}, {"type": "node", "id": 443181221, "lat": 36.5438917, "lon": 4.011092, "tags": {"loc_name": "Amec\u1e5bas", "name": "Mechtras", "name:ar": "\u0645\u0634\u0637\u0631\u0627\u0633", "name:ber": "\u2d30\u2d4e\u2d3b\u2d5b\u2d54\u2d30\u2d59", "name:de": "Mechtras", "name:en": "Mechtras", "name:fr": "Mechtras", "name:kab": "Amec\u1e5bas", "place": "town", "population": "32683", "wikidata": "Q3303859", "wikimedia_commons": "Category:Mechtras", "wikipedia": "fr:Mechtras"}}, {"type": "node", "id": 964565869, "lat": 36.6379122, "lon": 3.8862283, "tags": {"alt_name:ar": "\u0622\u062b \u064a\u062d\u064a\u0649 \u0645\u0648\u0633\u0649", "name": "A\u00eft Yahia Moussa", "name:ar": "\u0622\u064a\u062a \u064a\u062d\u064a\u0649 \u0645\u0648\u0633\u0649", "name:ber": "\u2d30\u2d5d \u2d62\u2d30\u2d43\u2d62\u2d30 \u2d4e\u2d53\u2d59\u2d30", "name:de": "Ait Yahia Moussa", "name:en": "Ait Yahia Moussa", "name:fr": "A\u00eft Yahia Moussa", "name:kab": "At Ye\u1e25ya Musa", "place": "town", "population": "20426", "wikidata": "Q1649218", "wikimedia_commons": "Category:A\u00eft Yahia Moussa", "wikipedia": "fr:A\u00eft Yahia Moussa"}}, {"type": "node", "id": 1182317080, "lat": 36.612194, "lon": 3.9856422, "tags": {"alt_name:kab": "M\u025betqa", "name": "Souk El Khemis", "name:ar": "\u0633\u0648\u0642 \u0627\u0644\u062e\u0645\u064a\u0633", "name:ber": "\u2d59\u2d53\u2d47 \u2d4d\u2d30\u2d45\u2d4e\u2d49\u2d59", "name:de": "Souk El Khemis", "name:en": "Souk El Khemis", "name:fr": "Souk El Khemis", "name:kab": "Suq Lexmis", "place": "town", "population": "32121"}}, {"type": "node", "id": 1182509818, "lat": 36.6188796, "lon": 4.0824933, "tags": {"alt_name:ar": "\u0622\u062b \u062f\u0648\u0627\u0644\u0629", "alt_name:en": "At Dwala", "name": "At Dwala", "name:ar": "\u0623\u062b \u062f\u0648\u0627\u0644\u0629", "name:ber": "\u2d31\u2d4f\u2d49 \u2d37\u2d61\u2d30\u2d4d\u2d30", "name:en": "At Dwala", "name:fr": "At Dwala", "name:kab": "At Dwala", "place": "town", "population": "21551", "wikidata": "Q2895885", "wikimedia_commons": "Category:Beni Douala", "wikipedia": "fr:Beni Douala"}}, {"type": "node", "id": 1182509826, "lat": 36.6370642, "lon": 4.039063, "tags": {"name": "Ait Zmenzer", "name:ar": "\u0628\u0646\u064a \u0632\u0645\u0646\u0632\u0631", "name:en": "Ait Zmenzer", "name:fr": "Ait Zmenzer", "name:kab": "At Zmenzer", "place": "town", "population": "12117", "wikidata": "Q2895921", "wikimedia_commons": "Category:Beni Zmenzer", "wikipedia": "fr:Beni Zmenzer"}}, {"type": "node", "id": 1195954686, "lat": 36.523854, "lon": 4.2049176, "tags": {"alt_name:fr": "Larb\u00e2a Ath Ouacif", "name": "Ouacif", "name:ar": "\u0648\u0627\u0633\u064a\u0641", "name:ber": "\u2d61\u2d30\u2d59\u2d49\u2d3c", "name:de": "Ouacif", "name:en": "Ouacif", "name:fr": "Ouacif", "name:kab": "At Wasif", "place": "town", "population": "10313", "wikidata": "Q3357887", "wikimedia_commons": "Category:Ouacif", "wikipedia": "fr:Ouacif"}}, {"type": "node", "id": 3241026346, "lat": 36.8930725, "lon": 4.4203917, "tags": {"name": "Azeffoun", "name:ar": "\u0623\u0632\u0641\u0648\u0646", "name:ber": "\u2d30\u2d65\u2d3b\u2d3c\u2d3c\u2d53\u2d4d", "name:en": "Azeffoun", "name:fr": "Azeffoun", "name:kab": "A\u1e93effun", "old_name": "Rusazus", "place": "town", "population": "16847", "wikidata": "Q209443", "wikimedia_commons": "Category:Azeffoun", "wikipedia": "fr:Azeffoun"}}, {"type": "node", "id": 4108308385, "lat": 36.5407471, "lon": 3.9571285, "tags": {"loc_name": "Bu\u03b3ni", "name": "Boghni", "name:ar": "\u0628\u0648\u063a\u0646\u064a", "name:ber": "\u2d32\u2d53\u2d56\u2d4f\u2d49", "name:en": "Boghni", "name:fr": "Boghni", "name:kab": "Bu\u03b3ni", "place": "town", "population": "61263", "wikidata": "Q1649016", "wikimedia_commons": "Category:Boghni", "wikipedia": "fr:Boghni"}}, {"type": "node", "id": 4368057605, "lat": 36.5829452, "lon": 4.1964738, "tags": {"alt_name:fr": "Beni Yenni", "loc_name": "At Yenni", "name": "A\u00eft Yenni", "name:ar": "\u0622\u064a\u062a \u064a\u0646\u064a", "name:ber": "\u2d30\u2d5d \u2d62\u2d30\u2d4f\u2d49", "name:en": "Beni Yenni", "name:fr": "A\u00eft Yenni", "name:kab": "At Yenni", "place": "town", "wikidata": "Q2223602", "wikimedia_commons": "Category:Beni Yenni", "wikipedia": "fr:Beni Yenni"}}]}