{"version": 0.6, "generator": "Overpass API 0.7.62.4 2390de5a", "osm3s": {"timestamp_osm_base": "2025-01-08T06:47:00Z", "copyright": "The data included in this document is from www.openstreetmap.org. The data is made available under ODbL."}, "elements": [{"type": "node", "id": 150570006, "lat": 13.4664563, "lon": 22.1977187, "tags": {"GNS:dsg_code": "PPL", "GNS:dsg_name": "populated place", "GNS:id": "-1088253", "GNS:modify_date": "2017-05-15", "alt_name": "Adre;Adr\u00e9", "capital": "5", "is_capital": "county", "name": "\u0623\u062f\u0631\u064a Adr\u00e9", "name:ar": "\u0623\u062f\u0631\u064a", "name:en": "Adr\u00e9", "name:fr": "Adr\u00e9", "name:ru": "\u0410\u0434\u0440\u0435", "note": "rank=0 + city car prefecture", "place": "city", "population": "12000", "rank": "0", "wikidata": "Q2570307", "wikipedia": "en:Adr\u00e9"}}, {"type": "node", "id": 2843019602, "lat": 13.1843878, "lon": 22.0559446, "tags": {"GNS:dsg_code": "PPL", "GNS:dsg_name": "populated place", "GNS:id": "-1095759", "GNS:modify_date": "2017-05-09", "name": "Goungour", "name:en": "Gungur", "place": "town", "source": "GNS"}}, {"type": "node", "id": 7730426581, "lat": 13.1936507, "lon": 22.1649949, "tags": {"GNS:dsg_code": "PPL", "GNS:dsg_name": "populated place", "GNS:id": "-5584", "GNS:modify_date": "2012-08-20", "designation": "Unity administrative", "name": "Fagangta", "name:ar": "\u0641\u0627\u0642\u0646\u062c\u062a\u0627", "name:en": "Faganta", "place": "town", "postal_code": "00328", "source": "GNS"}}, {"type": "node", "id": 7730426961, "lat": 13.1195679, "lon": 22.17697, "tags": {"GNS:dsg_code": "PPL", "GNS:dsg_name": "populated place", "GNS:id": "-11327", "GNS:modify_date": "2012-08-08", "designation": "Untiy administrative", "name": "Mistere buga", "name:en": "Misterei Buga", "place": "town", "source": "GNS"}}, {"type": "node", "id": 10889698672, "lat": 13.0670376, "lon": 21.988502, "tags": {"designation": "Unity Administrative", "name": "Terbebe", "name:ar": "\u062a\u0631\u0628\u064a\u0628\u064a", "place": "town", "postal_code": "01644"}}, {"type": "node", "id": 10894791686, "lat": 13.1219293, "lon": 22.1871148, "tags": {"name": "Mestere", "name:ar": "\u0645\u0633\u062a\u0631\u064a", "name:en": "Masteri", "place": "town", "postal_code": "00730", "source": "local knowledge"}}, {"type": "node", "id": 10951650761, "lat": 13.2407128, "lon": 22.194236, "tags": {"name": "Ngorom kosuk", "name:ar": "\u0646\u0642\u0631\u0648\u0645 \u0643\u0648\u0633\u0643", "place": "town"}}]}