{"version": 0.6, "generator": "Overpass API 0.7.62.4 2390de5a", "osm3s": {"timestamp_osm_base": "2025-01-08T07:08:34Z", "copyright": "The data included in this document is from www.openstreetmap.org. The data is made available under ODbL."}, "elements": [{"type": "node", "id": 313438448, "lat": 36.6373657, "lon": 2.769126, "tags": {"alt_name:kab": "Leqli\u025ba", "name": "Kol\u00e9a", "name:ar": "\u0627\u0644\u0642\u0644\u064a\u0639\u0629", "name:ber": "\u2d4d\u2d3b\u2d47\u2d4d\u2d49\u2d44\u2d30", "name:bg": "\u041a\u043e\u043b\u0435\u0430", "name:en": "Kol\u00e9a", "name:es": "Kol\u00e9a", "name:fr": "Kol\u00e9a", "name:it": "Kol\u00e9a", "name:kab": "Taqli\u025bt", "name:ms": "Kolea", "name:pt": "Kol\u00e9a", "name:ro": "Kol\u00e9a", "name:sv": "Kol\u00e9a", "name:vi": "Kol\u00e9a", "place": "town", "population": "54401", "wikidata": "Q3198497", "wikimedia_commons": "Category:Kol\u00e9a", "wikipedia": "fr:Kol\u00e9a"}}, {"type": "node", "id": 313438452, "lat": 36.642758, "lon": 2.6899362, "tags": {"alt_name:ar": "\u0628\u0648\u0627\u0633\u0645\u0627\u0639\u064a\u0644;\u0628\u0648 \u0627\u0633\u0645\u0627\u0639\u064a\u0644", "name": "Bou Isma\u00efl", "name:ar": "\u0628\u0648 \u0625\u0633\u0645\u0627\u0639\u064a\u0644", "name:ber": "\u2d31\u2d53\u2d59\u2d4e\u2d30\u2d44\u2d49\u2d4d", "name:en": "Bou Ismail", "name:fr": "Bou Isma\u00efl", "name:kab": "Busma\u025bil", "old_name": "\u0643\u0627\u0633\u062a\u064a\u0644\u064a\u0648\u0646", "old_name:ar": "\u0643\u0627\u0633\u062a\u064a\u0644\u064a\u0648\u0646", "old_name:fr": "Castiglione", "place": "town", "population": "41684", "postal_code": "42004", "wikidata": "Q1438489", "wikimedia_commons": "Category:Bou Isma\u00efl", "wikipedia": "ar:\u0628\u0648 \u0625\u0633\u0645\u0627\u0639\u064a\u0644"}}, {"type": "node", "id": 418165557, "lat": 36.5918179, "lon": 2.4482509, "tags": {"capital": "4", "name": "Tipaza \u2d5c\u2d49\u2d52\u2d30\u2d63\u2d30 \u062a\u064a\u0628\u0627\u0632\u0629", "name:ar": "\u062a\u064a\u0628\u0627\u0632\u0629", "name:az-Arab": "\u062a\u06cc\u067e\u0627\u0632\u0647", "name:azb": "\u062a\u06cc\u067e\u0627\u0632\u0647", "name:be": "\u0422\u044b\u043f\u0430\u0441\u0430", "name:ber": "\u2d5c\u2d49\u2d52\u2d30\u2d63\u2d30", "name:bg": "\u0422\u0438\u043f\u0430\u0437\u0430", "name:de": "Tipasa", "name:el": "\u03a4\u03b9\u03c0\u03b1\u03b6\u03ac", "name:en": "Tipaza", "name:es": "Tipasa", "name:eu": "Tipasa", "name:fa": "\u062a\u06cc\u200c\u067e\u0627\u0632\u0647", "name:fr": "Tipaza", "name:hy": "\u054f\u056b\u057a\u0561\u0566\u0561", "name:id": "Tipasa", "name:ja": "\u30c6\u30a3\u30d1\u30b5", "name:kab": "Tiba\u1e93a", "name:kab-Arab": "\u062a\u064a\u0628\u0627\u0632\u0629", "name:ks": "\u062a\u06cc\u0628\u0627\u0632\u06c1", "name:ota": "\u062a\u06cc\u067e\u0627\u0632\u0647", "name:pnb": "\u062a\u0628\u0633\u06c1", "name:ru": "\u0422\u0438\u043f\u0430\u0437\u0430", "name:sh": "Tipasa", "name:sk": "Tipasa", "name:sr": "\u0422\u0438\u043f\u0430\u0441\u0430", "name:uk": "\u0422\u0456\u043f\u0430\u0437\u0430", "name:ur": "\u062a\u06cc\u0628\u0627\u0632\u06c1", "name:zh": "\u63d0\u5e15\u85a9", "place": "town", "population": "25225", "population:date": "2008", "postal_code": "42000", "ref:ONS": "4201", "wikidata": "Q214843", "wikipedia": "ar:\u062a\u064a\u0628\u0627\u0632\u0629", "wikipedia:es": "Tipasa"}}, {"type": "node", "id": 424970741, "lat": 36.5625526, "lon": 2.5324546, "tags": {"name": "Sidi Rached", "name:ar": "\u0633\u064a\u062f\u064a \u0631\u0627\u0634\u062f", "name:azb": "\u0633\u06cc\u062f\u06cc \u0631\u0627\u0634\u062f", "name:ber": "\u2d59\u2d49\u2d37\u2d49 \u2d54\u2d30\u2d5b\u2d3b\u2d37", "name:en": "Sidi Rached", "name:es": "Sidi Rached", "name:fa": "\u0633\u06cc\u062f\u06cc \u0631\u0627\u0634\u062f", "name:fr": "Sidi Rached", "name:it": "Sidi Rached", "name:kab": "Sidi Raced", "name:ks": "\u0633\u06cc\u062f\u06cc \u0631\u0627\u0634\u062f", "name:ms": "Sidi Rached", "name:pt": "Sidi Rached", "name:ro": "Sidi Rached", "name:ur": "\u0633\u06cc\u062f\u06cc \u0631\u0627\u0634\u062f", "name:vi": "Sidi Rached", "old_name": "\u0645\u0646\u062a\u0628\u0644\u0648", "old_name:ar": "\u0645\u0646\u062a\u0628\u0644\u0648", "old_name:fr": "Montebello", "place": "town", "population": "11062", "population:date": "2008", "ref:ONS": "4234", "wikidata": "Q3483283", "wikimedia_commons": "Category:Sidi Rached", "wikipedia": "ar:\u0633\u064a\u062f\u064a \u0631\u0627\u0634\u062f", "wikipedia:ar": "\u0633\u064a\u062f\u064a \u0631\u0627\u0634\u062f"}}, {"type": "node", "id": 454641097, "lat": 36.5424695, "lon": 2.3059586, "tags": {"name": "Sidi Amar", "name:ar": "\u0633\u064a\u062f\u064a \u0639\u0645\u0631", "name:ber": "\u2d59\u2d49\u2d37\u2d49 \u2d44\u2d3b\u2d4e\u2d4e\u2d30\u2d54", "name:en": "Sidi Amar", "name:fa": "\u0633\u06cc\u062f\u06cc \u0639\u0645\u0631", "name:fr": "Sidi Amar", "name:kab": "Sidi \u0190emmar", "old_name": "Zurich", "place": "town", "population": "13332", "wikidata": "Q607367", "wikimedia_commons": "Category:Sidi Amar (Tipaza)", "wikipedia": "fr:Sidi Amar (Tipaza)"}}, {"type": "node", "id": 454645064, "lat": 36.5121198, "lon": 2.4142888, "tags": {"name": "Hadjout \u2d43\u2d3b\u2d35\u2d35\u2d53\u2d5f \u062d\u062c\u0648\u0637", "name:ar": "\u062d\u062c\u0648\u0637", "name:ber": "\u2d43\u2d3b\u2d35\u2d35\u2d53\u2d5f", "name:en": "Hadjout", "name:fa": "\u062d\u062c\u0648\u0637", "name:fr": "Hadjout", "name:kab": "\u1e24e\u01e7\u01e7u\u1e6d", "place": "town", "population": "48561", "wikidata": "Q3125565", "wikimedia_commons": "Category:Hadjout", "wikipedia": "fr:Hadjout"}}, {"type": "node", "id": 498919990, "lat": 36.4773708, "lon": 2.5646996, "tags": {"name": "Ahmer El A\u00efn", "name:ar": "\u0623\u062d\u0645\u0631 \u0627\u0644\u0639\u064a\u0646", "name:ber": "\u2d43\u2d4e\u2d3b\u2d54 \u2d4d\u2d44\u2d49\u2d4f", "name:en": "Ahmer El Ain", "name:fr": "Ahmer El A\u00efn", "name:kab": "\u1e24mer L\u025bin", "place": "town", "population": "29566"}}, {"type": "node", "id": 514531579, "lat": 36.6033315, "lon": 2.4084934, "tags": {"name": "Chenoua \u2d5b\u2d3b\u2d4f\u2d53\u2d30 \u0634\u0646\u0648\u0629", "name:ar": "\u0634\u0646\u0648\u0629", "name:ber": "\u2d5b\u2d3b\u2d4f\u2d53\u2d30", "name:en": "Shenoua", "name:fr": "Chenoua", "place": "town"}}, {"type": "node", "id": 981700025, "lat": 36.6615612, "lon": 2.7421167, "tags": {"name": "Fouka", "name:ar": "\u0641\u0648\u0643\u0629", "name:ber": "\u2d3c\u2d53\u2d3d\u2d30", "name:en": "Fouka", "name:fr": "Fouka", "name:kab": "Fuka", "place": "town", "population": "48959", "wikidata": "Q3079891", "wikimedia_commons": "Category:Fouka", "wikipedia": "fr:Fouka"}}, {"type": "node", "id": 1033320728, "lat": 36.625387, "lon": 2.6797524, "tags": {"name": "Khemisti", "name:ar": "\u062e\u0645\u064a\u0633\u062a\u064a", "name:ber": "\u2d45\u2d4e\u2d49\u2d59\u2d5c\u2d49", "name:en": "Khemisti", "name:fr": "Khemisti", "name:kab": "Xmisti", "old_name": "Tefeschoun", "place": "town", "population": "15128", "wikidata": "Q3196147", "wikimedia_commons": "Category:Khemisti (Tipaza)", "wikipedia": "fr:Khemisti (Tipaza)"}}, {"type": "node", "id": 1038318454, "lat": 36.4763774, "lon": 2.4272954, "tags": {"name": "Merad", "name:ar": "\u0645\u0631\u0627\u062f", "name:ber": "\u2d4e\u2d3b\u2d54\u2d54\u2d30\u2d37", "name:en": "Merad", "name:fa": "\u0645\u0631\u0627\u062f", "name:fr": "Merad", "name:kab": "Merad", "place": "town", "population": "19916", "wikidata": "Q3306250", "wikimedia_commons": "Category:Merad", "wikipedia": "fr:Merad"}}]}