{"version": 0.6, "generator": "Overpass API 0.7.62.4 2390de5a", "osm3s": {"timestamp_osm_base": "2025-01-08T06:29:44Z", "copyright": "The data included in this document is from www.openstreetmap.org. The data is made available under ODbL."}, "elements": [{"type": "node", "id": 428339508, "lat": 34.009653, "lon": 36.2117096, "tags": {"capital": "3", "name": "\u0628\u0639\u0644\u0628\u0643", "name:ar": "\u0628\u0639\u0644\u0628\u0643", "name:arz": "\u0628\u0639\u0644\u0628\u0643", "name:azb": "\u0628\u0639\u0644\u0628\u06a9", "name:cs": "Baalbek", "name:de": "Baalbek", "name:el": "\u039c\u03c0\u03ac\u03b1\u03bb\u03bc\u03c0\u03b5\u03ba", "name:en": "Baalbek", "name:es": "Baalbek", "name:eu": "Baalbek", "name:fa": "\u0628\u0639\u0644\u0628\u06a9", "name:fr": "Baalbek", "name:grc": "\u1f29\u03bb\u03b9\u03bf\u03cd\u03c0\u03bf\u03bb\u03b9\u03c2", "name:he": "\u05d1\u05e2\u05dc\u05d1\u05db", "name:hi": "\u092c\u093e\u0932\u094d\u092c\u0947\u0915", "name:hy": "\u0532\u0561\u0561\u056c\u0562\u0565\u056f", "name:hyw": "\u054a\u0561\u0561\u056c\u057a\u0567\u0584", "name:ks": "\u0628\u0639\u0644\u0628\u06a9", "name:lt": "Baalbekas", "name:ml": "\u0d2c\u0d3e\u0d7d\u0d2c\u0d46\u0d15\u0d4d\u0d15\u0d4d", "name:mzn": "\u0628\u0639\u0644\u0628\u06a9", "name:ota": "\u0628\u0639\u0644\u0628\u06a9", "name:pnb": "\u0628\u0639\u0644\u0628\u06a9", "name:pnt": "\u1f29\u03bb\u03b9\u03bf\u03cd\u03c0\u03bf\u03bb\u03b9\u03c2", "name:ru": "\u0411\u0430\u0430\u043b\u044c\u0431\u0435\u043a", "name:uk": "\u0411\u0430\u0430\u043b\u044c\u0431\u0435\u043a", "name:ur": "\u0628\u0639\u0644\u0628\u06a9", "place": "city", "population": "82608", "postal_code": "1800", "wikidata": "Q178835", "wikipedia": "ar:\u0628\u0639\u0644\u0628\u0643"}}, {"type": "node", "id": 573522054, "lat": 33.9953925, "lon": 36.5603539, "tags": {"alt_name": "\u0645\u0639\u0631\u0629 \u0627\u0644\u0628\u0627\u0634", "alt_name:ar": "\u0645\u0639\u0631\u0629 \u0627\u0644\u0628\u0627\u0634", "alt_name:de": "Maarrat al-Basch", "alt_name:en": "Ma'arrat al-Bash", "alt_name:fr": "Maarrat al-Bache", "alt_name:ru": "\u041c\u0430\u0430\u0440\u0440\u0430\u0442-\u0430\u043b\u044c-\u0411\u0430\u0448", "name": "\u0631\u0623\u0633 \u0627\u0644\u0645\u0639\u0631\u0629", "name:ar": "\u0631\u0623\u0633 \u0627\u0644\u0645\u0639\u0631\u0629", "name:de": "Ras al-Maarra", "name:en": "Ras al-Ma'arra", "name:fr": "Rase al-Maarra", "name:he": "\u05e8\u05d0\u05e1 \u05d0\u05dc-\u05de\u05e2\u05e8\u05d4", "name:ja": "\u30e9\u30b9\u30fb\u30a2\u30eb\u30a0\u30de\u30a2\u30c3\u30e9", "name:ko": "\ub77c\uc2a4\uc54c\ub9c8\uc544\ub77c", "name:ml": "\u0d31\u0d3e\u0d38\u0d4d \u0d05\u0d7d-\u0d2e\u0d3e\u0d31", "name:ru": "\u0420\u0430\u0441-\u0430\u043b\u044c-\u041c\u0430\u044c\u0430\u0440\u0440\u0430", "place": "town", "population": "8520", "population:date": "2004", "source:population": "\u0627\u0644\u0645\u0643\u062a\u0628 \u0627\u0644\u0645\u0631\u0643\u0632\u064a \u0644\u0644\u0625\u062d\u0635\u0627\u0621"}}, {"type": "node", "id": 1889908376, "lat": 34.1802927, "lon": 36.4187723, "tags": {"alt_name": "Aarsal", "name": "\u0639\u0631\u0633\u0627\u0644 \u0633\u0627\u062d\u0629", "name:ar": "\u0639\u0631\u0633\u0627\u0644 \u0633\u0627\u062d\u0629", "name:de": "Arsal", "name:en": "Arsal", "name:es": "Arsal", "name:fr": "Aarsal", "name:ml": "\u0d06\u0d7c\u0d38\u0d3e\u0d7d", "place": "town", "wikidata": "Q4796334"}}, {"type": "node", "id": 4753052124, "lat": 34.3973279, "lon": 36.3889577, "tags": {"capital": "4", "name": "\u0627\u0644\u0647\u0631\u0645\u0644", "name:ar": "\u0627\u0644\u0647\u0631\u0645\u0644", "name:de": "Hermel", "name:en": "Hermel", "name:fr": "Hermel", "name:he": "\u05d0\u05dc-\u05d4\u05e8\u05de\u05dc", "name:ml": "\u0d39\u0d3f\u0d7c\u0d2e\u0d3f\u0d7d", "name:ru": "\u042d\u043b\u044c-\u0425\u0438\u0440\u043c\u0438\u043b\u044c", "place": "town", "postal_code": "1805", "wikidata": "Q26117", "wikipedia": "ar:\u0627\u0644\u0647\u0631\u0645\u0644"}}, {"type": "node", "id": 5022971097, "lat": 34.3408227, "lon": 36.4800435, "tags": {"alt_name": "Qaa;El Kaa;Al Qaa;El Qaa", "name": "\u0627\u0644\u0642\u0627\u0639", "name:ar": "\u0627\u0644\u0642\u0627\u0639", "name:de": "Qaa", "name:en": "Qaa", "name:es": "Qaa", "name:fr": "Qaa", "name:ml": "\u0d05\u0d7d-\u0d16\u0d3e", "place": "town", "wikidata": "Q7888876", "wikipedia": "en:Qaa"}}, {"type": "node", "id": 5272284254, "lat": 34.0774297, "lon": 36.2064636, "tags": {"alt_name": "Maqne;Makneh", "alt_name:ar": "\u0645\u0643\u0646\u0629;\u0645\u0642\u0646\u0647", "name": "\u0645\u0642\u0646\u0629", "name:ar": "\u0645\u0642\u0646\u0629", "name:en": "Maqnah", "name:fr": "Maqna", "name:ml": "\u0d2e\u0d16\u0d4d\u0d28", "place": "town", "wikidata": "Q6754278", "wikipedia": "ar:\u0645\u0642\u0646\u0629"}}, {"type": "node", "id": 5463227721, "lat": 34.1250724, "lon": 36.1312578, "tags": {"name": "\u062f\u064a\u0631 \u0627\u0644\u0623\u062d\u0645\u0631", "name:ar": "\u062f\u064a\u0631 \u0627\u0644\u0623\u062d\u0645\u0631", "name:de": "Deir El Ahmar", "name:en": "Deir El Ahmar", "name:es": "Deir El Ahmar", "name:fr": "Deir El Ahmar", "name:ml": "\u0d26\u0d46\u0d2f\u0d4d\u0d7c \u0d05\u0d7d-\u0d05\u0d39\u0d4d\u0d2e\u0d7c", "place": "town", "wikidata": "Q4118736", "wikipedia": "ar:\u062f\u064a\u0631 \u0627\u0644\u0623\u062d\u0645\u0631"}}, {"type": "node", "id": 5829105200, "lat": 34.0789982, "lon": 36.2751575, "tags": {"name": "\u064a\u0648\u0646\u064a\u0646", "name:ar": "\u064a\u0648\u0646\u064a\u0646", "name:en": "Younine", "name:fr": "Younine", "place": "town", "wikidata": "Q12199014", "wikipedia": "ar:\u0628\u0644\u062f\u0629 \u064a\u0648\u0646\u064a\u0646 (\u0644\u0628\u0646\u0627\u0646)"}}]}