{"version": 0.6, "generator": "Overpass API 0.7.62.4 2390de5a", "osm3s": {"timestamp_osm_base": "2025-01-08T06:09:30Z", "copyright": "The data included in this document is from www.openstreetmap.org. The data is made available under ODbL."}, "elements": [{"type": "node", "id": 1012035239, "lat": 26.5883479, "lon": 49.9840085, "tags": {"GNS:dsg_code": "PPL", "GNS:dsg_name": "populated place", "GNS:id": "-3091408", "alt_name": "'Awamiyah;\u2019Aw\u0101m\u012byah;Al `Awamiyah;Al \u2018Aw\u0101m\u012byah;Awamiya", "alt_name:de": "Awamija", "alt_name:en": "Awamia;Al-Awamiyah", "alt_name:fa": "\u0639\u0648\u0627\u0645\u06cc\u0629", "int_name": "Al \u2018Aww\u0101m\u012byah", "name": "\u0627\u0644\u0639\u0648\u0627\u0645\u064a\u0629", "name:ar": "\u0627\u0644\u0639\u0648\u0627\u0645\u064a\u0629", "name:cs": "Avam\u00edja", "name:de": "Al-Awamia", "name:en": "Al `Awwamiyah", "name:es": "Al-Awamia", "name:fa": "\u0639\u0648\u0627\u0645\u06cc\u0647", "name:fr": "Al-Awamia", "name:he": "\u05d0\u05dc \u05d0\u05d5\u05d5\u05d0\u05de\u05d9\u05d4", "place": "town", "population": "26276", "population:date": "2022", "source:population": "stats.gov.sa", "wikidata": "Q288287", "wikipedia": "ar:\u0627\u0644\u0639\u0648\u0627\u0645\u064a\u0629"}}, {"type": "node", "id": 1013645811, "lat": 26.475, "lon": 50.0416329, "tags": {"GNS:dsg_code": "PPL", "GNS:dsg_name": "populated place", "GNS:id": "-3099162", "alt_name": "As Saihat;As Saih\u0101t;As Sayhat;As Sayh\u0101t;Saihat;Sihat;S\u012bh\u0101t", "int_name": "Sayh\u0101t", "name": "\u0633\u064a\u0647\u0627\u062a", "name:ar": "\u0633\u064a\u0647\u0627\u062a", "name:cs": "Sajhat", "name:de": "Sayhat", "name:en": "Sayhat", "name:es": "Saihat", "name:fr": "Sayhat", "name:he": "\u05e1\u05d0\u05d9\u05d4\u05d8", "name:ml": "\u0d38\u0d2f\u0d4d\u0d39\u0d3e\u0d24\u0d4d\u0d24\u0d4d", "place": "town", "population": "84818", "population:date": "2022", "source:population": "stats.gov.sa", "wikidata": "Q2744182", "wikipedia": "en:Saihat"}}, {"type": "node", "id": 1237805652, "lat": 26.707417, "lon": 50.067352, "tags": {"GNS:dsg_code": "PPL", "GNS:dsg_name": "populated place", "GNS:id": "-3098582", "alt_name": "Cape Tannura;Ra's at Tannurah;Ra\u2019s at Tann\u016brah;Rahaima;Rahimah;Ra\u1e29\u012bmah;Ras at Tannura;Ras Tannura;Ras Tanura;\u0631\u0623\u0633 \u062a\u0646\u0648\u0631\u0629", "alt_name:ar": "\u0631\u0623\u0633 \u062a\u0646\u0648\u0631\u0629", "capital": "6", "int_name": "Ra\u2019s Tann\u016brah", "name": "\u0631\u062d\u064a\u0645\u0629", "name:ar": "\u0631\u062d\u064a\u0645\u0629", "name:de": "Ra's Tannurah", "name:en": "Ra's Tannurah", "name:fr": "Ra's Tannurah", "name:he": "\u05e8\u05d0\u05e1 \u05d8\u05e0\u05d5\u05e8\u05d4", "name:ml": "\u0d31\u0d3e\u0d38\u0d4d \u0d24\u0d28\u0d42\u0d31", "place": "town", "population": "54166", "population:date": "2010", "source:name": "GNS", "source:population": "stats.gov.sa", "wikidata": "Q27222"}}, {"type": "node", "id": 1237805767, "lat": 26.6529206, "lon": 49.914093, "tags": {"GNS:dsg_code": "PPL", "GNS:dsg_name": "populated place", "GNS:id": "-3100458", "int_name": "Umm as S\u0101hik", "name": "\u0623\u0645 \u0627\u0644\u0633\u0627\u0647\u0643", "name:ar": "\u0623\u0645 \u0627\u0644\u0633\u0627\u0647\u0643", "name:de": "Umm as Sahik", "name:en": "Umm as Sahik", "name:fr": "Umm as Sahik", "place": "town", "population": "15378", "population:date": "2022", "source:population": "stats.gov.sa"}}, {"type": "node", "id": 1237806482, "lat": 26.557778, "lon": 49.991667, "tags": {"GNS:dsg_code": "PPL", "GNS:dsg_name": "populated place", "GNS:id": "-3100143", "int_name": "At T\u016bb\u012b", "name": "\u0627\u0644\u062a\u0648\u0628\u064a", "name:ar": "\u0627\u0644\u062a\u0648\u0628\u064a", "name:de": "At Tubi", "name:en": "At Tubi", "name:fr": "At Tubi", "place": "town", "population": "8801", "population:date": "2022", "source:population": "stats.gov.sa"}}, {"type": "node", "id": 1237806522, "lat": 26.562778, "lon": 49.943889, "tags": {"GNS:dsg_code": "PPL", "GNS:dsg_name": "populated place", "GNS:id": "-3091298", "alt_name": "Ajam;Ajam al Qatif;Ajam al Qat\u012bf;Al Ajam;Al \u0100j\u0101m;El Ajam;Lajam;L\u0101j\u0101m;Al Awj\u0101m;Al Awjam", "int_name": "Al Awj\u0101m,Ajam,Ajam al Qatif,Ajam al Qat\u012bf,Al Ajam,Al \u0100j\u0101m,El Ajam,Lajam,L\u0101j\u0101m, Al Awjam", "name": "\u0627\u0644\u0623\u0648\u062c\u0627\u0645", "name:ar": "\u0627\u0644\u0623\u0648\u062c\u0627\u0645", "name:de": "Al Awjam", "name:en": "Al Awjam", "name:fr": "Al Awjam", "place": "town", "population": "16147", "population:date": "2022", "source:population": "stats.gov.sa", "wikidata": "Q4164621", "wikipedia": "en:Al-Awjam"}}, {"type": "node", "id": 1237806551, "lat": 26.541389, "lon": 49.984722, "tags": {"GNS:dsg_code": "PPL", "GNS:dsg_name": "populated place", "GNS:id": "-3096057", "int_name": "Jar\u016bd\u012byah", "name": "\u0627\u0644\u062c\u0627\u0631\u0648\u062f\u064a\u0629", "name:ar": "\u0627\u0644\u062c\u0627\u0631\u0648\u062f\u064a\u0629", "name:de": "Jarudiyah", "name:en": "Jarudiyah", "name:fr": "Jarudiyah", "place": "town", "population": "20986", "population:date": "2022", "source": "local_knowledge", "source:population": "stats.gov.sa"}}, {"type": "node", "id": 1237806655, "lat": 26.568486, "lon": 49.989134, "tags": {"GNS:dsg_code": "PPL", "GNS:dsg_name": "populated place", "GNS:id": "-3098298", "alt_name": "Qudaih;Qudayh;Quday\u1e29", "int_name": "Al Quday\u1e29", "name": "\u0627\u0644\u0642\u062f\u064a\u062d", "name:ar": "\u0627\u0644\u0642\u062f\u064a\u062d", "name:de": "Al Qudayh", "name:en": "Al Qudayh", "name:fr": "Al Qudayh", "place": "town", "population": "22492", "population:date": "2022", "source:name": "GNS", "source:population": "stats.gov.sa"}}, {"type": "node", "id": 1237806675, "lat": 26.5764104, "lon": 50.055532, "tags": {"GNS:dsg_code": "PPL", "GNS:dsg_name": "populated place", "GNS:id": "-3099933", "alt_name": "Darin Fort;Tarut fort;T\u0101r\u016bt fort", "int_name": "T\u0101r\u016bt", "name": "\u062a\u0627\u0631\u0648\u062a", "name:ar": "\u062a\u0627\u0631\u0648\u062a", "name:de": "Tarout", "name:en": "Tarout", "name:fr": "Tarout", "name:ml": "\u0d24\u0d3e\u0d31\u0d42\u0d1f\u0d4d\u0d1f\u0d4d", "place": "town", "population": "117646", "population:date": "2022", "source:name": "GNS", "source:population": "stats.gov.sa"}}, {"type": "node", "id": 1237806805, "lat": 26.504954, "lon": 49.999303, "tags": {"GNS:dsg_code": "PPL", "GNS:dsg_name": "populated place", "GNS:id": "-3096150", "alt_name": "Jish", "int_name": "Al Jishsh", "name": "\u0627\u0644\u062c\u0634", "name:ar": "\u0627\u0644\u062c\u0634", "name:de": "Al Jishsh", "name:en": "Al Jishsh", "name:fr": "Al Jishsh", "place": "town", "population": "22343", "population:date": "2022", "source:name": "GNS", "source:population": "stats.gov.sa"}}, {"type": "node", "id": 1237806873, "lat": 26.51959, "lon": 50.02715, "tags": {"GNS:dsg_code": "PPL", "GNS:dsg_name": "populated place", "GNS:id": "-3092761", "alt_name": "`Ank;\u2018Ank;Anek;Anik", "int_name": "\u2018Inak", "name": "\u0639\u0646\u0643", "name:ar": "\u0639\u0646\u0643", "name:de": "`Inak", "name:en": "`Inak", "name:fr": "`Inak", "place": "town", "population": "20038", "population:date": "2022", "source:name": "GNS", "source:population": "stats.gov.sa"}}, {"type": "node", "id": 1237806905, "lat": 26.5586004, "lon": 50.0087399, "tags": {"capital": "6", "int_name": "Al Qa\u0163\u012bf", "name": "\u0627\u0644\u0642\u0637\u064a\u0641", "name:ar": "\u0627\u0644\u0642\u0637\u064a\u0641", "name:ckb": "\u0642\u06d5\u062a\u06cc\u0641", "name:de": "al-Qatif", "name:en": "Qatif", "name:es": "Qatif", "name:fr": "Qatif", "name:ko": "\uce74\ud2f0\ud504", "name:ku": "Qet\u00eef", "name:ml": "\u0d16\u0d24\u0d40\u0d2b\u0d4d", "name:no": "Qatif", "name:pl": "Al-Katif", "name:ru": "\u042d\u043b\u044c-\u041a\u0430\u0442\u0438\u0444", "name:sr": "\u041a\u0430\u0442\u0438\u0444", "name:tr": "Katif", "name:zh": "\u5361\u63d0\u592b", "place": "town", "population": "87332", "population:date": "2022", "source:population": "stats.gov.sa", "wikidata": "Q12191403", "wikipedia": "ar:\u0627\u0644\u0642\u0637\u064a\u0641 (\u0645\u062f\u064a\u0646\u0629)"}}, {"type": "node", "id": 6779587836, "lat": 26.6601715, "lon": 49.8070335, "tags": {"name": "\u0623\u0628\u0648 \u0645\u0639\u0646", "name:ar": "\u0623\u0628\u0648 \u0645\u0639\u0646", "name:en": "Bani M`en", "place": "town", "population": "6093", "population:date": "2010", "source:population": "stats.gov.sa"}}, {"type": "node", "id": 7699092298, "lat": 26.4759512, "lon": 50.0066756, "tags": {"name": "\u0627\u0644\u0646\u0627\u0628\u064a\u0629", "name:ar": "\u0627\u0644\u0646\u0627\u0628\u064a\u0629", "name:en": "An Nabiah", "place": "town", "population": "13018", "population:date": "2022", "source:population": "stats.gov.sa"}}, {"type": "node", "id": 11086438527, "lat": 26.5222697, "lon": 49.9996375, "tags": {"name": "\u0623\u0645 \u0627\u0644\u062d\u0645\u0627\u0645", "name:en": "Umm Al Hamam", "place": "town", "population": "12818", "population:date": "2022", "source:population": "stats.gov.sa", "wikidata": "Q12180371", "wikipedia": "ar:\u0623\u0645 \u0627\u0644\u062d\u0645\u0627\u0645"}}, {"type": "node", "id": 11361447139, "lat": 26.6484641, "lon": 49.9466586, "tags": {"int_name": "\u064dSafwa", "name": "\u0635\u0641\u0648\u0649", "name:ar": "\u0635\u0641\u0648\u0649", "name:ceb": "\u015eafw\u00e1", "name:en": "Safwa", "name:fr": "Safwa", "name:nn": "Safwa", "name:pl": "Safwa", "name:tr": "Safva", "place": "town", "population": "45676", "population:date": "2022", "source:population": "stats.gov.sa", "wikidata": "Q27234", "wikipedia": "en:Safwa City"}}]}