{"version": 0.6, "generator": "Overpass API 0.7.62.4 2390de5a", "osm3s": {"timestamp_osm_base": "2025-01-08T07:19:43Z", "copyright": "The data included in this document is from www.openstreetmap.org. The data is made available under ODbL."}, "elements": [{"type": "node", "id": 2020311643, "lat": 33.397648, "lon": -3.584048, "tags": {"capital": "8", "name": "Tissaf \u2d5c\u2d49\u2d59\u2d59\u2d30\u2d3c \u062a\u064a\u0633\u0627\u0641", "name:ar": "\u062a\u064a\u0633\u0627\u0641", "name:ber": "\u2d5c\u2d49\u2d59\u2d59\u2d30\u2d3c", "name:en": "Tissaf", "name:fr": "Tissaf", "place": "town", "population": "9444", "postal_code": "33323", "wikidata": "Q12203611", "wikipedia": "en:Tissaf"}}, {"type": "node", "id": 2021315983, "lat": 33.337366, "lon": -3.696438, "tags": {"capital": "6", "name": "Outat El Haj \u2d53\u2d5f\u2d30\u2d5f \u2d4d\u2d43\u2d30\u2d4a\u2d4a \u0623\u0648\u0637\u0627\u0637 \u0627\u0644\u062d\u0627\u062c", "name:ar": "\u0623\u0648\u0637\u0627\u0637 \u0627\u0644\u062d\u0627\u062c", "name:ber": "\u2d53\u2d5f\u2d30\u2d5f \u2d4d\u2d43\u2d30\u2d4a\u2d4a", "name:en": "Outat El Haj", "name:fr": "Outat El Haj", "place": "town", "population": "16388", "postal_code": "33304", "wikidata": "Q3358599", "wikipedia": "fr:Outat El Haj"}}, {"type": "node", "id": 2670406317, "lat": 33.6645443, "lon": -3.6239184, "tags": {"name": "Tindite \u2d5c\u2d49\u2d4f\u2d37\u2d49\u2d5c \u062a\u064a\u0646\u062f\u064a\u062a", "name:ar": "\u062a\u064a\u0646\u062f\u064a\u062a", "name:ber": "\u2d5c\u2d49\u2d4f\u2d37\u2d49\u2d5c", "name:en": "Tindine", "name:fr": "Tindite", "name:zgh": "\u2d5c\u2d49\u2d4f\u2d37\u2d49\u2d5c", "place": "town"}}]}