{"version": 0.6, "generator": "Overpass API 0.7.62.4 2390de5a", "osm3s": {"timestamp_osm_base": "2025-01-08T06:29:44Z", "copyright": "The data included in this document is from www.openstreetmap.org. The data is made available under ODbL."}, "elements": [{"type": "node", "id": 270761608, "lat": 33.4716701, "lon": 36.313488}, {"type": "node", "id": 270761610, "lat": 33.4745639, "lon": 36.3086945}, {"type": "node", "id": 322081374, "lat": 33.4781743, "lon": 36.304169}, {"type": "node", "id": 322081764, "lat": 33.475777, "lon": 36.3070512}, {"type": "node", "id": 343596855, "lat": 33.4754239, "lon": 36.3074935}, {"type": "node", "id": 566712875, "lat": 33.4050802, "lon": 36.5441335, "tags": {"name": "\u062c\u062f\u064a\u062f\u0629 \u0627\u0644\u062e\u0627\u0635", "name:ar": "\u062c\u062f\u064a\u062f\u0629 \u0627\u0644\u062e\u0627\u0635", "name:de": "Dschadidat al-Chas", "name:en": "Jadidat al-Khas", "name:fr": "Djadidat al-Khase", "name:he": "\u05d2\u05f3\u05d3\u05d9\u05d3\u05ea \u05d0\u05dc-\u05d7\u05f3\u05d0\u05e1", "name:ja": "\u30b8\u30e3\u30c7\u30a3\u30c0\u30c8\u30fb\u30a2\u30eb\u30a0\u30cf\u30fc\u30b9", "name:ko": "\uc790\ub514\ub2e4\ud2b8\uc54c\uce74\uc2a4", "name:ml": "\u0d1c\u0d26\u0d40\u0d26\u0d24\u0d4d\u0d24\u0d4d \u0d05\u0d7d-\u0d16\u0d3e\u0d38\u0d4d", "name:ru": "\u0414\u0436\u0430\u0434\u0438\u0434\u0430\u0442-\u0430\u043b-\u0425\u0430\u0441", "place": "town", "population": "6298", "population:date": "2004", "source:population": "\u0627\u0644\u0645\u0643\u062a\u0628 \u0627\u0644\u0645\u0631\u0643\u0632\u064a \u0644\u0644\u0625\u062d\u0635\u0627\u0621"}}, {"type": "node", "id": 566712880, "lat": 33.4478157, "lon": 36.5602552, "tags": {"name": "\u062d\u0631\u0627\u0646 \u0627\u0644\u0639\u0648\u0627\u0645\u064a\u062f", "name:ar": "\u062d\u0631\u0627\u0646 \u0627\u0644\u0639\u0648\u0627\u0645\u064a\u062f", "name:de": "Harran al-Awamid", "name:en": "Harran al-Awamid", "name:fr": "Harrane al-Aouamid", "name:he": "\u05d7\u05e8\u05e8\u05d0\u05df \u05d0\u05dc-\u05e2\u05d5\u05d5\u05d0\u05de\u05d9\u05d3", "name:ja": "\u30cf\u30c3\u30e9\u30fc\u30f3\u30fb\u30a2\u30eb\u30a0\u30a2\u30ef\u30fc\u30df\u30fc\u30c9", "name:ko": "\ud558\ub780\uc54c\ub77c\uc640\ubbf8\ub4dc", "name:ml": "\u0d39\u0d31\u0d3e\u0d7b \u0d05\u0d7d \u0d05\u0d35\u0d3e\u0d2e\u0d3f\u0d26\u0d4d", "name:ru": "\u0425\u0430\u0440\u0440\u0430\u043d-\u0430\u043b\u044c-\u0410\u0432\u0430\u043c\u0438\u0434", "place": "town", "population": "12117", "population:date": "2004", "source:population": "\u0627\u0644\u0645\u0643\u062a\u0628 \u0627\u0644\u0645\u0631\u0643\u0632\u064a \u0644\u0644\u0625\u062d\u0635\u0627\u0621"}}, {"type": "node", "id": 566713930, "lat": 33.3600692, "lon": 36.5479959, "tags": {"name": "\u0627\u0644\u0647\u064a\u062c\u0627\u0646\u0629", "name:ar": "\u0627\u0644\u0647\u064a\u062c\u0627\u0646\u0629", "name:de": "al-Heidschane", "name:en": "Al-Haijane", "name:fr": "Al-Ha\u00efdjan\u00e9", "name:he": "\u05d0\u05dc-\u05d4\u05d9\u05d2\u05f3\u05d0\u05e0\u05d4", "name:ja": "\u30a2\u30eb\u30a0\u30cf\u30a4\u30b8\u30e3\u30fc\u30cd", "name:ko": "\uc54c\ud558\uc774\uc790\ub124", "name:ml": "\u0d05\u0d7d-\u0d39\u0d48\u0d1c\u0d3e\u0d28\u0d46", "name:ru": "\u0410\u043b\u044c-\u0425\u0430\u0439\u0434\u0436\u0430\u043d\u0435", "place": "town", "population": "8138", "population:date": "2004", "source:population": "\u0627\u0644\u0645\u0643\u062a\u0628 \u0627\u0644\u0645\u0631\u0643\u0632\u064a \u0644\u0644\u0625\u062d\u0635\u0627\u0621"}}, {"type": "node", "id": 566713943, "lat": 33.3980776, "lon": 36.4565818, "tags": {"name": "\u0627\u0644\u063a\u0632\u0644\u0627\u0646\u064a\u0629", "name:ar": "\u0627\u0644\u063a\u0632\u0644\u0627\u0646\u064a\u0629", "name:de": "al-Gislanija", "name:en": "Al-Ghizlaniya", "name:fr": "Al-Ghizlania", "name:he": "\u05d0\u05dc-\u05e2\u05f3\u05d6\u05dc\u05d0\u05e0\u05d9\u05d4", "name:ja": "\u30a2\u30eb\u30a0\u30ae\u30ba\u30e9\u30fc\u30cb\u30e4", "name:ko": "\uc54c\uae30\uc990\ub77c\ub2c8\uc57c", "name:ml": "\u0d05\u0d7d-\u0d17\u0d3f\u0d38\u0d4d\u0d32\u0d3e\u0d28\u0d3f\u0d2f", "name:ru": "\u0410\u043b\u044c-\u0413\u0438\u0437\u043b\u0430\u043d\u0438\u0439\u044f", "place": "town", "population": "10473", "population:date": "2004", "source:population": "\u0627\u0644\u0645\u0643\u062a\u0628 \u0627\u0644\u0645\u0631\u0643\u0632\u064a \u0644\u0644\u0625\u062d\u0635\u0627\u0621", "wikidata": "Q12190731", "wikipedia": "ar:\u0627\u0644\u063a\u0632\u0644\u0627\u0646\u064a\u0629"}}, {"type": "node", "id": 567030702, "lat": 33.5474646, "lon": 36.2157207, "tags": {"name": "\u0642\u062f\u0633\u064a\u0627", "name:ar": "\u0642\u062f\u0633\u064a\u0627", "name:de": "Kudseija", "name:en": "Qudsaiya", "name:fr": "Qudsa\u00efa", "name:he": "\u05e7\u05d3\u05e1\u05d9\u05d9\u05d0", "name:ja": "\u30af\u30c9\u30a5\u30b5\u30e4", "name:ko": "\ucfe0\ub4dc\uc0ac\uc774\uc57c", "name:ml": "\u0d16\u0d26\u0d4d\u200c\u0d38\u0d40\u0d2f", "name:ru": "\u041a\u0443\u0434\u0441\u0430\u0439\u044f", "place": "town", "population": "33571", "population:date": "2004", "source:population": "\u0627\u0644\u0645\u0643\u062a\u0628 \u0627\u0644\u0645\u0631\u0643\u0632\u064a \u0644\u0644\u0625\u062d\u0635\u0627\u0621", "wikidata": "Q4118337", "wikipedia": "ar:\u0642\u062f\u0633\u064a\u0627"}}, {"type": "node", "id": 567043643, "lat": 33.5280369, "lon": 36.3857176, "tags": {"name": "\u062d\u0645\u0648\u0631\u0629", "name:ar": "\u062d\u0645\u0648\u0631\u0629", "name:de": "Hamura", "name:en": "Hamura", "name:fr": "Hamura", "name:he": "\u05d7\u05de\u05d5\u05e8\u05d4", "name:ja": "\u30cf\u30e0\u30e9", "name:ko": "\ud558\ubb34\ub77c", "name:ml": "\u0d39\u0d2e\u0d42\u0d31", "name:ru": "\u0425\u0430\u043c\u0443\u0440\u0430", "place": "town", "population": "13760", "population:date": "2004", "source:population": "\u0627\u0644\u0645\u0643\u062a\u0628 \u0627\u0644\u0645\u0631\u0643\u0632\u064a \u0644\u0644\u0625\u062d\u0635\u0627\u0621"}}, {"type": "node", "id": 567043644, "lat": 33.5184752, "lon": 36.3799215, "tags": {"name": "\u0633\u0642\u0628\u0627", "name:ar": "\u0633\u0642\u0628\u0627", "name:de": "Sakba", "name:en": "Saqba", "name:fr": "Saqba", "name:he": "\u05e1\u05e7\u05d1\u05d0", "name:ja": "\u30b5\u30af\u30d0", "name:ko": "\uc0ac\ud06c\ubc14", "name:ml": "\u0d38\u0d16\u0d4d\u0d2c", "name:ru": "\u0421\u0430\u043a\u0431\u0430", "place": "town", "population": "25696", "population:date": "2004", "source:population": "\u0627\u0644\u0645\u0643\u062a\u0628 \u0627\u0644\u0645\u0631\u0643\u0632\u064a \u0644\u0644\u0625\u062d\u0635\u0627\u0621"}}, {"type": "node", "id": 567043653, "lat": 33.5126012, "lon": 36.3735824, "tags": {"name": "\u0643\u0641\u0631 \u0628\u0637\u0646\u0627", "name:ar": "\u0643\u0641\u0631 \u0628\u0637\u0646\u0627", "name:de": "Kafr Batna", "name:en": "Kafr Batna", "name:fr": "Kafr Batna", "name:he": "\u05db\u05e4\u05e8 \u05d1\u05d8\u05e0\u05d0", "name:ja": "\u30ab\u30d5\u30eb\u30fb\u30d0\u30c8\u30ca", "name:ko": "\uce74\ud504\ub974\ubc14\ud2b8\ub098", "name:ml": "\u0d15\u0d2b\u0d7c \u0d2c\u0d24\u0d4d\u0d28", "name:ru": "\u041a\u0430\u0444\u0440-\u0411\u0430\u0442\u043d\u0430", "place": "town", "population": "22535", "population:date": "2004", "source:population": "\u0627\u0644\u0645\u0643\u062a\u0628 \u0627\u0644\u0645\u0631\u0643\u0632\u064a \u0644\u0644\u0625\u062d\u0635\u0627\u0621"}}, {"type": "node", "id": 567043654, "lat": 33.5188698, "lon": 36.3647745, "tags": {"name": "\u062d\u0632\u0629", "name:ar": "\u062d\u0632\u0629", "name:de": "Hesse", "name:en": "Hezze", "name:fr": "Hezz\u00e9", "name:he": "\u05d7\u05d6\u05d6\u05d4", "name:ja": "\u30cf\u30c3\u30bc", "name:ko": "\ud56e\uca68", "name:ml": "\u0d39\u0d46\u0d38\u0d4d\u0d38\u0d46", "name:ru": "\u0425\u0430\u0437\u0437\u0430", "place": "town", "population": "9293", "population:date": "2004", "source:population": "\u0627\u0644\u0645\u0643\u062a\u0628 \u0627\u0644\u0645\u0631\u0643\u0632\u064a \u0644\u0644\u0625\u062d\u0635\u0627\u0621"}}, {"type": "node", "id": 567043656, "lat": 33.5261956, "lon": 36.3510736, "tags": {"name": "\u0632\u0645\u0644\u0643\u0627", "name:ar": "\u0632\u0645\u0644\u0643\u0627", "name:de": "Samalka", "name:en": "Zamalka", "name:fr": "Zamalka", "name:he": "\u05d6\u05de\u05dc\u05db\u05d0", "name:ja": "\u30b6\u30de\u30eb\u30ab", "name:ko": "\uc790\ub9d0\uce74", "name:ml": "\u0d38\u0d2e\u0d7d\u0d15\u0d4d\u0d15", "name:ru": "\u0417\u0430\u043c\u0430\u043b\u043a\u0430", "name:tr": "Zemelka", "place": "town", "population": "44661", "population:date": "2004", "source:population": "\u0627\u0644\u0645\u0643\u062a\u0628 \u0627\u0644\u0645\u0631\u0643\u0632\u064a \u0644\u0644\u0625\u062d\u0635\u0627\u0621"}}, {"type": "node", "id": 567043659, "lat": 33.5380079, "lon": 36.3666112, "tags": {"alt_name": "\u0639\u0631\u0628\u064a\u0644", "alt_name:ar": "\u0639\u0631\u0628\u064a\u0644", "alt_name:de": "Arbil", "alt_name:en": "Arbil", "alt_name:fr": "Arbil", "alt_name:he": "\u05e2\u05e8\u05d1\u05d9\u05dc", "alt_name:ja": "\u30a2\u30eb\u30d3\u30fc\u30eb", "alt_name:ko": "\uc544\ub974\ube4c", "alt_name:ru": "\u0410\u0440\u0431\u0438\u043b\u044c", "name": "\u0639\u0631\u0628\u064a\u0646", "name:ar": "\u0639\u0631\u0628\u064a\u0646", "name:de": "Arbin", "name:en": "Arbin", "name:fr": "Arbine", "name:he": "\u05e2\u05e8\u05d1\u05d9\u05df", "name:ja": "\u30a2\u30eb\u30d3\u30fc\u30f3", "name:ko": "\uc544\ub974\ube48", "name:ml": "\u0d05\u0d7c\u0d2c\u0d40\u0d7b", "name:ru": "\u0410\u0440\u0431\u0438\u043d", "place": "town", "population": "44934", "population:date": "2004", "source:population": "\u0627\u0644\u0645\u0643\u062a\u0628 \u0627\u0644\u0645\u0631\u0643\u0632\u064a \u0644\u0644\u0625\u062d\u0635\u0627\u0621", "wikidata": "Q250663", "wikipedia": "ar:\u0639\u0631\u0628\u064a\u0646"}}, {"type": "node", "id": 567044223, "lat": 33.5504596, "lon": 36.3974062, "tags": {"name": "\u0645\u0633\u0631\u0627\u0628\u0627", "name:ar": "\u0645\u0633\u0631\u0627\u0628\u0627", "name:de": "Misraba", "name:en": "Misraba", "name:fr": "Misraaba", "name:he": "\u05de\u05e1\u05e8\u05d0\u05d1\u05d0", "name:ja": "\u30df\u30b9\u30e9\u30fc\u30d0", "name:ko": "\ubbf8\uc2a4\ub77c\ubc14", "name:ml": "\u0d2e\u0d3f\u0d38\u0d4d\u0d30\u0d3e\u0d2c", "name:ru": "\u041c\u0438\u0441\u0440\u0430\u043a\u0431\u0430", "place": "town", "population": "5942", "population:date": "2004", "source:population": "\u0627\u0644\u0645\u0643\u062a\u0628 \u0627\u0644\u0645\u0631\u0643\u0632\u064a \u0644\u0644\u0625\u062d\u0635\u0627\u0621"}}, {"type": "node", "id": 567044224, "lat": 33.538783, "lon": 36.3996438, "tags": {"name": "\u0628\u064a\u062a \u0633\u0648\u0627", "name:ar": "\u0628\u064a\u062a \u0633\u0648\u0627", "name:de": "Beit Sawa", "name:en": "Beit Sawa", "name:fr": "Be\u00eft Saoua", "name:he": "\u05d1\u05d9\u05ea \u05e1\u05d5\u05d5\u05d0", "name:ja": "\u30d9\u30a4\u30c8\u30fb\u30b5\u30ef", "name:ko": "\ubca0\uc774\ud2b8\uc0ac\uc640", "name:ml": "\u0d2c\u0d46\u0d2f\u0d4d\u0d24\u0d4d\u0d24\u0d4d \u0d38\u0d35", "name:ru": "\u0411\u0435\u0439\u0442-\u0421\u0430\u0432\u0430", "place": "town", "population": "6249", "population:date": "2004", "source:population": "\u0627\u0644\u0645\u0643\u062a\u0628 \u0627\u0644\u0645\u0631\u0643\u0632\u064a \u0644\u0644\u0625\u062d\u0635\u0627\u0621", "wikidata": "Q4881461", "wikipedia": "en:Beit Sawa"}}, {"type": "node", "id": 567045031, "lat": 33.5030415, "lon": 36.5669637, "tags": {"name": "\u0627\u0644\u0639\u0628\u0627\u062f\u0629", "name:ar": "\u0627\u0644\u0639\u0628\u0627\u062f\u0629", "name:de": "al-Abbada", "name:en": "Al-Abbada", "name:fr": "Al-Abbada", "name:he": "\u05d0\u05dc-\u05e2\u05d1\u05d1\u05d0\u05d3\u05d4", "name:ja": "\u30a2\u30eb\u30a0\u30a2\u30c3\u30d0\u30fc\u30c0", "name:ko": "\uc54c\uc544\ubc14\ub2e4", "name:ml": "\u0d05\u0d7d-\u0d05\u0d2c\u0d4d\u0d2c\u0d3e\u0d26", "name:ru": "\u0410\u043b\u044c-\u0410\u0431\u0431\u0430\u0434\u0430", "place": "town", "population": "6385", "population:date": "2004", "source:population": "\u0627\u0644\u0645\u0643\u062a\u0628 \u0627\u0644\u0645\u0631\u0643\u0632\u064a \u0644\u0644\u0625\u062d\u0635\u0627\u0621"}}, {"type": "node", "id": 567045083, "lat": 33.48103, "lon": 36.5009806, "tags": {"name": "\u062f\u064a\u0631 \u0633\u0644\u0645\u0627\u0646", "name:ar": "\u062f\u064a\u0631 \u0633\u0644\u0645\u0627\u0646", "name:de": "Deir Salman", "name:en": "Deir Salman", "name:fr": "De\u00efr Salmane", "name:he": "\u05d3\u05d9\u05e8 \u05e1\u05dc\u05de\u05d0\u05df", "name:ja": "\u30c7\u30fc\u30eb\u30fb\u30b5\u30eb\u30de\u30fc\u30f3", "name:ko": "\ub370\ub974\uc0b4\ub9cc", "name:ml": "\u0d26\u0d46\u0d2f\u0d4d\u0d7c \u0d38\u0d7d\u0d2e\u0d3e\u0d7b", "name:ru": "\u0414\u0435\u0439\u0440-\u0421\u0430\u043b\u043c\u0430\u043d", "place": "town", "population": "6227", "population:date": "2004", "source:population": "\u0627\u0644\u0645\u0643\u062a\u0628 \u0627\u0644\u0645\u0631\u0643\u0632\u064a \u0644\u0644\u0625\u062d\u0635\u0627\u0621"}}, {"type": "node", "id": 567045696, "lat": 33.4724791, "lon": 36.3048029, "tags": {"alt_name": "\u0645\u062e\u064a\u0645 \u0627\u0644\u064a\u0631\u0645\u0648\u0643", "alt_name:ar": "\u0645\u062e\u064a\u0645 \u0627\u0644\u064a\u0631\u0645\u0648\u0643", "alt_name:de": "Mucheijam al-Jarmuk", "alt_name:el": "\u039c\u03bf\u03c5\u03c7\u03b1\u03b3\u03b9\u03ac\u03bc \u03b1\u03bb \u0393\u03b9\u03b1\u03c1\u03bc\u03bf\u03cd\u03ba", "alt_name:en": "Mukhayyam al-Yarmuk", "alt_name:fr": "Mukha\u00efam al-Yarmouk", "alt_name:ml": "\u0d2e\u0d41\u0d16\u0d2f\u0d4d\u0d2f\u0d02 \u0d05\u0d7d-\u0d2f\u0d7c\u0d2e\u0d42\u0d15\u0d4d\u0d15\u0d4d", "alt_name:ru": "\u041c\u0443\u0445\u044f\u0439\u044f\u043c-\u044d\u043b\u044c-\u042f\u0440\u043c\u0443\u043a", "name": "\u0627\u0644\u064a\u0631\u0645\u0648\u0643", "name:ar": "\u0627\u0644\u064a\u0631\u0645\u0648\u0643", "name:de": "al-Jarmuk", "name:el": "\u03b1\u03bb \u0393\u03b9\u03b1\u03c1\u03bc\u03bf\u03cd\u03ba", "name:en": "Al-Yarmuk", "name:fr": "Yarmouk", "name:he": "\u05d0\u05dc-\u05d9\u05e8\u05de\u05d5\u05da", "name:ja": "\u30a2\u30eb\u30a0\u30e4\u30eb\u30e0\u30fc\u30af", "name:ko": "\uc57c\ub974\ubb34\ud06c", "name:ml": "\u0d05\u0d7d-\u0d2f\u0d7c\u0d2e\u0d42\u0d15\u0d4d\u0d15\u0d4d", "name:ru": "\u0410\u043b\u044c-\u042f\u0440\u043c\u0443\u043a", "place": "city", "population": "137248", "population:date": "2004", "source:population": "\u0627\u0644\u0645\u0643\u062a\u0628 \u0627\u0644\u0645\u0631\u0643\u0632\u064a \u0644\u0644\u0625\u062d\u0635\u0627\u0621", "wikidata": "Q2918779", "wikipedia": "ar:\u0645\u062e\u064a\u0645 \u0627\u0644\u064a\u0631\u0645\u0648\u0643"}}, {"type": "node", "id": 567045908, "lat": 33.4615876, "lon": 36.1983105, "tags": {"name": "\u0645\u0639\u0636\u0645\u064a\u0629 \u0627\u0644\u0634\u0627\u0645", "name:ar": "\u0645\u0639\u0636\u0645\u064a\u0629 \u0627\u0644\u0634\u0627\u0645", "name:de": "Muadammijat asch-Scham", "name:en": "Mu'adammiyat ash-Sham", "name:fr": "Muadammiyat ach-Cham", "name:he": "\u05de\u05e2\u05d3\u05de\u05d9\u05d4 \u05d0-\u05e9\u05d0\u05dd", "name:ja": "\u30e0\u30a2\u30c3\u30c0\u30c3\u30df\u30fc\u30e4\u30c8\u30a5\u30fb\u30a2\u30c3\u30a0\u30b7\u30e3\u30fc\u30e0", "name:ko": "\ubb34\uc544\ub530\ubbf8\uc57c\ud2b8\uc544\uc0e4\ubbc0", "name:ml": "\u0d2e\u0d41\u0d05\u0d26\u0d4d\u0d26\u0d2e\u0d3f\u0d2f\u0d4d\u0d2f\u0d24\u0d4d\u0d24\u0d4d \u0d05\u0d37\u0d4d-\u0d37\u0d46\u0d2f\u0d4d\u0d16\u0d4d", "name:ru": "\u041c\u0443\u0430\u0434\u0430\u043c\u043c\u0438\u0301\u0439\u044f\u0442-\u0430\u0448-\u0428\u0430\u043c", "place": "city", "population": "52738", "population:date": "2004", "source:population": "\u0627\u0644\u0645\u0643\u062a\u0628 \u0627\u0644\u0645\u0631\u0643\u0632\u064a \u0644\u0644\u0625\u062d\u0635\u0627\u0621"}}, {"type": "node", "id": 567045909, "lat": 33.4587911, "lon": 36.2388458, "tags": {"name": "\u062f\u0627\u0631\u064a\u0627", "name:ar": "\u062f\u0627\u0631\u064a\u0627", "name:de": "Dareija", "name:en": "Darayya", "name:fr": "Dara\u00efa", "name:he": "\u05d3\u05d0\u05e8\u05d9\u05d9\u05d0", "name:ja": "\u30c0\u30e9\u30a4\u30e4", "name:ko": "\ub2e4\ub77c\uc774\uc57c", "name:lt": "Daraja", "name:ml": "\u0d26\u0d3e\u0d31\u0d2f\u0d4d\u0d2f", "name:ru": "\u0414\u0430\u0440\u0430\u0439\u044f", "place": "city", "population": "78763", "population:date": "2004", "source:population": "\u0627\u0644\u0645\u0643\u062a\u0628 \u0627\u0644\u0645\u0631\u0643\u0632\u064a \u0644\u0644\u0625\u062d\u0635\u0627\u0621"}}, {"type": "node", "id": 567045913, "lat": 33.4226099, "lon": 36.2259681, "tags": {"name": "\u0635\u062d\u0646\u0627\u064a\u0627", "name:ar": "\u0635\u062d\u0646\u0627\u064a\u0627", "name:de": "Sahnaja", "name:en": "Sahnaya", "name:fr": "Sahnaia", "name:he": "\u05e1\u05d7\u05e0\u05d0\u05d9\u05d0", "name:ja": "\u30b5\u30d5\u30ca\u30fc\u30e4", "name:ko": "\uc0ac\ud750\ub098\uc57c", "name:ml": "\u0d38\u0d39\u0d4d\u0d28\u0d3e\u0d2f", "name:ru": "\u0421\u0430\u0445\u043d\u0430\u044f", "place": "town", "population": "13993", "population:date": "2004", "source:population": "\u0627\u0644\u0645\u0643\u062a\u0628 \u0627\u0644\u0645\u0631\u0643\u0632\u064a \u0644\u0644\u0625\u062d\u0635\u0627\u0621"}}, {"type": "node", "id": 567046657, "lat": 33.3344531, "lon": 36.1599319, "tags": {"name": "\u0632\u0627\u0643\u064a\u0629", "name:ar": "\u0632\u0627\u0643\u064a\u0629", "name:de": "Sakija", "name:en": "Zakiya", "name:fr": "Zakia", "name:he": "\u05d6\u05d0\u05db\u05d9\u05d4", "name:ja": "\u30b6\u30fc\u30ad\u30e4", "name:ko": "\uc790\ud0a4\uc57c", "name:ml": "\u0d38\u0d3e\u0d15\u0d4d\u0d15\u0d3f\u0d2f", "name:ru": "\u0417\u0430\u043a\u0438\u044f", "place": "town", "population": "18553", "population:date": "2004", "source:population": "\u0627\u0644\u0645\u0643\u062a\u0628 \u0627\u0644\u0645\u0631\u0643\u0632\u064a \u0644\u0644\u0625\u062d\u0635\u0627\u0621"}}, {"type": "node", "id": 567046783, "lat": 33.3584186, "lon": 36.2411074, "tags": {"name": "\u0627\u0644\u0643\u0633\u0648\u0629", "name:ar": "\u0627\u0644\u0643\u0633\u0648\u0629", "name:de": "al-Kiswa", "name:en": "Al-Kiswa", "name:fr": "Al-Kisoua", "name:he": "\u05d0\u05dc-\u05db\u05e1\u05d5\u05d5\u05d4", "name:ja": "\u30a2\u30eb\u30a0\u30ad\u30b9\u30ef", "name:ko": "\uc54c\ud0a4\uc2a4\uc640", "name:ml": "\u0d05\u0d7d-\u0d15\u0d3f\u0d38\u0d4d\u200c\u0d35", "name:ru": "\u0410\u043b\u044c-\u041a\u0438\u0441\u0432\u0430", "name:zh": "\u57fa\u65af\u6c83", "place": "town", "population": "43456", "population:date": "2004", "source:population": "\u0627\u0644\u0645\u0643\u062a\u0628 \u0627\u0644\u0645\u0631\u0643\u0632\u064a \u0644\u0644\u0625\u062d\u0635\u0627\u0621", "wikidata": "Q2915767", "wikipedia": "en:Al-Kiswah"}}, {"type": "node", "id": 567046784, "lat": 33.3313344, "lon": 36.2300353, "tags": {"name": "\u062e\u0627\u0646 \u062f\u0646\u0648\u0646", "name:ar": "\u062e\u0627\u0646 \u062f\u0646\u0648\u0646", "name:de": "Chan Danun", "name:en": "Khan Danun", "name:fr": "Khan Danoune", "name:he": "\u05d7\u05f3\u05d0\u05df \u05d3\u05e0\u05d5\u05df", "name:ja": "\u30cf\u30fc\u30f3\u30fb\u30c0\u30cc\u30f3", "name:ko": "\uce78\ub2e4\ub208", "name:ru": "\u0425\u0430\u043d-\u0414\u0430\u043d\u0443\u043d", "place": "town", "population": "8727", "population:date": "2004", "source:population": "\u0627\u0644\u0645\u0643\u062a\u0628 \u0627\u0644\u0645\u0631\u0643\u0632\u064a \u0644\u0644\u0625\u062d\u0635\u0627\u0621"}}, {"type": "node", "id": 567048691, "lat": 33.4509586, "lon": 36.3905388, "tags": {"name": "\u0634\u0628\u0639\u0627", "name:ar": "\u0634\u0628\u0639\u0627", "name:de": "Schabaa", "name:en": "Shab'a", "name:fr": "Chabaa", "name:he": "\u05e9\u05d1\u05e2\u05d0", "name:ja": "\u30b7\u30e3\u30d6\u30a2", "name:ko": "\uc0e4\ube0c\uc544", "name:ml": "\u0d37\u0d2c\u0d3e", "name:ru": "\u0428\u0430\u0431\u0430", "place": "town", "population": "13446", "population:date": "2004", "source:population": "\u0627\u0644\u0645\u0643\u062a\u0628 \u0627\u0644\u0645\u0631\u0643\u0632\u064a \u0644\u0644\u0625\u062d\u0635\u0627\u0621", "wikipedia": "ar:\u0634\u0628\u0639\u0627"}}, {"type": "node", "id": 567048842, "lat": 33.4853073, "lon": 36.3769557, "tags": {"name": "\u0627\u0644\u0645\u0644\u064a\u062d\u0629", "name:ar": "\u0627\u0644\u0645\u0644\u064a\u062d\u0629", "name:de": "al-Muleiha", "name:en": "Al-Muleiha", "name:fr": "Al-Muleiha", "name:he": "\u05d0\u05dc-\u05de\u05dc\u05d9\u05d7\u05d4", "name:ja": "\u30a2\u30eb\u30a0\u30e0\u30e9\u30a4\u30cf", "name:ko": "\uc54c\ubb3c\ub77c\uc774\ud558", "name:ml": "\u0d05\u0d7d-\u0d2e\u0d41\u0d32\u0d48\u0d39", "name:ru": "\u0410\u043b\u044c-\u041c\u0443\u043b\u0430\u0439\u0445\u0430", "place": "town", "population": "23034", "population:date": "2004", "source:population": "\u0627\u0644\u0645\u0643\u062a\u0628 \u0627\u0644\u0645\u0631\u0643\u0632\u064a \u0644\u0644\u0625\u062d\u0635\u0627\u0621"}}, {"type": "node", "id": 567048847, "lat": 33.4828176, "lon": 36.4012208, "tags": {"name": "\u0632\u0628\u062f\u064a\u0646", "name:ar": "\u0632\u0628\u062f\u064a\u0646", "name:de": "Sabdin", "name:en": "Zabdin", "name:fr": "Zabdine", "name:he": "\u05d6\u05d1\u05d3\u05d9\u05df", "name:ja": "\u30b6\u30d6\u30c7\u30a3\u30f3", "name:ko": "\uc790\ube0c\ub518", "name:ml": "\u0d38\u0d2c\u0d4d\u0d26\u0d40\u0d7b", "name:ru": "\u0417\u0430\u0431\u0434\u0438\u043d", "place": "town", "population": "7003", "population:date": "2004", "source:population": "\u0627\u0644\u0645\u0643\u062a\u0628 \u0627\u0644\u0645\u0631\u0643\u0632\u064a \u0644\u0644\u0625\u062d\u0635\u0627\u0621"}}, {"type": "node", "id": 567049005, "lat": 33.5103908, "lon": 36.3884251, "tags": {"name": "\u062c\u0633\u0631\u064a\u0646", "name:ar": "\u062c\u0633\u0631\u064a\u0646", "name:de": "Dschisrein", "name:en": "Jisrein", "name:fr": "Djisreine", "name:he": "\u05d2\u05f3\u05e1\u05e8\u05d9\u05df", "name:ja": "\u30b8\u30b9\u30ec\u30fc\u30f3", "name:ko": "\uc9c0\uc2a4\ub808\uc778", "name:ml": "\u0d1c\u0d3f\u0d38\u0d4d\u0d30\u0d46\u0d2f\u0d4d\u0d7b", "name:ru": "\u0414\u0436\u0438\u0441\u0440\u0435\u0438\u043d", "place": "town", "population": "9442", "population:date": "2004", "source:population": "\u0627\u0644\u0645\u0643\u062a\u0628 \u0627\u0644\u0645\u0631\u0643\u0632\u064a \u0644\u0644\u0625\u062d\u0635\u0627\u0621"}}, {"type": "node", "id": 567052233, "lat": 33.5152527, "lon": 36.1253014, "tags": {"name": "\u0627\u0644\u0635\u0628\u0648\u0631\u0629", "name:ar": "\u0627\u0644\u0635\u0628\u0648\u0631\u0629", "name:de": "as-Sabura", "name:en": "As-Sabura", "name:fr": "As-Sabura", "name:he": "\u05d0-\u05e1\u05d1\u05d5\u05e8\u05d4", "name:ja": "\u30a2\u30c3\u30a0\u30b5\u30d6\u30fc\u30e9", "name:ko": "\uc557\uc0ac\ubd80\ub77c", "name:ml": "\u0d05\u0d38\u0d4d\u0d38\u0d2c\u0d42\u0d31", "name:ru": "\u0410\u0441-\u0421\u0430\u0431\u0443\u0440\u0430", "place": "town", "population": "10969", "population:date": "2004", "source:population": "\u0627\u0644\u0645\u0643\u062a\u0628 \u0627\u0644\u0645\u0631\u0643\u0632\u064a \u0644\u0644\u0625\u062d\u0635\u0627\u0621"}}, {"type": "node", "id": 567052242, "lat": 33.4365009, "lon": 36.0790235, "tags": {"name": "\u0642\u0637\u0646\u0627", "name:ar": "\u0642\u0637\u0646\u0627", "name:de": "Katana", "name:en": "Qatana", "name:fr": "Qatana", "name:he": "\u05e7\u05d8\u05e0\u05d0", "name:ja": "\u30ab\u30bf\u30ca", "name:ko": "\uce74\ud0c0\ub098", "name:lt": "Katana", "name:ml": "\u0d16\u0d24\u0d4d\u0d24\u0d28", "name:ru": "\u041a\u0430\u0442\u0430\u043d\u0430", "place": "town", "population": "33996", "population:date": "2004", "source:population": "\u0627\u0644\u0645\u0643\u062a\u0628 \u0627\u0644\u0645\u0631\u0643\u0632\u064a \u0644\u0644\u0625\u062d\u0635\u0627\u0621"}}, {"type": "node", "id": 567052971, "lat": 33.1831577, "lon": 36.2247391, "tags": {"name": "\u063a\u0628\u0627\u063a\u0628", "name:ar": "\u063a\u0628\u0627\u063a\u0628", "name:de": "Gabageb", "name:en": "Ghabagheb", "name:fr": "Ghabagheb", "name:he": "\u05e2\u05f3\u05d1\u05d0\u05e2\u05f3\u05d1", "name:ja": "\u30ac\u30d0\u30fc\u30b2\u30d6", "name:ko": "\uac00\ubc14\uac8c\ube0c", "name:ml": "\u0d17\u0d2c\u0d3e\u0d17\u0d3f\u0d2c\u0d4d", "name:ru": "\u0413\u0430\u0431\u0430\u0433\u044d\u0431", "place": "town", "population": "11802", "population:date": "2004", "source:population": "\u0627\u0644\u0645\u0643\u062a\u0628 \u0627\u0644\u0645\u0631\u0643\u0632\u064a \u0644\u0644\u0625\u062d\u0635\u0627\u0621"}}, {"type": "node", "id": 567097248, "lat": 33.1471824, "lon": 36.1881956, "tags": {"name": "\u062f\u064a\u0631 \u0627\u0644\u0628\u062e\u062a", "name:ar": "\u062f\u064a\u0631 \u0627\u0644\u0628\u062e\u062a", "name:de": "Deir al-Bacht", "name:en": "Deir al-Bakht", "name:fr": "De\u00efr al-Bakht", "name:he": "\u05d3\u05d9\u05e8 \u05d0\u05dc-\u05d1\u05d7\u05f3\u05ea", "name:ja": "\u30c7\u30fc\u30eb\u30fb\u30a2\u30eb\u30a0\u30d0\u30d8\u30c8", "name:ko": "\ub370\uc774\ub974\uc54c\ubc14\ud06c\ud2b8", "name:ru": "\u0414\u0435\u0439\u0440-\u0430\u043b\u044c-\u0411\u0430\u0445\u0442", "place": "town", "population": "5381", "population:date": "2004", "source:population": "\u0627\u0644\u0645\u0643\u062a\u0628 \u0627\u0644\u0645\u0631\u0643\u0632\u064a \u0644\u0644\u0625\u062d\u0635\u0627\u0621"}}, {"type": "node", "id": 567097252, "lat": 33.2658744, "lon": 36.0976626, "tags": {"name": "\u0643\u0646\u0627\u0643\u0631", "name:ar": "\u0643\u0646\u0627\u0643\u0631", "name:de": "Kanaker", "name:en": "Kanaker", "name:fr": "Kanaker", "name:he": "\u05db\u05e0\u05d0\u05db\u05e8", "name:ja": "\u30ab\u30ca\u30fc\u30b1\u30eb", "name:ko": "\uce74\ub098\ucf00\ub974", "name:ml": "\u0d15\u0d28\u0d3e\u0d15\u0d4d\u0d15\u0d7c", "name:ru": "\u041a\u0430\u043d\u0430\u043a\u0435\u0440", "place": "town", "population": "13950", "population:date": "2004", "source:population": "\u0627\u0644\u0645\u0643\u062a\u0628 \u0627\u0644\u0645\u0631\u0643\u0632\u064a \u0644\u0644\u0625\u062d\u0635\u0627\u0621"}}, {"type": "node", "id": 567097415, "lat": 33.3741823, "lon": 36.1149217, "tags": {"name": "\u062e\u0627\u0646 \u0627\u0644\u0634\u064a\u062d", "name:ar": "\u062e\u0627\u0646 \u0627\u0644\u0634\u064a\u062d", "name:de": "Chan asch-Schih", "name:en": "Khan ash-Shih", "name:fr": "Khan ach-Chih", "name:he": "\u05d7\u05f3\u05d0\u05df \u05d0-\u05e9\u05d9\u05d7", "name:ja": "\u30cf\u30fc\u30f3\u30fb\u30a2\u30c3\u30a0\u30b7\u30fc\u30d5", "name:ko": "\uce78\uc544\uc2dc\ud750", "name:ml": "\u0d16\u0d3e\u0d7b \u0d05\u0d37\u0d4d-\u0d37\u0d46\u0d2f\u0d4d\u0d16\u0d4d", "name:ru": "\u0425\u0430\u043d-\u0430\u0448-\u0428\u0438\u0445", "place": "town", "population": "12148", "population:date": "2004", "source:population": "\u0627\u0644\u0645\u0643\u062a\u0628 \u0627\u0644\u0645\u0631\u0643\u0632\u064a \u0644\u0644\u0625\u062d\u0635\u0627\u0621"}}, {"type": "node", "id": 567115565, "lat": 33.5107332, "lon": 36.4849423, "tags": {"name": "\u0627\u0644\u0646\u0634\u0627\u0628\u064a\u0629", "name:ar": "\u0627\u0644\u0646\u0634\u0627\u0628\u064a\u0629", "name:de": "an-Naschabija", "name:en": "An-Nashabiya", "name:fr": "An-Nachabia", "name:he": "\u05d0-\u05e0\u05e9\u05d0\u05d1\u05d9\u05d4", "name:ja": "\u30a2\u30c3\u30a0\u30ca\u30b7\u30e3\u30fc\u30d3\u30fc\u30e4", "name:ko": "\uc548\ub098\uc0e4\ube44\uc57c", "name:ml": "\u0d05\u0d7d-\u0d28\u0d37\u0d3e\u0d2c\u0d3f\u0d2f", "name:ru": "\u0410\u043d-\u041d\u0430\u0448\u0430\u0431\u0438\u0301\u0439\u044f", "place": "town", "population": "11053", "population:date": "2004", "source:population": "\u0627\u0644\u0645\u0643\u062a\u0628 \u0627\u0644\u0645\u0631\u0643\u0632\u064a \u0644\u0644\u0625\u062d\u0635\u0627\u0621", "wikidata": "Q12194354", "wikipedia": "ar:\u0627\u0644\u0646\u0634\u0627\u0628\u064a\u0629"}}, {"type": "node", "id": 567121567, "lat": 33.4648218, "lon": 36.4195156, "tags": {"name": "\u062f\u064a\u0631 \u0627\u0644\u0639\u0635\u0627\u0641\u064a\u0631", "name:ar": "\u062f\u064a\u0631 \u0627\u0644\u0639\u0635\u0627\u0641\u064a\u0631", "name:de": "Deir al-Asafir", "name:en": "Deir al-Asafir", "name:fr": "De\u00efr al-Asaf\u00eer", "name:he": "\u05d3\u05d9\u05e8 \u05d0\u05dc-\u05e2\u05e1\u05d0\u05e4\u05d9\u05e8", "name:ja": "\u30c7\u30fc\u30eb\u30fb\u30a2\u30eb\u30a0\u30a2\u30b5\u30fc\u30d5\u30a3\u30eb", "name:ko": "\ub370\ub974\uc54c\uc544\uc0ac\ud53c\ub974", "name:ml": "\u0d26\u0d46\u0d2f\u0d4d\u0d7c \u0d05\u0d7d \u0d05\u0d38\u0d3e\u0d2b\u0d40\u0d7c", "name:ru": "\u0414\u0435\u0439\u0440-\u0430\u043b\u044c-\u0410\u0441\u0430\u0444\u0438\u0440", "place": "town", "population": "6209", "population:date": "2004", "source:population": "\u0627\u0644\u0645\u0643\u062a\u0628 \u0627\u0644\u0645\u0631\u0643\u0632\u064a \u0644\u0644\u0625\u062d\u0635\u0627\u0621"}}, {"type": "node", "id": 567121569, "lat": 33.4226347, "lon": 36.3494102, "tags": {"alt_name": "\u062d\u0648\u0634 \u0627\u0644\u0628\u062d\u062f\u0644\u064a\u0629", "alt_name:ar": "\u062d\u0648\u0634 \u0627\u0644\u0628\u062d\u062f\u0644\u064a\u0629", "name": "\u0627\u0644\u0628\u062d\u062f\u0644\u064a\u0629", "name:ar": "\u0627\u0644\u0628\u062d\u062f\u0644\u064a\u0629", "name:de": "al-Bahdalija", "name:en": "Al-Bahdaliya", "name:fr": "Al-Bahdalia", "name:he": "\u05d0\u05dc-\u05d1\u05d7\u05d3\u05dc\u05d9\u05d4", "name:ja": "\u30a2\u30eb\u30a0\u30d0\u30cf\u30c0\u30ea\u30fc\u30e4", "name:ko": "\uc54c\ubc14\ud750\ub2ec\ub9ac\uc57c", "name:ml": "\u0d05\u0d7d-\u0d2c\u0d39\u0d4d\u0d26\u0d32\u0d3f\u0d2f", "name:ru": "\u0410\u043b\u044c-\u0411\u0430\u0445\u0434\u0430\u043b\u0438\u0301\u0439\u044f", "place": "town", "population": "12330", "population:date": "2004", "source:population": "\u0627\u0644\u0645\u0643\u062a\u0628 \u0627\u0644\u0645\u0631\u0643\u0632\u064a \u0644\u0644\u0625\u062d\u0635\u0627\u0621"}}, {"type": "node", "id": 567125800, "lat": 33.4652568, "lon": 36.32166, "tags": {"name": "\u064a\u0644\u062f\u0627", "name:ar": "\u064a\u0644\u062f\u0627", "name:de": "Jalda", "name:en": "Yalda", "name:fr": "Yalda", "name:he": "\u05d9\u05dc\u05d3\u05d0", "name:ja": "\u30e4\u30eb\u30c0", "name:ko": "\uc584\ub2e4", "name:ml": "\u0d2f\u0d7d\u0d26", "name:ru": "\u042f\u043b\u044c\u0434\u0430", "place": "town", "population": "28384", "population:date": "2004", "source:population": "\u0627\u0644\u0645\u0643\u062a\u0628 \u0627\u0644\u0645\u0631\u0643\u0632\u064a \u0644\u0644\u0625\u062d\u0635\u0627\u0621"}}, {"type": "node", "id": 573517691, "lat": 33.4863893, "lon": 36.3482783, "tags": {"name": "\u062c\u0631\u0645\u0627\u0646\u0627", "name:ar": "\u062c\u0631\u0645\u0627\u0646\u0627", "name:de": "Dscharamana", "name:el": "\u03a4\u03b6\u03b5\u03c1\u03bc\u03ac\u03bd\u03b1", "name:en": "Jaramana", "name:fr": "Djaramana", "name:he": "\u05d2\u05f3\u05e8\u05de\u05d0\u05e0\u05d0", "name:ja": "\u30b8\u30e3\u30e9\u30de\u30fc\u30ca\u30fc", "name:ko": "\uc790\ub77c\ub9c8\ub098", "name:ml": "\u0d1c\u0d31\u0d2e\u0d3e\u0d28", "name:ru": "\u0414\u0436\u0430\u0440\u0430\u043c\u0430\u043d\u0430", "place": "city", "population": "114363", "population:date": "2004", "source:population": "\u0627\u0644\u0645\u0643\u062a\u0628 \u0627\u0644\u0645\u0631\u0643\u0632\u064a \u0644\u0644\u0625\u062d\u0635\u0627\u0621", "wikidata": "Q195531", "wikipedia": "ar:\u062c\u0631\u0645\u0627\u0646\u0627"}}, {"type": "node", "id": 573518113, "lat": 33.557736, "lon": 36.3668183, "tags": {"name": "\u062d\u0631\u0633\u062a\u0627", "name:ar": "\u062d\u0631\u0633\u062a\u0627", "name:de": "Harasta", "name:en": "Harasta", "name:fr": "Harasta", "name:he": "\u05d7\u05e8\u05e1\u05ea\u05d0", "name:ja": "\u30cf\u30e9\u30b9\u30bf\u30fc", "name:ko": "\ud558\ub77c\uc2a4\ud0c0", "name:ml": "\u0d39\u0d3f\u0d31\u0d3f\u0d38\u0d4d\u0d24", "name:ru": "\u0425\u0430\u0440\u0430\u0441\u0442\u0430", "place": "city", "population": "68708", "population:date": "2004", "source:population": "\u0627\u0644\u0645\u0643\u062a\u0628 \u0627\u0644\u0645\u0631\u0643\u0632\u064a \u0644\u0644\u0625\u062d\u0635\u0627\u0621", "wikidata": "Q2013262", "wikipedia": "ar:\u062d\u0631\u0633\u062a\u0627"}}, {"type": "node", "id": 573519468, "lat": 33.4721579, "lon": 36.3503914, "tags": {"name": "\u0639\u0642\u0631\u0628\u0627", "name:ar": "\u0639\u0642\u0631\u0628\u0627", "name:de": "Akraba", "name:en": "Aqraba", "name:fr": "Aqraba", "name:he": "\u05e2\u05e7\u05e8\u05d1\u05d0", "name:ja": "\u30a2\u30af\u30e9\u30d0", "name:ko": "\uc544\ud06c\ub77c\ubc14", "name:ml": "\u0d05\u0d16\u0d4d\u0d31\u0d2c", "name:ru": "\u0410\u043a\u0440\u0430\u0431\u0430", "place": "town", "population": "6799", "population:date": "2004", "source:population": "\u0627\u0644\u0645\u0643\u062a\u0628 \u0627\u0644\u0645\u0631\u0643\u0632\u064a \u0644\u0644\u0625\u062d\u0635\u0627\u0621"}}, {"type": "node", "id": 1091272140, "lat": 33.5130695, "lon": 36.3095814, "tags": {"admin_level": "2", "alt_name": "\u0627\u0644\u0634\u0627\u0645", "alt_name:ar": "\u0627\u0644\u0634\u0627\u0645", "alt_name:de": "Dimaschk", "alt_name:en": "Dimashq", "alt_name:fr": "Dimach", "alt_name:gd": "Damascus", "alt_name:ja": "\u30c7\u30a3\u30de\u30b7\u30e5\u30af", "alt_name:ko": "\ub514\ub9c8\uc288\ucfe0", "alt_name:ku": "Dime\u015fq;Demi\u015fq", "alt_name:ml": "\u0d05\u0d37\u0d4d-\u0d37\u0d3e\u0d02", "alt_name:ru": "\u0414\u0438\u043c\u0430\u0448\u043a", "alt_name:tr": "D\u0131ma\u015fk", "alt_name:vi": "\u0110a-m\u00e1t", "capital": "yes", "name": "\u062f\u0645\u0634\u0642", "name:af": "Damaskus", "name:am": "\u12f0\u121b\u1235\u1246", "name:an": "Dom\u00e1s", "name:ar": "\u062f\u0645\u0634\u0642", "name:arc": "\u0715\u072a\u0721\u0723\u0718\u0729", "name:arz": "\u062f\u0645\u0634\u0642", "name:av": "\u0414\u0438\u043c\u0438\u0448\u043a\u044a", "name:az": "D\u0259m\u0259\u015fq", "name:ba": "\u0414\u0430\u043c\u0430\u0441\u043a", "name:bat-smg": "Damaskos", "name:be": "\u0414\u0430\u043c\u0430\u0441\u043a", "name:be-tarask": "\u0414\u0430\u043c\u0430\u0441\u043a", "name:bg": "\u0414\u0430\u043c\u0430\u0441\u043a", "name:bjn": "Damsyik", "name:bn": "\u09a6\u09be\u09ae\u09c7\u09b8\u09cd\u0995", "name:bo": "\u0f51\u0fb7\u0f0b\u0f58\u0f0b\u0f66\u0f72\u0f0b\u0f41\u0f7c\u0f0b\u0f66\u0f72\u0f0d", "name:br": "Damask", "name:bs": "Damask", "name:ca": "Damasc", "name:ckb": "\u062f\u06cc\u0645\u06d5\u0634\u0642", "name:cnr": "Damask", "name:cs": "Dama\u0161ek", "name:cu": "\u0414\u0430\u043c\u0430\u0441\u043a\u044a", "name:cv": "\u0414\u0430\u043c\u0430\u0441\u043a", "name:cy": "Damascus", "name:da": "Damaskus", "name:de": "Damaskus", "name:dv": "\u078b\u07a8\u0789\u07a8\u079d\u07b0\u07a4\u07aa", "name:el": "\u0394\u03b1\u03bc\u03b1\u03c3\u03ba\u03cc\u03c2", "name:en": "Damascus", "name:eo": "Damasko", "name:es": "Damasco", "name:et": "Damaskus", "name:eu": "Damasko", "name:ext": "Damascu", "name:fa": "\u062f\u0645\u0634\u0642", "name:fi": "Damaskos", "name:fr": "Damas", "name:frp": "Damas", "name:ga": "An Damaisc", "name:gd": "Damascas", "name:gl": "Damasco", "name:grc": "\u0394\u03b1\u03bc\u03b1\u03c3\u03ba\u03cc\u03c2", "name:haw": "Kamakeko", "name:he": "\u05d3\u05de\u05e9\u05e7", "name:hi": "\u0926\u092e\u093f\u0936\u094d\u0915", "name:hif": "Damascus", "name:hr": "Damask", "name:hsb": "Damask", "name:ht": "Damas", "name:hu": "Damaszkusz", "name:hy": "\u0534\u0561\u0574\u0561\u057d\u056f\u0578\u057d", "name:ia": "Damasco", "name:ie": "Damascus", "name:ilo": "Damascus", "name:io": "Damascus", "name:is": "Damaskus", "name:it": "Damasco", "name:ja": "\u30c0\u30de\u30b9\u30ab\u30b9", "name:ka": "\u10d3\u10d0\u10db\u10d0\u10e1\u10d9\u10d8", "name:kab": "Dimecq", "name:kk": "\u0414\u0430\u043c\u0430\u0441\u043a", "name:kl": "Damascus", "name:kn": "\u0ca6\u0cae\u0cbf\u0cb6\u0ccd\u0c95\u0ccd", "name:ko": "\ub2e4\ub9c8\uc2a4\ucfe0\uc2a4", "name:ku": "\u015eam", "name:kw": "Damask", "name:ky": "\u0414\u0430\u043c\u0430\u0441\u043a", "name:la": "Damascus", "name:lad": "Damask", "name:lij": "Damasco", "name:lmo": "Damasch", "name:ln": "Damas", "name:lt": "Damaskas", "name:lv": "Damaska", "name:mg": "Damaskosy", "name:mhr": "\u0414\u0430\u043c\u0430\u0441\u043a", "name:mi": "Ramaiku", "name:mk": "\u0414\u0430\u043c\u0430\u0441\u043a", "name:ml": "\u0d26\u0d2e\u0d3e\u0d38\u0d4d\u0d15\u0d38\u0d4d", "name:mn": "\u0414\u0430\u043c\u0430\u0441\u043a", "name:mr": "\u0926\u092e\u093e\u0938\u094d\u0915\u0938", "name:ms": "Damsyik", "name:nan": "Damascus", "name:nl": "Damascus", "name:no": "Damaskus", "name:oc": "Damasc", "name:os": "\u0414\u0430\u043c\u0430\u0441\u043a", "name:pl": "Damaszek", "name:pms": "Damasch", "name:pnb": "\u062f\u0645\u0634\u0642", "name:pnt": "\u0394\u03b1\u03bc\u03b1\u03c3\u03ba\u03cc\u03c2", "name:ps": "\u062f\u0645\u0634\u0642", "name:pt": "Damasco", "name:qu": "Dimashq", "name:ro": "Damasc", "name:roa-tara": "Damasche", "name:ru": "\u0414\u0430\u043c\u0430\u0441\u043a", "name:rue": "\u0414\u0430\u043c\u0430\u0441\u043a", "name:rw": "Damasiko", "name:sah": "\u0414\u0430\u043c\u0430\u0441\u043a\u0443\u0441", "name:sc": "Damasco", "name:scn": "Damascu", "name:sco": "Damascus", "name:sh": "Damask", "name:simple": "Damascus", "name:sk": "Damask", "name:sl": "Damask", "name:so": "Dimishiq", "name:sq": "Damasku", "name:sr": "\u0414\u0430\u043c\u0430\u0441\u043a", "name:sv": "Damaskus", "name:sw": "Dameski", "name:syc": "\u0715\u072a\u0721\u0723\u0718\u0729", "name:ta": "\u0ba4\u0bbf\u0bae\u0bbf\u0bb7\u0bcd\u0b95\u0bc1", "name:te": "\u0c21\u0c2e\u0c3e\u0c38\u0c4d\u0c15\u0c38\u0c4d", "name:tg": "\u0414\u0438\u043c\u0438\u0448\u049b", "name:th": "\u0e14\u0e32\u0e21\u0e31\u0e2a\u0e01\u0e31\u0e2a", "name:tk": "Damask", "name:tl": "Damascus", "name:tr": "\u015eam", "name:tt": "\u0414\u0438\u043c\u04d9\u0448\u043a\u044a", "name:ug": "\u062f\u06d5\u0645\u06d5\u0634\u0649\u0642", "name:uk": "\u0414\u0430\u043c\u0430\u0441\u043a", "name:ur": "\u062f\u0645\u0634\u0642", "name:uz": "Damashq", "name:vi": "Damas", "name:vo": "Dim\u00e4jk", "name:war": "Damascus", "name:yi": "\u05d3\u05de\u05e9\u05e7", "name:yo": "D\u00e0m\u00e1sk\u00f9", "name:yue": "\u5927\u99ac\u58eb\u9769", "name:zh": "\u5927\u9a6c\u58eb\u9769 / \u5927\u99ac\u58eb\u9769", "name:zh-Hans": "\u5927\u9a6c\u58eb\u9769", "name:zh-Hant": "\u5927\u99ac\u58eb\u9769", "place": "city", "population": "1414913", "population:date": "2004", "source:population": "\u0627\u0644\u0645\u0643\u062a\u0628 \u0627\u0644\u0645\u0631\u0643\u0632\u064a \u0644\u0644\u0625\u062d\u0635\u0627\u0621", "wikidata": "Q3766", "wikimedia_commons": "File:Damascus_coll.jpg", "wikipedia": "ar:\u062f\u0645\u0634\u0642"}}, {"type": "node", "id": 1101698806, "lat": 33.4718769, "lon": 36.3131234}, {"type": "node", "id": 1668959644, "lat": 33.4722422, "lon": 36.312567}, {"type": "node", "id": 1668959985, "lat": 33.4764554, "lon": 36.3062269}, {"type": "node", "id": 1668971356, "lat": 33.4728952, "lon": 36.3114837}, {"type": "node", "id": 1668971397, "lat": 33.4742721, "lon": 36.3092034}, {"type": "node", "id": 3763419665, "lat": 33.4006626, "lon": 36.1292552, "tags": {"name": "\u062f\u0631\u0648\u0634\u0629", "name:ar": "\u062f\u0631\u0648\u0634\u0629", "name:de": "Darwascha", "name:en": "Darwasha", "name:fr": "Darouacha", "name:he": "\u05d3\u05e8\u05d5\u05e9\u05d4", "name:ja": "\u30c0\u30eb\u30ef\u30b7\u30e3", "name:ko": "\ub2e4\ub974\uc640\uc0e4", "name:ru": "\u0414\u0430\u0440\u0432\u0430\u0448\u0430", "place": "town", "population": "6091", "population:date": "2004", "source:population": "\u0627\u0644\u0645\u0643\u062a\u0628 \u0627\u0644\u0645\u0631\u0643\u0632\u064a \u0644\u0644\u0625\u062d\u0635\u0627\u0621"}}, {"type": "node", "id": 3887032459, "lat": 33.4328962, "lon": 36.2399751, "tags": {"alt_name": "\u0623\u0634\u0631\u0641\u064a\u0629 \u0635\u062d\u0646\u0627\u064a\u0627", "alt_name:en": "Ashrafiyat Sahnaya", "alt_name:ml": "\u0d05\u0d37\u0d4d\u0d31\u0d2b\u0d3f\u0d2f\u0d24\u0d4d\u0d24\u0d4d \u0d38\u0d39\u0d4d\u0d28\u0d3e\u0d2f", "alt_name:ru": "\u0410\u0448\u0440\u0430\u0444\u0438\u0435\u0442-\u0421\u0430\u0445\u043d\u0430\u044f", "name": "\u0623\u0634\u0631\u0641\u064a\u0629", "name:ar": "\u0623\u0634\u0631\u0641\u064a\u0629", "name:de": "Aschrafija", "name:en": "Ashrafia", "name:fr": "Achrafia", "name:he": "\u05d0\u05e9\u05e8\u05e4\u05d9\u05d4", "name:ja": "\u30a2\u30b7\u30e5\u30e9\u30d5\u30a3\u30e4", "name:ko": "\uc544\uc288\ub77c\ud53c\uc57c", "name:ml": "\u0d05\u0d37\u0d4d\u0d31\u0d2b\u0d3f\u0d2f", "name:ru": "\u0410\u0448\u0440\u0430\u0444\u044f", "place": "town", "population": "30519", "population:date": "2004", "source:population": "\u0627\u0644\u0645\u0643\u062a\u0628 \u0627\u0644\u0645\u0631\u0643\u0632\u064a \u0644\u0644\u0625\u062d\u0635\u0627\u0621"}}, {"type": "node", "id": 3887032461, "lat": 33.4464897, "lon": 36.3362488, "tags": {"alt_name": "\u0627\u0644\u0633\u062a \u0632\u064a\u0646\u0628", "alt_name:ar": "\u0627\u0644\u0633\u062a \u0632\u064a\u0646\u0628", "name": "\u0627\u0644\u0633\u064a\u062f\u0629 \u0632\u064a\u0646\u0628", "name:ar": "\u0627\u0644\u0633\u064a\u062f\u0629 \u0632\u064a\u0646\u0628", "name:de": "as-Sajjida Seinab", "name:en": "As-Sayyida Zeinab", "name:fa": "\u0633\u06cc\u062f\u0647 \u0632\u06cc\u0646\u0628", "name:fr": "As-Sayyida Zeinab", "name:he": "\u05d0-\u05e1\u05d9\u05d9\u05d3\u05d4 \u05d6\u05d9\u05d9\u05e0\u05d1", "name:ja": "\u30a2\u30c3\u30a0\u30b5\u30a4\u30fc\u30c0\u30fb\u30bc\u30a4\u30ca\u30d6", "name:ko": "\uc0ac\uc774\ub2e4\uc790\uc774\ub098\ube0c", "name:ml": "\u0d38\u0d2f\u0d4d\u0d2f\u0d3f\u0d26 \u0d38\u0d48\u0d28\u0d2c\u0d4d", "name:pnb": "\u0633\u06cc\u062f\u06c1 \u0632\u06cc\u0646\u0628", "name:ru": "\u0410\u0441-\u0421\u0430\u0438\u0439\u0434\u0430-\u0417\u0435\u0439\u043d\u0430\u0431", "name:ur": "\u0633\u06cc\u062f\u06c1 \u0632\u06cc\u0646\u0628", "place": "city", "population": "136427", "population:date": "2004", "source:population": "\u0627\u0644\u0645\u0643\u062a\u0628 \u0627\u0644\u0645\u0631\u0643\u0632\u064a \u0644\u0644\u0625\u062d\u0635\u0627\u0621", "wikidata": "Q4120581", "wikipedia": "ar:\u0627\u0644\u0633\u064a\u062f\u0629 \u0632\u064a\u0646\u0628 (\u0631\u064a\u0641 \u062f\u0645\u0634\u0642)"}}, {"type": "node", "id": 3887032462, "lat": 33.468422, "lon": 36.3310508, "tags": {"name": "\u0628\u0628\u064a\u0644\u0627", "name:ar": "\u0628\u0628\u064a\u0644\u0627", "name:de": "Babella", "name:en": "Babella", "name:fr": "Babella", "name:he": "\u05d1\u05d1\u05d9\u05dc\u05d0", "name:ja": "\u30d0\u30d9\u30c3\u30e9\u30fc", "name:ko": "\ubc14\ubca8\ub77c", "name:ml": "\u0d2c\u0d2c\u0d4d\u0d2c\u0d3f\u0d32", "name:ru": "\u0411\u0430\u0431\u0435\u043b\u043b\u0430", "place": "city", "population": "50880", "population:date": "2004", "source:population": "\u0627\u0644\u0645\u0643\u062a\u0628 \u0627\u0644\u0645\u0631\u0643\u0632\u064a \u0644\u0644\u0625\u062d\u0635\u0627\u0621"}}, {"type": "node", "id": 3887032463, "lat": 33.4746573, "lon": 36.3389728, "tags": {"name": "\u0628\u064a\u062a \u0633\u062d\u0645", "name:ar": "\u0628\u064a\u062a \u0633\u062d\u0645", "name:de": "Beit Sahm", "name:el": "\u039c\u03c0\u03b5\u03af\u03c4 \u03a3\u03b1\u03c7\u03bc", "name:en": "Beit Sahm", "name:fr": "Beit Sahme", "name:he": "\u05d1\u05d9\u05ea \u05e1\u05d7\u05dd", "name:ja": "\u30d9\u30fc\u30c8\u30fb\u30b5\u30d8\u30e0", "name:ko": "\ubca0\ud2b8\uc0ac\ud760", "name:ml": "\u0d2c\u0d46\u0d2f\u0d4d\u0d24\u0d4d\u0d24\u0d4d \u0d38\u0d39\u0d02", "name:ru": "\u0411\u0430\u0439\u0442-\u0421\u0430\u0445\u043c", "place": "town", "population": "15667", "population:date": "2004", "source:population": "\u0627\u0644\u0645\u0643\u062a\u0628 \u0627\u0644\u0645\u0631\u0643\u0632\u064a \u0644\u0644\u0625\u062d\u0635\u0627\u0621"}}, {"type": "node", "id": 4035515320, "lat": 33.4565281, "lon": 36.3048058, "tags": {"name": "\u0627\u0644\u062d\u062c\u0631 \u0627\u0644\u0623\u0633\u0648\u062f", "name:ar": "\u0627\u0644\u062d\u062c\u0631 \u0627\u0644\u0623\u0633\u0648\u062f", "name:de": "al-Hadschar al-Aswad", "name:en": "Al-Hajar al-Aswad", "name:fr": "Al-Hadjar al-Asouad", "name:he": "\u05d0\u05dc-\u05d7\u05d2\u05f3\u05e8 \u05d0\u05dc-\u05d0\u05e1\u05d5\u05d5\u05d3", "name:ja": "\u30a2\u30eb\u30a0\u30cf\u30b8\u30e3\u30eb\u30fb\u30a2\u30eb\u30a0\u30a2\u30b9\u30ef\u30c9", "name:ko": "\uc54c\ud558\uc798\uc54c\ub77c\uc1a8\ub4dc", "name:ml": "\u0d05\u0d7d-\u0d39\u0d1c\u0d7c \u0d05\u0d7d-\u0d05\u0d38\u0d4d\u0d35\u0d26\u0d4d", "name:ru": "\u0410\u043b\u044c-\u0425\u0430\u0434\u0436\u0430\u0440-\u0430\u043b\u044c-\u0410\u0441\u0432\u0430\u0434", "place": "city", "population": "84948", "population:date": "2004", "source:population": "\u0627\u0644\u0645\u0643\u062a\u0628 \u0627\u0644\u0645\u0631\u0643\u0632\u064a \u0644\u0644\u0625\u062d\u0635\u0627\u0621", "wikidata": "Q1822816", "wikipedia": "ar:\u0627\u0644\u062d\u062c\u0631 \u0627\u0644\u0623\u0633\u0648\u062f (\u0645\u062f\u064a\u0646\u0629)"}}, {"type": "node", "id": 4035515321, "lat": 33.4401384, "lon": 36.2805258, "tags": {"name": "\u0627\u0644\u0633\u0628\u064a\u0646\u0629", "name:ar": "\u0627\u0644\u0633\u0628\u064a\u0646\u0629", "name:de": "as-Sabina", "name:en": "As-Sabina", "name:fr": "As-Sabina", "name:he": "\u05d0-\u05e1\u05d1\u05d9\u05e0\u05d4", "name:ja": "\u30a2\u30c3\u30a0\u30b5\u30d3\u30ca", "name:ko": "\uc544\uc0ac\ube44\ub098", "name:ml": "\u0d38\u0d2c\u0d40\u0d28", "name:ru": "\u0410\u0441-\u0421\u0430\u0431\u0438\u043d\u0430", "note": "fix int names", "place": "city", "population": "62509", "population:date": "2004", "source:population": "\u0627\u0644\u0645\u0643\u062a\u0628 \u0627\u0644\u0645\u0631\u0643\u0632\u064a \u0644\u0644\u0625\u062d\u0635\u0627\u0621"}}, {"type": "node", "id": 4823159501, "lat": 33.4767111, "lon": 36.3059239}, {"type": "node", "id": 4911596320, "lat": 33.4653446, "lon": 36.3065934}, {"type": "node", "id": 4911596945, "lat": 33.4680707, "lon": 36.2984493}, {"type": "node", "id": 4911597343, "lat": 33.4713205, "lon": 36.3138335}, {"type": "node", "id": 4911598152, "lat": 33.4674007, "lon": 36.3002445}, {"type": "node", "id": 4911598415, "lat": 33.4630169, "lon": 36.3088349}, {"type": "node", "id": 4911598419, "lat": 33.463879, "lon": 36.3142661}, {"type": "node", "id": 4911598865, "lat": 33.4675661, "lon": 36.2993244}, {"type": "node", "id": 4911599269, "lat": 33.4647411, "lon": 36.3037485}, {"type": "node", "id": 4911600134, "lat": 33.4613789, "lon": 36.3106453}, {"type": "node", "id": 4911600138, "lat": 33.4663955, "lon": 36.3150384}, {"type": "node", "id": 4911600216, "lat": 33.4651721, "lon": 36.3071107}, {"type": "node", "id": 4911600471, "lat": 33.4627583, "lon": 36.3142661}, {"type": "node", "id": 4911600475, "lat": 33.4683037, "lon": 36.3149896}, {"type": "node", "id": 4911601818, "lat": 33.4709156, "lon": 36.3145107}, {"type": "node", "id": 4911602031, "lat": 33.4618347, "lon": 36.3101415}, {"type": "node", "id": 4911602035, "lat": 33.4662929, "lon": 36.3150419}, {"type": "node", "id": 4911603125, "lat": 33.4618962, "lon": 36.3136626}, {"type": "node", "id": 4911604021, "lat": 33.4682278, "lon": 36.3149759}, {"type": "node", "id": 4911604783, "lat": 33.470409, "lon": 36.3153688}, {"type": "node", "id": 4911605060, "lat": 33.4674421, "lon": 36.3032011}, {"type": "node", "id": 4911605076, "lat": 33.4629307, "lon": 36.3144385}, {"type": "node", "id": 8789319050, "lat": 33.4717247, "lon": 36.3133879}, {"type": "node", "id": 8789319054, "lat": 33.4717742, "lon": 36.3133085}, {"type": "node", "id": 8789416227, "lat": 33.4717536, "lon": 36.3133519}, {"type": "node", "id": 9246850632, "lat": 33.4714931, "lon": 36.3137856}, {"type": "node", "id": 9246850634, "lat": 33.4812578, "lon": 36.300388}, {"type": "node", "id": 9249762350, "lat": 33.4804378, "lon": 36.3015935}, {"type": "node", "id": 9249762351, "lat": 33.4803036, "lon": 36.3017651}, {"type": "node", "id": 9249762371, "lat": 33.4796213, "lon": 36.3025081}, {"type": "node", "id": 9249762388, "lat": 33.4798747, "lon": 36.3022511}, {"type": "node", "id": 9249762391, "lat": 33.4796008, "lon": 36.3025322}, {"type": "node", "id": 9249762392, "lat": 33.4793189, "lon": 36.3028638}, {"type": "node", "id": 9249762393, "lat": 33.4788816, "lon": 36.3033781}, {"type": "node", "id": 9249762394, "lat": 33.4786238, "lon": 36.3036734}, {"type": "node", "id": 9667904056, "lat": 33.4811999, "lon": 36.3000088}, {"type": "node", "id": 9667904057, "lat": 33.4811999, "lon": 36.2995365}, {"type": "node", "id": 9667904058, "lat": 33.4811953, "lon": 36.2990234}, {"type": "node", "id": 9668383567, "lat": 33.480854, "lon": 36.2988495}, {"type": "node", "id": 9668383568, "lat": 33.4806932, "lon": 36.2987209}, {"type": "node", "id": 9668383569, "lat": 33.4795532, "lon": 36.2986393}, {"type": "node", "id": 9668383570, "lat": 33.4776891, "lon": 36.2985505}, {"type": "node", "id": 9668383571, "lat": 33.4760349, "lon": 36.2984567}, {"type": "node", "id": 9668383572, "lat": 33.4738086, "lon": 36.2983334}, {"type": "node", "id": 9668383573, "lat": 33.4725987, "lon": 36.2982791}, {"type": "node", "id": 9668383574, "lat": 33.4700714, "lon": 36.2981543}, {"type": "node", "id": 9668383575, "lat": 33.4695405, "lon": 36.2981612}, {"type": "node", "id": 9668383589, "lat": 33.468807, "lon": 36.2981714}, {"type": "node", "id": 9668383590, "lat": 33.4684698, "lon": 36.2981985}, {"type": "node", "id": 9668383591, "lat": 33.4683204, "lon": 36.2982338}, {"type": "node", "id": 9668383592, "lat": 33.4681847, "lon": 36.2983233}, {"type": "node", "id": 10185397615, "lat": 33.4808787, "lon": 36.3008573}, {"type": "node", "id": 10846290059, "lat": 33.4748233, "lon": 36.3083055}, {"type": "node", "id": 10846290064, "lat": 33.4738445, "lon": 36.2983354}, {"type": "node", "id": 10846290065, "lat": 33.464329, "lon": 36.3078259}, {"type": "node", "id": 10846290066, "lat": 33.4805627, "lon": 36.3014087}, {"type": "node", "id": 12170643968, "lat": 33.4258028, "lon": 36.3207692, "tags": {"name": "\u0627\u0644\u0628\u0648\u064a\u0636\u0629", "name:ar": "\u0627\u0644\u0628\u0648\u064a\u0636\u0629", "name:de": "al-Buweida", "name:en": "Al-Buwaida", "name:fr": "Al-Boua\u00efda", "name:he": "\u05d0\u05dc-\u05d1\u05d5\u05d5\u05d9\u05d3\u05d4", "name:ja": "\u30a2\u30eb\u30a0\u30d6\u30ef\u30a4\u30c0", "name:ko": "\uc54c\ubd80\uc640\uc774\ub2e4", "name:ml": "\u0d05\u0d7d-\u0d2c\u0d41\u0d35\u0d48\u0d26", "name:ru": "\u0410\u043b\u044c-\u0411\u0443\u0432\u0430\u0439\u0434\u0430", "place": "town", "population": "8832", "population:date": "2004", "source:population": "\u0627\u0644\u0645\u0643\u062a\u0628 \u0627\u0644\u0645\u0631\u0643\u0632\u064a \u0644\u0644\u0625\u062d\u0635\u0627\u0621"}}, {"type": "node", "id": 12290359493, "lat": 33.4384597, "lon": 36.1629763, "tags": {"name": "\u062c\u062f\u064a\u062f\u0629 \u0639\u0631\u0637\u0648\u0632", "name:ar": "\u062c\u062f\u064a\u062f\u0629 \u0639\u0631\u0637\u0648\u0632", "name:de": "Dschadidat Artus", "name:en": "Jadidat Artuz", "name:fr": "Djadidat Artuze", "name:he": "\u05d2\u05f3\u05d3\u05d9\u05d3\u05ea \u05e2\u05e8\u05d8\u05d5\u05d6", "name:ja": "\u30b8\u30e3\u30c7\u30a3\u30fc\u30c0\u30c8\u30a5\u30fb\u30a2\u30eb\u30c8\u30a5\u30fc\u30ba", "name:ko": "\uc790\ub514\ub2e4\ud2b8\uc544\ub974\ud2b8\uc988", "name:ml": "\u0d1c\u0d26\u0d40\u0d26\u0d24\u0d4d\u0d24\u0d4d \u0d05\u0d7c\u0d24\u0d4d\u0d24\u0d42\u0d38\u0d4d", "name:ru": "\u0414\u0436\u0430\u0434\u0438\u0434\u0430\u0442-\u0410\u0440\u0442\u0443\u0437", "place": "town", "population": "45000", "population:date": "2004", "source:population": "\u0627\u0644\u0645\u0643\u062a\u0628 \u0627\u0644\u0645\u0631\u0643\u0632\u064a \u0644\u0644\u0625\u062d\u0635\u0627\u0621"}}, {"type": "node", "id": 12297001525, "lat": 33.421799, "lon": 36.3334765, "tags": {"name": "\u062d\u0648\u0634 \u0635\u0647\u064a\u0627", "name:ar": "\u062d\u0648\u0634 \u0635\u0647\u064a\u0627", "name:de": "Hosch Sahja", "name:en": "Hosh Sahya", "name:fr": "Hoch Sahia", "name:he": "\u05d7\u05d5\u05e9 \u05e1\u05d4\u05d9\u05d0", "name:ja": "\u30db\u30fc\u30b7\u30fb\u30b5\u30d8\u30e4", "name:ko": "\ud638\uc288\uc0ac\ud590", "name:ru": "\u0425\u043e\u0448-\u0421\u0430\u0445\u044f", "place": "town", "population": "5355", "population:date": "2004", "source:population": "\u0627\u0644\u0645\u0643\u062a\u0628 \u0627\u0644\u0645\u0631\u0643\u0632\u064a \u0644\u0644\u0625\u062d\u0635\u0627\u0621"}}, {"type": "node", "id": 12304222176, "lat": 33.3992993, "lon": 36.3700389, "tags": {"name": "\u062e\u0631\u0628\u0629 \u0627\u0644\u0648\u0631\u062f", "name:ar": "\u062e\u0631\u0628\u0629 \u0627\u0644\u0648\u0631\u062f", "name:de": "Chirbet al-Ward", "name:en": "Khirbet al-Ward", "name:fr": "Khirbet al-Ouard", "name:he": "\u05d7\u05f3\u05e8\u05d1\u05ea \u05d0\u05dc-\u05d5\u05d5\u05e8\u05d3", "name:ja": "\u30d2\u30eb\u30d9\u30c8\u30fb\u30a2\u30eb\u30a0\u30ef\u30eb\u30c9", "name:ko": "\ud0a4\ub974\ubca0\ud2b8\uc54c\uc640\ub974\ub4dc", "name:ml": "\u0d16\u0d3f\u0d7c\u0d2c\u0d24\u0d4d\u0d24\u0d4d \u0d05\u0d7d-\u0d35\u0d7c\u0d26\u0d4d", "name:ru": "\u0425\u0438\u0440\u0431\u0435\u0442-\u0430\u043b-\u0412\u0430\u0440\u0434", "place": "town", "population": "7293", "population:date": "2004", "source:population": "\u0627\u0644\u0645\u0643\u062a\u0628 \u0627\u0644\u0645\u0631\u0643\u0632\u064a \u0644\u0644\u0625\u062d\u0635\u0627\u0621"}}, {"type": "node", "id": 12346363185, "lat": 33.5386437, "lon": 36.1919814, "tags": {"name": "\u0636\u0627\u062d\u064a\u0629 \u0642\u062f\u0633\u064a\u0627 \u0627\u0644\u0633\u0643\u0646\u064a\u0629 \u0627\u0644\u062c\u062f\u064a\u062f\u0629", "name:ar": "\u0636\u0627\u062d\u064a\u0629 \u0642\u062f\u0633\u064a\u0627 \u0627\u0644\u0633\u0643\u0646\u064a\u0629 \u0627\u0644\u062c\u062f\u064a\u062f\u0629", "name:de": "Dahijat Kudsaija", "name:en": "Dahiyat Qudsaiya", "name:fr": "Dahiat Qudsa\u00efa", "name:he": "\u05d3\u05d0\u05d7\u05d9\u05ea \u05e7\u05d5\u05d3\u05e1\u05d9\u05d0", "name:ja": "\u30c0\u30fc\u30d2\u30e4\u30c8\u30fb\u30af\u30c9\u30a5\u30b5\u30e4", "name:ko": "\ub2e4\ud788\uc57c\ud2b8\ucfe0\ub4dc\uc0ac\uc57c", "name:ru": "\u0414\u0430\u0445\u0438\u044f\u0442-\u041a\u0443\u0434\u0441\u0430\u0439\u044f", "place": "town", "population": "9500", "population:date": "2004", "source:population": "\u0627\u0644\u0645\u0643\u062a\u0628 \u0627\u0644\u0645\u0631\u0643\u0632\u064a \u0644\u0644\u0625\u062d\u0635\u0627\u0621"}}, {"type": "node", "id": 12348880046, "lat": 33.4209897, "lon": 36.1477543, "tags": {"name": "\u0639\u0631\u0637\u0648\u0632", "name:ar": "\u0639\u0631\u0637\u0648\u0632", "name:de": "Artus", "name:en": "Artuz", "name:fr": "Artouze", "name:he": "\u05e2\u05e8\u05d8\u05d5\u05d6", "name:ja": "\u30a2\u30eb\u30c8\u30a5\u30fc\u30ba", "name:ko": "\uc544\ub974\ud22c\uc988", "name:ml": "\u0d05\u0d7c\u0d24\u0d4d\u0d24\u0d42\u0d38\u0d4d", "name:ru": "\u0410\u0440\u0442\u0443\u0437", "place": "town", "population": "16199", "population:date": "2004", "source:population": "\u0627\u0644\u0645\u0643\u062a\u0628 \u0627\u0644\u0645\u0631\u0643\u0632\u064a \u0644\u0644\u0625\u062d\u0635\u0627\u0621"}}, {"type": "node", "id": 12356338721, "lat": 33.5144069, "lon": 36.3489198, "tags": {"name": "\u0639\u064a\u0646 \u062a\u0631\u0645\u0627", "name:ar": "\u0639\u064a\u0646 \u062a\u0631\u0645\u0627", "name:de": "Ein Terma", "name:en": "Ain Terma", "name:fr": "A\u00efn Terma", "name:he": "\u05e2\u05d9\u05df \u05ea\u05e8\u05de\u05d0", "name:ja": "\u30a2\u30a4\u30f3\u30fb\u30c6\u30eb\u30de", "name:ko": "\uc544\uc778\ud14c\ub974\ub9c8", "name:ml": "\u0d10\u0d7b-\u0d24\u0d7c\u0d2e", "name:ru": "\u0410\u0439\u043d-\u0422\u0435\u0440\u043c\u0430", "place": "town", "population": "35722", "population:date": "2004", "source:population": "\u0627\u0644\u0645\u0643\u062a\u0628 \u0627\u0644\u0645\u0631\u0643\u0632\u064a \u0644\u0644\u0625\u062d\u0635\u0627\u0621"}}, {"type": "node", "id": 12386432951, "lat": 33.3529453, "lon": 36.2045251, "tags": {"name": "\u0645\u0642\u064a\u0644\u064a\u0628\u0629", "name:ar": "\u0645\u0642\u064a\u0644\u064a\u0628\u0629", "name:de": "Mekeiliba", "name:en": "Meqeiliba", "name:fr": "Meqeiliba", "name:ml": "\u0d2e\u0d46\u0d15\u0d4d\u0d15\u0d46\u0d2f\u0d4d\u0d32\u0d3f\u0d2c", "name:ru": "\u041c\u0435\u043a\u0435\u0439\u043b\u0438\u0431\u0430", "place": "town", "population": "5022", "population:date": "2004", "source:population": "\u0627\u0644\u0645\u0643\u062a\u0628 \u0627\u0644\u0645\u0631\u0643\u0632\u064a \u0644\u0644\u0625\u062d\u0635\u0627\u0621"}}, {"type": "way", "id": 793365067, "nodes": [4911596945, 4911598865, 4911598152, 4911605060, 4911599269, 4911596320, 4911600216, 10846290065], "tags": {"admin_level": "4", "boundary": "administrative", "source": "maplibrary.org"}}, {"type": "way", "id": 1001848285, "nodes": [4911603125, 4911600471, 4911605076, 4911598419, 4911602035, 4911600138, 4911604021, 4911600475, 4911604783, 4911601818, 4911597343, 9246850632]}, {"type": "way", "id": 1052083289, "nodes": [9246850634, 9667904056, 9667904057, 9667904058]}, {"type": "way", "id": 1052090572, "nodes": [9667904058, 9668383567, 9668383568, 9668383569, 9668383570, 9668383571, 10846290064]}, {"type": "way", "id": 1052090573, "nodes": [9668383575, 9668383589, 9668383590, 9668383591, 9668383592, 4911596945]}, {"type": "way", "id": 1166137339, "nodes": [9246850632, 270761608, 8789319050, 8789416227, 8789319054, 1101698806, 1668959644, 1668971356, 1668971397, 270761610, 10846290059]}, {"type": "way", "id": 1166137340, "nodes": [10846290064, 9668383572, 9668383573, 9668383574, 9668383575]}, {"type": "way", "id": 1166137341, "nodes": [10846290065, 4911598415, 4911602031, 4911600134, 4911603125], "tags": {"admin_level": "4", "boundary": "administrative", "source": "maplibrary.org"}}, {"type": "way", "id": 1166137347, "nodes": [10846290066, 10185397615, 9246850634]}, {"type": "way", "id": 1166137349, "nodes": [10846290059, 343596855, 322081764, 1668959985, 4823159501, 322081374, 9249762394, 9249762393, 9249762392, 9249762391, 9249762371, 9249762388, 9249762351, 9249762350, 10846290066], "tags": {"highway": "primary", "name": "\u0634\u0627\u0631\u0639 \u0641\u0644\u0633\u0637\u064a\u0646", "name:ar": "\u0634\u0627\u0631\u0639 \u0641\u0644\u0633\u0637\u064a\u0646", "name:en": "Palestine Street", "name:he": "\u05e8\u05d7\u05d5\u05d1 \u05e4\u05dc\u05e1\u05d8\u05d9\u05df"}}, {"type": "relation", "id": 15045342, "members": [{"type": "way", "ref": 1166137349, "role": "outer"}, {"type": "way", "ref": 1166137347, "role": "outer"}, {"type": "way", "ref": 1052083289, "role": "outer"}, {"type": "way", "ref": 1052090572, "role": "outer"}, {"type": "way", "ref": 1166137340, "role": "outer"}, {"type": "way", "ref": 1052090573, "role": "outer"}, {"type": "way", "ref": 793365067, "role": "outer"}, {"type": "way", "ref": 1166137341, "role": "outer"}, {"type": "way", "ref": 1001848285, "role": "outer"}, {"type": "way", "ref": 1166137339, "role": "outer"}, {"type": "relation", "ref": 15775455, "role": "subarea"}, {"type": "relation", "ref": 15775457, "role": "subarea"}, {"type": "relation", "ref": 15775456, "role": "subarea"}], "tags": {"admin_level": "8", "boundary": "administrative", "name": "\u0627\u0644\u064a\u0631\u0645\u0648\u0643", "name:ar": "\u0627\u0644\u064a\u0631\u0645\u0648\u0643", "name:de": "al-Jarmuk", "name:en": "Al-Yarmuk", "name:fr": "Yarmouk", "name:he": "\u05d0\u05dc-\u05d9\u05e8\u05de\u05d5\u05da", "name:ja": "\u30a2\u30eb\u30a0\u30e4\u30eb\u30e0\u30fc\u30af\u5e02", "name:ko": "\uc57c\ub974\ubb34\ud06c\uc2dc", "name:nn": "Al-Jarmuk", "name:no": "Al-Jarmuk", "name:ru": "\u0410\u043b\u044c-\u042f\u0440\u043c\u0443\u043a", "place": "city", "population": "137248", "population:date": "2004", "source:population": "\u0627\u0644\u0645\u0643\u062a\u0628 \u0627\u0644\u0645\u0631\u0643\u0632\u064a \u0644\u0644\u0625\u062d\u0635\u0627\u0621", "type": "boundary", "wikidata": "Q2918779", "wikipedia": "ar:\u0645\u062e\u064a\u0645 \u0627\u0644\u064a\u0631\u0645\u0648\u0643"}}]}