{"version": 0.6, "generator": "Overpass API 0.7.62.4 2390de5a", "osm3s": {"timestamp_osm_base": "2025-01-08T06:29:44Z", "copyright": "The data included in this document is from www.openstreetmap.org. The data is made available under ODbL."}, "elements": [{"type": "node", "id": 550013424, "lat": 37.0097382, "lon": 41.9492885, "tags": {"int_name": "\u0627\u0644\u0631\u0645\u064a\u0644\u0627\u0646", "name": "\u0627\u0644\u0631\u0645\u064a\u0644\u0627\u0646", "name:ar": "\u0627\u0644\u0631\u0645\u064a\u0644\u0627\u0646", "name:ckb": "\u0695\u0645\u06ce\u0644\u0627\u0646", "name:de": "Al Rumailan", "name:en": "Al Rumailan", "name:ku": "Rim\u00ealan", "name:ru": "\u0420\u0443\u043c\u0430\u0439\u043b\u0430\u043d", "place": "town", "population": "11000"}}, {"type": "node", "id": 567059494, "lat": 37.1749374, "lon": 42.1413363, "tags": {"alt_name": "\u062f\u064a\u0631\u0643", "alt_name:ar": "\u062f\u064a\u0631\u0643", "alt_name:ckb": "\u062f\u06ce\u0631\u06a9\u0627 \u062d\u06d5\u0645\u06a9\u06c6", "alt_name:de": "Derik", "alt_name:en": "Derik", "alt_name:fr": "Deric", "alt_name:ja": "\u30c7\u30fc\u30ea\u30af", "alt_name:ko": "\ub370\ub9ac\ud06c", "alt_name:ku": "D\u00earika Hemko", "alt_name:ru": "\u0414\u0435\u0440\u0438\u043a", "name": "\u0627\u0644\u0645\u0627\u0644\u0643\u064a\u0629", "name:ar": "\u0627\u0644\u0645\u0627\u0644\u0643\u064a\u0629", "name:ckb": "\u062f\u06ce\u0631\u06a9", "name:cs": "Al-Mal\u00edkija", "name:de": "al-Malikija", "name:en": "Al-Malikiya", "name:es": "Al Malikiya", "name:fa": "\u0645\u0627\u0644\u06a9\u06cc\u0647", "name:fr": "Al-Malikia", "name:he": "\u05d0\u05dc-\u05de\u05d0\u05dc\u05db\u05d9\u05d4", "name:ja": "\u30de\u30ea\u30ad\u30e4", "name:ko": "\ub9d0\ub9ac\ud0a4\uc57c", "name:ku": "D\u00earik", "name:ml": "\u0d05\u0d7d-\u0d2e\u0d3e\u0d32\u0d3f\u0d15\u0d4d\u0d15\u0d3f\u0d2f", "name:ru": "\u0410\u043b\u044c-\u041c\u0430\u043b\u0438\u043a\u0438\u0301\u0439\u044f", "name:tr": "M\u00e2likiye", "name:ur": "\u0627\u0644\u0645\u0627\u0644\u06a9\u06cc\u06c1", "place": "town", "population": "26311", "population:date": "2004", "source:population": "\u0627\u0644\u0645\u0643\u062a\u0628 \u0627\u0644\u0645\u0631\u0643\u0632\u064a \u0644\u0644\u0625\u062d\u0635\u0627\u0621", "wikidata": "Q2603127", "wikipedia": "ar:\u0627\u0644\u0645\u0627\u0644\u0643\u064a\u0629 (\u0627\u0644\u062d\u0633\u0643\u0629)"}}, {"type": "node", "id": 567215022, "lat": 37.024661, "lon": 41.9637939, "tags": {"alt_name": "\u0643\u0631\u0643\u064a \u0644\u0643\u064a", "alt_name:ar": "\u0643\u0631\u0643\u064a \u0644\u0643\u064a", "name": "\u0627\u0644\u0645\u0639\u0628\u062f\u0629", "name:ar": "\u0627\u0644\u0645\u0639\u0628\u062f\u0629", "name:ckb": "\u06af\u0631\u06a9\u06ce \u0644\u06d5\u06af\u06ce", "name:de": "Al-Mu'abbada", "name:en": "Al Mu`abbadah", "name:fr": "Al-Mu'abbada", "name:ku": "Girk\u00ea Leg\u00ea", "name:ru": "\u0413\u0438\u0440\u0430-\u041b\u0435\u043a\u0430", "place": "town", "population": "15759"}}, {"type": "node", "id": 4533345729, "lat": 36.9835753, "lon": 41.8419565, "tags": {"fixme": "name", "place": "town"}}, {"type": "node", "id": 12219006205, "lat": 37.0207677, "lon": 41.9603443, "tags": {"name": "\u0627\u0644\u0645\u0639\u0628\u062f\u0629", "name:ar": "\u0627\u0644\u0645\u0639\u0628\u062f\u0629", "name:de": "al-Maabada", "name:en": "Al-Ma'bada", "name:fr": "Al-Mabada", "name:he": "\u05d0\u05dc\u05de\u05e2\u05d1\u05d3\u05d4", "name:ja": "\u30a2\u30eb\u30a0\u30de\u30fc\u30d0\u30c0", "name:ko": "\uc54c\ub9c8\ubc14\ub2e4", "name:ru": "\u0410\u043b\u044c-\u041c\u0430\u0430\u0431\u0430\u0434\u0430", "place": "town", "population": "15759", "population:date": "2004", "source:population": "\u0627\u0644\u0645\u0643\u062a\u0628 \u0627\u0644\u0645\u0631\u0643\u0632\u064a \u0644\u0644\u0625\u062d\u0635\u0627\u0621"}}]}