{"version": 0.6, "generator": "Overpass API 0.7.62.4 2390de5a", "osm3s": {"timestamp_osm_base": "2025-01-08T06:22:27Z", "copyright": "The data included in this document is from www.openstreetmap.org. The data is made available under ODbL."}, "elements": [{"type": "node", "id": 322574023, "lat": 16.9409324, "lon": 43.7630261, "tags": {"GNS:dsg_code": "PPLA", "GNS:dsg_name": "captial of a first-order administrative division", "GNS:id": "-3191245", "alt_name": "Sa\u2018da;Sa`da;Saada", "capital": "4", "int_name": "\u015ea\u2018dah", "name": "\u0635\u0639\u062f\u0629", "name:ar": "\u0635\u0639\u062f\u0629", "name:cs": "Sa'da", "name:de": "Sa'da", "name:en": "Sa`dah", "name:fr": "Saada", "name:ml": "\u0d38\u0d3e\u0d26", "name:ru": "\u0421\u0430\u0430\u0434\u0430", "name:uk": "\u0421\u0430\u0430\u0434\u0430", "name:zh": "\u8428\u8fbe", "old_name": "Kama", "place": "city", "population": "49422", "population:date": "2004-12-17", "source:name": "GNS", "source:population": "YCSO2004:22-15-21-1", "wikidata": "Q991395", "wikipedia": "en:Sa'dah"}}, {"type": "node", "id": 1219278489, "lat": 17.0706595, "lon": 43.5753402, "tags": {"GNS:dsg_code": "PPLA2", "GNS:dsg_name": "captial of a second-order administrative division", "GNS:id": "10646959", "alt_name": "Majadh", "int_name": "Majz", "name": "\u0645\u062c\u0632", "name:ar": "\u0645\u062c\u0632", "name:de": "Majz", "name:en": "Majz", "name:fr": "Majz", "place": "town", "population": "1514", "population:date": "2004-12-17", "source:name": "GNS", "source:population": "YCSO2004:22-10-21-1"}}, {"type": "node", "id": 1225521629, "lat": 16.77899, "lon": 43.433716, "tags": {"GNS:dsg_code": "PPLA2", "GNS:dsg_name": "captial of a second-order administrative division", "GNS:id": "354641", "int_name": "\u1e28ayd\u0101n", "name": "\u062d\u064a\u062f\u0627\u0646", "name:ar": "\u062d\u064a\u062f\u0627\u0646", "name:de": "Haydan", "name:en": "Haydan", "name:fr": "Haydan", "place": "town", "population": "3728", "population:date": "2004-12-17", "source:name": "GNS", "source:population": "YCSO2004:22-8-21-1"}}, {"type": "node", "id": 1225540641, "lat": 16.876998, "lon": 43.524987, "tags": {"GNS:dsg_code": "PPLA2", "GNS:dsg_name": "captial of a second-order administrative division", "GNS:id": "270899", "int_name": "S\u0101qayn", "name": "\u0633\u0627\u0642\u064a\u0646", "name:ar": "\u0633\u0627\u0642\u064a\u0646", "name:de": "Saqayn", "name:en": "Saqayn", "name:fr": "Saqayn", "place": "town", "population": "2352", "population:date": "2004-12-17", "source:name": "GNS", "source:population": "YCSO2004:22-9-21-1", "wikidata": "Q20307044"}}, {"type": "node", "id": 6937083104, "lat": 16.78314, "lon": 43.812646, "tags": {"GNS:dsg_code": "PPLA2", "GNS:dsg_name": "captial of a second-order administrative division", "GNS:id": "11040982", "int_name": "Ash Shaw\u0101t\u012b", "name": "\u0627\u0644\u0634\u0648\u0627\u062a\u064a", "name:ar": "\u0627\u0644\u0634\u0648\u0627\u062a\u064a", "name:en": "Ash Shawati", "place": "town", "population": "950", "population:date": "2004-12-17", "source:name": "GNS", "source:population": "YCSO2004:22-12-25-1"}}]}