{"version": 0.6, "generator": "Overpass API 0.7.62.4 2390de5a", "osm3s": {"timestamp_osm_base": "2025-01-08T07:11:40Z", "copyright": "The data included in this document is from www.openstreetmap.org. The data is made available under ODbL."}, "elements": [{"type": "node", "id": 835877074, "lat": 35.178264, "lon": -1.6534421, "tags": {"name": "Hona\u00efne", "name:ar": "\u0647\u0646\u064a\u0646", "name:ber": "\u2d40\u2d53\u2d4f\u2d30\u2d62\u2d4f", "name:el": "\u03a7\u03bf\u03bd\u03b1\u0390\u03bd\u03b5", "name:en": "Hona\u00efne", "name:fr": "Hona\u00efne", "name:kab": "Hunayn", "place": "town", "wikidata": "Q953471", "wikimedia_commons": "Category:Honaine", "wikipedia": "fr:Hona\u00efne"}}, {"type": "node", "id": 3105360278, "lat": 35.093863, "lon": -1.86322, "tags": {"alt_name:ar": "\u062c\u0627\u0645\u0639 \u0627\u0644\u063a\u0632\u0648\u0627\u062a;\u063a\u0632\u0648\u0627\u062a", "alt_name:fr": "Djemaa el Ghazaouet", "name": "Ghazaouet", "name:ar": "\u0627\u0644\u063a\u0632\u0648\u0627\u062a", "name:ber": "\u2d4d\u2d56\u2d30\u2d63\u2d30\u2d61\u2d30\u2d5c", "name:de": "Al-Ghazawat", "name:el": "\u0393\u03ba\u03b1\u03b6\u03b1\u03bf\u03c5\u03ad\u03c4", "name:en": "Ghazaouet", "name:fr": "Ghazaouet", "name:kab": "\u0194azawat", "old_name:ar": "\u0646\u0645\u0648\u0631", "old_name:fr": "Nemours", "place": "town", "population": "43774", "postal_code": "13402", "ref:ONS": "1307", "wikidata": "Q1521492", "wikimedia_commons": "Category:Ghazaouet", "wikipedia": "ar:\u0627\u0644\u063a\u0632\u0648\u0627\u062a"}}]}