{"version": 0.6, "generator": "Overpass API 0.7.62.4 2390de5a", "osm3s": {"timestamp_osm_base": "2025-01-08T06:10:29Z", "copyright": "The data included in this document is from www.openstreetmap.org. The data is made available under ODbL."}, "elements": [{"type": "node", "id": 38903284, "lat": 26.2235041, "lon": 50.5822436, "tags": {"admin_level": "2", "capital": "yes", "is_capital": "country", "name": "\u0627\u0644\u0645\u0646\u0627\u0645\u0629", "name:ace": "Al-Manamah", "name:af": "Manama", "name:als": "Manama", "name:am": "\u121b\u1293\u121b", "name:an": "Manama", "name:ang": "Manama", "name:ar": "\u0627\u0644\u0645\u0646\u0627\u0645\u0629", "name:arz": "\u0627\u0644\u0645\u0646\u0627\u0645\u0647", "name:ast": "Manama", "name:az": "Manama", "name:azb": "\u0645\u0646\u0627\u0645\u0647", "name:ba": "\u041c\u0430\u043d\u0430\u043c\u0430", "name:bcl": "Manama", "name:be": "\u041c\u0430\u043d\u0430\u043c\u0430", "name:be-tarask": "\u041c\u0430\u043d\u0430\u043c\u0430", "name:bg": "\u041c\u0430\u043d\u0430\u043c\u0430", "name:bn": "\u09ae\u09be\u09a8\u09be\u09ae\u09be", "name:bo": "\u0f58\u0f0b\u0f53\u0f0b\u0f58\u0f0d", "name:br": "Manama", "name:bs": "Manama", "name:ca": "Al-Manama", "name:cdo": "Manama", "name:ce": "\u041c\u0430\u043d\u0430\u043c\u0430", "name:ceb": "Manama", "name:ckb": "\u0645\u06d5\u0646\u0627\u0645\u06d5", "name:cs": "Man\u00e1ma", "name:cy": "Manama", "name:da": "Manama", "name:de": "Manama", "name:diq": "Mename", "name:el": "\u039c\u03b1\u03bd\u03ac\u03bc\u03b1", "name:en": "Manama", "name:eo": "Manamo", "name:es": "Manama", "name:et": "Manama", "name:eu": "Manama", "name:fa": "\u0645\u0646\u0627\u0645\u0647", "name:fi": "Manama", "name:fr": "Manama", "name:frp": "Manama", "name:fy": "Manama", "name:ga": "Manama", "name:gd": "Manama", "name:gl": "Manama", "name:hak": "Manama", "name:he": "\u05de\u05e0\u05d0\u05de\u05d4", "name:hi": "\u092e\u0928\u093e\u092e\u093e", "name:hif": "Manama", "name:hr": "Manama", "name:hsb": "Manama", "name:ht": "Manama", "name:hu": "Man\u00e1ma", "name:hy": "\u0544\u0561\u0576\u0561\u0574\u0561", "name:ia": "Manama", "name:id": "Al-Manamah", "name:ie": "Manama", "name:ilo": "Manama", "name:io": "Al Manamah", "name:is": "Manama", "name:it": "Manama", "name:ja": "\u30de\u30ca\u30fc\u30de", "name:ka": "\u10db\u10d0\u10dc\u10d0\u10db\u10d0", "name:kaa": "Manama", "name:kab": "Manama", "name:ki": "Manama", "name:kk": "\u041c\u0430\u043d\u0430\u043c\u0430", "name:kn": "\u0cae\u0ca8\u0cbe\u0cae", "name:ko": "\ub9c8\ub098\ub9c8", "name:ku": "Mename", "name:ky": "\u041c\u0430\u043d\u0430\u043c\u0430", "name:la": "Manama", "name:lb": "Manama", "name:lij": "Manama", "name:lmo": "Manama", "name:lt": "Menama", "name:lv": "Man\u0101ma", "name:mai": "\u092e\u0928\u093e\u092e\u093e", "name:mg": "Manama", "name:mk": "\u041c\u0430\u043d\u0430\u043c\u0430", "name:ml": "\u0d2e\u0d28\u0d3e\u0d2e", "name:mn": "\u041c\u0430\u043d\u0430\u043c\u0430", "name:mr": "\u092e\u0928\u093e\u092e\u093e", "name:ms": "Manama", "name:mt": "Manama", "name:my": "\u1019\u102c\u1014\u102c\u1019\u102c\u1019\u103c\u102d\u102f\u1037", "name:myv": "\u041c\u0430\u043d\u0430\u043c\u0430", "name:na": "Manama", "name:nah": "Man\u0101mah", "name:ne": "\u092e\u0928\u093e\u092e\u093e", "name:nl": "Manamah", "name:no": "Manama", "name:oc": "Manama", "name:os": "\u041c\u0430\u043d\u0430\u043c\u00e6", "name:pa": "\u0a2e\u0a28\u0a3e\u0a2e\u0a3e", "name:pap": "Manama", "name:pih": "Manaama", "name:pl": "Manama", "name:pms": "Manama", "name:pnb": "\u0645\u0627\u0646\u0627\u0645\u06c1", "name:ps": "\u0645\u0646\u0627\u0645\u0647", "name:pt": "Manama", "name:rm": "Manama", "name:ro": "Manama", "name:ru": "\u041c\u0430\u043d\u0430\u043c\u0430", "name:rw": "Manama", "name:sat": "\u1c62\u1c5f\u1c71\u1c5f\u1c62\u1c5f", "name:sc": "Manama", "name:scn": "Manama", "name:sco": "Manama", "name:sh": "Manama", "name:sk": "Man\u00e1ma", "name:sl": "Manama", "name:sn": "Manama", "name:sq": "Manama", "name:sr": "\u041c\u0430\u043d\u0430\u043c\u0430", "name:su": "Al-Manamah", "name:sv": "Manama", "name:sw": "Manama", "name:ta": "\u0bae\u0ba9\u0bbe\u0bae\u0bbe", "name:tg": "\u041c\u0430\u043d\u0430\u043c\u0430", "name:th": "\u0e21\u0e32\u0e19\u0e32\u0e21\u0e32", "name:tl": "Manama", "name:tr": "Men\u00e2me", "name:udm": "\u041c\u0430\u043d\u0430\u043c\u0430", "name:uk": "\u041c\u0430\u043d\u0430\u043c\u0430", "name:ur": "\u0645\u0646\u0627\u0645\u06c1", "name:uz": "Manama", "name:vep": "Manam", "name:vi": "Manama", "name:vo": "M\u00e4nam\u00e4", "name:war": "Manama", "name:wuu": "\u9ea6\u7eb3\u9ea6", "name:xmf": "\u10db\u10d0\u10dc\u10d0\u10db\u10d0", "name:yo": "Manama", "name:yue": "\u9ea5\u7d0d\u746a", "name:zh": "\u9ea5\u7d0d\u9ea5", "place": "city", "population": "157474", "source:population": "French Wikipedia", "wikidata": "Q3882", "wikipedia": "ar:\u0627\u0644\u0645\u0646\u0627\u0645\u0629"}}, {"type": "node", "id": 658736581, "lat": 26.0012848, "lon": 50.6176993, "tags": {"int_name": "Jaww", "name": "\u062c\u0648", "name:ar": "\u062c\u0648", "name:en": "Jaww", "name:ml": "\u0d1c\u0d57", "place": "town", "wikipedia": "en:Jaww"}}, {"type": "node", "id": 1812751158, "lat": 26.2947431, "lon": 50.666445, "tags": {"name": "\u062c\u0632\u0631 \u0623\u0645\u0648\u0627\u062c", "name:ar": "\u062c\u0632\u0631 \u0623\u0645\u0648\u0627\u062c", "name:cs": "Amwajsk\u00e9 ostrovy", "name:en": "Amwaj Islands", "name:es": "Islas Amwaj", "name:fr": "\u00celes Amwaj", "place": "town", "website": "http://www.amwaj-islands.com/", "wikidata": "Q2616820", "wikipedia": "ar:\u062c\u0632\u0631 \u0623\u0645\u0648\u0627\u062c"}}, {"type": "node", "id": 1934092516, "lat": 26.2512038, "lon": 50.6326852, "tags": {"int_name": "Arad", "name": "\u0639\u0631\u0627\u062f", "name:ar": "\u0639\u0631\u0627\u062f", "name:cs": "Arad", "name:en": "Arad", "name:ml": "\u0d05\u0d31\u0d3e\u0d26\u0d4d", "place": "town", "wikidata": "Q2263927"}}, {"type": "node", "id": 1935263128, "lat": 26.2440537, "lon": 50.6528891, "tags": {"name": "\u0627\u0644\u062d\u062f", "name:ar": "\u0627\u0644\u062d\u062f", "name:cs": "al-Hidd", "name:en": "Al-Hidd", "name:fr": "Al-Hadd", "name:ml": "\u0d05\u0d7d-\u0d39\u0d3f\u0d26\u0d4d", "place": "town", "population": "12797", "wikidata": "Q3360322", "wikipedia": "en:Al Hidd"}}, {"type": "node", "id": 2125987766, "lat": 26.2719165, "lon": 50.6028404, "tags": {"name": "\u0628\u0633\u064a\u062a\u064a\u0646", "name:ar": "\u0628\u0633\u064a\u062a\u064a\u0646", "name:en": "Busaiteen", "name:ml": "\u0d2c\u0d41\u0d38\u0d48\u0d24\u0d40\u0d7b", "place": "town", "population": "19185"}}, {"type": "node", "id": 2189170851, "lat": 26.2465946, "lon": 50.6164127, "tags": {"description": "Bahrain's third largest city and former capitall until 1923.", "name": "\u0627\u0644\u0645\u062d\u0631\u0642", "name:ar": "\u0627\u0644\u0645\u062d\u0631\u0642", "name:cs": "Muh\u00e1rrak", "name:de": "al-Muharraq", "name:en": "Muharraq", "name:es": "Muharraq", "name:fr": "Muharraq", "name:he": "\u05de\u05d5\u05d7\u05d0\u05e8\u05e7", "name:ml": "\u0d2e\u0d41\u0d39\u0d31\u0d16\u0d4d", "name:ru": "\u041c\u0443\u0445\u0430\u0440\u0440\u0430\u043a", "name:zh": "\u7a46\u54c8\u62c9\u514b", "place": "city", "population": "75000", "source:population": "French Wikipedia", "wikidata": "Q270500", "wikipedia": "en:Muharraq"}}, {"type": "node", "id": 2363091252, "lat": 26.1331901, "lon": 50.6151344, "tags": {"int_name": "Ma'ameer", "name": "\u0627\u0644\u0645\u0639\u0627\u0645\u064a\u0631", "name:ar": "\u0627\u0644\u0645\u0639\u0627\u0645\u064a\u0631", "name:en": "Ma'ameer", "place": "town", "wikidata": "Q6720597"}}]}