{"version": 0.6, "generator": "Overpass API 0.7.62.4 2390de5a", "osm3s": {"timestamp_osm_base": "2025-01-08T06:21:22Z", "copyright": "The data included in this document is from www.openstreetmap.org. The data is made available under ODbL."}, "elements": [{"type": "node", "id": 1221995283, "lat": 13.7926278, "lon": 44.7686718, "tags": {"GNS:dsg_code": "PPLA2", "GNS:dsg_name": "captial of a second-order administrative division", "GNS:id": "-3183106", "alt_name": "Al Husain; Al Husen", "int_name": "Al \u1e28usayn", "name": "\u0627\u0644\u062d\u0635\u064a\u0646", "name:ar": "\u0627\u0644\u062d\u0635\u064a\u0646", "name:de": "Al Husayn", "name:en": "Al Husayn", "name:fr": "Al Husayn", "place": "town", "population": "2576", "population:date": "2004-12-17", "source:name": "GNS", "source:population": "YCSO2004:30-5-21-1"}}, {"type": "node", "id": 1222012898, "lat": 14.0171717, "lon": 44.3940267, "tags": {"GNS:dsg_code": "PPLA2", "GNS:dsg_name": "captial of a second-order administrative division", "GNS:id": "302765", "alt_name": "Ar Rada`i; Ar Ra\u1e11\u0101\u2018\u012b", "int_name": "Ar Ri\u1e11\u0101\u2019\u012b", "name": "\u0627\u0644\u0631\u0636\u0627\u0626\u064a", "name:ar": "\u0627\u0644\u0631\u0636\u0627\u0626\u064a", "name:de": "Ar Rida'i", "name:en": "Ar Rida'i", "name:fr": "Ar Rida'i", "place": "town", "population": "1875", "population:date": "2004-12-17", "source:name": "GNS", "source:population": "YCSO2004:11-5-21-1"}}, {"type": "node", "id": 1226274604, "lat": 13.7017374, "lon": 44.7314344, "tags": {"GNS:dsg_code": "PPLA", "GNS:dsg_name": "captial of a first-order administrative division", "GNS:id": "-3182101", "alt_name": "Dhalie; Dali`; Adh Dh\u0101la\u2018; Dhala; \u1e10\u0101li\u2018; Adh Dhala`", "capital": "4", "int_name": "A\u1e11 \u1e10\u0101li\u2018", "name": "\u0627\u0644\u0636\u0627\u0644\u0639", "name:ar": "\u0627\u0644\u0636\u0627\u0644\u0639", "name:cs": "ad-D\u00e1la", "name:de": "Ad Dala", "name:en": "Ad Dala", "name:fr": "Ad Dala", "name:ru": "\u042d\u0434-\u0414\u0430\u043b\u0438", "place": "town", "population": "17139", "population:date": "2004-12-17", "source:name": "GNS", "source:population": "YCSO2004:30-6-21-1", "wikidata": "Q1369593"}}, {"type": "node", "id": 1226285393, "lat": 13.8524497, "lon": 44.7034962, "tags": {"GNS:dsg_code": "PPLA2", "GNS:dsg_name": "captial of a second-order administrative division", "GNS:id": "-3190667", "alt_name": "Ka\u2018\u1e6daba; Qa`taba; Qa\u2018taba; Kataba; Ka`taba", "int_name": "Qa\u2018\u0163abah", "name": "\u0642\u0639\u0637\u0628\u0629", "name:ar": "\u0642\u0639\u0637\u0628\u0629", "name:de": "Qa`tabah", "name:en": "Qa`tabah", "name:fr": "Qa`tabah", "name:uk": "\u041a\u0430\u0430\u0442\u0430\u0431\u0430", "place": "town", "population": "10014", "population:date": "2004-12-17", "source:name": "GNS", "source:population": "YCSO2004:30-3-21-1", "wikidata": "Q12233320"}}, {"type": "node", "id": 1226306765, "lat": 13.7744115, "lon": 44.4443158, "tags": {"GNS:dsg_code": "PPLA2", "GNS:dsg_name": "captial of a second-order administrative division", "GNS:id": "-3789363", "alt_name": "Zuran; Z\u0327\u016br\u0101n", "int_name": "\u1e10awr\u0101n", "name": "\u0636\u0648\u0631\u0627\u0646", "name:ar": "\u0636\u0648\u0631\u0627\u0646", "name:de": "Dawran", "name:en": "Dawran", "name:fr": "Dawran", "place": "town", "population": "2942", "population:date": "2004-12-17", "source:name": "GNS", "source:population": "YCSO2004:30-9-32-1"}}, {"type": "node", "id": 6937083105, "lat": 13.738301, "lon": 44.683864, "tags": {"GNS:dsg_code": "PPLA2", "GNS:dsg_name": "captial of a second-order administrative division", "GNS:id": "11245869", "int_name": "As Sar\u012br", "name": "\u0627\u0644\u0633\u0631\u064a\u0631", "name:ar": "\u0627\u0644\u0633\u0631\u064a\u0631", "name:en": "As Sarir", "place": "town", "population": "647", "population:date": "2004-12-17", "source:name": "GNS", "source:population": "YCSO2004:30-7-21-1"}}]}