{"version": 0.6, "generator": "Overpass API 0.7.62.4 2390de5a", "osm3s": {"timestamp_osm_base": "2025-01-08T06:28:44Z", "copyright": "The data included in this document is from www.openstreetmap.org. The data is made available under ODbL."}, "elements": [{"type": "node", "id": 803018184, "lat": 33.2721211, "lon": 35.1964023, "tags": {"alt_name:ml": "\u0d1f\u0d48\u0d7c", "capital": "4", "name": "\u0635\u0648\u0631", "name:am": "\u1322\u122e\u1235", "name:ar": "\u0635\u0648\u0631", "name:arc": "\u0728\u0718\u072a", "name:az": "Sur", "name:azb": "\u0635\u0648\u0631", "name:be": "\u0422\u044b\u0440", "name:bg": "\u0422\u0438\u0440", "name:ceb": "Tiro", "name:ckb": "\u062a\u06d5\u06cc\u0631\u0627", "name:cs": "T\u00fdr", "name:de": "Tyros", "name:el": "\u03a4\u03cd\u03c1\u03bf\u03c2", "name:en": "Tyre", "name:eo": "Tiro", "name:es": "Tiro", "name:et": "\u015e\u016br", "name:eu": "Tiro", "name:fa": "\u0635\u0648\u0631", "name:fi": "Tyros", "name:fr": "Tyr", "name:gl": "Tiro", "name:grc": "\u03a4\u03cd\u03c1\u03bf\u03c2", "name:he": "\u05e6\u05d5\u05e8", "name:hi": "\u0938\u094b\u0930", "name:hr": "Tir", "name:hy": "\u054f\u0575\u0578\u0582\u0580\u0578\u057d", "name:hyw": "\u054d\u0578\u0582\u0580", "name:is": "T\u00fdros", "name:it": "Tiro", "name:ks": "\u0635\u0648\u0631", "name:ku": "Teyra", "name:la": "Tyros", "name:lt": "Tyras", "name:ml": "\u0d38\u0d42\u0d7c", "name:nl": "Tyrus", "name:pl": "Tyr", "name:pnt": "\u03a4\u03cd\u03c1\u03bf\u03c2", "name:pt": "Tiro", "name:ru": "\u0421\u0443\u0440", "name:sl": "Tir", "name:sr": "\u0422\u0438\u0440", "name:sv": "Tyros", "name:sw": "Tiro", "name:syc": "\u0728\u0718\u072a", "name:tl": "Tiro", "name:tr": "S\u00fbr", "name:uk": "\u0421\u0443\u0440", "name:ur": "\u0635\u0648\u0631", "name:vi": "T\u00fdros", "name:war": "Tiro", "name:zh": "\u6cf0\u5c14", "place": "city", "population": "135000", "postal_code": "1601", "wikidata": "Q82070", "wikipedia": "ar:\u0635\u0648\u0631 (\u0644\u0628\u0646\u0627\u0646)"}}, {"type": "node", "id": 5607977623, "lat": 33.4048204, "lon": 35.274391, "tags": {"name": "\u0639\u062f\u0644\u0648\u0646", "name:ar": "\u0639\u062f\u0644\u0648\u0646", "name:de": "Aadloun", "name:en": "Aadloun", "name:fr": "Aadloun", "name:he": "\u05e2\u05d3\u05dc\u05d5\u05df", "name:ml": "\u0d05\u0d26\u0d4d\u0d32\u0d42\u0d7a", "place": "town", "population": "5770", "wikidata": "Q4120090", "wikipedia": "ar:\u0639\u062f\u0644\u0648\u0646"}}, {"type": "node", "id": 5852580191, "lat": 33.2533555, "lon": 35.2713871, "tags": {"alt_name:ar": "\u0628\u0627\u0632\u0648\u0631\u064a\u0629;\u0627\u0644\u0628\u0627\u0632\u0648\u0631\u064a\u0647", "alt_name:en": "Bazouriyeh;Bazouriye;al-Bazouriyeh;Bazourieh", "name": "\u0627\u0644\u0628\u0627\u0632\u0648\u0631\u064a\u0629", "name:ar": "\u0627\u0644\u0628\u0627\u0632\u0648\u0631\u064a\u0629", "name:de": "Al Bazuriya", "name:en": "Al Bazuriya", "name:fr": "Al Bazuriya", "name:he": "\u05d1\u05d0\u05d6\u05d5\u05e8\u05d9\u05d4", "name:ml": "\u0d2c\u0d3e\u0d38\u0d42\u0d31\u0d3f\u0d2f", "place": "town", "wikidata": "Q3607437", "wikipedia": "ar:\u0627\u0644\u0628\u0627\u0632\u0648\u0631\u064a\u0629"}}, {"type": "node", "id": 6313979980, "lat": 33.2971048, "lon": 35.2830699, "tags": {"alt_name:ar": "\u0627\u0644\u0639\u0628\u0651\u0627\u0633\u064a\u0629;\u0627\u0644\u0639\u0628\u0627\u0633\u064a\u0651\u0629;\u0639\u0628\u0627\u0633\u064a\u0629", "alt_name:en": "Aabbassiyeh;Aabbassiye;Abbasiya", "name": "\u0627\u0644\u0639\u0628\u0627\u0633\u064a\u0629", "name:ar": "\u0627\u0644\u0639\u0628\u0627\u0633\u064a\u0629", "name:en": "Al Aabbasiyya", "name:fr": "Aabbassiyeh", "name:he": "\u05e2\u05d1\u05d0\u05e1\u05d9\u05d4", "name:ml": "\u0d05\u0d7d-\u0d05\u0d2c\u0d4d\u0d2c\u0d3e\u0d38\u0d3f\u0d2f", "place": "town", "wikidata": "Q12222460", "wikipedia": "ar:\u0639\u0628\u0627\u0633\u064a\u0629 (\u0635\u0648\u0631)"}}, {"type": "node", "id": 6337692471, "lat": 33.2615583, "lon": 35.2368296, "tags": {"alt_name:en": "Borj El Chmali;Borj Ech Chemali;Burj ash Shamali;Burj ash-Shamali;Borj Ech Chmali;", "name": "\u0628\u0631\u062c \u0627\u0644\u0634\u0645\u0627\u0644\u064a", "name:ar": "\u0628\u0631\u062c \u0627\u0644\u0634\u0645\u0627\u0644\u064a", "name:en": "Burj Al Shamali", "name:fr": "Burj Al Shamali", "name:he": "\u05d1\u05d5\u05e8\u05d2' \u05d0\u05dc-\u05e9\u05de\u05d0\u05dc\u05d9", "name:ml": "\u0d2c\u0d41\u0d7c\u0d1c\u0d4d \u0d05\u0d7d-\u0d37\u0d2e\u0d3e\u0d32\u0d3f", "place": "town", "wikidata": "Q12197869", "wikipedia": "ar:\u0628\u0631\u062c \u0627\u0644\u0634\u0645\u0627\u0644\u064a"}}, {"type": "node", "id": 8913085270, "lat": 33.2434255, "lon": 35.2384758, "tags": {"alt_name": "Haouch", "name": "\u0627\u0644\u062d\u0648\u0634", "name:ar": "\u0627\u0644\u062d\u0648\u0634", "name:en": "Hosh", "name:fr": "El Haouch", "name:ml": "\u0d39\u0d4b\u0d37\u0d4d", "place": "town"}}]}