{"version": 0.6, "generator": "Overpass API 0.7.62.4 2390de5a", "osm3s": {"timestamp_osm_base": "2025-01-08T06:21:22Z", "copyright": "The data included in this document is from www.openstreetmap.org. The data is made available under ODbL."}, "elements": [{"type": "node", "id": 1225447017, "lat": 13.4298052, "lon": 44.8255131, "tags": {"GNS:dsg_code": "PPLA2", "GNS:dsg_name": "captial of a second-order administrative division", "GNS:id": "-3183677", "int_name": "Al Mil\u0101\u1e29", "name": "\u0627\u0644\u0645\u0644\u0627\u062d", "name:ar": "\u0627\u0644\u0645\u0644\u0627\u062d", "name:de": "Al Milah", "name:en": "Al Milah", "name:fr": "Al Milah", "place": "town", "population": "1073", "population:date": "2004-12-17", "source:name": "GNS", "source:population": "YCSO2004:25-8-21-1"}}, {"type": "node", "id": 1226225535, "lat": 13.2777354, "lon": 44.4266618, "tags": {"GNS:dsg_code": "PPL", "GNS:dsg_name": "populated place", "GNS:id": "10657788", "int_name": "Thawj\u0101n", "name": "\u062b\u0648\u062c\u0627\u0646", "name:ar": "\u062b\u0648\u062c\u0627\u0646", "name:de": "Thawjan", "name:en": "Thawjan", "name:fr": "Thawjan", "place": "town", "population": "1426", "population:date": "2004-12-17", "source:name": "GNS", "source:population": "YCSO2004:25-10-21-1"}}, {"type": "node", "id": 1226323227, "lat": 13.4434716, "lon": 44.6154711, "tags": {"GNS:dsg_code": "PPLA2", "GNS:dsg_name": "captial of a second-order administrative division", "GNS:id": "-3190138", "alt_name": "Musaymar; Musemir; Museimir; Musaymir; Museim\u012br", "int_name": "Al Musaym\u012br", "name": "\u0627\u0644\u0645\u0633\u064a\u0645\u064a\u0631", "name:ar": "\u0627\u0644\u0645\u0633\u064a\u0645\u064a\u0631", "name:de": "Al Musaymir", "name:en": "Al Musaymir", "name:fr": "Al Musaymir", "name:uk": "\u041c\u0443\u0441\u0430\u0439\u043c\u0456\u0440", "place": "town", "population": "2974", "population:date": "2004-12-17", "source:name": "GNS", "source:population": "YCSO2004:25-9-21-1", "wikidata": "Q3502744"}}]}