{"version": 0.6, "generator": "Overpass API 0.7.62.4 2390de5a", "osm3s": {"timestamp_osm_base": "2025-01-08T07:18:43Z", "copyright": "The data included in this document is from www.openstreetmap.org. The data is made available under ODbL."}, "elements": [{"type": "node", "id": 4316220985, "lat": 31.372661, "lon": -5.986644, "tags": {"capital": "6", "name": "Boumalne Dad\u00e8s \u2d31\u2d53\u2d4e\u2d30\u2d4d\u2d4f \u2d37\u2d30\u2d37\u2d59 \u0628\u0648\u0645\u0627\u0644\u0646 \u062f\u0627\u062f\u0633", "name:ar": "\u0628\u0648\u0645\u0627\u0644\u0646 \u062f\u0627\u062f\u0633", "name:ber": "\u2d31\u2d53\u2d4e\u2d30\u2d4d\u2d4f \u2d37\u2d30\u2d37\u2d59", "name:en": "Boumalne Dad\u00e8s", "name:fr": "Boumalne Dad\u00e8s", "name:zgh": "\u2d31\u2d53\u2d4e\u2d30\u2d4d\u2d4f \u2d37\u2d30\u2d37\u2d59", "place": "town", "wikidata": "Q2435851", "wikimedia_commons": "Category:Boumalne du Dades", "wikipedia": "en:Boumalne Dades"}}, {"type": "node", "id": 4316241550, "lat": 31.237704, "lon": -6.129345, "tags": {"capital": "6", "name": "Kalaat M'Gouna \u2d5c\u2d49\u2d56\u2d54\u2d4e\u2d5c \u2d4f \u2d49\u2d4e\u2d33\u2d53\u2d4f\u2d4f \u0642\u0644\u0639\u0629 \u0645\u063a\u0648\u0646\u0629", "name:ar": "\u0642\u0644\u0639\u0629 \u0645\u063a\u0648\u0646\u0629", "name:ber": "\u2d5c\u2d49\u2d56\u2d54\u2d4e\u2d5c \u2d4f \u2d49\u2d4e\u2d33\u2d53\u2d4f\u2d4f", "name:en": "Kalaat M'Gouna", "name:fr": "Kalaat M'Gouna", "name:kab": "Ti\u0263remt n Imgunen", "place": "town", "wikidata": "Q1018286", "wikimedia_commons": "Category:Kelaat-M'Gouna", "wikipedia": "en:Kalaat M'Gouna"}}, {"type": "node", "id": 10262832689, "lat": 31.4566855, "lon": -6.121542, "tags": {"name": "Tisguine", "place": "town"}}]}