{"version": 0.6, "generator": "Overpass API 0.7.62.4 2390de5a", "osm3s": {"timestamp_osm_base": "2025-01-08T06:22:27Z", "copyright": "The data included in this document is from www.openstreetmap.org. The data is made available under ODbL."}, "elements": [{"type": "node", "id": 1224179664, "lat": 15.703088, "lon": 42.690933, "tags": {"GNS:dsg_code": "PPLA2", "GNS:dsg_name": "captial of a second-order administrative division", "GNS:id": "-3183440", "alt_name": "Luhaiya; Lohisa; Al-Luhayya; El-Lo\u1e25eyyah; Loheiya; Al-Lu\u1e25ayya; El-Loheyyah; La\u1e29\u012byah; Lahiyah", "int_name": "Al Lu\u1e29ayyah", "name": "\u0627\u0644\u0644\u062d\u064a\u0629", "name:ar": "\u0627\u0644\u0644\u062d\u064a\u0629", "name:de": "Al Luhayyah", "name:en": "Al Luhayyah", "name:fr": "Al Luhayyah", "place": "town", "population": "4869", "population:date": "2004-12-17", "source:name": "GNS", "source:population": "YCSO2004:18-2-21-1", "wikidata": "Q292439"}}, {"type": "node", "id": 1224744815, "lat": 15.3347998, "lon": 42.6097112, "tags": {"GNS:dsg_code": "PPLA2", "GNS:dsg_name": "captial of a second-order administrative division", "GNS:id": "-3188536", "alt_name": "Qam\u0101r\u0101n; Qamaran", "int_name": "Kamar\u0101n", "name": "\u0643\u0645\u0631\u0627\u0646", "name:ar": "\u0643\u0645\u0631\u0627\u0646", "name:de": "Kamaran", "name:en": "Kamaran", "name:fr": "Kamaran", "place": "town", "population": "2437", "population:date": "2004-12-17", "source:name": "GNS", "source:population": "YCSO2004:18-3-21-1"}}, {"type": "node", "id": 1224746592, "lat": 15.3052021, "lon": 42.6706752, "tags": {"GNS:dsg_code": "PPLA2", "GNS:dsg_name": "captial of a second-order administrative division", "GNS:id": "-3184663", "alt_name": "Salif; As Salif; Saliff; \u015eal\u012bf", "int_name": "A\u015f \u015eal\u012bf", "name": "\u0627\u0644\u0635\u0644\u064a\u0641", "name:ar": "\u0627\u0644\u0635\u0644\u064a\u0641", "name:de": "As Salif", "name:en": "As Salif", "name:fr": "As Salif", "place": "town", "population": "1204", "population:date": "2004-12-17", "source:name": "GNS", "source:population": "YCSO2004:18-4-21-1", "wikidata": "Q1098874"}}, {"type": "node", "id": 1224748035, "lat": 15.5320584, "lon": 42.7443317, "tags": {"GNS:dsg_code": "PPL", "GNS:dsg_name": "populated place", "GNS:id": "-3183358", "alt_name": "Khawbah; Khuba; Khoba", "int_name": "Al Khawbah", "name": "\u0627\u0644\u062e\u0648\u0628\u0629", "name:ar": "\u0627\u0644\u062e\u0648\u0628\u0629", "name:de": "Al Khawbah", "name:en": "Al Khawbah", "name:fr": "Al Khawbah", "place": "town", "population": "8387", "population:date": "2004-12-17", "source:name": "GNS", "source:population": "YCSO2004:18-2-33-2"}}, {"type": "node", "id": 1227089787, "lat": 15.323288, "lon": 42.9302458, "tags": {"GNS:dsg_code": "PPLA2", "GNS:dsg_name": "captial of a second-order administrative division", "GNS:id": "-3183749", "alt_name": "Al Munayrah; Manaru; Munayrah; Munera", "int_name": "Al Mun\u012brah", "name": "\u0627\u0644\u0645\u0646\u064a\u0631\u0629", "name:ar": "\u0627\u0644\u0645\u0646\u064a\u0631\u0629", "name:de": "Al Munirah", "name:en": "Al Munirah", "name:fr": "Al Munirah", "place": "town", "population": "7640", "population:date": "2004-12-17", "source:name": "GNS", "source:population": "YCSO2004:18-5-21-1"}}]}