{"version": 0.6, "generator": "Overpass API 0.7.62.4 2390de5a", "osm3s": {"timestamp_osm_base": "2025-01-08T06:30:42Z", "copyright": "The data included in this document is from www.openstreetmap.org. The data is made available under ODbL."}, "elements": [{"type": "node", "id": 3292492800, "lat": 33.5673389, "lon": 46.8146332, "tags": {"is_in:country": "Iran", "name": "\u0644\u0648\u0645\u0627\u0631", "name:ckb": "\u0644\u0648\u0648\u0645\u0627\u0631", "name:en": "Lumar", "name:fa": "\u0644\u0648\u0645\u0627\u0631", "name:fr": "Lumar", "name:ku": "L\u00fbmar", "place": "town", "population": "2696", "population:date": "2016", "source:population": "amar.org.ir", "wikidata": "Q4371553", "wikipedia": "fa:\u0644\u0648\u0645\u0627\u0631"}}, {"type": "node", "id": 3295047378, "lat": 33.728139, "lon": 47.0678839, "tags": {"is_in:country": "Iran", "name": "\u062a\u0648\u062d\u06cc\u062f", "name:ckb": "\u062a\u06c6\u062d\u06cc\u062f", "name:en": "Towhid", "name:fa": "Towhid", "name:fr": "Towhid", "name:ku": "Toh\u00eed", "place": "town", "wikidata": "Q4370903", "wikipedia": "en:Towhid"}}, {"type": "node", "id": 3295047379, "lat": 33.6669604, "lon": 46.8043038, "tags": {"is_in:country": "Iran", "name": "\u0628\u0644\u0627\u0648\u0647", "name:ckb": "\u0628\u06b5\u0627\u0648\u06d5", "name:en": "Balavah", "name:ku": "Belawe Tere", "nat_name": "\u0628\u0644\u0627\u0648\u0647 \u062a\u0631\u0647", "place": "town", "wikidata": "Q4850146"}}, {"type": "node", "id": 3296952619, "lat": 33.6904944, "lon": 47.1502234, "tags": {"is_in:country": "Iran", "name": "\u062f\u0631\u0628 \u06af\u0646\u0628\u062f", "name:ckb": "\u062f\u06d5\u0631 \u06af\u06c6\u0645\u06d5", "name:en": "Darb-e Gonbad", "name:fa": "\u062f\u0631\u0628 \u06af\u0646\u0628\u062f", "name:fr": "Darb-e Gonbad", "name:ku": "Der Gome", "place": "town", "population": "2131", "population:date": "2016", "source:population": "amar.org.ir", "wikidata": "Q4357680", "wikipedia": "en:Darb-e Gonbad"}}]}