{"version": 0.6, "generator": "Overpass API 0.7.62.4 2390de5a", "osm3s": {"timestamp_osm_base": "2025-01-08T06:31:42Z", "copyright": "The data included in this document is from www.openstreetmap.org. The data is made available under ODbL."}, "elements": [{"type": "node", "id": 2488516716, "lat": 33.7464993, "lon": 45.5522421, "tags": {"alt_name:ckb": "\u062f\u0648\u0648\u0634\u06ce\u062e", "capital": "7", "ele": "104", "int_name": "Mandal\u012b, Mendali, Mend\u00e9li, \u0645\u0646\u062f\u0644\u064a, Mandali, Mendali, Mendeli, \u0645\u0646\u062f\u0644\u064a", "is_in": "Iraq , \u062c\u0645\u0647\u0648\u0631\u064a\u0629 \u0627\u0644\u0639\u0631\u0627\u0642", "name": "\u0645\u0646\u062f\u0644\u064a", "name:ar": "\u0645\u0646\u062f\u0644\u064a", "name:arz": "\u0645\u0646\u062f\u0644\u0649", "name:ceb": "Mandal\u012b", "name:ckb": "\u0645\u06d5\u0646\u062f\u06d5\u0644\u06cc", "name:de": "Mandali", "name:en": "Mandali", "name:fr": "Mandali", "name:ku": "Mendel\u00ee", "name:ml": "\u0d2e\u0d28\u0d4d\u0d26\u0d32\u0d3f", "name:nn": "Mandali", "name:no": "Mandali", "name:pt": "Mandali", "name:ru": "\u041c\u0430\u043d\u0434\u0430\u043b\u0438", "name:sv": "Mandali", "name:uk": "\u041c\u0430\u043d\u0434\u0430\u043b\u0456", "place": "town", "wikidata": "Q1382440", "wikipedia": "ar:\u0645\u0646\u062f\u0644\u064a (\u0645\u062f\u064a\u0646\u0629)"}}, {"type": "node", "id": 2488518160, "lat": 33.659634, "lon": 45.550529, "tags": {"alt_name": "\u0642\u0632\u0627\u0646\u064a\u0629 \u0627\u0644\u062c\u062f\u064a\u062f\u0629", "alt_name:ar": "\u0642\u0632\u0627\u0646\u064a\u0629", "alt_name:en": "Qazaniyat", "capital": "7", "int_name": "Qaz\u0101n\u012byat al Jad\u012bdah, \u0642\u0632\u0627\u0646\u064a\u0629 \u0627\u0644\u062c\u062f\u064a\u062f\u0647, Qazaniyat al Jadidah, \u0642\u0632\u0627\u0646\u064a\u0629 \u0627\u0644\u062c\u062f\u064a\u062f\u0647", "is_in": "Iraq , \u062c\u0645\u0647\u0648\u0631\u064a\u0629 \u0627\u0644\u0639\u0631\u0627\u0642", "name": "\u0642\u0632\u0627\u0646\u064a\u0629 \u0627\u0644\u062c\u062f\u064a\u062f\u0629", "name:ar": "\u0642\u0632\u0627\u0646\u064a\u0629 \u0627\u0644\u062c\u062f\u064a\u062f\u0629", "name:de": "Qazaniyat al Jadidah", "name:en": "Qazaniyat al Jadidah", "name:fr": "Qazaniyat al Jadidah", "name:ml": "\u0d16\u0d38\u0d3e\u0d28\u0d3f\u0d2f\u0d24\u0d4d\u0d24\u0d4d \u0d05\u0d7d \u0d1c\u0d26\u0d40\u0d26", "place": "town"}}]}