{"version": 0.6, "generator": "Overpass API 0.7.62.4 2390de5a", "osm3s": {"timestamp_osm_base": "2025-01-08T06:05:14Z", "copyright": "The data included in this document is from www.openstreetmap.org. The data is made available under ODbL."}, "elements": [{"type": "node", "id": 1236421394, "lat": 24.065056, "lon": 45.284381, "tags": {"GNS:dsg_code": "PPL", "GNS:dsg_name": "populated place", "GNS:id": "-3092545", "alt_name": "Qa`iya;Qa\u2018iya;Quai`iya;Quai\u2018iya;Quwai'iyah;Quwai`iya;Quwai\u2018\u012bya;Quwai\u2019\u012byah", "capital": "6", "int_name": "Al Quway\u2018\u012byah", "name": "\u0627\u0644\u0642\u0648\u064a\u0639\u064a\u0629", "name:ar": "\u0627\u0644\u0642\u0648\u064a\u0639\u064a\u0629", "name:ckb": "\u0642\u0648\u06d5\u06cc\u0639\u06cc\u06cc\u06d5", "name:de": "Al Quway`iyah", "name:en": "Al Quway`iyah", "name:fr": "Al Quway`iyah", "name:ku": "Qiwey'\u00eeye", "name:ml": "\u0d05\u0d7d-\u0d16\u0d41\u0d35\u0d48\u0d2f\u0d4d\u0d2f\u0d3f\u0d2f", "place": "city", "population": "22519", "population:date": "2010", "source:name": "GNS", "source:population": "stats.gov.sa", "wikidata": "Q3545549"}}]}