{"version": 0.6, "generator": "Overpass API 0.7.62.4 2390de5a", "osm3s": {"timestamp_osm_base": "2025-01-08T06:54:15Z", "copyright": "The data included in this document is from www.openstreetmap.org. The data is made available under ODbL."}, "elements": [{"type": "node", "id": 288730797, "lat": 29.0466606, "lon": 15.7387872}, {"type": "node", "id": 288730798, "lat": 29.098647, "lon": 15.7390877}, {"type": "node", "id": 288730799, "lat": 29.1351642, "lon": 15.7705661}, {"type": "node", "id": 288730800, "lat": 29.1099147, "lon": 15.7904788}, {"type": "node", "id": 288730801, "lat": 29.1053402, "lon": 15.8097908}, {"type": "node", "id": 288730802, "lat": 29.0725633, "lon": 15.8335229}, {"type": "node", "id": 288730803, "lat": 29.0151597, "lon": 15.7687207}, {"type": "node", "id": 1170597942, "lat": 29.1245649, "lon": 15.9402605, "tags": {"name": "\u0647\u0648\u0646", "name:ar": "\u0647\u0648\u0646", "name:arz": "\u0647\u0648\u0646", "name:az-Arab": "\u0647\u0648\u0646", "name:azb": "\u0647\u0648\u0646", "name:de": "Hun", "name:en": "Hun", "name:es": "Hun", "name:fa": "\u0647\u0648\u0646", "name:fi": "Hun", "name:fr": "Houn", "name:it": "Hun", "name:ja": "\u30d5\u30fc\u30f3", "name:ka": "\u10f0\u10e3\u10dc\u10d8", "name:kab": "Hun", "name:ko": "\ud6c8", "name:pl": "Hun", "name:pt": "Hune", "name:ru": "\u0425\u0443\u043d", "name:sco": "Hun", "name:sh": "Hun", "name:sr": "\u0425\u0443\u043d", "name:sv": "H\u016bn", "name:tr": "Hun", "name:uk": "\u0425\u0443\u043d", "name:ur": "\u06c1\u0648\u0646", "name:vi": "Houn", "name:vo": "Hun", "name:zh": "\u80e1\u6069", "name:zu": "Hun", "place": "city", "population": "30715", "population:date": "2010", "wikidata": "Q1991249", "wikipedia": "ar:\u0647\u0648\u0646"}}, {"type": "node", "id": 1193623176, "lat": 29.1613826, "lon": 16.141311, "tags": {"name": "\u0648\u062f\u0627\u0646", "name:ar": "\u0648\u062f\u0627\u0646", "name:az": "Vaddan", "name:azb": "\u0648\u062f\u0627\u0646", "name:de": "Waddan", "name:en": "Waddan", "name:es": "Waddan", "name:fa": "\u0648\u062f\u0627\u0646", "name:fr": "Waddan", "name:it": "Ueddan", "name:ka": "\u10e3\u10d0\u10d3\u10d0\u10dc\u10d8", "name:kab": "Weddan", "name:ks": "\u0648\u062f\u0627\u0646", "name:ota": "\u0648\u062f\u0627\u0646", "name:pnb": "\u0648\u062f\u0627\u0646", "name:ps": "\u0648\u062f\u0627\u0646", "name:pt": "Uadane", "name:sv": "Wadd\u0101n", "name:uk": "\u0412\u0430\u0434\u0434\u0430\u0439", "name:ur": "\u0648\u062f\u0627\u0646", "name:zu": "Waddan", "place": "city", "population": "27590", "population:date": "2004", "wikidata": "Q679352", "wikipedia": "ar:\u0648\u062f\u0627\u0646 (\u0644\u064a\u0628\u064a\u0627)", "wikipedia:ar": "\u0648\u062f\u0627\u0646 (\u0644\u064a\u0628\u064a\u0627)"}}, {"type": "node", "id": 1565512727, "lat": 29.069411, "lon": 15.782664, "tags": {"name": "\u0633\u0648\u0643\u0646\u0629", "name:ar": "\u0633\u0648\u0643\u0646\u0629", "name:en": "Suknah", "name:fr": "Suknah", "pcode": "LY-20-10122", "place": "town", "shabya_cd": "20", "source": "NGA;OCHA"}}, {"type": "node", "id": 4193187189, "lat": 29.0409164, "lon": 15.7918628}, {"type": "node", "id": 4193187190, "lat": 29.0573214, "lon": 15.7999578}, {"type": "node", "id": 4193187191, "lat": 29.1325488, "lon": 15.7819816}, {"type": "node", "id": 4193187192, "lat": 29.121592, "lon": 15.7396349}, {"type": "node", "id": 4193187193, "lat": 29.1267848, "lon": 15.7422259}, {"type": "node", "id": 4193187194, "lat": 29.0658989, "lon": 15.8210319}, {"type": "node", "id": 4193187195, "lat": 29.0687747, "lon": 15.8108167}, {"type": "way", "id": 26352658, "nodes": [288730797, 288730798, 4193187192, 4193187193, 288730799, 4193187191, 288730800, 288730801, 288730802, 4193187194, 4193187195, 4193187190, 4193187189, 288730803, 288730797], "tags": {"name": "\u0633\u0648\u0643\u0646\u0629", "name:ar": "\u0633\u0648\u0643\u0646\u0647", "name:en": "Suknah", "name:fr": "Suknah", "name:kab": "Isuknen", "place": "town"}}]}