{"version": 0.6, "generator": "Overpass API 0.7.62.4 2390de5a", "osm3s": {"timestamp_osm_base": "2025-01-08T06:23:32Z", "copyright": "The data included in this document is from www.openstreetmap.org. The data is made available under ODbL."}, "elements": [{"type": "node", "id": 914493080, "lat": 24.4676071, "lon": 55.3393223, "tags": {"alt_name": "Siw\u0113\u1e29\u0101n, Swaihan", "description": "In The national atlas of the United Arab Emirates: Siw\u0113\u1e29\u0101n", "name": "\u0633\u0648\u064a\u062d\u0627\u0646", "name:ar": "\u0633\u0648\u064a\u062d\u0627\u0646", "name:en": "Sweihan", "name:es": "Sweihan", "name:fr": "Sweihan", "name:he": "\u05e1\u05d5\u05d5\u05d9\u05d7\u05d0\u05df", "name:ml": "\u0d38\u0d4d\u0d35\u0d40\u0d39\u0d3e\u0d7b", "place": "town", "source": "The national atlas of the United Arab Emirates", "wikidata": "Q4118478", "wikimedia_commons": "Category:Swaihan", "wikipedia": "en:Sweihan"}}, {"type": "node", "id": 9976881210, "lat": 24.3611726, "lon": 55.2553926, "tags": {"name": "\u0631\u0645\u0644\u0629 \u0633\u0648\u064a\u062d\u0627\u0646", "name:ar": "\u0631\u0645\u0644\u0629 \u0633\u0648\u064a\u062d\u0627\u0646", "name:en": "Ramlat Sweihan", "place": "town"}}, {"type": "node", "id": 9976881211, "lat": 24.1066475, "lon": 55.3123852, "tags": {"name": "\u0631\u0645\u0627\u062d", "name:ar": "\u0631\u0645\u0627\u062d", "name:en": "Rimah", "place": "town"}}, {"type": "node", "id": 9976881212, "lat": 24.1045713, "lon": 55.5028864, "tags": {"name": "\u0627\u0644\u0631\u0648\u0636\u0629", "name:ar": "\u0627\u0644\u0631\u0648\u0636\u0629", "name:en": "Al Rawdah", "place": "town"}}, {"type": "node", "id": 12250602098, "lat": 24.2087276, "lon": 55.5887895, "tags": {"alt_name": "Sha'biyyat As Sil\u0113m\u0101t;As Sil\u0113m\u0101t;As Silemat;Al Salamat;Sulaym\u0101t;As Sulaym\u0101tAl Selimat;", "name": "Sha'biyyat As Sil\u0113m\u0101t", "name:ar": "\u0627\u0644\u0633\u0644\u0627\u0645\u0627\u062a", "name:en": "Sha'biyyat As Sil\u0113m\u0101t", "name:es": "Sha'biyyat As Sil\u0113m\u0101t", "name:fr": "Sha'biyyat As Sil\u0113m\u0101t", "place": "city", "source": "The national atlas of the United Arab Emirates"}}]}