{"version": 0.6, "generator": "Overpass API 0.7.62.4 2390de5a", "osm3s": {"timestamp_osm_base": "2025-01-08T06:22:27Z", "copyright": "The data included in this document is from www.openstreetmap.org. The data is made available under ODbL."}, "elements": [{"type": "node", "id": 1218113794, "lat": 16.4061009, "lon": 43.0560545, "tags": {"GNS:dsg_code": "PPLA2", "GNS:dsg_name": "captial of a second-order administrative division", "GNS:id": "-3187370", "alt_name": "\u1e28ar\u1e11 W\u0101d\u012b Sulaym\u0101n; Hard Wadi Sulayman; Haradh", "int_name": "\u1e28ara\u1e11", "name": "\u062d\u0631\u0636", "name:ar": "\u062d\u0631\u0636", "name:de": "Harad", "name:en": "Harad", "name:fr": "Harad", "name:uk": "\u0425\u0430\u0440\u0430\u0434", "place": "town", "population": "24280", "population:date": "2004-12-17", "source:name": "GNS", "source:population": "YCSO2004:17-2-21-1"}}, {"type": "node", "id": 1224775087, "lat": 16.228161, "lon": 43.24895, "tags": {"GNS:dsg_code": "PPLA2", "GNS:dsg_name": "captial of a second-order administrative division", "GNS:id": "-3778646", "alt_name": "Suq Khamis Mustaba; S\u016bq Kham\u012bs Mustab\u0101", "int_name": "Mustab\u0101\u2019", "name": "\u0633\u0648\u0642 \u0627\u0644\u062e\u0645\u064a\u0633 (\u0645\u0633\u062a\u0628\u0627\u0621)", "name:ar": "\u0633\u0648\u0642 \u0627\u0644\u062e\u0645\u064a\u0633 (\u0645\u0633\u062a\u0628\u0627\u0621)", "name:de": "Mustaba'", "name:en": "Mustaba'", "name:fr": "Mustaba'", "place": "town", "population": "708", "population:date": "2004-12-17", "source:name": "GNS", "source:population": "YCSO2004:17-6-21-1"}}, {"type": "node", "id": 1227178731, "lat": 16.2717203, "lon": 43.1047732, "tags": {"GNS:dsg_code": "ADM3", "GNS:dsg_name": "third-order administrative division", "GNS:id": "11968062", "int_name": "Ad Dayr", "name": "\u0639\u0632\u0644\u0629 \u0627\u0644\u062f\u064a\u0631", "name:ar": "\u0639\u0632\u0644\u0629 \u0627\u0644\u062f\u064a\u0631", "name:de": "`Ozlat Ad Dayr", "name:en": "`Ozlat Ad Dayr", "name:fr": "`Ozlat Ad Dayr", "place": "town", "population": "2928", "population:date": "2004-12-17", "source:name": "GNS", "source:population": "YCSO2004:17-5-21-1"}}, {"type": "node", "id": 1237961376, "lat": 16.597222, "lon": 42.943889, "tags": {"GNS:dsg_code": "ADM2", "GNS:dsg_name": "second-order administrative division", "GNS:id": "13470252", "capital": "6", "int_name": "\u015e\u0101mi\u0163ah", "name": "\u0635\u0627\u0645\u0637\u0629", "name:ar": "\u0635\u0627\u0645\u0637\u0629", "name:de": "Samitah", "name:en": "Samitah", "name:fr": "Samitah", "place": "town", "population": "32458", "population:date": "2010", "source:population": "stats.gov.sa", "wikidata": "Q4164177", "wikipedia": "ar:\u0645\u062d\u0627\u0641\u0638\u0629 \u0635\u0627\u0645\u0637\u0629"}}, {"type": "node", "id": 1237961475, "lat": 16.5308201, "lon": 42.9690073, "tags": {"GNS:dsg_code": "PPL", "GNS:dsg_name": "populated place", "GNS:id": "354121", "capital": "6", "int_name": "A\u0163 \u0162uw\u0101l", "name": "\u0627\u0644\u0637\u0648\u0627\u0644", "name:ar": "\u0627\u0644\u0637\u0648\u0627\u0644", "name:de": "At Tuwal", "name:en": "At Tuwal", "name:fr": "At Tuwal", "place": "town", "source:name": "GNS", "wikidata": "Q107527228", "wikipedia": "ar:\u0627\u0644\u0637\u0648\u0627\u0644"}}]}