{"version": 0.6, "generator": "Overpass API 0.7.62.4 2390de5a", "osm3s": {"timestamp_osm_base": "2025-01-08T06:28:44Z", "copyright": "The data included in this document is from www.openstreetmap.org. The data is made available under ODbL."}, "elements": [{"type": "node", "id": 130177715, "lat": 36.9751849, "lon": 38.424295, "tags": {"alt_name:ckb": "\u067e\u0631\u0633\u0648\u0648\u0633", "alt_name:ku": "Pirs\u00fbs;Ord\u00ee", "name": "Suru\u00e7", "name:ar": "\u0633\u0631\u0648\u062c", "name:ce": "\u0421\u0443\u0440\u0443\u0447", "name:ckb": "\u0633\u0631\u0648\u0648\u062c", "name:fa": "\u0633\u0648\u0631\u0648\u0686", "name:ko": "\uc218\ub8e8\uce20", "name:ku": "Sir\u00fbc", "name:ml": "\u0d38\u0d41\u0d31\u0d42\u0d1c\u0d4d", "name:ru": "\u0421\u0443\u0440\u0443\u0447", "name:sr": "\u0421\u0443\u0440\u0443\u0447", "name:uk": "\u0421\u0443\u0440\u0443\u0447", "name:ur": "\u0633\u0648\u0631\u0648\u0686", "name:zh": "\u8607\u9b6f\u5947", "name:zza": "S\u0131ruc", "place": "town", "population": "102356", "wikidata": "Q917836", "wikimedia_commons": "Category:Suru\u00e7", "wikipedia": "tr:Suru\u00e7"}}]}