{"version": 0.6, "generator": "Overpass API 0.7.62.4 2390de5a", "osm3s": {"timestamp_osm_base": "2025-01-08T07:25:44Z", "copyright": "The data included in this document is from www.openstreetmap.org. The data is made available under ODbL."}, "elements": [{"type": "node", "id": 249744563, "lat": 15.656563, "lon": -13.255916, "tags": {"admin_level": "4", "alt_name:ar": "\u0645\u0627\u062a\u0627\u0645", "capital": "4", "name": "Matam", "name:ar": "\u0645\u0627\u062a\u0645", "name:de": "Matam", "name:en": "Matam", "name:es": "Matam", "name:fr": "Matam", "name:ru": "\u041c\u0430\u0442\u0430\u043c", "place": "town", "wikidata": "Q396015", "wikipedia": "fr:Matam (S\u00e9n\u00e9gal)"}}, {"type": "node", "id": 351488962, "lat": 15.606478, "lon": -13.3211029, "tags": {"ele": "25", "name": "Ourossogui", "name:ar": "\u0623\u0648\u0631\u0648\u0633\u063a\u064a", "name:en": "Ouro Sogui", "name:fr": "Ourossogui", "place": "town", "population": "15614", "wikidata": "Q2472697", "wikipedia": "fr:Ourossogui"}}, {"type": "node", "id": 1987817535, "lat": 15.9397485, "lon": -13.3500113, "tags": {"name": "Nguidjilone", "place": "town", "population": "6568", "source": "Microsoft Bing satellite imagery 2012", "wikidata": "Q16509748", "wikipedia": "fr:Nguidjilone"}}, {"type": "node", "id": 6558000333, "lat": 15.6629989, "lon": -13.2481814, "tags": {"alt_name": "Toufnd\u00e9 Civ\u00e9", "name": "\u062a\u0648\u0641\u0648\u0646\u062f\u064a \u0633\u064a\u0641\u064a", "name:ar": "\u062a\u0648\u0641\u0648\u0646\u062f\u064a \u0633\u064a\u0641\u064a", "name:fr": "Toufound\u00e9 Civ\u00e9", "note": "rank = 0 + town car commune", "place": "town", "rank": "0"}}]}