{"version": 0.6, "generator": "Overpass API 0.7.62.4 2390de5a", "osm3s": {"timestamp_osm_base": "2025-01-08T05:56:00Z", "copyright": "The data included in this document is from www.openstreetmap.org. The data is made available under ODbL."}, "elements": [{"type": "node", "id": 768030243, "lat": 31.2127686, "lon": 34.1107742, "tags": {"alt_name:ar": "\u0634\u064a\u062e \u0632\u0648\u064a\u062f", "alt_name:fr": "Sheikh Zuw\u00e2yid", "name": "\u0627\u0644\u0634\u064a\u062e \u0632\u0648\u064a\u062f", "name:ar": "\u0627\u0644\u0634\u064a\u062e \u0632\u0648\u064a\u062f", "name:azb": "\u0634\u06cc\u062e \u0632\u0648\u06cc\u062f", "name:cs": "\u0160ajch Zuvajd", "name:de": "Asch Scheiach Suayyed", "name:en": "Ash Sheikh Zuwayyed", "name:eu": "Ash Sheikh Zuwayyed", "name:fa": "\u0634\u06cc\u062e \u0632\u0648\u06cc\u062f", "name:fr": "Cheikh Zouweide", "name:he": "\u05e9\u05d9\u05d7' \u05d6\u05d5\u05d5\u05d9\u05d3", "name:ml": "\u0d37\u0d46\u0d2f\u0d4d\u0d16\u0d4d \u0d38\u0d41\u0d35\u0d48\u0d26\u0d4d", "name:pl": "Asz-Szajch Zuwajjid", "name:ru": "\u0428\u0435\u0439\u0445-\u0417\u0443\u0432\u0435\u0439\u0434", "place": "town", "population": "60000", "population:date": "2015", "wikidata": "Q3481736", "wikipedia": "ar:\u0627\u0644\u0634\u064a\u062e \u0632\u0648\u064a\u062f"}}]}