{"version": 0.6, "generator": "Overpass API 0.7.62.4 2390de5a", "osm3s": {"timestamp_osm_base": "2025-01-08T07:25:44Z", "copyright": "The data included in this document is from www.openstreetmap.org. The data is made available under ODbL."}, "elements": [{"type": "node", "id": 2418777547, "lat": 16.2168413, "lon": -13.1449596, "tags": {"GNS:dsg_code": "PPL", "GNS:dsg_name": "populated place", "GNS:id": "-1400454", "GNS:modify_date": "2007-08-27", "alt_name": "Lekseiba;Leq\u00e7e\u00efba;Leqceiba;El Kse\u00efba;El Kseiba;Lekse\u00efba; Lexeiba", "name": "\u0627\u0644\u0642\u0635\u064a\u0628\u0629", "name:ar": "\u0627\u0644\u0642\u0635\u064a\u0628\u0629", "name:en": "Lekseiba", "name:fr": "El Kse\u00efba", "note": "rank = 0 + town car commune", "place": "town", "rank": "0", "wikidata": "Q12732033"}}, {"type": "node", "id": 6609862527, "lat": 16.4105634, "lon": -13.1359578, "tags": {"GNS:dsg_code": "PPL", "GNS:dsg_name": "populated place", "GNS:id": "-1402530", "GNS:modify_date": "2007-08-22", "alt_name": "Monguel Toulde;Monguel Tound\u00e9;Monguel Tounde;M\u00f4nguel Tould\u00e9", "name": "\u0645\u0648\u0646\u0643\u0644", "name:ar": "\u0645\u0648\u0646\u0643\u0644", "name:en": "Monguel Toulde", "name:fr": "Monguel", "note": "rank = 0 + City car sous-Pr\u00e9fecture", "place": "city", "rank": "0"}}, {"type": "node", "id": 7734401503, "lat": 16.215339, "lon": -13.2399749, "tags": {"GNS:dsg_code": "PPL", "GNS:dsg_name": "populated place", "GNS:id": "-1400872", "GNS:modify_date": "2007-08-27", "name": "Ganki", "name:ar": "\u063a\u0623\u0646\u0643", "name:en": "Ganki", "note": "rank = 0 + town car commune", "place": "town", "rank": "0", "source": "GNS"}}]}