{"version": 0.6, "generator": "Overpass API 0.7.62.4 2390de5a", "osm3s": {"timestamp_osm_base": "2025-01-08T06:09:30Z", "copyright": "The data included in this document is from www.openstreetmap.org. The data is made available under ODbL."}, "elements": [{"type": "node", "id": 208501048, "lat": 25.3696585, "lon": 49.5865224, "tags": {"GNS:dsg_code": "PPL", "GNS:dsg_name": "populated place", "GNS:id": "-3091837", "alt_name": "Hofuf;Hof\u016bf;Hufuf;Huf\u016bf", "alt_name:en": "Al-Hofuf", "alt_name:eo": "Al-Hofuf", "int_name": "Al-Hofuf", "name": "\u0627\u0644\u0647\u0641\u0648\u0641", "name:ar": "\u0627\u0644\u0647\u0641\u0648\u0641", "name:bg": "\u0410\u043b \u0425\u043e\u0444\u0443\u0444", "name:ckb": "\u06be\u0648\u0641\u0648\u0648\u0641", "name:cs": "Al-Hofuf", "name:de": "Al-Hofuf", "name:en": "Al-Hofuf", "name:eo": "Hofufo", "name:es": "Hofuf", "name:et": "Al-Hofuf", "name:eu": "Hufuf", "name:fi": "Al-Hofuf", "name:fr": "Al-Hofuf", "name:he": "\u05d0\u05dc \u05d7\u05d5\u05e4\u05d5\u05e3", "name:hi": "\u0905\u0932 \u0939\u0949\u092b\u0941\u092b", "name:hr": "Hufuf", "name:ko": "\ud6c4\ud478\ud504", "name:ku": "Huf\u00fbf", "name:ml": "\u0d39\u0d42\u0d2b\u0d41\u0d2b\u0d4d", "name:pl": "Al-Hofuf", "name:pt": "Al-Hofuf", "name:ru": "\u042d\u043b\u044c-\u0425\u0443\u0444\u0443\u0444", "name:sr": "\u0425\u0443\u0444\u0443\u0444", "name:uk": "\u0415\u043b\u044c-\u0425\u0443\u0444\u0443\u0444", "place": "city", "population": "660788", "population:date": "2010", "source:population": "stats.gov.sa", "wikidata": "Q27136", "wikipedia": "en:Hofuf"}}, {"type": "node", "id": 553375015, "lat": 25.468923, "lon": 49.6771166}, {"type": "node", "id": 1098839744, "lat": 25.4690333, "lon": 49.6766673}, {"type": "node", "id": 1098839761, "lat": 25.463793, "lon": 49.6711103}, {"type": "node", "id": 1116100868, "lat": 25.4086066, "lon": 49.6471133}, {"type": "node", "id": 1237339348, "lat": 25.4196284, "lon": 49.6818446, "tags": {"GNS:dsg_code": "PPL", "GNS:dsg_name": "populated place", "GNS:id": "-3092454", "int_name": "Al Q\u0101rah", "name": "\u0627\u0644\u0642\u0627\u0631\u0629", "name:ar": "\u0627\u0644\u0642\u0627\u0631\u0629", "name:de": "Al Qarah", "name:en": "Al Qarah", "name:fr": "Al Qarah", "place": "town", "population": "9702", "population:date": "2010", "source:population": "stats.gov.sa"}}, {"type": "node", "id": 1237339349, "lat": 25.4196128, "lon": 49.6903711, "tags": {"GNS:dsg_code": "PPL", "GNS:dsg_name": "populated place", "GNS:id": "-3100209", "int_name": "Tuwayth\u012br", "name": "\u0627\u0644\u062a\u0648\u064a\u062b\u064a\u0631", "name:ar": "\u0627\u0644\u062a\u0648\u064a\u062b\u064a\u0631", "name:de": "Tuwaythir", "name:en": "Tuwaythir", "name:fr": "Tuwaythir", "place": "town", "population": "9259", "population:date": "2010", "source:population": "stats.gov.sa"}}, {"type": "node", "id": 1237339353, "lat": 25.4217659, "lon": 49.7161902, "tags": {"GNS:dsg_code": "PPL", "GNS:dsg_name": "populated place", "GNS:id": "-3092579", "int_name": "Al \u2018Umr\u0101n", "name": "\u0627\u0644\u0639\u0645\u0631\u0627\u0646", "name:ar": "\u0627\u0644\u0639\u0645\u0631\u0627\u0646", "name:de": "Al `Umran", "name:en": "Al `Umran", "name:fr": "Al `Umran", "place": "town", "population": "17410", "population:date": "2010", "source:name": "GNS", "source:population": "stats.gov.sa"}}, {"type": "node", "id": 1237339355, "lat": 25.3952112, "lon": 49.7316314, "tags": {"GNS:dsg_code": "PPL", "GNS:dsg_name": "populated place", "GNS:id": "-3092244", "int_name": "Al Markaz", "name": "\u0627\u0644\u0645\u0631\u0643\u0632", "name:ar": "\u0627\u0644\u0645\u0631\u0643\u0632", "name:de": "Al Markaz", "name:en": "Al Markaz", "name:fr": "Al Markaz", "place": "town", "population": "7014", "population:date": "2010", "source:population": "stats.gov.sa"}}, {"type": "node", "id": 1237339363, "lat": 25.36232, "lon": 49.727572, "tags": {"GNS:dsg_code": "PPL", "GNS:dsg_name": "populated place", "GNS:id": "-3093466", "alt_name": "Al-Taraf", "int_name": "A\u0163 \u0162araf", "name": "\u0627\u0644\u0637\u0631\u0641", "name:ar": "\u0627\u0644\u0637\u0631\u0641", "name:de": "At Taraf", "name:en": "At Taraf", "name:fr": "At Taraf", "place": "town", "population": "23543", "population:date": "2010", "source:name": "GNS", "source:population": "stats.gov.sa"}}, {"type": "node", "id": 1237339378, "lat": 25.377358, "lon": 49.72154, "tags": {"GNS:dsg_code": "PPL", "GNS:dsg_name": "populated place", "GNS:id": "-3091907", "alt_name": "Bab-al-Jafar; B\u0101b-al-Jafar; Djafar; Jafar; Jafr", "int_name": "Al Jafr", "name": "\u0627\u0644\u062c\u0641\u0631", "name:ar": "\u0627\u0644\u062c\u0641\u0631", "name:de": "Al Jafr", "name:en": "Al Jafr", "name:fr": "Al Jafr", "place": "town", "population": "9707", "population:date": "2010", "source:name": "GNS", "source:population": "stats.gov.sa"}}, {"type": "node", "id": 1237339379, "lat": 25.513372, "lon": 49.620911, "tags": {"GNS:dsg_code": "PPL", "GNS:dsg_name": "populated place", "GNS:id": "-3092467", "alt_name": "Qaran;\u0627\u0644\u0642\u0631\u0646;Al Qarn", "int_name": "Al Jarn", "name": "\u0627\u0644\u062c\u0631\u0646", "name:ar": "\u0627\u0644\u062c\u0631\u0646", "name:de": "Al Jarn", "name:en": "Al Jarn", "name:fr": "Al Jarn", "place": "town", "population": "8592", "population:date": "2010", "source:name": "GNS", "source:population": "stats.gov.sa"}}, {"type": "node", "id": 1237339392, "lat": 25.407952, "lon": 49.6616357, "tags": {"GNS:dsg_code": "PPL", "GNS:dsg_name": "populated place", "GNS:id": "-3091973", "name": "\u0627\u0644\u062c\u0628\u064a\u0644", "name:ar": "\u0627\u0644\u062c\u0628\u064a\u0644", "name:de": "Dschubail", "name:en": "Al Jubayl", "name:es": "Yubeil", "name:fr": "Al Jubayl", "place": "town", "population": "10241", "population:date": "2010", "source:population": "stats.gov.sa", "wikidata": "Q12185424", "wikipedia": "ar:\u0627\u0644\u062c\u0628\u064a\u0644 (\u0627\u0644\u0623\u062d\u0633\u0627\u0621)"}}, {"type": "node", "id": 1237339396, "lat": 25.5030213, "lon": 49.6000858, "tags": {"GNS:dsg_code": "PPL", "GNS:dsg_name": "populated place", "GNS:id": "-3096201", "int_name": "Julayjilah", "name": "\u062c\u0644\u064a\u062c\u0644\u0629", "name:ar": "\u062c\u0644\u064a\u062c\u0644\u0629", "name:de": "Julayjilah", "name:en": "Julayjilah", "name:fr": "Julayjilah", "place": "town", "population": "5906", "population:date": "2010", "source:population": "stats.gov.sa"}}, {"type": "node", "id": 1237339401, "lat": 25.387592, "lon": 49.752528, "tags": {"GNS:dsg_code": "PPL", "GNS:dsg_name": "populated place", "GNS:id": "-3096059", "alt_name": "Al-Jishshan; Jashshah; Jishsha; Jishshah", "int_name": "Al Jishshah", "name": "\u0627\u0644\u062c\u0634\u0629", "name:ar": "\u0627\u0644\u062c\u0634\u0629", "name:de": "Al Jishshah", "name:en": "Al Jishshah", "name:fr": "Al Jishshah", "place": "town", "population": "12024", "population:date": "2010", "source:name": "GNS", "source:population": "stats.gov.sa"}}, {"type": "node", "id": 1237339402, "lat": 25.4790667, "lon": 49.5581553, "tags": {"GNS:dsg_code": "PPL", "GNS:dsg_name": "populated place", "GNS:id": "-3092403", "alt_name": "Al Mutairifi; Matairafi; Muteirfeh; Umm Terfi", "int_name": "Al Mu\u0163ayrif\u012b", "name": "\u0627\u0644\u0645\u0637\u064a\u0631\u0641\u064a", "name:ar": "\u0627\u0644\u0645\u0637\u064a\u0631\u0641\u064a", "name:de": "Al Mutayrifi", "name:en": "Al Mutayrifi", "name:fr": "Al Mutayrifi", "place": "town", "population": "6371", "population:date": "2010", "source:population": "stats.gov.sa"}}, {"type": "node", "id": 1237339405, "lat": 25.3788289, "lon": 49.669424, "tags": {"GNS:dsg_code": "PPL", "GNS:dsg_name": "populated place", "GNS:id": "-3092351", "int_name": "Al Munayzilah", "name": "\u0627\u0644\u0645\u0646\u064a\u0632\u0644\u0629", "name:ar": "\u0627\u0644\u0645\u0646\u064a\u0632\u0644\u0629", "name:de": "Al Munayzilah", "name:en": "Al Munayzilah", "name:fr": "Al Munayzilah", "place": "town", "population": "17913", "population:date": "2010", "source:population": "stats.gov.sa"}}, {"type": "node", "id": 1237339406, "lat": 25.4829828, "lon": 49.5974359, "tags": {"GNS:dsg_code": "PPL", "GNS:dsg_name": "populated place", "GNS:id": "-3092522", "int_name": "Al Qurayn", "name": "\u0627\u0644\u0642\u0631\u064a\u0646", "name:ar": "\u0627\u0644\u0642\u0631\u064a\u0646", "name:de": "Al Qurayn", "name:en": "Al Qurayn", "name:fr": "Al Qurayn", "place": "town", "population": "13296", "population:date": "2010", "source:population": "stats.gov.sa"}}, {"type": "node", "id": 1237339408, "lat": 25.4829456, "lon": 49.5757957, "tags": {"GNS:dsg_code": "PPL", "GNS:dsg_name": "populated place", "GNS:id": "-3093223", "int_name": "Ash Shuqayq", "name": "\u0627\u0644\u0634\u0642\u064a\u0642", "name:ar": "\u0627\u0644\u0634\u0642\u064a\u0642", "name:de": "Ash Shuqayq", "name:en": "Ash Shuqayq", "name:fr": "Ash Shuqayq", "place": "town", "population": "5640", "population:date": "2010", "source:population": "stats.gov.sa"}}, {"type": "node", "id": 1580233710, "lat": 25.4100835, "lon": 49.682261}, {"type": "node", "id": 1580233766, "lat": 25.408969, "lon": 49.6806785}, {"type": "node", "id": 1580233767, "lat": 25.408499, "lon": 49.6804049}, {"type": "node", "id": 1580234068, "lat": 25.4190139, "lon": 49.6832852}, {"type": "node", "id": 1580234089, "lat": 25.4145994, "lon": 49.6837349}, {"type": "node", "id": 1580234125, "lat": 25.4196421, "lon": 49.6829782}, {"type": "node", "id": 1580234147, "lat": 25.4124713, "lon": 49.6832544}, {"type": "node", "id": 1580234210, "lat": 25.4171133, "lon": 49.6834921}, {"type": "node", "id": 1580234357, "lat": 25.4106649, "lon": 49.6829369}, {"type": "node", "id": 1588520496, "lat": 25.4178523, "lon": 49.6830785}, {"type": "node", "id": 1588520960, "lat": 25.411307, "lon": 49.6830891}, {"type": "node", "id": 1600484762, "lat": 25.4406553, "lon": 49.665172}, {"type": "node", "id": 1600497535, "lat": 25.4551807, "lon": 49.6721131}, {"type": "node", "id": 1600497548, "lat": 25.4531851, "lon": 49.6692002}, {"type": "node", "id": 1600497560, "lat": 25.4322918, "lon": 49.677322}, {"type": "node", "id": 3350941479, "lat": 25.4531213, "lon": 49.6384807}, {"type": "node", "id": 3352781161, "lat": 25.4128633, "lon": 49.6500533}, {"type": "node", "id": 3352782439, "lat": 25.4156697, "lon": 49.6498114}, {"type": "node", "id": 3352782445, "lat": 25.4199255, "lon": 49.6485237}, {"type": "node", "id": 3352863610, "lat": 25.4064399, "lon": 49.6465873}, {"type": "node", "id": 3352863612, "lat": 25.4062913, "lon": 49.6465452}, {"type": "node", "id": 3352863635, "lat": 25.4065208, "lon": 49.6467878}, {"type": "node", "id": 3352863677, "lat": 25.4527693, "lon": 49.6329814}, {"type": "node", "id": 3352920833, "lat": 25.4063173, "lon": 49.641011}, {"type": "node", "id": 3352920843, "lat": 25.4095431, "lon": 49.6390656}, {"type": "node", "id": 3352920855, "lat": 25.4155467, "lon": 49.6313827}, {"type": "node", "id": 3352920864, "lat": 25.4237642, "lon": 49.6245169}, {"type": "node", "id": 3352920866, "lat": 25.424141, "lon": 49.6243604}, {"type": "node", "id": 3352920870, "lat": 25.4304948, "lon": 49.6240512}, {"type": "node", "id": 3352920877, "lat": 25.431801, "lon": 49.6237387}, {"type": "node", "id": 3352923700, "lat": 25.4313174, "lon": 49.6238888}, {"type": "node", "id": 3352923734, "lat": 25.4419301, "lon": 49.6260034}, {"type": "node", "id": 3352923743, "lat": 25.4379772, "lon": 49.6236249}, {"type": "node", "id": 3352923746, "lat": 25.437536, "lon": 49.6234576}, {"type": "node", "id": 3353680814, "lat": 25.4254525, "lon": 49.6555654}, {"type": "node", "id": 3353680851, "lat": 25.4250699, "lon": 49.6798222}, {"type": "node", "id": 3353680907, "lat": 25.4323525, "lon": 49.6785695}, {"type": "node", "id": 3380493744, "lat": 25.4082374, "lon": 49.6790101}, {"type": "node", "id": 3380493750, "lat": 25.4078986, "lon": 49.6758632}, {"type": "node", "id": 3380493760, "lat": 25.4082121, "lon": 49.6690067}, {"type": "node", "id": 3393248224, "lat": 25.4402709, "lon": 49.6424804}, {"type": "node", "id": 3394352925, "lat": 25.43959, "lon": 49.6443089}, {"type": "node", "id": 3394352929, "lat": 25.4393769, "lon": 49.6427493, "tags": {"highway": "traffic_signals", "traffic_signals": "signal"}}, {"type": "node", "id": 3394545656, "lat": 25.4266924, "lon": 49.6610696, "tags": {"junction": "yes"}}, {"type": "node", "id": 3394614438, "lat": 25.4277984, "lon": 49.6533804}, {"type": "node", "id": 3394614440, "lat": 25.4247833, "lon": 49.653867}, {"type": "node", "id": 3662316454, "lat": 25.441094, "lon": 49.6623786}, {"type": "node", "id": 3856262497, "lat": 25.4273552, "lon": 49.6692185}, {"type": "node", "id": 3856262499, "lat": 25.4263669, "lon": 49.6635108}, {"type": "node", "id": 3856318342, "lat": 25.3982309, "lon": 49.6653366}, {"type": "node", "id": 6407458177, "lat": 25.3937843, "lon": 49.6677321, "tags": {"name": "\u0627\u0644\u0645\u0646\u0635\u0648\u0631\u0629", "name:en": "Al Mansourah", "place": "town", "population": "8864", "population:date": "2010", "source:population": "stats.gov.sa"}}, {"type": "node", "id": 6531651816, "lat": 25.4055245, "lon": 49.6670287}, {"type": "node", "id": 6531651817, "lat": 25.4066583, "lon": 49.6669107}, {"type": "node", "id": 6531651819, "lat": 25.4083555, "lon": 49.6690329}, {"type": "node", "id": 6531651821, "lat": 25.3954488, "lon": 49.6598816}, {"type": "node", "id": 6531651822, "lat": 25.3932275, "lon": 49.6475542}, {"type": "node", "id": 6531651823, "lat": 25.4055666, "lon": 49.6470468}, {"type": "node", "id": 6531651824, "lat": 25.4085624, "lon": 49.647101}, {"type": "node", "id": 6531651829, "lat": 25.41601, "lon": 49.670284}, {"type": "node", "id": 7159895331, "lat": 25.4081373, "lon": 49.6681477}, {"type": "node", "id": 7159895332, "lat": 25.3936081, "lon": 49.6551584}, {"type": "node", "id": 7159895333, "lat": 25.4021854, "lon": 49.667624}, {"type": "node", "id": 7159895334, "lat": 25.3997968, "lon": 49.6664273}, {"type": "node", "id": 7159895335, "lat": 25.392902, "lon": 49.6617701}, {"type": "node", "id": 7159895336, "lat": 25.3928997, "lon": 49.6560798}, {"type": "node", "id": 7159895337, "lat": 25.3942616, "lon": 49.6511508}, {"type": "node", "id": 7159895338, "lat": 25.3920902, "lon": 49.6442743}, {"type": "node", "id": 7159895339, "lat": 25.3920278, "lon": 49.6430267}, {"type": "node", "id": 7159895340, "lat": 25.3927391, "lon": 49.6405535}, {"type": "node", "id": 7159895341, "lat": 25.3941748, "lon": 49.6367765}, {"type": "node", "id": 7159895342, "lat": 25.3949096, "lon": 49.6349627}, {"type": "node", "id": 7159895343, "lat": 25.3999175, "lon": 49.643873}, {"type": "node", "id": 7159895344, "lat": 25.3991336, "lon": 49.6424373}, {"type": "node", "id": 7159895345, "lat": 25.4113424, "lon": 49.6488138}, {"type": "node", "id": 7159895346, "lat": 25.4202491, "lon": 49.6548072}, {"type": "node", "id": 7159895352, "lat": 25.4172845, "lon": 49.6663782}, {"type": "node", "id": 7499900571, "lat": 25.4550053, "lon": 49.6656758}, {"type": "node", "id": 7499900575, "lat": 25.4615475, "lon": 49.6501913}, {"type": "node", "id": 7499900582, "lat": 25.46308, "lon": 49.6424088}, {"type": "node", "id": 7499905337, "lat": 25.4627923, "lon": 49.6463991}, {"type": "node", "id": 7499912692, "lat": 25.4609506, "lon": 49.6373773}, {"type": "node", "id": 7499912694, "lat": 25.459837, "lon": 49.6366343}, {"type": "node", "id": 7501526117, "lat": 25.4337081, "lon": 49.6705118}, {"type": "node", "id": 7549425122, "lat": 25.4249817, "lon": 49.6242978}, {"type": "node", "id": 7549968158, "lat": 25.4427435, "lon": 49.6264932}, {"type": "node", "id": 7549968165, "lat": 25.4440882, "lon": 49.6280268}, {"type": "node", "id": 7549968173, "lat": 25.4520977, "lon": 49.6329559}, {"type": "node", "id": 7549968174, "lat": 25.4522517, "lon": 49.6331795}, {"type": "node", "id": 7699092296, "lat": 25.4166096, "lon": 49.7218895, "tags": {"name": "\u0627\u0644\u062d\u0648\u0637\u0629", "name:ar": "\u0627\u0644\u062d\u0648\u0637\u0629", "name:en": "Al Haoutah", "place": "town", "population": "6547", "population:date": "2010", "source:population": "stats.gov.sa"}}, {"type": "node", "id": 7699092297, "lat": 25.4138187, "lon": 49.7283268, "tags": {"name": "\u0627\u0644\u0631\u0645\u064a\u0644\u0629", "name:ar": "\u0627\u0644\u0631\u0645\u064a\u0644\u0629", "name:en": "Ar Rumailah", "place": "town", "population": "9068", "population:date": "2010", "source:population": "stats.gov.sa"}}, {"type": "node", "id": 7833964488, "lat": 25.409955, "lon": 49.6386801}, {"type": "node", "id": 8143673793, "lat": 25.424662, "lon": 49.6544515}, {"type": "node", "id": 8143673797, "lat": 25.4245861, "lon": 49.6544168}, {"type": "node", "id": 8143716718, "lat": 25.4241226, "lon": 49.6542663}, {"type": "node", "id": 8487320543, "lat": 25.3877578, "lon": 49.5626628, "tags": {"alt_name": "Al Ahsa;Al Hasa", "int_name": "Al Ahsa", "name": "\u0627\u0644\u0623\u062d\u0633\u0627\u0621", "name:ar": "\u0627\u0644\u0623\u062d\u0633\u0627\u0621", "name:bn": "\u0986\u09b9\u09b8\u09be", "name:ckb": "\u0626\u06d5\u062d\u0633\u0627", "name:de": "Al-Hasa", "name:en": "Al Ahsa", "name:eu": "Ahsa", "name:fr": "Al-Hassa", "name:he": "\u05d0\u05dc \u05d0\u05d7\u05e1\u05d4", "name:hi": "\u0905\u0932-\u0905\u0939\u0938\u093e", "name:hr": "Hasa", "name:ku": "Ehsa", "name:ml": "\u0d05\u0d7d \u0d05\u0d39\u0d4d\u0d38", "name:zh": "\u80e1\u5bcc\u592b", "place": "city", "population": "903597", "population:date": "2010", "source:population": "stats.gov.sa", "wikidata": "Q4702167"}}, {"type": "node", "id": 8864428775, "lat": 25.4350565, "lon": 49.6702272}, {"type": "node", "id": 8864428776, "lat": 25.4339258, "lon": 49.6723234}, {"type": "node", "id": 8864428782, "lat": 25.4444435, "lon": 49.6659918}, {"type": "node", "id": 8864428786, "lat": 25.4346388, "lon": 49.6730806}, {"type": "node", "id": 8864428787, "lat": 25.4347432, "lon": 49.6735745}, {"type": "node", "id": 8864428788, "lat": 25.4376963, "lon": 49.6737304}, {"type": "node", "id": 8864428789, "lat": 25.4375269, "lon": 49.6769197}, {"type": "node", "id": 8864428790, "lat": 25.4297148, "lon": 49.6788004}, {"type": "node", "id": 8864428791, "lat": 25.4296912, "lon": 49.6755127}, {"type": "node", "id": 8864428792, "lat": 25.4283922, "lon": 49.6755283}, {"type": "node", "id": 8864428793, "lat": 25.4289429, "lon": 49.6736054}, {"type": "node", "id": 8864428795, "lat": 25.427331, "lon": 49.6699309}, {"type": "node", "id": 8864428796, "lat": 25.4272486, "lon": 49.6656635}, {"type": "node", "id": 8864428797, "lat": 25.4257278, "lon": 49.656331}, {"type": "node", "id": 8864428798, "lat": 25.4281103, "lon": 49.6459178}, {"type": "node", "id": 8864428799, "lat": 25.4395028, "lon": 49.6447774}, {"type": "node", "id": 8864428801, "lat": 25.4273326, "lon": 49.67145}, {"type": "node", "id": 8864527412, "lat": 25.4392433, "lon": 49.6426597}, {"type": "node", "id": 8864527413, "lat": 25.436699, "lon": 49.6618263}, {"type": "node", "id": 8864527414, "lat": 25.4503187, "lon": 49.6641548}, {"type": "node", "id": 8864527415, "lat": 25.4526027, "lon": 49.6646254}, {"type": "node", "id": 8864527416, "lat": 25.4555403, "lon": 49.6660452}, {"type": "node", "id": 8864531817, "lat": 25.455511, "lon": 49.6726641}, {"type": "node", "id": 8864531818, "lat": 25.4551814, "lon": 49.673305}, {"type": "node", "id": 8864531819, "lat": 25.4553548, "lon": 49.6735045}, {"type": "node", "id": 8864531820, "lat": 25.4650765, "lon": 49.6721773}, {"type": "node", "id": 8864531821, "lat": 25.4672338, "lon": 49.6777556}, {"type": "node", "id": 8864531822, "lat": 25.4676293, "lon": 49.6786887}, {"type": "node", "id": 8864531823, "lat": 25.4688599, "lon": 49.6783803}, {"type": "node", "id": 8864531824, "lat": 25.4691699, "lon": 49.6805701}, {"type": "node", "id": 8864531825, "lat": 25.4698781, "lon": 49.6806926}, {"type": "node", "id": 8864531826, "lat": 25.4700896, "lon": 49.680936}, {"type": "node", "id": 8864531827, "lat": 25.4716864, "lon": 49.6807251}, {"type": "node", "id": 8864531828, "lat": 25.4716864, "lon": 49.6813823}, {"type": "node", "id": 8864531829, "lat": 25.4735649, "lon": 49.681001}, {"type": "node", "id": 8864531830, "lat": 25.4731474, "lon": 49.6763926}, {"type": "node", "id": 8864531831, "lat": 25.4642177, "lon": 49.6704906}, {"type": "node", "id": 8866028353, "lat": 25.4214827, "lon": 49.6814617}, {"type": "node", "id": 8866031266, "lat": 25.4256071, "lon": 49.6466743}, {"type": "node", "id": 8868856132, "lat": 25.4202373, "lon": 49.6822014}, {"type": "node", "id": 8868856137, "lat": 25.4297142, "lon": 49.6787101}, {"type": "node", "id": 8868856138, "lat": 25.4253148, "lon": 49.6819171}, {"type": "node", "id": 8868856140, "lat": 25.4253941, "lon": 49.6819066}, {"type": "node", "id": 8868856141, "lat": 25.4326415, "lon": 49.6809451}, {"type": "node", "id": 8868865458, "lat": 25.4175928, "lon": 49.6681127}, {"type": "node", "id": 8868865459, "lat": 25.4248055, "lon": 49.6798512}, {"type": "node", "id": 8868865460, "lat": 25.4245049, "lon": 49.6805226}, {"type": "node", "id": 8868865461, "lat": 25.4235579, "lon": 49.6811568}, {"type": "node", "id": 8868865462, "lat": 25.4200128, "lon": 49.6823348}, {"type": "node", "id": 8868865463, "lat": 25.4183374, "lon": 49.6831129}, {"type": "node", "id": 8868865464, "lat": 25.4074351, "lon": 49.6803641}, {"type": "node", "id": 8868865465, "lat": 25.4074888, "lon": 49.6801849}, {"type": "node", "id": 8868865466, "lat": 25.4080732, "lon": 49.6795667}, {"type": "node", "id": 8868865467, "lat": 25.4080304, "lon": 49.6769551}, {"type": "node", "id": 8868865468, "lat": 25.4079484, "lon": 49.673745}, {"type": "node", "id": 8868865469, "lat": 25.4081103, "lon": 49.6711791}, {"type": "node", "id": 8868865470, "lat": 25.4103497, "lon": 49.6692841}, {"type": "node", "id": 8868865471, "lat": 25.4142014, "lon": 49.6699884}, {"type": "node", "id": 8868865472, "lat": 25.4256687, "lon": 49.6616689}, {"type": "node", "id": 8868865473, "lat": 25.4297054, "lon": 49.6454421}, {"type": "node", "id": 8868865474, "lat": 25.4352463, "lon": 49.6438239}, {"type": "node", "id": 8868865475, "lat": 25.4426054, "lon": 49.6416249}, {"type": "node", "id": 8868865476, "lat": 25.448172, "lon": 49.6399706}, {"type": "node", "id": 8868865477, "lat": 25.4620595, "lon": 49.6358005}, {"type": "node", "id": 8868865478, "lat": 25.4596812, "lon": 49.6284296}, {"type": "node", "id": 8868865479, "lat": 25.4407628, "lon": 49.6253239}, {"type": "node", "id": 8868865480, "lat": 25.4128222, "lon": 49.6347227}, {"type": "node", "id": 8868865481, "lat": 25.4066881, "lon": 49.6404255}, {"type": "node", "id": 8868865482, "lat": 25.4061035, "lon": 49.6430612}, {"type": "node", "id": 8868865483, "lat": 25.4061974, "lon": 49.6460588}, {"type": "node", "id": 8868865484, "lat": 25.4115581, "lon": 49.6491518}, {"type": "node", "id": 8868868818, "lat": 25.4267664, "lon": 49.661061, "tags": {"junction": "yes"}}, {"type": "node", "id": 8868868834, "lat": 25.4360385, "lon": 49.6654673}, {"type": "node", "id": 8868868835, "lat": 25.4360525, "lon": 49.6653798}, {"type": "node", "id": 8868868836, "lat": 25.4367123, "lon": 49.6617455}, {"type": "node", "id": 9584806715, "lat": 25.414319, "lon": 49.6836999}, {"type": "node", "id": 9584819664, "lat": 25.4129555, "lon": 49.6833533}, {"type": "node", "id": 9584819681, "lat": 25.4127573, "lon": 49.6833129}, {"type": "node", "id": 9719843844, "lat": 25.4622512, "lon": 49.6388235}, {"type": "node", "id": 10042375903, "lat": 25.4506972, "lon": 49.632094}, {"type": "node", "id": 11066408018, "lat": 25.4276277, "lon": 49.6729223}, {"type": "way", "id": 695579475, "nodes": [6531651816, 6531651817, 7159895331, 6531651819, 8868865471, 6531651829, 8868865458, 7159895352, 3353680814, 8143673793, 8143716718, 7159895346, 7159895345, 6531651824, 6531651823, 7159895343, 7159895344, 7159895342, 7159895341, 7159895340, 7159895339, 7159895338, 6531651822, 7159895337, 7159895332, 7159895336, 7159895335, 6531651821, 3856318342, 7159895334, 7159895333, 6531651816], "tags": {"long_name": "\u0628\u0644\u062f\u0629 \u0627\u0644\u062c\u0628\u064a\u0644", "long_name:ar": "\u0628\u0644\u062f\u0629 \u0627\u0644\u062c\u0628\u064a\u0644", "long_name:es": "Pueblo de Yubeil", "name": "\u0627\u0644\u062c\u0628\u064a\u0644", "name:ar": "\u0627\u0644\u062c\u0628\u064a\u0644", "name:de": "Dschubail", "name:en": "Jubail", "name:es": "Yubeil", "place": "town", "population": "10000"}}, {"type": "way", "id": 958034613, "nodes": [7501526117, 8864428776, 8864428786, 8864428787, 8864428788, 8864428789, 1600497560, 3353680907, 8864428790, 8868856137, 8864428791, 8864428792, 8864428793, 11066408018, 8864428801, 8864428795, 8864428796, 3856262499, 3394545656, 8864428797, 8143673797, 3394614440, 3394614438, 8864428798, 8864527412, 8864428799, 8868868836, 3662316454, 1600484762, 8868868835, 8868868834, 8864428775, 7501526117], "tags": {"GNS:dsg_code": "PPL", "GNS:dsg_name": "populated place", "GNS:id": "-3091840", "int_name": "Al Hulaylah", "name": "\u0627\u0644\u062d\u0644\u064a\u0644\u0629", "name:ar": "\u0627\u0644\u062d\u0644\u064a\u0644\u0629", "name:de": "Al Hulaylah", "name:en": "Al Hulaylah", "name:fr": "Al Hulaylah", "place": "town", "population": "18583", "population:date": "2010", "source:population": "stats.gov.sa"}}, {"type": "way", "id": 958042909, "nodes": [8864527413, 3662316454, 1600484762, 8864428782, 8864527414, 8864527415, 8864527416, 1600497548, 1600497535, 8864531817, 8864531818, 8864531819, 1098839761, 8864531820, 553375015, 8864531821, 8864531822, 8864531823, 8864531824, 8864531825, 8864531826, 8864531827, 8864531828, 8864531829, 8864531830, 1098839744, 8864531831, 7499900571, 7499900575, 7499905337, 7499900582, 9719843844, 7499912692, 7499912694, 3393248224, 3394352929, 3394352925, 8868868836, 8864527413], "tags": {"GNS:dsg_code": "PPL", "GNS:dsg_name": "populated place", "GNS:id": "-3092117", "alt_name": "Al Kilabiyat;Al Kil\u0101b\u012by\u0101t;Kalabiya;Kal\u0101b\u012bya;Kalabiyah;Kal\u0101biyah;Kilabiya;Kilabiyat al-Nuhud;Kilabiyatan Nuhud;Kil\u0101biyatan Nuh\u016bd", "int_name": "Al Kil\u0101b\u012byah", "name": "\u0627\u0644\u0643\u0644\u0627\u0628\u064a\u0629", "name:ar": "\u0627\u0644\u0643\u0644\u0627\u0628\u064a\u0629", "name:de": "Al Kilabiyah", "name:en": "Al Kilabiyah", "name:fr": "Al Kilabiyah", "place": "town", "population": "16984", "population:date": "2010", "source:population": "stats.gov.sa"}}, {"type": "way", "id": 958521888, "nodes": [8868868818, 3856262499, 8864428796, 3856262497, 8864428801, 11066408018, 8864428793, 8864428792, 8864428791, 8868856137, 3353680907, 8868856141, 8868856140, 8868856138, 3353680851, 8868865459, 8868865460, 8868865461, 8866028353, 8868856132, 8868865462, 1580234125, 1580234068, 8868865463, 1588520496, 1580234210, 1580234089, 9584806715, 9584819664, 9584819681, 1580234147, 1588520960, 1580234357, 1580233710, 1580233766, 1580233767, 8868865464, 8868865465, 8868865466, 3380493744, 8868865467, 3380493750, 8868865468, 8868865469, 3380493760, 8868865470, 8868865471, 6531651829, 8868865458, 7159895352, 8868865472, 8868868818], "tags": {"name": "\u0627\u0644\u0642\u0627\u0631\u0629", "place": "town", "wikidata": "Q4702412", "wikipedia": "en:Al-Qarah"}}, {"type": "way", "id": 958521889, "nodes": [3352781161, 3352782439, 3352782445, 8866031266, 8868865473, 8868865474, 8868865475, 8868865476, 3350941479, 8868865477, 8868865478, 3352863677, 7549968174, 7549968173, 10042375903, 7549968165, 7549968158, 3352923734, 8868865479, 3352923743, 3352923746, 3352920877, 3352923700, 3352920870, 7549425122, 3352920866, 3352920864, 3352920855, 8868865480, 7833964488, 3352920843, 8868865481, 3352920833, 8868865482, 8868865483, 3352863612, 3352863610, 3352863635, 1116100868, 8868865484, 3352781161], "tags": {"GNS:dsg_code": "PPL", "GNS:dsg_name": "populated place", "GNS:id": "-3091491", "int_name": "Al Ba\u0163\u0163\u0101l\u012byah", "name": "\u0627\u0644\u0628\u0637\u0627\u0644\u064a\u0629", "name:ar": "\u0627\u0644\u0628\u0637\u0627\u0644\u064a\u0629", "name:de": "Al Battaliyah", "name:en": "Al Battaliyah", "name:fr": "Al Battaliyah", "place": "town", "population": "17930", "population:date": "2010", "source:population": "stats.gov.sa"}}]}