{"version": 0.6, "generator": "Overpass API 0.7.62.4 2390de5a", "osm3s": {"timestamp_osm_base": "2025-01-08T06:21:22Z", "copyright": "The data included in this document is from www.openstreetmap.org. The data is made available under ODbL."}, "elements": [{"type": "node", "id": 263261532, "lat": 13.5752242, "lon": 44.0215268, "tags": {"GNS:dsg_code": "PPLA", "GNS:dsg_name": "captial of a first-order administrative division", "GNS:id": "-3192362", "alt_name": "Taiz", "capital": "4", "int_name": "Ta\u2018izz", "name": "\u062a\u0639\u0632", "name:ar": "\u062a\u0639\u0632", "name:cs": "Taiz", "name:de": "Taizz", "name:en": "Ta'izz", "name:et": "Ta\u2018izz", "name:eu": "Ta'izz", "name:fr": "Ta\u00ebz", "name:he": "\u05ea\u05e2\u05d6", "name:it": "Ta'izz", "name:ko": "\ud0c0\uc774\uc988", "name:lt": "Taizas", "name:ml": "\u0d24\u0d2f\u0d40\u0d38\u0d4d", "name:ru": "\u0422\u0430\u0438\u0437", "name:zh": "\u5854\u4f0a\u8332", "place": "city", "population": "458933", "population:date": "2004-12-17", "source:name": "GNS", "source:population": "YCSO2004:15-(17-19)", "wikidata": "Q466216", "wikipedia": "en:Taiz"}}, {"type": "node", "id": 1223278394, "lat": 13.389099, "lon": 43.9722703, "tags": {"GNS:dsg_code": "PPLA2", "GNS:dsg_name": "captial of a second-order administrative division", "GNS:id": "255592", "alt_name": "Najd an Nashamah; \u0646\u062c\u062f \u0627\u0644\u0646\u0634\u0645\u0629", "int_name": "Al Nashmah", "mountain_pass": "yes", "name": "\u0627\u0644\u0646\u0634\u0645\u0629", "name:ar": "\u0627\u0644\u0646\u0634\u0645\u0629", "name:de": "Al Nashmah", "name:en": "Al Nashmah", "name:fr": "Al Nashmah", "place": "town", "population": "1289", "population:date": "2004-12-17", "source:name": "GNS", "source:population": "YCSO2004:15-21-24-1"}}, {"type": "node", "id": 1226207887, "lat": 13.212704, "lon": 44.124148, "tags": {"GNS:dsg_code": "PPLA2", "GNS:dsg_name": "captial of a second-order administrative division", "GNS:id": "-3184863", "int_name": "At Turbah", "name": "\u0627\u0644\u062a\u0631\u0628\u0629", "name:ar": "\u0627\u0644\u062a\u0631\u0628\u0629", "name:de": "At Turbah", "name:en": "At Turbah", "name:fa": "\u0627\u0644\u062a\u0631\u0628\u0647", "name:fr": "At Turbah", "name:nn": "At Turbah", "name:ru": "\u042d\u0442-\u0422\u0443\u0440\u0431\u0430", "place": "town", "population": "10241", "population:date": "2004-12-17", "source:name": "GNS", "source:population": "YCSO2004:15-14-31-1", "wikidata": "Q12184911", "wikipedia": "ar:\u0627\u0644\u062a\u0631\u0628\u0629 (\u0645\u062f\u064a\u0646\u0629)", "wikipedia:en": "At Turbah"}}, {"type": "node", "id": 1226297189, "lat": 13.582945, "lon": 44.347678, "tags": {"GNS:dsg_code": "PPLA2", "GNS:dsg_name": "captial of a second-order administrative division", "GNS:id": "-3189781", "alt_name": "Mawiah; Mawiya; Mavia; M\u0101w\u012bah", "capital": "6", "int_name": "M\u0101wiyah", "name": "\u0645\u0627\u0648\u064a\u0629", "name:ar": "\u0645\u0627\u0648\u064a\u0629", "name:de": "Mawiyah", "name:en": "Mawiyah", "name:fr": "Mawiyah", "place": "town", "population": "2985", "population:date": "2004-12-17", "source:name": "GNS", "source:population": "YCSO2004:15-1-29-1"}}, {"type": "node", "id": 1226327886, "lat": 13.3779325, "lon": 44.3016659, "tags": {"GNS:dsg_code": "PPL", "GNS:dsg_name": "populated place", "GNS:id": "-3184339", "alt_name": "Rahida; Er Rahida; At Rahde; Ar Rahidah; Ar R\u0101\u1e29idah", "int_name": "Ar R\u0101hidah", "name": "\u0627\u0644\u0631\u0627\u0647\u062f\u0629", "name:ar": "\u0627\u0644\u0631\u0627\u0647\u062f\u0629", "name:de": "Ar Rahidah", "name:en": "Ar Rahidah", "name:fr": "Ar Rahidah", "place": "town", "population": "12177", "population:date": "2004-12-17", "source:name": "GNS", "source:population": "YCSO2004:15-12-22-2"}}, {"type": "node", "id": 1226331952, "lat": 13.3178854, "lon": 44.2721746, "tags": {"GNS:dsg_code": "PPLA2", "GNS:dsg_name": "captial of a second-order administrative division", "GNS:id": "-3187598", "alt_name": "Hefan; Hifan; H\u012bf\u0101n", "int_name": "\u1e28ayf\u0101n", "name": "\u062d\u064a\u0641\u0627\u0646", "name:ar": "\u062d\u064a\u0641\u0627\u0646", "name:de": "Hayfan", "name:en": "Hayfan", "name:fr": "Hayfan", "place": "town", "population": "1641", "population:date": "2004-12-17", "source:name": "GNS", "source:population": "YCSO2004:15-16-22-1"}}, {"type": "node", "id": 1226339462, "lat": 13.4533509, "lon": 44.1810772, "tags": {"GNS:dsg_code": "PPLA2", "GNS:dsg_name": "captial of a second-order administrative division", "GNS:id": "-3182149", "int_name": "Ad Dimnah", "name": "\u0627\u0644\u062f\u0645\u0646\u0629", "name:ar": "\u0627\u0644\u062f\u0645\u0646\u0629", "name:de": "Ad Dimnah", "name:en": "Ad Dimnah", "name:fr": "Ad Dimnah", "place": "town", "population": "9875", "population:date": "2004-12-17", "source:name": "GNS", "source:population": "YCSO2004:15-12-21-1"}}, {"type": "node", "id": 1226344324, "lat": 13.4616583, "lon": 44.0207109, "tags": {"GNS:dsg_code": "PPLA2", "GNS:dsg_name": "captial of a second-order administrative division", "GNS:id": "-3183715", "alt_name": "Al Misr\u0101\u1e29; Al Misrakh; Al Misr\u0101k\u1e29; Al Misrah", "int_name": "Al Misr\u0101kh", "name": "\u0627\u0644\u0645\u0633\u0631\u0627\u062e", "name:ar": "\u0627\u0644\u0645\u0633\u0631\u0627\u062e", "name:de": "Al Misrakh", "name:en": "Al Misrakh", "name:fr": "Al Misrakh", "place": "town", "population": "3076", "population:date": "2004-12-17", "source:name": "GNS", "source:population": "YCSO2004:15-11-24-1"}}, {"type": "node", "id": 1226350426, "lat": 13.4530705, "lon": 43.9472107, "tags": {"GNS:dsg_code": "PPLA2", "GNS:dsg_name": "captial of a second-order administrative division", "GNS:id": "-3193059", "alt_name": "Yifrus; Yafrus", "int_name": "Yufrus", "name": "\u064a\u0641\u0631\u0633", "name:ar": "\u064a\u0641\u0631\u0633", "name:de": "Yufrus", "name:en": "Yufrus", "name:fr": "Yufrus", "place": "town", "population": "2084", "population:date": "2004-12-17", "source:name": "GNS", "source:population": "YCSO2004:15-8-21-1"}}, {"type": "node", "id": 7294965403, "lat": 13.212217, "lon": 44.095299, "tags": {"GNS:dsg_code": "PPL", "GNS:dsg_name": "populated place", "GNS:id": "14805982", "int_name": "\u1e28\u012bb A\u015f\u0101bi\u1e29", "name": "\u062d\u064a\u0628 \u0623\u0635\u0627\u0628\u062d", "name:ar": "\u062d\u064a\u0628 \u0623\u0635\u0627\u0628\u062d", "name:en": "Hib Asabih", "place": "town", "population": "20452", "population:date": "2004-12-17", "source:name": "GNS", "source:population": "YCSO2004:15-14-51-106"}}]}