{"version": 0.6, "generator": "Overpass API 0.7.62.4 2390de5a", "osm3s": {"timestamp_osm_base": "2025-01-08T07:02:18Z", "copyright": "The data included in this document is from www.openstreetmap.org. The data is made available under ODbL."}, "elements": [{"type": "node", "id": 264507153, "lat": 34.4254103, "lon": 5.0644342, "tags": {"capital": "4", "name": "Ouled Djellal", "name:ar": "\u0623\u0648\u0644\u0627\u062f \u062c\u0644\u0627\u0644", "name:az-Arab": "\u0627\u0648\u0644\u0627\u062f \u062c\u0644\u0627\u0644", "name:azb": "\u0627\u0648\u0644\u0627\u062f \u062c\u0644\u0627\u0644", "name:ber": "\u2d61\u2d4d\u2d3b\u2d37 \u2d35\u2d3b\u2d4d\u2d30\u2d4d", "name:de": "Ouled Djellal", "name:en": "Ouled Djellal", "name:es": "Ulad Yelal", "name:fa": "\u0627\u0648\u0644\u0627\u062f \u062c\u0644\u0627\u0644", "name:fr": "Ouled Djellal", "name:kab": "Wled \u011eellal", "name:ru": "\u0423\u043b\u0435\u0434-\u0414\u0436\u0435\u043b\u043b\u0430\u043b", "name:zh": "\u5965\u62c9\u5fb7\u6770\u62c9\u52d2", "place": "city", "population": "63237", "wikidata": "Q4118338", "wikipedia": "ar:\u0623\u0648\u0644\u0627\u062f \u062c\u0644\u0627\u0644", "wikipedia:ar": "\u0623\u0648\u0644\u0627\u062f \u062c\u0644\u0627\u0644"}}, {"type": "node", "id": 1514750533, "lat": 34.5975449, "lon": 5.1029298, "tags": {"alt_name:ar": "\u062f\u0648\u0633\u0627\u0646", "name": "Doucen", "name:ar": "\u0627\u0644\u062f\u0648\u0633\u0646", "name:azb": "\u062f\u0648\u0633\u0646", "name:ber": "\u2d37\u2d53\u2d59\u2d30\u2d4f", "name:en": "Doucen", "name:fa": "\u062f\u0648\u0633\u0646", "name:fr": "Doucen", "name:kab": "Ddusen", "name:kab-Arab": "\u062f\u0648\u0633\u0646", "place": "town", "population": "26455", "wikidata": "Q3037852", "wikipedia": "ar:\u0627\u0644\u062f\u0648\u0633\u0646"}}, {"type": "node", "id": 1514750562, "lat": 34.3915907, "lon": 5.0005177, "tags": {"name": "Sidi Khaled", "name:ar": "\u0633\u064a\u062f\u064a \u062e\u0627\u0644\u062f", "name:azb": "\u0633\u06cc\u062f\u06cc \u062e\u0627\u0644\u062f", "name:ber": "\u2d59\u2d49\u2d38\u2d49 \u2d45\u2d30\u2d4d\u2d3b\u2d37", "name:de": "Sidi Khaled", "name:en": "Sidi Khaled", "name:es": "Sidi J\u00e1led", "name:fa": "\u0633\u06cc\u062f\u06cc \u062e\u0627\u0644\u062f", "name:fr": "Sidi Khaled", "name:kab": "Si\u1e0di Xaled", "name:ks": "\u0633\u06cc\u062f\u06cc \u062e\u0627\u0644\u062f", "name:ota": "\u0633\u06cc\u062f\u06cc \u062e\u0627\u0644\u062f", "name:ru": "\u0421\u0438\u0434\u0438 \u0445\u0430\u043b\u0435\u0434", "name:ur": "\u0633\u06cc\u062f\u06cc \u062e\u0627\u0644\u062f", "place": "town", "population": "43315", "wikidata": "Q2215511", "wikipedia": "ar:\u0633\u064a\u062f\u064a \u062e\u0627\u0644\u062f (\u0648\u0644\u0627\u064a\u0629 \u0628\u0633\u0643\u0631\u0629)"}}]}