{"version": 0.6, "generator": "Overpass API 0.7.62.4 2390de5a", "osm3s": {"timestamp_osm_base": "2025-01-08T06:29:44Z", "copyright": "The data included in this document is from www.openstreetmap.org. The data is made available under ODbL."}, "elements": [{"type": "node", "id": 564377442, "lat": 33.8477069, "lon": 35.9024955, "tags": {"alt_name": "Zahlah;Zahle;Zahleh;Zahl\u00e9;Zakhla;Za\u1e29lah;\u0417\u0430\u0445\u043b\u0430;\u05d6\u05d7\u05dc;,\u0632\u062d\u0644\u0629;Zahl\u00e9", "alt_name:uk": "\u0417\u0430\u0445\u043b\u0435", "capital": "3", "name": "\u0632\u062d\u0644\u0629", "name:ar": "\u0632\u062d\u0644\u0629", "name:cs": "Zahl\u00e9", "name:de": "Zahl\u00e9", "name:en": "Zahle", "name:es": "Zahl\u00e9", "name:fr": "Zahl\u00e9", "name:he": "\u05d6\u05d7\u05dc\u05d4", "name:lt": "Zahl\u0117", "name:ml": "\u0d38\u0d39\u0d4d\u0d32\u0d46", "name:ru": "\u0417\u0430\u0445\u043b\u0430", "name:uk": "\u0417\u0430\u0445\u043b\u0430", "place": "city", "wikidata": "Q26569", "wikipedia": "en:Zahl\u00e9"}}, {"type": "node", "id": 4947219586, "lat": 33.9536929, "lon": 35.676679, "tags": {"alt_name": "Balloune", "name": "\u0628\u0644\u0648\u0646\u0629", "name:ar": "\u0628\u0644\u0648\u0646\u0629", "name:en": "Ballouneh", "name:fr": "Ballouneh", "name:ml": "\u0d2c\u0d32\u0d4d\u0d32\u0d42\u0d28\u0d47", "place": "town", "wikidata": "Q2401388", "wikimedia_commons": "Category:Ballouneh", "wikipedia": "en:Ballouneh"}}, {"type": "node", "id": 5018242049, "lat": 33.8120286, "lon": 35.8553364, "tags": {"alt_name": "Chtaura", "alt_name:ar": "\u0634\u062a\u0648\u0631\u0629", "name": "\u0634\u062a\u0648\u0631\u0627", "name:ar": "\u0634\u062a\u0648\u0631\u0627", "name:en": "Chtoura", "name:fr": "Chtoura", "name:he": "\u05e9\u05ea\u05d5\u05e8\u05d0", "name:ml": "\u0d37\u0d4d\u0d24\u0d4b\u0d31", "place": "town", "population": "1370", "postal_code": "1802", "wikidata": "Q1153466", "wikimedia_commons": "Category:Chtaura", "wikipedia": "ar:\u0634\u062a\u0648\u0631\u0627"}}, {"type": "node", "id": 5037241110, "lat": 33.9480415, "lon": 36.0322487, "tags": {"alt_name:ar": "\u0643\u0641\u0631\u062f\u0628\u0634", "alt_name:en": "Kfar Dabach", "name": "\u0643\u0641\u0631 \u062f\u0628\u0634", "name:ar": "\u0643\u0641\u0631 \u062f\u0628\u0634", "name:en": "Kfar Dabash", "name:fr": "Kfar Dabach", "name:ml": "\u0d15\u0d2b\u0d7c\u0d26\u0d2c\u0d37\u0d4d", "place": "town", "wikidata": "Q12235678", "wikipedia": "ar:\u0643\u0641\u0631\u062f\u0628\u0634"}}, {"type": "node", "id": 5037448063, "lat": 33.8269773, "lon": 35.7359048, "tags": {"name": "\u062d\u0645\u0627\u0646\u0627", "name:ar": "\u062d\u0645\u0627\u0646\u0627", "name:de": "Hammana", "name:en": "Hammana", "name:es": "Hammana", "name:fr": "Hammana", "name:ml": "\u0d39\u0d2e\u0d3e\u0d28", "place": "town", "wikidata": "Q3114122", "wikimedia_commons": "Category:Hammana", "wikipedia": "ar:\u062d\u0645\u0627\u0646\u0627"}}, {"type": "node", "id": 5226873761, "lat": 33.5632423, "lon": 35.72039, "tags": {"alt_name": "Qaraun;El Qaraaoun", "name": "\u0642\u0631\u0639\u0648\u0646", "name:ar": "\u0642\u0631\u0639\u0648\u0646", "name:de": "Qaraoun", "name:en": "Qaraoun", "name:fr": "Qaraoun", "name:he": "\u05e7\u05e8\u05e2\u05d5\u05df", "name:ml": "\u0d16\u0d31\u0d0a\u0d7b", "place": "town", "population": "7000", "wikipedia": "en:Qaraoun"}}, {"type": "node", "id": 5226877350, "lat": 33.5880555, "lon": 35.7478055, "tags": {"name": "\u0628\u0639\u0644\u0648\u0644", "name:ar": "\u0628\u0639\u0644\u0648\u0644", "name:de": "Baaloul", "name:en": "Baaloul", "name:fr": "Baaloul", "place": "town", "wikipedia": "en:Baaloul"}}, {"type": "node", "id": 5247625030, "lat": 33.798492, "lon": 35.8256221, "tags": {"alt_name:ar": "\u0642\u0628 \u0627\u0644\u064a\u0627\u0633", "alt_name:en": "Kab Elias;Qab Elias;Qob Elias;Qabb Elias", "name": "\u0642\u0628 \u0625\u0644\u064a\u0627\u0633", "name:ar": "\u0642\u0628 \u0625\u0644\u064a\u0627\u0633", "name:de": "Qabb Ilyas", "name:en": "Qabb Ilyas", "name:fr": "Kab Elias", "name:ml": "\u0d16\u0d2c\u0d4d \u0d0f\u0d32\u0d3f\u0d2f\u0d3e\u0d38\u0d4d", "place": "town", "wikidata": "Q61770646", "wikimedia_commons": "Category:Kabelias", "wikipedia": "ar:\u0642\u0628 \u0625\u0644\u064a\u0627\u0633"}}, {"type": "node", "id": 5322872469, "lat": 33.7743538, "lon": 35.9043906, "tags": {"alt_name": "\u0628\u0631 \u0627\u0644\u064a\u0627\u0633", "alt_name:ar": "\u0628\u0631 \u0627\u0644\u064a\u0627\u0633", "alt_name:en": "Barr Elias", "name": "\u0628\u0631 \u0625\u0644\u064a\u0627\u0633", "name:ar": "\u0628\u0631 \u0625\u0644\u064a\u0627\u0633", "name:de": "Bar Elias", "name:en": "Bar Elias", "name:fr": "Bar Elias", "name:ml": "\u0d2c\u0d7c \u0d0f\u0d32\u0d3f\u0d2f\u0d3e\u0d38\u0d4d", "place": "town", "wikidata": "Q808065", "wikipedia": "ar:\u0628\u0631 \u0627\u0644\u064a\u0627\u0633"}}, {"type": "node", "id": 5522106653, "lat": 33.6262457, "lon": 35.7839988, "tags": {"alt_name": "Joubb Jannine;Jeb Jennine", "capital": "4", "name": "\u062c\u0628 \u062c\u0646\u064a\u0646", "name:ar": "\u062c\u0628 \u062c\u0646\u064a\u0646", "name:de": "Joub Jannine", "name:en": "Joub Jannine", "name:fr": "Joub Jannine", "name:he": "\u05d2'\u05d5\u05d1 \u05d2'\u05e0\u05d9\u05df", "name:ml": "\u0d1c\u0d42\u0d2c\u0d4d \u0d1c\u0d28\u0d40\u0d7b", "place": "town", "population": "120000", "wikidata": "Q25912", "wikipedia": "en:Joub Jannine"}}, {"type": "node", "id": 5774000075, "lat": 33.9303973, "lon": 35.7445191, "tags": {"name": "\u0628\u062a\u063a\u0631\u064a\u0646", "name:ar": "\u0628\u062a\u063a\u0631\u064a\u0646", "name:en": "Bteghrine", "name:fr": "Bteghrine", "place": "town", "wikidata": "Q730507", "wikimedia_commons": "Category:Bteghrine", "wikipedia": "en:Bteghrine"}}, {"type": "node", "id": 6125607812, "lat": 33.8030684, "lon": 35.6594457, "tags": {"name": "\u0628\u062d\u0645\u062f\u0648\u0646", "name:ar": "\u0628\u062d\u0645\u062f\u0648\u0646", "name:en": "Bhamdoun", "name:fr": "Bhamdoun", "name:he": "\u05d1\u05d7\u05de\u05d3\u05d5\u05df", "name:ml": "\u0d2c\u0d39\u0d02\u0d26\u0d42\u0d7b", "place": "town", "wikidata": "Q2900650", "wikimedia_commons": "Category:Bhamdoun", "wikipedia": "ar:\u0628\u062d\u0645\u062f\u0648\u0646"}}, {"type": "node", "id": 7033666396, "lat": 33.8193839, "lon": 35.8813124, "tags": {"alt_name": "\u0633\u0639\u062f\u0646\u0627\u064a\u0644", "alt_name:ar": "\u0633\u0639\u062f\u0646\u0627\u064a\u0644", "name": "\u0633\u0639\u062f \u0646\u0627\u064a\u0644", "name:ar": "\u0633\u0639\u062f \u0646\u0627\u064a\u0644", "name:de": "Saadnayel", "name:en": "Saadnayel", "name:fr": "Saadnayel", "name:ml": "\u0d38\u0d3e\u0d26\u0d4d\u200c\u0d28\u0d3e\u0d2f\u0d3f\u0d7d", "place": "town", "wikidata": "Q3460427", "wikimedia_commons": "Category:Saadnayel", "wikipedia": "ar:\u0633\u0639\u062f\u0646\u0627\u064a\u0644"}}, {"type": "node", "id": 7352216883, "lat": 33.7282212, "lon": 35.9314084, "tags": {"name": "\u0639\u0646\u062c\u0631", "name:ar": "\u0639\u0646\u062c\u0631", "name:en": "Anjar", "name:fr": "Anjar", "name:he": "\u05e2\u05e0\u05d2'\u05e8", "name:ml": "\u0d05\u0d1e\u0d4d\u0d1c\u0d7c", "place": "town"}}, {"type": "node", "id": 8121397339, "lat": 33.9104884, "lon": 35.7119179, "tags": {"alt_name": "Dhour Shweir;Dhour El Shweir", "name": "\u0636\u0647\u0648\u0631 \u0627\u0644\u0634\u0648\u064a\u0631", "name:ar": "\u0636\u0647\u0648\u0631 \u0627\u0644\u0634\u0648\u064a\u0631", "name:en": "Dhour El Choueir", "name:fr": "Dhour El Choueir", "name:ml": "\u0d26\u0d41\u0d39\u0d42\u0d7c \u0d05\u0d7d-\u0d37\u0d4d\u0d35\u0d48\u0d7c", "place": "town", "wikidata": "Q2737478", "wikimedia_commons": "Category:Dhour El Choueir", "wikipedia": "ar:\u0636\u0647\u0648\u0631 \u0627\u0644\u0634\u0648\u064a\u0631"}}, {"type": "node", "id": 9137610208, "lat": 33.8093551, "lon": 35.6566429, "tags": {"name": "\u0628\u062d\u0645\u062f\u0648\u0646 \u0627\u0644\u0645\u062d\u0637\u0629", "name:ar": "\u0628\u062d\u0645\u062f\u0648\u0646 \u0627\u0644\u0645\u062d\u0637\u0629", "name:en": "Bhamdoun Al Mahatta", "name:fr": "Bhamdo\u00fbn al Mahatta", "name:ml": "\u0d2c\u0d39\u0d02\u0d26\u0d42\u0d7b \u0d05\u0d7d \u0d2e\u0d39\u0d24\u0d4d\u0d24", "place": "town"}}]}