{"version": 0.6, "generator": "Overpass API 0.7.62.4 2390de5a", "osm3s": {"timestamp_osm_base": "2025-01-08T06:29:44Z", "copyright": "The data included in this document is from www.openstreetmap.org. The data is made available under ODbL."}, "elements": [{"type": "node", "id": 567054475, "lat": 32.6855556, "lon": 36.3491667, "tags": {"name": "\u0627\u0644\u0643\u0631\u0643", "name:ar": "\u0627\u0644\u0643\u0631\u0643", "name:de": "al-Karak", "name:en": "Al-Karak", "name:fr": "Al-Karak", "name:he": "\u05d0\u05dc-\u05db\u05e8\u05db", "name:ja": "\u30a2\u30eb\u30a0\u30ab\u30e9\u30af", "name:ko": "\uc54c\uce74\ub77c\ud06c", "name:ru": "\u0410\u043b\u044c-\u041a\u0430\u0440\u0430\u043a", "place": "town", "population": "10510", "population:date": "2004", "source:population": "\u0627\u0644\u0645\u0643\u062a\u0628 \u0627\u0644\u0645\u0631\u0643\u0632\u064a \u0644\u0644\u0625\u062d\u0635\u0627\u0621"}}, {"type": "node", "id": 567054602, "lat": 32.6579311, "lon": 36.4338668, "tags": {"name": "\u0623\u0645 \u0648\u0644\u062f", "name:ar": "\u0623\u0645 \u0648\u0644\u062f", "name:de": "Umm Walad", "name:en": "Umm Walad", "name:fr": "Oum Oualad", "name:he": "\u05d0\u05d5\u05dd \u05d5\u05d5\u05dc\u05d3", "name:ja": "\u30a6\u30c3\u30e0\u30fb\u30ef\u30e9\u30c9\u30a5", "name:ko": "\uc6c0\uc648\ub77c\ub4dc", "name:ru": "\u0423\u043c\u043c-\u0412\u0430\u043b\u0430\u0434", "place": "town", "population": "7547", "population:date": "2004", "source:population": "\u0627\u0644\u0645\u0643\u062a\u0628 \u0627\u0644\u0645\u0631\u0643\u0632\u064a \u0644\u0644\u0625\u062d\u0635\u0627\u0621"}}, {"type": "node", "id": 567054854, "lat": 32.7093878, "lon": 36.5687496, "tags": {"alt_name:grc": "\u0394\u03b9\u03bf\u03bd\u1fe1\u03c3\u03b9\u03ac\u03c2", "name": "\u0627\u0644\u0633\u0648\u064a\u062f\u0627\u0621", "name:ar": "\u0627\u0644\u0633\u0648\u064a\u062f\u0627\u0621", "name:cs": "Suvajda", "name:de": "as-Suweida", "name:en": "As-Suweida", "name:es": "As-Suwayda", "name:et": "As-Suwayd\u0101\u2019", "name:eu": "As-Suwayda", "name:fr": "Soue\u00efda", "name:grc": "\u03a3\u03bf\u03c5\u03ac\u03b4\u03b1", "name:he": "\u05d0-\u05e1\u05d5\u05d9\u05d3\u05d0", "name:hr": "Suvajda", "name:hu": "Szuvajd\u00e1", "name:ja": "\u30b9\u30ef\u30a4\u30c0\u30fc", "name:ko": "\uc218\uc640\uc774\ub2e4", "name:ku": "Suweyda", "name:lt": "Suveida", "name:ml": "\u0d38\u0d41\u0d35\u0d48\u0d26", "name:pl": "As-Suwajda", "name:ru": "\u0410\u0441-\u0421\u0443\u0432\u0435\u0439\u0434\u0430", "name:tr": "S\u00fcveyda", "name:uk": "\u0410\u0441-\u0421\u0443\u0432\u0435\u0439\u0434\u0430", "name:ur": "\u0627\u0644\u0633\u0648\u06cc\u062f\u0627\u0621", "name:zh": "\u82cf\u97e6\u8fbe", "place": "city", "population": "73641", "population:date": "2004", "source:population": "\u0627\u0644\u0645\u0643\u062a\u0628 \u0627\u0644\u0645\u0631\u0643\u0632\u064a \u0644\u0644\u0625\u062d\u0635\u0627\u0621", "wikidata": "Q311099", "wikipedia": "fr:Soue\u00efda"}}, {"type": "node", "id": 567054864, "lat": 32.6786464, "lon": 36.601591, "tags": {"name": "\u0627\u0644\u0631\u062d\u0649", "name:ar": "\u0627\u0644\u0631\u062d\u0649", "name:de": "ar-Raha", "name:en": "Ar-Raha", "name:fr": "Ar-Raha", "name:he": "\u05d0-\u05e8\u05d7\u05d0", "name:ja": "\u30a2\u30c3\u30a0\u30e9\u30cf", "name:ko": "\uc544\ub77c\ud558", "name:ru": "\u0410\u0440-\u0420\u0430\u0445\u0430", "place": "town", "population": "5711", "population:date": "2004", "source:population": "\u0627\u0644\u0645\u0643\u062a\u0628 \u0627\u0644\u0645\u0631\u0643\u0632\u064a \u0644\u0644\u0625\u062d\u0635\u0627\u0621"}}, {"type": "node", "id": 567055100, "lat": 32.6166667, "lon": 36.5333333, "tags": {"name": "\u0639\u0631\u0649", "name:ar": "\u0639\u0631\u0649", "name:de": "Ura", "name:en": "Ura", "name:fr": "Oura", "name:he": "\u05e2\u05e8\u05d0", "name:ja": "\u30a6\u30e9", "name:ko": "\uc6b0\ub77c", "name:ml": "\u0d09\u0d31", "name:ru": "\u0423\u0440\u0430", "place": "town", "population": "6136", "population:date": "2004", "source:population": "\u0627\u0644\u0645\u0643\u062a\u0628 \u0627\u0644\u0645\u0631\u0643\u0632\u064a \u0644\u0644\u0625\u062d\u0635\u0627\u0621"}}, {"type": "node", "id": 573510534, "lat": 32.5694306, "lon": 36.3149866, "tags": {"name": "\u0627\u0644\u062c\u064a\u0632\u0629", "name:ar": "\u0627\u0644\u062c\u064a\u0632\u0629", "name:de": "al-Dschisa", "name:en": "Al-Jiza", "name:fr": "Al-Djiza", "name:he": "\u05d0\u05dc-\u05d2\u05f3\u05d9\u05d6\u05d4", "name:ja": "\u30a2\u30eb\u30a0\u30b8\u30fc\u30b6", "name:ko": "\uc54c\uc9c0\uc790", "name:ml": "\u0d05\u0d7d-\u0d1c\u0d40\u0d38", "name:ru": "\u0410\u043b\u044c-\u0414\u0436\u0438\u0437\u0430", "place": "town", "population": "14700", "population:date": "2004", "source:population": "\u0627\u0644\u0645\u0643\u062a\u0628 \u0627\u0644\u0645\u0631\u0643\u0632\u064a \u0644\u0644\u0625\u062d\u0635\u0627\u0621"}}, {"type": "node", "id": 573510767, "lat": 32.5191381, "lon": 36.4805732, "tags": {"alt_name": "\u0628\u0635\u0631\u0649 \u0627\u0644\u0634\u0627\u0645", "alt_name:ar": "\u0628\u0635\u0631\u0649 \u0627\u0644\u0634\u0627\u0645", "alt_name:de": "Busra asch-Scham", "alt_name:en": "Busra ash-Sham", "alt_name:fr": "Busra ach-Cham", "alt_name:he": "\u05d1\u05d5\u05e1\u05e8\u05d4 \u05d0-\u05e9\u05d0\u05dd", "alt_name:ja": "\u30d6\u30b9\u30e9\u30fb\u30a2\u30c3\u30a0\u30b7\u30e3\u30fc\u30e0", "alt_name:ko": "\ubd80\uc2a4\ub77c\uc544\uc0e4\ubbc0", "alt_name:ru": "\u0411\u0443\u0441\u0440\u0430-\u0430\u0448-\u0428\u0430\u043c", "int_name": "Bosra;Bosra Eski Sham;Bosra ech Cham;Bosra ech Ch\u00e2m;Bostra;Busra;Busra Sham;Busrah ash Sham;Bu\u015frah ash Sh\u0101m;bsry;\u0411\u043e\u0441\u0440\u0430;\u0628\u0635\u0631\u0649;Bu\u015fr\u00e1 ash Sh\u0101m;Bostra", "is_in": "Syria, Daraa, \u0627\u0644\u062c\u0645\u0647\u0648\u0631\u064a\u0629 \u0627\u0644\u0639\u0631\u0628\u064a\u0629 \u0627\u0644\u0633\u0648\u0631\u064a\u0629 \u060c \u062f\u0631\u0639\u0627", "name": "\u0628\u0635\u0631\u0649", "name:ar": "\u0628\u0635\u0631\u0649", "name:de": "Busra", "name:el": "\u039c\u03c0\u03cc\u03c3\u03c1\u03b1", "name:en": "Busra", "name:fr": "Bosra", "name:he": "\u05d1\u05d5\u05e1\u05e8\u05d4", "name:hi": "\u092c\u0941\u0938\u0930\u093e \u0905\u0932 \u0936\u093e\u092e", "name:hy": "\u0532\u0578\u057d\u0580\u0561", "name:it": "Bosra", "name:ja": "\u30d6\u30b9\u30e9", "name:ko": "\ubd80\uc2a4\ub77c", "name:la": "Nova Trajana Bostra", "name:lt": "Bosra", "name:ml": "\u0d2c\u0d4a\u0d38\u0d4d\u0d30", "name:nl": "Bosra", "name:pl": "Bosra", "name:ru": "\u0411\u0443\u0441\u0440\u0430", "name:uk": "\u0411\u043e\u0441\u0440\u0430", "name:zh": "\u5e03\u65af\u62c9", "place": "town", "population": "19683", "population:date": "2004", "source:population": "\u0627\u0644\u0645\u0643\u062a\u0628 \u0627\u0644\u0645\u0631\u0643\u0632\u064a \u0644\u0644\u0625\u062d\u0635\u0627\u0621", "wikidata": "Q272680", "wikipedia": "en:Bosra"}}, {"type": "node", "id": 573510931, "lat": 32.6780352, "lon": 36.260532, "tags": {"name": "\u0627\u0644\u063a\u0627\u0631\u064a\u0629 \u0627\u0644\u0634\u0631\u0642\u064a\u0629", "name:ar": "\u0627\u0644\u063a\u0627\u0631\u064a\u0629 \u0627\u0644\u0634\u0631\u0642\u064a\u0629", "name:de": "al-Garija asch-Scharkija", "name:en": "Al-Ghariya ash-Sharqiya", "name:fr": "Al-Gharia ach-Charqia", "name:he": "\u05d0\u05dc-\u05e2\u05f3\u05d0\u05e8\u05d9\u05d4 \u05d0-\u05e9\u05e8\u05e7\u05d9\u05d4", "name:ja": "\u30a2\u30eb\u30a0\u30ac\u30fc\u30ea\u30e4\u30fb\u30a2\u30c3\u30a0\u30b7\u30e3\u30eb\u30ad\u30e4", "name:ko": "\uc54c\uac00\ub9ac\uc57c\uc544\uc0e4\ub974\ud0a4\uc57c", "name:ru": "\u0410\u043b\u044c-\u0413\u0430\u0440\u0438\u0301\u0439\u044f-\u0430\u0448-\u0428\u0430\u0440\u043a\u0438\u0301\u0439\u044f", "place": "town", "population": "11945", "population:date": "2004", "source:population": "\u0627\u0644\u0645\u0643\u062a\u0628 \u0627\u0644\u0645\u0631\u0643\u0632\u064a \u0644\u0644\u0625\u062d\u0635\u0627\u0621"}}, {"type": "node", "id": 573511023, "lat": 32.551721, "lon": 36.184405, "tags": {"name": "\u0646\u0635\u064a\u0628", "name:ar": "\u0646\u0635\u064a\u0628", "name:de": "Nasib", "name:en": "Nasib", "name:fr": "Nasib", "name:he": "\u05e0\u05e1\u05d9\u05d1", "name:ja": "\u30ca\u30b9\u30a3\u30fc\u30d6", "name:ko": "\ub098\uc2dc\ube0c", "name:ru": "\u041d\u0430\u0441\u0438\u0431", "place": "town", "population": "5780", "population:date": "2004", "source:population": "\u0627\u0644\u0645\u0643\u062a\u0628 \u0627\u0644\u0645\u0631\u0643\u0632\u064a \u0644\u0644\u0625\u062d\u0635\u0627\u0621"}}, {"type": "node", "id": 573511070, "lat": 32.562895, "lon": 36.2461623, "tags": {"name": "\u0627\u0644\u0637\u064a\u0628\u0629", "name:ar": "\u0627\u0644\u0637\u064a\u0628\u0629", "name:de": "at-Tiba", "name:en": "At-Tiba", "name:fr": "At-Tiba", "name:he": "\u05d0-\u05d8\u05d9\u05d1\u05d4", "name:ja": "\u30a2\u30c3\u30a0\u30c6\u30a3\u30fc\u30d0", "name:ko": "\uc54b\ub760\ubc14", "name:ml": "\u0d05\u0d24\u0d4d\u0d24\u0d40\u0d2c", "name:ru": "\u0410\u0442-\u0422\u0438\u0431\u0430", "place": "town", "population": "7969", "population:date": "2004", "source:population": "\u0627\u0644\u0645\u0643\u062a\u0628 \u0627\u0644\u0645\u0631\u0643\u0632\u064a \u0644\u0644\u0625\u062d\u0635\u0627\u0621"}}, {"type": "node", "id": 573511200, "lat": 32.5440531, "lon": 36.5976629, "tags": {"name": "\u0627\u0644\u0642\u0631\u064a\u0627", "name:ar": "\u0627\u0644\u0642\u0631\u064a\u0627", "name:de": "al-Kurja", "name:en": "Al-Qurya", "name:fr": "Al-Qoria", "name:he": "\u05d0\u05dc-\u05e7\u05e8\u05d9\u05d0", "name:ja": "\u30a2\u30eb\u30a0\u30af\u30ea\u30e3", "name:ko": "\uc54c\ucfe0\ub7b4", "name:ml": "\u0d05\u0d7d-\u0d16\u0d41\u0d31\u0d2f\u0d4d\u0d2f", "name:ru": "\u0410\u043b\u044c-\u041a\u0443\u0440\u044c\u044f", "place": "town", "population": "6789", "population:date": "2004", "source:population": "\u0627\u0644\u0645\u0643\u062a\u0628 \u0627\u0644\u0645\u0631\u0643\u0632\u064a \u0644\u0644\u0625\u062d\u0635\u0627\u0621", "wikidata": "Q4703108", "wikipedia": "ar:\u0627\u0644\u0642\u0631\u064a\u0627"}}, {"type": "node", "id": 573511213, "lat": 32.6289018, "lon": 36.2233337, "tags": {"name": "\u0635\u064a\u062f\u0627", "name:ar": "\u0635\u064a\u062f\u0627", "name:de": "Saida", "name:en": "Saida", "name:fr": "Sa\u00efda", "name:he": "\u05e1\u05d9\u05d3\u05d0", "name:ja": "\u30b5\u30a4\u30c0\u30fc", "name:ko": "\uc0ac\uc774\ub2e4", "name:ml": "\u0d38\u0d48\u0d26", "name:ru": "\u0421\u0430\u0439\u0434\u0430", "place": "town", "population": "11215", "population:date": "2004", "source:population": "\u0627\u0644\u0645\u0643\u062a\u0628 \u0627\u0644\u0645\u0631\u0643\u0632\u064a \u0644\u0644\u0625\u062d\u0635\u0627\u0621"}}, {"type": "node", "id": 573511988, "lat": 32.5450181, "lon": 36.4251752, "tags": {"name": "\u0645\u0639\u0631\u0628\u0629", "name:ar": "\u0645\u0639\u0631\u0628\u0629", "name:de": "Maarabe", "name:en": "Ma'rabe", "name:fr": "Marab\u00e9", "name:he": "\u05de\u05e2\u05e8\u05d1\u05d4", "name:ja": "\u30de\u30fc\u30e9\u30d9", "name:ko": "\ub9c8\ub77c\ubca0", "name:ru": "\u041c\u0430\u0440\u0430\u0431\u0435", "place": "town", "population": "8988", "population:date": "2004", "source:population": "\u0627\u0644\u0645\u0643\u062a\u0628 \u0627\u0644\u0645\u0631\u0643\u0632\u064a \u0644\u0644\u0625\u062d\u0635\u0627\u0621"}}, {"type": "node", "id": 573512188, "lat": 32.6880199, "lon": 36.2258244, "tags": {"name": "\u0627\u0644\u063a\u0627\u0631\u064a\u0629 \u0627\u0644\u063a\u0631\u064a\u0628\u0629", "name:ar": "\u0627\u0644\u063a\u0627\u0631\u064a\u0629 \u0627\u0644\u063a\u0631\u064a\u0628\u0629", "name:de": "al-Garija al-Garbija", "name:en": "Al-Ghariya al-Gharbiya", "name:fr": "Al-Gharia al-Gharbia", "name:he": "\u05d0\u05dc-\u05e2\u05f3\u05d0\u05e8\u05d9\u05d4 \u05d0\u05dc-\u05e2\u05f3\u05e8\u05d9\u05d1\u05d4", "name:ja": "\u30a2\u30eb\u30a0\u30ac\u30fc\u30ea\u30e4\u30fb\u30a2\u30eb\u30a0\u30ac\u30eb\u30d3\u30e4", "name:ko": "\uc54c\uac00\ub9ac\uc57c\uc54c\uac00\ub974\ube44\uc57c", "name:ru": "\u0410\u043b\u044c-\u0413\u0430\u0440\u0438\u0301\u0439\u044f-\u0430\u043b-\u0413\u0430\u0440\u0431\u0438\u0301\u0439\u044f", "place": "town", "population": "9784", "population:date": "2004", "source:population": "\u0627\u0644\u0645\u0643\u062a\u0628 \u0627\u0644\u0645\u0631\u0643\u0632\u064a \u0644\u0644\u0625\u062d\u0635\u0627\u0621"}}, {"type": "node", "id": 573514005, "lat": 32.6664138, "lon": 36.1147901, "tags": {"name": "\u0639\u062a\u0645\u0627\u0646", "name:ar": "\u0639\u062a\u0645\u0627\u0646", "name:de": "Atman", "name:en": "Atman", "name:fr": "Atmane", "name:he": "\u05e2\u05ea\u05de\u05d0\u05df", "name:ja": "\u30a2\u30c8\u30de\u30fc\u30f3", "name:ko": "\uc544\ud2b8\ub9cc", "name:ru": "\u0410\u0442\u043c\u0430\u043d", "place": "town", "population": "8929", "population:date": "2004", "source:population": "\u0627\u0644\u0645\u0643\u062a\u0628 \u0627\u0644\u0645\u0631\u0643\u0632\u064a \u0644\u0644\u0625\u062d\u0635\u0627\u0621"}}, {"type": "node", "id": 573515240, "lat": 32.6330753, "lon": 36.1593956, "tags": {"name": "\u0627\u0644\u0646\u0639\u064a\u0645\u0629", "name:ar": "\u0627\u0644\u0646\u0639\u064a\u0645\u0629", "name:de": "an-Naima", "name:en": "An-Naima", "name:fr": "An-Na\u00efma", "name:he": "\u05d0-\u05e0\u05e2\u05d9\u05de\u05d4", "name:ja": "\u30a2\u30c3\u30a0\u30cd\u30a2\u30a4\u30de", "name:ko": "\uc548\ub124\uc544\uc774\ub9c8", "name:ru": "\u0410\u043d-\u041d\u0430\u044c\u0438\u043c\u0430", "place": "town", "population": "7472", "population:date": "2004", "source:population": "\u0627\u0644\u0645\u0643\u062a\u0628 \u0627\u0644\u0645\u0631\u0643\u0632\u064a \u0644\u0644\u0625\u062d\u0635\u0627\u0621"}}, {"type": "node", "id": 573516235, "lat": 32.6227776, "lon": 36.1067639, "tags": {"name": "\u062f\u0631\u0639\u0627", "name:ar": "\u062f\u0631\u0639\u0627", "name:arc": "\u0715\u072a\u0725\u0710", "name:az": "D\u0259ra", "name:ckb": "\u062f\u06d5\u0631\u0639\u0627", "name:cs": "Dar'\u00e1", "name:de": "Daraa", "name:el": "\u039d\u03c4\u03b1\u03c1\u03ac\u03b1", "name:en": "Dar'a", "name:es": "Daraa", "name:et": "Dar\u02bf\u0101", "name:fr": "Deraa", "name:grc": "\u1f08\u03b4\u03c1\u03ac\u03b1", "name:he": "\u05d3\u05e8\u05e2\u05d0", "name:hr": "Dara", "name:hu": "Dara", "name:hy": "\u0534\u0561\u057c\u0561\u0561", "name:ja": "\u30c0\u30eb\u30a2\u30fc", "name:ko": "\ub2e4\ub77c\uc544", "name:ku": "Der\u2019a", "name:lt": "Dara", "name:ml": "\u0d26\u0d31\u0d3e", "name:nl": "Daraa", "name:pl": "Dara", "name:ru": "\u0414\u0430\u0440\u044a\u0430", "name:sr": "\u0414\u0430\u0440\u0430", "name:tr": "Dera", "name:uk": "\u0414\u0430\u0440\u0430", "name:zh": "\u5fb7\u62c9", "place": "city", "population": "97969", "population:date": "2004", "source:population": "\u0627\u0644\u0645\u0643\u062a\u0628 \u0627\u0644\u0645\u0631\u0643\u0632\u064a \u0644\u0644\u0625\u062d\u0635\u0627\u0621", "wikidata": "Q238217", "wikipedia": "ar:\u062f\u0631\u0639\u0627"}}, {"type": "node", "id": 798848878, "lat": 32.4290722, "lon": 36.3118687, "tags": {"int_name": "Umm as Surab; Um al Surab; Um al Sarab", "is_in": "Jordan, \u0627\u0644\u0623\u0631\u062f\u0646", "name": "\u0623\u0645 \u0627\u0644\u0633\u0631\u0628", "name:ar": "\u0623\u0645 \u0627\u0644\u0633\u0631\u0628", "name:de": "Um al Surab", "name:en": "Um al Surab", "name:fr": "Um al Surab", "place": "town"}}, {"type": "node", "id": 1216503297, "lat": 32.5017565, "lon": 36.1713454}, {"type": "node", "id": 1571696142, "lat": 32.5119331, "lon": 36.1920981}, {"type": "node", "id": 1571696147, "lat": 32.5145342, "lon": 36.1946193}, {"type": "node", "id": 1571696179, "lat": 32.5084054, "lon": 36.19139}, {"type": "node", "id": 1571696244, "lat": 32.51182, "lon": 36.1949627}, {"type": "node", "id": 1571696265, "lat": 32.5123855, "lon": 36.2016467}, {"type": "node", "id": 1571696301, "lat": 32.51595, "lon": 36.1983208}, {"type": "node", "id": 1571696322, "lat": 32.5108836, "lon": 36.1890511}, {"type": "node", "id": 1571696324, "lat": 32.5159455, "lon": 36.2000481}, {"type": "node", "id": 1571696364, "lat": 32.5082552, "lon": 36.1990825}, {"type": "node", "id": 1571696368, "lat": 32.5084416, "lon": 36.2026982}, {"type": "node", "id": 1571696399, "lat": 32.5086769, "lon": 36.1983208}, {"type": "node", "id": 1571696400, "lat": 32.5155158, "lon": 36.2009172}, {"type": "node", "id": 1571696480, "lat": 32.5142673, "lon": 36.201518}, {"type": "node", "id": 1571696482, "lat": 32.5096721, "lon": 36.2004022}, {"type": "node", "id": 1571696506, "lat": 32.5093464, "lon": 36.202784}, {"type": "node", "id": 1571696570, "lat": 32.5078807, "lon": 36.1957244}, {"type": "node", "id": 1571696579, "lat": 32.5065778, "lon": 36.198471}, {"type": "node", "id": 1571696595, "lat": 32.5058901, "lon": 36.1988143}, {"type": "node", "id": 1571696621, "lat": 32.5149503, "lon": 36.1972801}, {"type": "node", "id": 1571696627, "lat": 32.5072292, "lon": 36.1921839}, {"type": "node", "id": 1571696634, "lat": 32.5059625, "lon": 36.1956171}, {"type": "node", "id": 1571696649, "lat": 32.5114626, "lon": 36.2015824}, {"type": "node", "id": 1571696680, "lat": 32.5131997, "lon": 36.1941795}, {"type": "node", "id": 1571696716, "lat": 32.5115169, "lon": 36.2007455}, {"type": "node", "id": 1571696795, "lat": 32.5081702, "lon": 36.188815}, {"type": "node", "id": 1571696828, "lat": 32.5065959, "lon": 36.2002091}, {"type": "node", "id": 1571696832, "lat": 32.5057815, "lon": 36.1936859}, {"type": "node", "id": 1571696860, "lat": 32.5151675, "lon": 36.1979667}, {"type": "node", "id": 1571696949, "lat": 32.5130007, "lon": 36.1945657}, {"type": "node", "id": 1571696984, "lat": 32.5112998, "lon": 36.1903171}, {"type": "node", "id": 1571697090, "lat": 32.5131816, "lon": 36.2010459}, {"type": "node", "id": 1571697105, "lat": 32.5085502, "lon": 36.2017326}, {"type": "node", "id": 1571697123, "lat": 32.5112952, "lon": 36.1919801}, {"type": "node", "id": 1571697135, "lat": 32.5068492, "lon": 36.1935572}, {"type": "node", "id": 2358802644, "lat": 32.5110588, "lon": 36.1960556, "tags": {"int_name": "Jaber", "name": "\u062c\u0627\u0628\u0631 \u0627\u0644\u0633\u0631\u062d\u0627\u0646", "name:en": "Jaber as-Sirhan", "name:fr": "Jaber as-Sirhan", "name:ml": "\u0d1c\u0d3e\u0d2c\u0d7c \u0d05\u0d38\u0d4d-\u0d38\u0d3f\u0d7c\u0d39\u0d3e\u0d7b", "name:nl": "Jaber as-Sirhan", "place": "town", "wikidata": "Q33772030"}}, {"type": "node", "id": 3774848267, "lat": 32.505904, "lon": 36.1715063}, {"type": "node", "id": 3885116196, "lat": 32.630404, "lon": 36.3390281, "tags": {"name": "\u0627\u0644\u0645\u0633\u064a\u0641\u0631\u0629", "name:ar": "\u0627\u0644\u0645\u0633\u064a\u0641\u0631\u0629", "name:de": "al-Meseifra", "name:en": "Al-Meseifra", "name:fr": "Al-Meseifra", "name:he": "\u05d0\u05dc-\u05de\u05e1\u05d9\u05e4\u05e8\u05d4", "name:ja": "\u30a2\u30eb\u30a0\u30e1\u30bb\u30fc\u30d5\u30e9", "name:ko": "\uc54c\uba54\uc138\uc774\ud504\ub77c", "name:ml": "\u0d05\u0d7d \u0d2e\u0d46\u0d38\u0d46\u0d2f\u0d4d\u0d2b\u0d4d\u0d30", "name:ru": "\u0410\u043b\u044c-\u041c\u0435\u0441\u0435\u0439\u0444\u0440\u0430", "place": "town", "population": "10466", "population:date": "2004", "source:population": "\u0627\u0644\u0645\u0643\u062a\u0628 \u0627\u0644\u0645\u0631\u0643\u0632\u064a \u0644\u0644\u0625\u062d\u0635\u0627\u0621"}}, {"type": "node", "id": 4859327651, "lat": 32.4825062, "lon": 36.2317622}, {"type": "node", "id": 4859327652, "lat": 32.4821804, "lon": 36.2309789}, {"type": "node", "id": 5861311387, "lat": 32.4666123, "lon": 36.2144244}, {"type": "node", "id": 5861311388, "lat": 32.4667934, "lon": 36.2164307}, {"type": "node", "id": 5861311389, "lat": 32.465517, "lon": 36.2161517}, {"type": "node", "id": 5861311390, "lat": 32.4654808, "lon": 36.2170637}, {"type": "node", "id": 5861311391, "lat": 32.4658791, "lon": 36.2182116}, {"type": "node", "id": 5861311392, "lat": 32.4656619, "lon": 36.2184477}, {"type": "node", "id": 5861311393, "lat": 32.4648472, "lon": 36.2170422}, {"type": "node", "id": 5861311394, "lat": 32.4644489, "lon": 36.2172568}, {"type": "node", "id": 5861311395, "lat": 32.4637428, "lon": 36.2183726}, {"type": "node", "id": 5861311396, "lat": 32.46377, "lon": 36.2211835}, {"type": "node", "id": 5861311397, "lat": 32.4634984, "lon": 36.2213981}, {"type": "node", "id": 5861311398, "lat": 32.4629824, "lon": 36.2196386}, {"type": "node", "id": 5861311399, "lat": 32.4629009, "lon": 36.2190378}, {"type": "node", "id": 5861311400, "lat": 32.4633264, "lon": 36.2185764}, {"type": "node", "id": 5861311401, "lat": 32.4626927, "lon": 36.2171602}, {"type": "node", "id": 5861311402, "lat": 32.4628557, "lon": 36.2160551}, {"type": "node", "id": 5861311403, "lat": 32.4634079, "lon": 36.2158084}, {"type": "node", "id": 5861311404, "lat": 32.463435, "lon": 36.2169778}, {"type": "node", "id": 5861311405, "lat": 32.4640777, "lon": 36.2170637}, {"type": "node", "id": 5861311406, "lat": 32.4648653, "lon": 36.2157333}, {"type": "node", "id": 5861311407, "lat": 32.4644217, "lon": 36.2152076}, {"type": "node", "id": 5861311408, "lat": 32.4648924, "lon": 36.2136304}, {"type": "node", "id": 5861311409, "lat": 32.4664313, "lon": 36.2132656}, {"type": "node", "id": 5861311478, "lat": 32.4754828, "lon": 36.1806929}, {"type": "node", "id": 5861311479, "lat": 32.491728, "lon": 36.1803603}, {"type": "node", "id": 5861311481, "lat": 32.4901603, "lon": 36.195804}, {"type": "node", "id": 5861311483, "lat": 32.4747044, "lon": 36.2049937}, {"type": "node", "id": 5861311487, "lat": 32.4732019, "lon": 36.2058735}, {"type": "node", "id": 5861311493, "lat": 32.4721519, "lon": 36.206528}, {"type": "node", "id": 5861311502, "lat": 32.4711201, "lon": 36.2071931}, {"type": "node", "id": 5861311503, "lat": 32.4698981, "lon": 36.2080514}, {"type": "node", "id": 5861311504, "lat": 32.4691197, "lon": 36.2083947}, {"type": "node", "id": 5861311505, "lat": 32.4682236, "lon": 36.2088561}, {"type": "node", "id": 5861311506, "lat": 32.4670106, "lon": 36.2096178}, {"type": "node", "id": 5861311507, "lat": 32.4667843, "lon": 36.2098539}, {"type": "node", "id": 5861311508, "lat": 32.4664403, "lon": 36.2099397}, {"type": "node", "id": 5861311509, "lat": 32.4657442, "lon": 36.2104268}, {"type": "node", "id": 5861311510, "lat": 32.4647838, "lon": 36.2108839}, {"type": "node", "id": 5861311511, "lat": 32.463779, "lon": 36.2110448}, {"type": "node", "id": 5861311512, "lat": 32.4625208, "lon": 36.2111307}, {"type": "node", "id": 5861311513, "lat": 32.4619143, "lon": 36.2115061}, {"type": "node", "id": 5861311514, "lat": 32.4612353, "lon": 36.2117636}, {"type": "node", "id": 5861311515, "lat": 32.460674, "lon": 36.2118602}, {"type": "node", "id": 5861311534, "lat": 32.4468588, "lon": 36.2149608}, {"type": "node", "id": 5861311542, "lat": 32.4458447, "lon": 36.1966467}, {"type": "node", "id": 5861311553, "lat": 32.442893, "lon": 36.1940288}, {"type": "node", "id": 5861311571, "lat": 32.4431556, "lon": 36.1889649}, {"type": "node", "id": 5861311572, "lat": 32.4434997, "lon": 36.1713159}, {"type": "node", "id": 5861311574, "lat": 32.451798, "lon": 36.172372}, {"type": "node", "id": 5861311575, "lat": 32.4537576, "lon": 36.1805427}, {"type": "node", "id": 5861311576, "lat": 32.4549798, "lon": 36.1805642}, {"type": "node", "id": 5861311618, "lat": 32.4706942, "lon": 36.1747479}, {"type": "node", "id": 5861311621, "lat": 32.4719855, "lon": 36.1769487}, {"type": "node", "id": 5928104803, "lat": 32.4610999, "lon": 36.1784629}, {"type": "node", "id": 6572272903, "lat": 32.447613, "lon": 36.1716485}, {"type": "node", "id": 6726766717, "lat": 32.4835469, "lon": 36.2352826}, {"type": "node", "id": 7024553017, "lat": 32.4661656, "lon": 36.2100918}, {"type": "node", "id": 7024553019, "lat": 32.463956, "lon": 36.1707791}, {"type": "node", "id": 7054558415, "lat": 32.4821284, "lon": 36.2325006}, {"type": "node", "id": 7054558416, "lat": 32.4858571, "lon": 36.2390883}, {"type": "node", "id": 7054558417, "lat": 32.4918842, "lon": 36.2417276}, {"type": "node", "id": 7054558418, "lat": 32.4953591, "lon": 36.2413843}, {"type": "node", "id": 7054558419, "lat": 32.4781197, "lon": 36.2705327}, {"type": "node", "id": 7054558420, "lat": 32.4607767, "lon": 36.2798454}, {"type": "node", "id": 7054558421, "lat": 32.4444806, "lon": 36.2662412}, {"type": "node", "id": 7054558422, "lat": 32.4444263, "lon": 36.2565702}, {"type": "node", "id": 7054558423, "lat": 32.4618087, "lon": 36.2232158}, {"type": "node", "id": 7054558424, "lat": 32.4679584, "lon": 36.2224768}, {"type": "node", "id": 7054558425, "lat": 32.4740072, "lon": 36.2189416}, {"type": "node", "id": 7054558426, "lat": 32.4832604, "lon": 36.2198898}, {"type": "node", "id": 7054558427, "lat": 32.4837672, "lon": 36.2284514}, {"type": "node", "id": 7054565342, "lat": 32.4614712, "lon": 36.2116741}, {"type": "node", "id": 7054837132, "lat": 32.526817, "lon": 36.2000959}, {"type": "node", "id": 7054837133, "lat": 32.5273959, "lon": 36.1968987}, {"type": "node", "id": 7054837137, "lat": 32.5182592, "lon": 36.1721365}, {"type": "node", "id": 7054837138, "lat": 32.5076738, "lon": 36.1725657}, {"type": "node", "id": 7054837139, "lat": 32.500761, "lon": 36.2035935}, {"type": "node", "id": 7054837140, "lat": 32.5016519, "lon": 36.2090008}, {"type": "node", "id": 7054842268, "lat": 32.4695306, "lon": 36.2427479, "tags": {"name": "\u0633\u0645\u0627 \u0627\u0644\u0633\u0631\u062d\u0627\u0646", "name:en": "Sama as-Sirhan", "name:fr": "Sama as-Sirhan", "name:ml": "\u0d38\u0d2e\u0d3e \u0d05\u0d38\u0d4d-\u0d38\u0d3f\u0d7c\u0d39\u0d3e\u0d7b", "name:nl": "Sama as-Sirhan", "name:uk": "\u0421\u0430\u043c\u0430 \u0430\u0441-\u0421\u0456\u0440\u0445\u0430\u043d", "place": "city", "wikidata": "Q33772113"}}, {"type": "node", "id": 11901820570, "lat": 32.5188976, "lon": 36.1763329}, {"type": "node", "id": 11901820571, "lat": 32.519639, "lon": 36.1816591}, {"type": "node", "id": 11901820572, "lat": 32.5226886, "lon": 36.190113}, {"type": "node", "id": 11901820577, "lat": 32.5296971, "lon": 36.1999903}, {"type": "node", "id": 11901820578, "lat": 32.5298545, "lon": 36.1999978}, {"type": "node", "id": 11901820579, "lat": 32.5293618, "lon": 36.2010864}, {"type": "node", "id": 11901820580, "lat": 32.5276486, "lon": 36.2047}, {"type": "node", "id": 11901820581, "lat": 32.5261132, "lon": 36.2055853}, {"type": "node", "id": 11901820582, "lat": 32.5217957, "lon": 36.2063111}, {"type": "node", "id": 11901820583, "lat": 32.5196415, "lon": 36.2066732}, {"type": "node", "id": 11901820584, "lat": 32.5142227, "lon": 36.2061174}, {"type": "node", "id": 11901820585, "lat": 32.5077389, "lon": 36.2054523}, {"type": "node", "id": 11901820586, "lat": 32.5058426, "lon": 36.2066198}, {"type": "node", "id": 11901820588, "lat": 32.5291503, "lon": 36.2015536}, {"type": "way", "id": 143615493, "nodes": [1571696301, 1571696324, 1571696400, 1571696480, 1571697090, 1571696265, 1571696649, 1571696716, 1571696482, 1571696506, 1571696368, 1571697105, 1571696828, 1571696595, 1571696579, 1571696364, 1571696399, 1571696570, 1571696634, 1571696832, 1571697135, 1571696627, 1571696179, 1571696795, 1571696322, 1571696984, 1571697123, 1571696142, 1571696244, 1571696949, 1571696680, 1571696147, 1571696621, 1571696860, 1571696301], "tags": {"name": "\u062c\u0627\u0628\u0631 \u0627\u0644\u0633\u0631\u062d\u0627\u0646", "name:en": "Jaber as-Sirhan", "name:fr": "Jaber as-Sirhan", "name:nl": "Jaber as-Sirhan", "place": "town"}}, {"type": "way", "id": 620376140, "nodes": [5861311409, 5861311408, 5861311407, 5861311406, 5861311405, 5861311404, 5861311403, 5861311402, 5861311401, 5861311400, 5861311399, 5861311398, 5861311397, 5861311396, 5861311395, 5861311394, 5861311393, 5861311392, 5861311391, 5861311390, 5861311389, 5861311388, 5861311387, 5861311409], "tags": {"name": "\u0632\u0645\u0644\u0629 \u0627\u0644\u0637\u0631\u0642\u064a", "name:fr": "Zamla Turqi", "place": "town"}}, {"type": "way", "id": 620376143, "nodes": [5861311621, 5861311618, 7024553019, 5928104803, 5861311576, 5861311575, 5861311574, 6572272903, 5861311572, 5861311571, 5861311553, 5861311542, 5861311534, 5861311515, 5861311514, 7054565342, 5861311513, 5861311512, 5861311511, 5861311510, 5861311509, 7024553017, 5861311508, 5861311507, 5861311506, 5861311505, 5861311504, 5861311503, 5861311502, 5861311493, 5861311487, 5861311483, 5861311481, 5861311479, 5861311478, 5861311621], "tags": {"ele": "600", "name": "\u0645\u063a\u064a\u0631 \u0627\u0644\u0633\u0631\u062d\u0627\u0646", "name:en": "Mgayer assrhan", "name:fr": "Mugayyir as-Sirhan", "name:uk": "\u041c\u0433\u0435\u0439\u0440 \u0430\u0441-\u0421\u0456\u0440\u0445\u0430\u043d", "place": "city", "source": "http://www.moi.gov.jo/Pages/viewpage.aspx?pageID=366&AspxAutoDetectCookieSupport=1", "website": "http://www.moi.gov.jo/Pages/viewpage.aspx?pageID=366&AspxAutoDetectCookieSupport=1"}}, {"type": "way", "id": 755192936, "nodes": [7054558415, 6726766717, 7054558416, 7054558417, 7054558418, 7054558419, 7054558420, 7054558421, 7054558422, 7054558423, 7054558424, 7054558425, 7054558426, 7054558427, 4859327652, 4859327651, 7054558415], "tags": {"name": "\u0633\u0645\u0627 \u0627\u0644\u0633\u0631\u062d\u0627\u0646", "name:en": "Sama as-Sirhan", "name:fr": "Sama as-Sirhan", "name:uk": "\u0421\u0430\u043c\u0430 \u0430\u0441-\u0421\u0456\u0440\u0445\u0430\u043d", "place": "city", "source": "\u0633\u0645\u0627 \u0627\u0644\u0633\u0631\u062d\u0627\u0646;aerial imagery"}}, {"type": "way", "id": 755223453, "nodes": [11901820577, 7054837132, 7054837133, 11901820572, 11901820571, 11901820570, 7054837137, 7054837138, 3774848267, 1216503297, 7054837139, 7054837140, 11901820586, 11901820585, 11901820584, 11901820583, 11901820582, 11901820581, 11901820580, 11901820588, 11901820579, 11901820578, 11901820577], "tags": {"name": "\u062c\u0627\u0628\u0631 \u0627\u0644\u0633\u0631\u062d\u0627\u0646", "name:en": "Jaber as-Sirhan", "name:fr": "Jaber as-Sirhan", "name:nl": "Jaber as-Sirhan", "place": "town"}}]}