{"version": 0.6, "generator": "Overpass API 0.7.62.4 2390de5a", "osm3s": {"timestamp_osm_base": "2025-01-08T06:22:27Z", "copyright": "The data included in this document is from www.openstreetmap.org. The data is made available under ODbL."}, "elements": [{"type": "node", "id": 1218092648, "lat": 16.9478316, "lon": 43.2750258, "tags": {"GNS:dsg_code": "PPL", "GNS:dsg_name": "populated place", "GNS:id": "-3183804", "alt_name": "\u0642\u0644\u0639\u0629 \u063a\u0645\u0627\u0631;Qalat Ghumar", "int_name": "Al Qal\u2018ah, Al Qalah", "name": "\u0627\u0644\u0642\u0644\u0639\u0629", "name:ar": "\u0627\u0644\u0642\u0644\u0639\u0629", "name:de": "Al Qalah", "name:en": "Al Qalah", "name:fr": "Al Qalah", "place": "town", "population": "803", "population:date": "2004-12-17", "source:name": "GNS", "source:population": "YCSO2004:22-5-21-1"}}, {"type": "node", "id": 1218094473, "lat": 16.9089526, "lon": 43.2622562, "tags": {"GNS:dsg_code": "PPLA2", "GNS:dsg_name": "captial of a second-order administrative division", "GNS:id": "-3778642", "alt_name": "\u0627\u0644\u0646\u0636\u064a\u0631", "int_name": "An Na\u1e11\u012br, An Nadir", "name": "\u0627\u0644\u0646\u0636\u064a\u0631", "name:ar": "\u0627\u0644\u0646\u0636\u064a\u0631", "name:de": "An Nadir", "name:en": "An Nadir", "name:fr": "An Nadir", "place": "town", "population": "7199", "population:date": "2004-12-17", "source:name": "GNS", "source:population": "YCSO2004:22-5-32-2"}}, {"type": "node", "id": 1218101570, "lat": 16.7684564, "lon": 43.2751217, "tags": {"GNS:dsg_code": "PPLA2", "GNS:dsg_name": "captial of a second-order administrative division", "GNS:id": "-3189434", "alt_name": "Mal\u0101hit; Malahit; Suq al Malahit; S\u016bq al Mal\u0101\u1e29\u012b\u0163", "int_name": "Al Mal\u0101\u1e29\u012b\u0163", "name": "\u0627\u0644\u0645\u0644\u0627\u062d\u064a\u0637", "name:ar": "\u0627\u0644\u0645\u0644\u0627\u062d\u064a\u0637", "name:de": "Al Malahit", "name:en": "Al Malahit", "name:fr": "Al Malahit", "place": "town", "source:name": "GNS"}}, {"type": "node", "id": 1237961156, "lat": 17.0395187, "lon": 43.0837091, "tags": {"GNS:dsg_code": "PPL", "GNS:dsg_name": "populated place", "GNS:id": "-3091366", "alt_name": "`Arda;\u2018Ard\u0101;Ardha", "capital": "6", "int_name": "Al \u2018\u0100ri\u1e11ah", "name": "\u0627\u0644\u0639\u0627\u0631\u0636\u0629", "name:ar": "\u0627\u0644\u0639\u0627\u0631\u0636\u0629", "name:de": "Al `Aridah", "name:en": "Al `Aridah", "name:fr": "Al Aridhah", "place": "town", "population": "6947", "population:date": "2010", "source:name": "GNS", "source:population": "stats.gov.sa", "wikidata": "Q65040818", "wikipedia": "ar:\u0645\u062d\u0627\u0641\u0638\u0629 \u0627\u0644\u0639\u0627\u0631\u0636\u0629"}}, {"type": "node", "id": 1237961271, "lat": 16.7890158, "lon": 43.2231329, "tags": {"GNS:dsg_code": "PPL", "GNS:dsg_name": "populated place", "GNS:id": "-3096647", "alt_name": "Al Khubah;Al Kh\u016bbah;Khauba;Kuba;K\u016bb\u0101;Kubah;K\u016bbah", "capital": "6", "int_name": "Al Khawbah", "name": "\u0627\u0644\u062e\u0648\u0628\u0629", "name:ar": "\u0627\u0644\u062e\u0648\u0628\u0629", "name:de": "Al Khawbah", "name:en": "Al Khawbah", "name:fr": "Al Khawbah", "place": "town", "source:name": "GNS", "wikidata": "Q4704234", "wikipedia": "ar:\u0627\u0644\u062e\u0648\u0628\u0629 (\u062c\u0627\u0632\u0627\u0646)"}}, {"type": "node", "id": 7699743951, "lat": 16.7106851, "lon": 42.9531097, "tags": {"capital": "6", "name": "\u0623\u062d\u062f \u0627\u0644\u0645\u0633\u0627\u0631\u062d\u0629", "name:ar": "\u0623\u062d\u062f \u0627\u0644\u0645\u0633\u0627\u0631\u062d\u0629", "name:en": "Ahad al Musarihah", "name:fr": "Ahad al Masarihah", "place": "town", "population": "25007", "population:date": "2010", "source:population": "stats.gov.sa"}}]}