{"version": 0.6, "generator": "Overpass API 0.7.62.4 2390de5a", "osm3s": {"timestamp_osm_base": "2025-01-08T07:32:50Z", "copyright": "The data included in this document is from www.openstreetmap.org. The data is made available under ODbL."}, "elements": [{"type": "node", "id": 1229050458, "lat": -12.2586544, "lon": 44.528851, "tags": {"name": "\u062f\u0648\u0645\u0648\u0646\u064a Domoni", "name:ar": "\u062f\u0648\u0645\u0648\u0646\u064a", "name:de": "Domoni", "name:en": "Domoni", "name:es": "Domoni", "name:fr": "Domoni", "place": "town", "wikidata": "Q2721251"}}, {"type": "node", "id": 2995360506, "lat": -12.2836247, "lon": 44.4101223, "tags": {"name": "Pomoni \u0628\u0648\u0645\u0648\u0646\u064a", "name:ar": "\u0628\u0648\u0645\u0648\u0646\u064a", "name:en": "Pomoni", "name:fr": "Pomoni", "name:hy": "\u054a\u0578\u0574\u0578\u0576\u056b", "name:id": "Pomni", "place": "town", "source": "http://www.fallingrain.com/world/CN/01/Pomoni.html; http://ddata.over-blog.com/0/42/32/75/Les-lois-sur-la-decentralisation-aux-Comores-2011.pdf", "wikidata": "Q7001204", "wikipedia": "fr:Pomoni"}}, {"type": "node", "id": 8518493559, "lat": -12.2974902, "lon": 44.4935533, "tags": {"name": "Adda-Dou\u00e9ni", "name:de": "Adda-Dou\u00e9ni", "name:en": "Adda-Dou\u00e9ni", "name:fa": "\u0627\u062f\u0627-\u062f\u0648\u0626\u0646\u06cc", "name:fr": "Adda-Dou\u00e9ni", "name:hr": "Adda Daou\u00e9ni", "name:hy": "\u0531\u0564\u0564\u0561-\u0534\u0578\u0582\u0565\u0576\u056b", "name:id": "Adda-Daou\u00e9ni", "name:ro": "Adda Daou\u00e9ni", "place": "town", "wikidata": "Q2824136", "wikipedia": "fr:Adda Daou\u00e9ni"}}]}