{"version": 0.6, "generator": "Overpass API 0.7.62.4 2390de5a", "osm3s": {"timestamp_osm_base": "2025-01-08T06:33:56Z", "copyright": "The data included in this document is from www.openstreetmap.org. The data is made available under ODbL."}, "elements": [{"type": "node", "id": 2488061017, "lat": 33.0367407, "lon": 40.2876459, "tags": {"alt_name": "\u0631\u0637\u0628\u0647; \u0631\u0637\u0628\u0629; \u0627\u0644\u0631\u0637\u0628\u0647", "capital": "6", "int_name": "Al Rutbah - \u0627\u0644\u0631\u0637\u0628\u0629", "name": "\u0627\u0644\u0631\u0637\u0628\u0629", "name:ar": "\u0627\u0644\u0631\u0637\u0628\u0629", "name:ckb": "\u0695\u0648\u062a\u0628\u06d5", "name:de": "Al Rutbah", "name:en": "Ar Rutbah", "name:es": "Ar Rutba", "name:fr": "Ar Routbah", "name:iraqi": "Rutbah", "name:ku": "Rutbe", "name:ml": "\u0d31\u0d41\u0d24\u0d4d\u0d2c", "name:ru": "\u042d\u0440-\u0420\u0443\u0442\u0431\u0430", "place": "city", "wikidata": "Q1029634", "wikipedia": "ar:\u0627\u0644\u0631\u0637\u0628\u0629"}}]}