{"version": 0.6, "generator": "Overpass API 0.7.62.4 2390de5a", "osm3s": {"timestamp_osm_base": "2025-01-08T07:17:42Z", "copyright": "The data included in this document is from www.openstreetmap.org. The data is made available under ODbL."}, "elements": [{"type": "node", "id": 345262906, "lat": 31.205279, "lon": -7.8613235, "tags": {"capital": "8", "int_name": "Ouka\u00efmeden", "name": "Ouka\u00efmeden \u2d53\u2d3d\u2d30\u2d62\u2d4e\u2d37\u2d30\u2d4f \u0623\u0648\u0643\u0627\u064a\u0645\u062f\u0646", "name:ar": "\u0623\u0648\u0643\u0627\u064a\u0645\u062f\u0646", "name:ber": "\u2d53\u2d3d\u2d30\u2d62\u2d4e\u2d37\u2d30\u2d4f", "name:en": "Ouka\u00efmeden", "name:fr": "Oukaimeden", "place": "town", "postal_code": "40273", "source": "rus100", "wikidata": "Q3090623", "wikimedia_commons": "Category:Oukaimeden", "wikipedia": "en:Ouka\u00efmeden"}}, {"type": "node", "id": 1139907528, "lat": 31.3672735, "lon": -7.9447676, "tags": {"capital": "5", "name": "Tahannaout \u2d5c\u2d30\u2d43\u2d4f\u2d30\u2d61\u2d5c \u062a\u062d\u0646\u0627\u0648\u062a", "name:ar": "\u062a\u062d\u0646\u0627\u0648\u062a", "name:ber": "\u2d5c\u2d30\u2d43\u2d4f\u2d30\u2d61\u2d5c", "name:en": "Tahannaout", "name:fr": "Tahannaout", "name:zgh": "\u2d5c\u2d30\u2d43\u2d4f\u2d30\u2d61\u2d5c", "place": "town", "wikidata": "Q2189469", "wikimedia_commons": "Category:Tahanaout", "wikipedia": "en:Tahannaout"}}, {"type": "node", "id": 1180883985, "lat": 31.495084, "lon": -8.098377, "tags": {"capital": "7", "name": "Tameslouht \u2d5c\u2d30\u2d4e\u2d5a\u2d4d\u2d53\u2d43\u2d5c \u062a\u0645\u0635\u0644\u0648\u062d\u062a", "name:ar": "\u062a\u0645\u0635\u0644\u0648\u062d\u062a", "name:ber": "\u2d5c\u2d30\u2d4e\u2d5a\u2d4d\u2d53\u2d43\u2d5c", "name:en": "Tameslouht", "name:fr": "Tameslouht", "place": "town", "wikidata": "Q3304306", "wikipedia": "en:Tameslouht"}}, {"type": "node", "id": 1180884012, "lat": 31.4149676, "lon": -8.0648667, "tags": {"place": "town"}}, {"type": "node", "id": 1180884233, "lat": 31.5099837, "lon": -8.0414285, "tags": {"place": "town"}}, {"type": "node", "id": 1180884628, "lat": 31.5365152, "lon": -8.029998, "tags": {"place": "town"}}, {"type": "node", "id": 1180884742, "lat": 31.4787533, "lon": -8.0726269, "tags": {"name": "Dar El ain", "place": "town"}}, {"type": "node", "id": 1246032657, "lat": 31.3625555, "lon": -8.1345662, "tags": {"place": "town"}}, {"type": "node", "id": 1442194976, "lat": 31.2858455, "lon": -7.9654578, "tags": {"capital": "8", "int_name": "Moulay Brahim", "name": "Moulay Brahim \u2d4e\u2d53\u2d4d\u2d30\u2d62 \u2d31\u2d55\u2d30\u2d40\u2d49\u2d4e \u0645\u0648\u0644\u0627\u064a \u0625\u0628\u0631\u0627\u0647\u064a\u0645", "name:ar": "\u0645\u0648\u0644\u0627\u064a \u0625\u0628\u0631\u0627\u0647\u064a\u0645", "name:ber": "\u2d4e\u2d53\u2d4d\u2d30\u2d62 \u2d31\u2d55\u2d30\u2d40\u2d49\u2d4e", "name:en": "Moulay Brahim", "name:fr": "Moulay Brahim", "name:zgh": "\u2d4e\u2d53\u2d4d\u2d30\u2d62 \u2d31\u2d55\u2d30\u2d40\u2d49\u2d4e", "place": "town", "postal_code": "42174", "wikidata": "Q3325542", "wikimedia_commons": "Category:Moulay Brahim", "wikipedia": "en:Moulay Brahim, Morocco"}}, {"type": "node", "id": 1544827304, "lat": 31.2496355, "lon": -7.980004, "tags": {"capital": "6", "ele": "1185", "int_name": "Asni \u2d30\u2d59\u2d4f\u2d49 \u0623\u0633\u0646\u064a", "name": "Asni \u2d30\u2d59\u2d4f\u2d49 \u0623\u0633\u0646\u064a", "name:ar": "\u0623\u0633\u0646\u064a", "name:ber": "\u2d30\u2d59\u2d4f\u2d49", "name:de": "Asni", "name:en": "Asni", "name:fr": "Asni", "name:zgh": "\u2d30\u2d59\u2d4f\u2d49", "place": "town", "postal_code": "42152", "wikidata": "Q512217", "wikimedia_commons": "Category:Asni", "wikipedia": "en:Asni"}}, {"type": "node", "id": 1808258244, "lat": 31.2171012, "lon": -8.2332754, "tags": {"capital": "6", "int_name": "Amizmiz", "name": "Amizmiz \u2d30\u2d4e\u2d65\u2d4e\u2d49\u2d65 \u0623\u0645\u0632\u0645\u064a\u0632", "name:ar": "\u0623\u0645\u0632\u0645\u064a\u0632", "name:ber": "\u2d30\u2d4e\u2d65\u2d4e\u2d49\u2d65", "name:en": "Amizmiz", "name:fr": "Amizmiz", "name:zgh": "\u2d30\u2d4e\u2d65\u2d4e\u2d49\u2d65", "place": "town", "postal_code": "42103", "wikidata": "Q2717813", "wikipedia": "en:Amizmiz"}}, {"type": "node", "id": 2212141485, "lat": 31.3585285, "lon": -8.1314308, "tags": {"capital": "8", "int_name": "Lalla Takarkoust", "name": "Lalla Takarkoust \u2d4d\u2d30\u2d4d\u2d4d\u2d30 \u2d5c\u2d30\u2d3d\u2d54\u2d3d\u2d53\u2d59\u2d5c \u0644\u0644\u0627 \u062a\u0643\u0631\u0643\u0648\u0633\u062a", "name:ar": "\u0644\u0644\u0627 \u062a\u0643\u0631\u0643\u0648\u0633\u062a", "name:ber": "\u2d4d\u2d30\u2d4d\u2d4d\u2d30 \u2d5c\u2d30\u2d3d\u2d54\u2d3d\u2d53\u2d59\u2d5c", "name:en": "Lalla Takarkoust", "name:fr": "Lalla Takarkoust", "place": "town", "postal_code": "42202", "wikidata": "Q1678519", "wikipedia": "en:Lalla Takerkoust"}}]}