{"version": 0.6, "generator": "Overpass API 0.7.62.4 2390de5a", "osm3s": {"timestamp_osm_base": "2025-01-08T07:17:42Z", "copyright": "The data included in this document is from www.openstreetmap.org. The data is made available under ODbL."}, "elements": [{"type": "node", "id": 1885869493, "lat": 33.422256, "lon": -7.8534097, "tags": {"alt_name:ar": "\u062d\u0640\u062f \u0627\u0644\u0640\u0633\u0640\u0648\u0627\u0644\u0640\u0645;\u0627\u0644\u0633\u0648\u0627\u0644\u0645", "capital": "6", "name": "Had Soualem \u2d43\u2d30\u2d37 \u2d59\u2d61\u2d30\u2d4d\u2d4e \u062d\u062f \u0627\u0644\u0633\u0648\u0627\u0644\u0645", "name:ar": "\u062d\u062f \u0627\u0644\u0633\u0648\u0627\u0644\u0645", "name:azb": "\u062d\u062f \u0627\u0644\u0633\u0648\u0627\u0644\u0645", "name:ber": "\u2d43\u2d30\u2d37 \u2d59\u2d61\u2d30\u2d4d\u2d4e", "name:en": "Had Soualem", "name:fa": "\u062d\u062f \u0627\u0644\u0633\u0648\u0627\u0644\u0645", "name:fr": "Had Soualem", "name:zgh": "\u2d43\u2d30\u2d37 \u2d59\u2d61\u2d30\u2d4d\u2d4e", "place": "town", "wikidata": "Q2413049", "wikimedia_commons": "Category:Soualem", "wikipedia": "ar:\u0627\u0644\u0633\u0648\u0627\u0644\u0645 (\u0645\u062f\u064a\u0646\u0629)", "wikipedia:ar": "\u0627\u0644\u0633\u0648\u0627\u0644\u0645 (\u0645\u062f\u064a\u0646\u0629)"}}, {"type": "node", "id": 1955924625, "lat": 33.471596, "lon": -7.956963, "tags": {"capital": "6", "name": "Sidi Rahal Chatai \u2d59\u2d49\u2d37\u2d49 \u2d55\u2d43\u2d43\u2d30\u2d4d \u0633\u064a\u062f\u064a \u0631\u062d\u0627\u0644", "name:ar": "\u0633\u064a\u062f\u064a \u0631\u062d\u0627\u0644", "name:ber": "\u2d59\u2d49\u2d37\u2d49 \u2d55\u2d43\u2d43\u2d30\u2d4d", "name:en": "Sidi Rahal Chatai", "name:fr": "Sidi Rahal Chatai", "name:zgh": "\u2d59\u2d49\u2d37\u2d49 \u2d55\u2d43\u2d43\u2d30\u2d4d", "place": "town", "postal_code": "26175", "wikidata": "Q17052225", "wikipedia": "en:Sidi Rahal Chatai"}}, {"type": "node", "id": 1955924632, "lat": 33.5215831, "lon": -7.8164369, "tags": {"capital": "6", "int_name": "Dar Bouazza", "name": "Dar Bouazza \u2d37\u2d30\u2d55 \u2d31\u2d53\u2d44\u2d63\u2d63\u2d30 \u062f\u0627\u0631 \u0628\u0648\u0639\u0632\u0629", "name:ar": "\u062f\u0627\u0631 \u0628\u0648\u0639\u0632\u0629", "name:ber": "\u2d37\u2d30\u2d55 \u2d31\u2d53\u2d44\u2d63\u2d63\u2d30", "name:en": "Dar Bouazza", "name:fr": "Dar Bouazza", "name:zgh": "\u2d37\u2d30\u2d55 \u2d31\u2d53\u2d44\u2d63\u2d63\u2d30", "place": "city"}}, {"type": "node", "id": 3978250084, "lat": 33.3976537, "lon": -7.9099814, "tags": {"capital": "8", "name": "Sahel Ouled-Harriz \u2d59\u2d30\u2d43\u2d4d \u2d61\u2d4d\u2d30\u2d37 \u2d43\u2d54\u2d49\u2d63 \u0633\u0627\u062d\u0644 \u0627\u0648\u0644\u0627\u062f \u062d\u0631\u064a\u0632", "name:ar": "\u0633\u0627\u062d\u0644 \u0627\u0648\u0644\u0627\u062f \u062d\u0631\u064a\u0632", "name:ber": "\u2d59\u2d30\u2d43\u2d4d \u2d61\u2d4d\u2d30\u2d37 \u2d43\u2d54\u2d49\u2d63", "name:en": "Sahel Ouled-Harriz", "name:fr": "Sahel Ouled-Harriz", "place": "town"}}]}