{"version": 0.6, "generator": "Overpass API 0.7.62.4 2390de5a", "osm3s": {"timestamp_osm_base": "2025-01-08T06:58:15Z", "copyright": "The data included in this document is from www.openstreetmap.org. The data is made available under ODbL."}, "elements": [{"type": "node", "id": 287585326, "lat": 33.3434014, "lon": 10.4910703, "tags": {"addr:city": "\u0645\u062f\u0646\u064a\u0646", "name": "\u0645\u062f\u0646\u064a\u0646", "name:ar": "\u0645\u062f\u0646\u064a\u0646", "name:de": "Medenine", "name:en": "Medenine", "name:es": "M\u00e9denine", "name:fa": "\u0645\u062f\u0646\u06cc\u0646", "name:fr": "M\u00e9denine", "name:it": "Medenina", "name:ja": "\u30e1\u30c9\u30cb\u30f3", "name:kab": "Mednin", "name:ks": "\u0645\u062f\u0646\u06cc\u0646", "name:pt": "M\u00e9denine", "name:ru": "\u041c\u0435\u0434\u0435\u043d\u0438\u043d", "name:tr": "Medenin", "name:ur": "\u0645\u062f\u0646\u06cc\u0646", "name:zh": "\u6885\u5fb7\u5be7", "place": "town", "population": "71406", "population:date": "2014", "postal_code": "4100", "wikidata": "Q846653", "wikipedia": "ar:\u0645\u062f\u0646\u064a\u0646"}}, {"type": "node", "id": 297764755, "lat": 33.7248466, "lon": 10.7485015, "tags": {"addr:city": "\u0623\u062c\u064a\u0645", "addr:postcode": "4135", "alt_name": "\u0622\u062c\u064a\u0645", "alt_name:ar": "\u0622\u062c\u064a\u0645", "name": "\u0623\u062c\u064a\u0645", "name:ar": "\u0623\u062c\u064a\u0645", "name:azb": "\u0627\u062c\u06cc\u0645", "name:de": "Adschim", "name:en": "Ajim", "name:es": "Adjim", "name:fa": "\u0627\u062c\u06cc\u0645", "name:fr": "Adjim", "name:it": "Adjim", "name:ru": "\u0410\u0434\u0436\u0438\u043c", "place": "town", "population": "13950", "wikidata": "Q979167", "wikipedia": "en:Ajim"}}, {"type": "node", "id": 352839775, "lat": 33.617159, "lon": 10.2882317, "tags": {"addr:postcode": "6080", "name": "\u0645\u0627\u0631\u062b", "name:ar": "\u0645\u0627\u0631\u062b", "name:de": "Mareth", "name:en": "Mareth", "name:fr": "Mareth", "name:ru": "\u041c\u0430\u0440\u0435\u0442", "place": "town", "wikidata": "Q3105874", "wikipedia": "ar:\u0645\u0627\u0631\u062b", "wikipedia:ar": "\u0645\u0627\u0631\u062b"}}, {"type": "node", "id": 2844579781, "lat": 33.5393404, "lon": 10.6741918, "tags": {"addr:city": "\u0628\u0648\u063a\u0631\u0627\u0631\u0629", "name": "\u0628\u0648\u063a\u0631\u0627\u0631\u0629", "name:ar": "\u0628\u0648\u063a\u0631\u0627\u0631\u0629", "name:en": "Boughrara", "name:fr": "Boughrara", "place": "town", "wikidata": "Q50213083", "wikipedia": "ar:\u0628\u0648\u063a\u0631\u0627\u0631\u0629"}}, {"type": "node", "id": 3143761492, "lat": 33.5063363, "lon": 10.479706, "tags": {"addr:city": "\u0633\u064a\u062f\u064a \u0645\u062e\u0644\u0648\u0641", "name": "\u0633\u064a\u062f\u064a \u0645\u062e\u0644\u0648\u0641", "name:ar": "\u0633\u064a\u062f\u064a \u0645\u062e\u0644\u0648\u0641", "name:en": "Sidi Makhlouf", "name:fr": "Sidi Makhlouf", "place": "town", "population": "3070", "postal_code": "4191", "wikidata": "Q11949717", "wikipedia": "ar:\u0633\u064a\u062f\u064a \u0645\u062e\u0644\u0648\u0641 (\u062a\u0648\u0646\u0633)"}}]}