{"version": 0.6, "generator": "Overpass API 0.7.62.4 2390de5a", "osm3s": {"timestamp_osm_base": "2025-01-08T06:59:15Z", "copyright": "The data included in this document is from www.openstreetmap.org. The data is made available under ODbL."}, "elements": [{"type": "node", "id": 287622372, "lat": 36.1784491, "lon": 8.707347, "tags": {"name": "\u0627\u0644\u0643\u0627\u0641", "name:ar": "\u0627\u0644\u0643\u0627\u0641", "name:azb": "\u0627\u0644\u06a9\u0627\u0641", "name:de": "Al-Kaf", "name:en": "Al-Kaf", "name:fa": "\u0627\u0644\u06a9\u0627\u0641", "name:fr": "Le Kef", "name:kab": "Lkaf", "name:ks": "\u0627\u0644\u06a9\u0627\u0641", "name:ru": "\u042d\u043b\u044c-\u041a\u0435\u0444", "name:ur": "\u0627\u0644\u06a9\u0627\u0641", "place": "city", "population": "73710", "wikidata": "Q27155", "wikipedia": "ar:\u0627\u0644\u0643\u0627\u0641"}}, {"type": "node", "id": 3430536430, "lat": 36.3050927, "lon": 8.7713168, "tags": {"addr:city": "\u0646\u0628\u0631", "name": "\u0646\u0628\u0631", "name:ar": "\u0646\u0628\u0631", "name:de": "Nibbar", "name:en": "Nibbar", "name:fa": "\u0646\u0628\u0631", "name:fr": "Nebeur", "name:ru": "\u041d\u0438\u0431\u0431\u0430\u0440", "name:ur": "\u0646\u0628\u0631", "place": "town", "population": "3435", "source:population": "INS TN 2004", "wikidata": "Q3117290", "wikipedia": "ar:\u0646\u0628\u0631 (\u062a\u0648\u0646\u0633)"}}]}