{"version": 0.6, "generator": "Overpass API 0.7.62.4 2390de5a", "osm3s": {"timestamp_osm_base": "2025-01-08T06:25:40Z", "copyright": "The data included in this document is from www.openstreetmap.org. The data is made available under ODbL."}, "elements": [{"type": "node", "id": 1716920986, "lat": 22.16, "lon": 59.24, "tags": {"alt_name": "\u0627\u0644\u0648\u0627\u0641\u064a", "int_name": "Al W\u0101f\u012b, Al Wafi", "is_in": "Oman , \u0639\u064f\u0645\u0627\u0646", "name": "\u0627\u0644\u0648\u0627\u0641\u064a", "name:ar": "\u0627\u0644\u0648\u0627\u0641\u064a", "name:ar1": "\u0627\u0644\u0648\u0627\u0641\u064a", "name:de": "Al Wafi", "name:en": "Al Wafi", "name:fr": "Al Wafi", "name:ml": "\u0d05\u0d7d-\u0d35\u0d3e\u0d2b\u0d3f", "place": "city"}}, {"type": "node", "id": 1716922081, "lat": 22.0146572, "lon": 59.3270359, "tags": {"name": "\u062c\u0639\u0644\u0627\u0646 \u0628\u0646\u064a \u0628\u0648 \u0639\u0644\u064a", "name:ar": "\u062c\u0639\u0644\u0627\u0646 \u0628\u0646\u064a \u0628\u0648 \u0639\u0644\u064a", "name:en": "Ja'alan Bani Bu Ali", "name:ml": "\u0d1c\u0d05\u0d32\u0d7b \u0d2c\u0d28\u0d3f \u0d2c\u0d41 \u0d05\u0d32\u0d3f", "place": "city", "wikidata": "Q26200614", "wikipedia": "ar:\u062c\u0639\u0644\u0627\u0646 \u0628\u0646\u064a \u0628\u0648 \u0639\u0644\u064a (\u062c\u0639\u0644\u0627\u0646 \u0628\u0646\u064a \u0628\u0648 \u0639\u0644\u064a)"}}, {"type": "node", "id": 1716922099, "lat": 22.08, "lon": 59.29, "tags": {"alt_name": "\u0628\u0644\u0627\u062f \u0628\u0646\u064a \u0628\u0648 \u062d\u0633\u0646", "is_in": "Oman , \u0639\u064f\u0645\u0627\u0646", "name": "\u062c\u0639\u0644\u0627\u0646 \u0628\u0646\u064a \u0628\u0648 \u062d\u0633\u0646", "name:en": "Jalan Bani Bu Hassan", "name:ml": "\u0d1c\u0d05\u0d32\u0d7b \u0d2c\u0d28\u0d3f \u0d2c\u0d41 \u0d39\u0d38\u0d4d\u0d38\u0d7b", "place": "city", "population": "44593", "population:date": "2020", "wikipedia": "en: Jalan Bani Bu Hassan Province"}}, {"type": "node", "id": 1720980771, "lat": 22.22, "lon": 59.2, "tags": {"alt_name": "\u0627\u0644\u0643\u0627\u0645\u0644", "int_name": "Al K\u0101mil, Al Kamil", "is_in": "Oman , \u0639\u064f\u0645\u0627\u0646", "name": "\u0627\u0644\u0643\u0627\u0645\u0644", "name:ar": "\u0627\u0644\u0643\u0627\u0645\u0644", "name:de": "Al Kamil", "name:en": "Al Kamil", "name:fr": "Al Kamil", "name:ml": "\u0d05\u0d7d-\u0d15\u0d3e\u0d2e\u0d3f\u0d7d", "place": "city"}}, {"type": "node", "id": 1721771743, "lat": 22.0062375, "lon": 59.3321216, "tags": {"alt_name": "\u0628\u0644\u0627\u062f \u0628\u0646\u064a \u0628\u0648 \u0639\u0644\u064a", "int_name": "Balad Bani Bu Ali, Bil\u0101d Ban\u012b B\u016b Al\u012b, Balad Bani Bu Ali, Bilad Bani Bu Ali", "is_in": "Oman , \u0639\u064f\u0645\u0627\u0646", "name": "\u0628\u0644\u0627\u062f \u0628\u0646\u064a \u0628\u0648 \u0639\u0644\u064a", "name:ar": "\u0628\u0644\u0627\u062f \u0628\u0646\u064a \u0628\u0648 \u0639\u0644\u064a", "name:ar1": "\u0628\u0644\u0627\u062f \u0628\u0646\u064a \u0628\u0648 \u0639\u0644\u064a", "name:de": "Balad Bani Bu Ali", "name:en": "Balad Bani Bu Ali", "name:fr": "Balad Bani Bu Ali", "place": "town"}}, {"type": "node", "id": 5872461605, "lat": 22.0047197, "lon": 59.3355391, "tags": {"name": "\u0627\u0644\u0641\u0644\u064a\u062c", "name:ar": "\u0627\u0644\u0641\u0644\u064a\u062c", "place": "town"}}, {"type": "node", "id": 11709394317, "lat": 22.1354296, "lon": 59.1732313, "tags": {"name": "Fulayj al Mashayikh", "place": "town"}}]}