{"version": 0.6, "generator": "Overpass API 0.7.62.4 2390de5a", "osm3s": {"timestamp_osm_base": "2025-01-08T06:56:05Z", "copyright": "The data included in this document is from www.openstreetmap.org. The data is made available under ODbL."}, "elements": [{"type": "node", "id": 1169748259, "lat": 32.8497149, "lon": 12.0576736, "tags": {"name": "\u0627\u0644\u062c\u0645\u064a\u0644", "name:ar": "\u0627\u0644\u062c\u0645\u064a\u0644", "name:en": "Al Jamil", "name:fr": "Al Jamil", "name:it": "Al Jamil", "name:pl": "Al-D\u017cumajl", "place": "town", "population": "23797", "wikidata": "Q3495154", "wikipedia": "ar:\u0627\u0644\u062c\u0645\u064a\u0644 (\u0644\u064a\u0628\u064a\u0627)"}}, {"type": "node", "id": 1169748265, "lat": 32.8863864, "lon": 11.9870728, "tags": {"name": "\u0631\u0642\u062f\u0627\u0644\u064a\u0646", "name:ar": "\u0631\u0642\u062f\u0627\u0644\u064a\u0646", "name:en": "Riqdalin", "name:fr": "Regdaline", "name:it": "Regdalin", "place": "city", "wikidata": "Q24038765", "wikipedia": "ar:\u0631\u0642\u062f\u0627\u0644\u064a\u0646"}}, {"type": "node", "id": 1264730570, "lat": 32.8280514, "lon": 11.6271918, "tags": {"name": "\u0627\u0644\u0639\u0633\u0629", "name:ar": "\u0627\u0644\u0639\u0633\u0629", "name:en": "Al Assa", "name:fr": "Al Assa", "place": "town", "wikipedia": "ar:\u0627\u0644\u0639\u0633\u0629"}}, {"type": "node", "id": 3199617384, "lat": 32.8223231, "lon": 11.6150948}, {"type": "node", "id": 3199617385, "lat": 32.8206822, "lon": 11.619558}, {"type": "node", "id": 3199617386, "lat": 32.819492, "lon": 11.6231629}, {"type": "node", "id": 3199617387, "lat": 32.8204838, "lon": 11.6322824}, {"type": "node", "id": 3199617388, "lat": 32.8189871, "lon": 11.6412302}, {"type": "node", "id": 3199617389, "lat": 32.8186445, "lon": 11.6468092}, {"type": "node", "id": 3199617390, "lat": 32.8231886, "lon": 11.6526028}, {"type": "node", "id": 3199617391, "lat": 32.835756, "lon": 11.6567871}, {"type": "node", "id": 3199617392, "lat": 32.8370541, "lon": 11.6575166}, {"type": "node", "id": 3199617393, "lat": 32.8404074, "lon": 11.6591045}, {"type": "node", "id": 3199617394, "lat": 32.8467893, "lon": 11.6502854}, {"type": "node", "id": 3199617395, "lat": 32.8454192, "lon": 11.6324541}, {"type": "node", "id": 3199617396, "lat": 32.8477627, "lon": 11.6217467}, {"type": "node", "id": 3199617397, "lat": 32.8476185, "lon": 11.6128203}, {"type": "node", "id": 3199617398, "lat": 32.8436885, "lon": 11.6080138}, {"type": "node", "id": 3199617399, "lat": 32.838893, "lon": 11.6063615}, {"type": "node", "id": 3199617400, "lat": 32.8312305, "lon": 11.6043445}, {"type": "node", "id": 3199617401, "lat": 32.8251541, "lon": 11.6085502}, {"type": "node", "id": 8808881932, "lat": 32.8236677, "lon": 11.6119865}, {"type": "node", "id": 8808881934, "lat": 32.8237023, "lon": 11.6119064}, {"type": "way", "id": 313918583, "nodes": [3199617384, 3199617385, 3199617386, 3199617387, 3199617388, 3199617389, 3199617390, 3199617391, 3199617392, 3199617393, 3199617394, 3199617395, 3199617396, 3199617397, 3199617398, 3199617399, 3199617400, 3199617401, 8808881934, 8808881932, 3199617384], "tags": {"name": "\u0627\u0644\u0639\u0633\u0629", "name:ar": "\u0627\u0644\u0639\u0633\u0629", "name:en": "Al Assa", "name:fr": "Al Assa", "place": "town"}}]}