{"version": 0.6, "generator": "Overpass API 0.7.62.4 2390de5a", "osm3s": {"timestamp_osm_base": "2025-01-08T06:30:42Z", "copyright": "The data included in this document is from www.openstreetmap.org. The data is made available under ODbL."}, "elements": [{"type": "node", "id": 905640075, "lat": 34.7161309, "lon": 46.6508369, "tags": {"alt_name": "Rawansar", "int_name": "Rav\u0101nsar", "is_in": "Kermanshah,Iran", "is_in:country": "Iran", "is_in:state": "Kermanshah", "name": "\u0631\u0648\u0627\u0646\u0633\u0631", "name:ckb": "\u0695\u0648\u0627\u0646\u0633\u06d5\u0631", "name:en": "Ravansar", "name:fa": "\u0631\u0648\u0627\u0646\u0633\u0631", "name:fr": "Ravansar", "name:ku": "Riwanser", "name:ru": "\u0420\u0435\u0432\u0430\u043d\u0441\u0435\u0440", "place": "town", "population": "24527", "population:date": "2016", "source:population": "amar.org.ir", "wikidata": "Q889039"}}, {"type": "node", "id": 3520078317, "lat": 34.7390185, "lon": 46.1495838, "tags": {"name": "\u062a\u0627\u0632\u0647 \u0622\u0628\u0627\u062f", "name:ar": "\u062a\u0627\u0632\u0647 \u0623\u0628\u0627\u062f", "name:ckb": "\u062a\u0627\u0632\u0627\u0648\u0627\u06cc \u0633\u06d5\u0644\u0627\u0633", "name:en": "Tazehabad", "name:ku": "Tazavay\u00ee Selas", "place": "town", "population": "14701", "population:date": "2016", "source:name": "GNS", "source:population": "amar.org.ir"}}, {"type": "node", "id": 3520078518, "lat": 34.6871, "lon": 46.2959, "tags": {"is_in:country": "Iran", "is_in:state": "Kermanshah", "name": "\u0645\u06cc\u0631\u0622\u0628\u0627\u062f", "name:en": "Qal`eh-ye Mirabad", "place": "town", "source:name": "GNS"}}, {"type": "node", "id": 3523333447, "lat": 34.344125, "lon": 46.417181, "tags": {"alt_name": "Gavara;Gawareh", "alt_name:en": "Gavara;Gawareh", "is_in:country": "Iran", "is_in:state": "Kermanshah", "name": "\u06af\u0647\u0648\u0627\u0631\u0647", "name:ckb": "\u06af\u0627\u0648\u0627\u0631\u06d5", "name:en": "Gahvareh", "name:fa": "\u06af\u0647\u0648\u0627\u0631\u0647", "name:fr": "Gahvareh", "name:ku": "Gaware", "place": "town", "source:name": "GNS", "wikidata": "Q888801"}}, {"type": "node", "id": 3524794749, "lat": 34.4965, "lon": 46.599, "tags": {"is_in:country": "Iran", "is_in:state": "Kermanshah", "name": "\u06a9\u0648\u0632\u0631\u0627\u0646", "name:ckb": "\u06a9\u0648\u0648\u0632\u06d5\u0631\u0627\u0646", "name:en": "Kuzaran", "name:fa": "\u06a9\u0648\u0632\u0631\u0627\u0646", "name:fr": "Kuzaran", "name:ku": "k\u00fbzeran", "place": "town", "population": "4007", "population:date": "2016", "source:name": "GNS", "source:population": "amar.org.ir", "wikidata": "Q2418929"}}]}