{"version": 0.6, "generator": "Overpass API 0.7.62.4 2390de5a", "osm3s": {"timestamp_osm_base": "2025-01-08T06:30:42Z", "copyright": "The data included in this document is from www.openstreetmap.org. The data is made available under ODbL."}, "elements": [{"type": "node", "id": 2487820008, "lat": 31.5835198, "lon": 47.1687919, "tags": {"alt_name": "Al Majar al Kab\u012br, Al Majarr al Kab\u012br, Al Mijar al Kab\u012br, \u0627\u0644\u0645\u062c\u0631 \u0627\u0644\u0643\u0628\u064a\u0631, Al Majar al Kabir, Al Majarr al Kabir, Al Mijar al Kabir, \u0627\u0644\u0645\u062c\u0631 \u0627\u0644\u0643\u0628\u064a\u0631", "capital": "6", "int_name": "Al Majar al Kabir - \u0627\u0644\u0645\u062c\u0631 \u0627\u0644\u0643\u0628\u064a\u0631", "is_in": "Iraq , \u062c\u0645\u0647\u0648\u0631\u064a\u0629 \u0627\u0644\u0639\u0631\u0627\u0642", "is_in:country": "Iraq", "is_in:country_code": "IQ", "name": "\u0627\u0644\u0645\u062c\u0631 \u0627\u0644\u0643\u0628\u064a\u0631", "name:ar": "\u0627\u0644\u0645\u062c\u0631 \u0627\u0644\u0643\u0628\u064a\u0631", "name:de": "Al Majar al Kabir", "name:en": "Al Majar al Kabir", "name:fr": "Al Majar al Kabir", "name:ml": "\u0d05\u0d7d-\u0d2e\u0d1c\u0d7c \u0d05\u0d7d-\u0d15\u0d2c\u0d40\u0d7c", "name:ru": "\u042d\u043b\u044c-\u041c\u0430\u0434\u0436\u0430\u0440\u0440-\u044d\u043b\u044c-\u041a\u0430\u0431\u0438\u0440", "place": "town", "population": "46182", "population:date": "2012", "source:population": "https://ru.wikipedia.org/wiki/%D0%AD%D0%BB%D1%8C-%D0%9C%D0%B0%D0%B4%D0%B6%D0%B0%D1%80%D1%80-%D1%8D%D0%BB%D1%8C-%D0%9A%D0%B0%D0%B1%D0%B8%D1%80", "wikidata": "Q4120217"}}, {"type": "node", "id": 2487857137, "lat": 31.5282721, "lon": 47.2935304, "tags": {"alt_name": "\u0642\u0644\u0639\u0629 \u0635\u0627\u0644\u062d", "alt_name:en": "Qalat Saleh", "capital": "6", "int_name": "Kala Salih - \u0642\u0644\u0639\u0629 \u0635\u0627\u0644\u062d", "is_in": "Iraq , \u062c\u0645\u0647\u0648\u0631\u064a\u0629 \u0627\u0644\u0639\u0631\u0627\u0642", "name": "\u0642\u0644\u0639\u0629 \u0635\u0627\u0644\u062d", "name:ar": "\u0642\u0644\u0639\u0629 \u0635\u0627\u0644\u062d", "name:de": "Qalat Saleh", "name:en": "Qalat Saleh", "name:fr": "Qalat Saleh", "name:ml": "\u0d16\u0d32\u0d3e\u0d24\u0d4d\u0d24\u0d4d \u0d38\u0d3e\u0d32\u0d3f\u0d39\u0d4d", "name:ru": "\u041a\u0430\u043b\u044a\u0430\u0442-\u0421\u0430\u043b\u0438\u0445", "place": "town"}}, {"type": "node", "id": 2487867970, "lat": 31.6684231, "lon": 47.2945795, "tags": {"alt_name": "Al Ka\u1e29l\u0101, Kahla, \u0627\u0644\u0643\u062d\u0644\u0627\u0621, Al Kahla, Kahla, \u0627\u0644\u0643\u062d\u0644\u0627\u0621", "capital": "6", "int_name": "Al Kahla - \u0627\u0644\u0643\u062d\u0644\u0627\u0621", "is_in": "Iraq , \u062c\u0645\u0647\u0648\u0631\u064a\u0629 \u0627\u0644\u0639\u0631\u0627\u0642", "name": "\u0627\u0644\u0643\u062d\u0644\u0627\u0621", "name:ar": "\u0627\u0644\u0643\u062d\u0644\u0627\u0621", "name:de": "Al Kahla", "name:en": "Al Kahla", "name:fr": "Al Kahla", "name:ml": "\u0d05\u0d7d-\u0d15\u0d39\u0d4d\u0d32", "place": "town", "wikidata": "Q4702654", "wikipedia": "en:Al-Kahla District"}}, {"type": "node", "id": 2487896304, "lat": 31.3248659, "lon": 47.4149081, "tags": {"alt_name": "Ozeir, Uzayr, Al Az\u012br, Al Uzayr, Al Azair, Al Uzair, El Ozair, Ozier, \u0627\u0644\u0639\u0632\u064a\u0631, Ozeir, Uzayr, Al Azir, Al Uzayr, Al Azair, Al Uzair, El Ozair, Ozier, \u0627\u0644\u0639\u0632\u064a\u0631", "capital": "7", "int_name": "Uzayr - \u0627\u0644\u0639\u0632\u064a\u0631", "is_in": "Iraq , \u062c\u0645\u0647\u0648\u0631\u064a\u0629 \u0627\u0644\u0639\u0631\u0627\u0642", "name": "\u0627\u0644\u0639\u0632\u064a\u0631", "name:ar": "\u0627\u0644\u0639\u0632\u064a\u0631", "name:de": "Uzayr", "name:en": "Uzayr", "name:fr": "Uzayr", "place": "town", "wikidata": "Q12247076"}}]}