{"version": 0.6, "generator": "Overpass API 0.7.62.4 2390de5a", "osm3s": {"timestamp_osm_base": "2025-01-08T06:23:32Z", "copyright": "The data included in this document is from www.openstreetmap.org. The data is made available under ODbL."}, "elements": [{"type": "node", "id": 914484895, "lat": 24.5039738, "lon": 55.4880997, "tags": {"name": "\u0646\u0627\u0647\u0644", "name:ar": "\u0646\u0627\u0647\u0644", "name:en": "Nahil", "place": "town"}}, {"type": "node", "id": 2518533888, "lat": 24.716533, "lon": 55.6216238, "tags": {"alt_name:en": "Al Faqa'", "name": "\u0627\u0644\u0641\u0642\u0639", "name:ar": "\u0627\u0644\u0641\u0642\u0639", "name:de": "Fiqa", "name:en": "Al Faqa'", "name:ml": "\u0d05\u0d7d-\u0d2b\u0d16", "place": "town"}}, {"type": "node", "id": 3649765991, "lat": 24.8694567, "lon": 55.5495944, "tags": {"GNS:id": "189807", "alt_name": "Qraitish;Qaraytaysah;Qaray\u0163aysah", "name": "Qaraytaysah", "name:en": "Qaraytaysah", "name:es": "Qaraytaysah", "name:fr": "Qaraytaysah", "place": "town"}}, {"type": "node", "id": 6279392590, "lat": 24.5361046, "lon": 55.2572822, "tags": {"name": "\u0627\u0644\u0639\u062c\u0628\u0627\u0646", "name:ar": "\u0627\u0644\u0639\u062c\u0628\u0627\u0646", "name:en": "Al 'Ajban", "place": "town"}}]}