{"version": 0.6, "generator": "Overpass API 0.7.62.4 2390de5a", "osm3s": {"timestamp_osm_base": "2025-01-08T07:10:30Z", "copyright": "The data included in this document is from www.openstreetmap.org. The data is made available under ODbL."}, "elements": [{"type": "node", "id": 424950598, "lat": 36.1052802, "lon": 0.2734995, "tags": {"name": "Ben Abdelmalek Ramdane", "name:ar": "\u0628\u0646 \u0639\u0628\u062f \u0627\u0644\u0645\u0627\u0644\u0643 \u0631\u0645\u0636\u0627\u0646", "name:ber": "\u2d31\u2d3b\u2d4f \u2d44\u2d3b\u2d31\u2d37\u2d3b\u2d4d\u2d4e\u2d30\u2d4d\u2d3b\u2d3d \u2d54\u2d3b\u2d4e\u2d39\u2d30\u2d4f", "name:fr": "Ben Abdelmalek Ramdane", "name:kab": "Ben \u0190ebdelmalek Rem\u1e0dan", "place": "town", "population": "13607", "wikidata": "Q4886789", "wikimedia_commons": "Category:Abdelmalek Ramdane (Mostaganem Province)", "wikipedia": "fr:Abdelmalek Ramdane"}}, {"type": "node", "id": 424951766, "lat": 36.0953239, "lon": 0.3256437, "tags": {"name": "Hadjadj", "name:ar": "\u062d\u062c\u0627\u062c", "name:ber": "\u2d43\u2d3b\u2d35\u2d35\u2d30\u2d35", "name:en": "Hadjadj", "name:fr": "Hadjadj", "name:kab": "L\u1e25e\u01e7\u01e7a\u01e7", "old_name": "Bosquet", "place": "town", "population": "17330", "ref:ONS": "2714", "wikidata": "Q3125557", "wikimedia_commons": "Category:Hadjadj", "wikipedia": "fr:Hadjadj"}}, {"type": "node", "id": 424952796, "lat": 36.1643449, "lon": 0.4406587, "tags": {"name": "Sidi Lakhdar", "name:ar": "\u0633\u064a\u062f\u064a \u0644\u062e\u0636\u0631", "name:ber": "\u2d59\u2d49\u2d37\u2d49 \u2d4d\u2d3b\u2d45\u2d39\u2d3b\u2d54", "name:en": "Sidi Lakhdar", "name:fr": "Sidi Lakhdar", "name:kab": "Sidi Lex\u1e0der", "place": "town", "population": "34612", "wikidata": "Q3483250", "wikimedia_commons": "Category:Sidi Lakhdar, Mostaganem", "wikipedia": "fr:Sidi Lakhdar (Mostaganem)"}}, {"type": "node", "id": 462633930, "lat": 35.9990969, "lon": 0.294879, "tags": {"name": "A\u00efn Tedles", "name:ar": "\u0639\u064a\u0646 \u062a\u0627\u062f\u0644\u0633", "name:ber": "\u2d44\u2d49\u2d4f \u2d5c\u2d30\u2d37\u2d4d\u2d3b\u2d59", "name:en": "Ain Tedles", "name:fr": "A\u00efn Tedles", "name:kab": "\u0190in Tedelles", "place": "town", "population": "38823", "wikidata": "Q4833297", "wikimedia_commons": "Category:A\u00efn Tedles", "wikipedia": "fr:A\u00efn Tedles"}}, {"type": "node", "id": 462633934, "lat": 36.0997945, "lon": 0.4206226, "tags": {"name": "Sidi Ali", "name:ar": "\u0633\u064a\u062f\u064a \u0639\u0644\u064a", "name:ber": "\u2d59\u2d49\u2d37\u2d49 \u2d44\u2d4d\u2d49", "name:en": "Sidi Ali", "name:fr": "Sidi Ali", "name:kab": "Sidi \u0190li", "old_name": "Cassaigne", "place": "town", "population": "37230", "ref:ONS": "2712", "wikidata": "Q3483174", "wikimedia_commons": "Category:Sidi Ali (Mostaganem Province)", "wikipedia": "fr:Sidi Ali (Mostaganem)"}}]}