{"version": 0.6, "generator": "Overpass API 0.7.62.4 2390de5a", "osm3s": {"timestamp_osm_base": "2025-01-08T06:21:22Z", "copyright": "The data included in this document is from www.openstreetmap.org. The data is made available under ODbL."}, "elements": [{"type": "node", "id": 1225440781, "lat": 13.0876914, "lon": 45.36219, "tags": {"GNS:dsg_code": "PPL", "GNS:dsg_name": "populated place", "GNS:id": "-3183295", "alt_name": "Al Kud; Al K\u016bd", "int_name": "Al Kawd", "name": "\u0627\u0644\u0643\u0648\u062f", "name:ar": "\u0627\u0644\u0643\u0648\u062f", "name:de": "Al Kawd", "name:en": "Al Kawd", "name:fr": "Al Kawd", "place": "town", "population": "9723", "population:date": "2004-12-17", "source:name": "GNS", "source:population": "YCSO2004:12-11-21-2", "wikidata": "Q4704185"}}, {"type": "node", "id": 1225440845, "lat": 13.1285811, "lon": 45.3812081, "tags": {"GNS:dsg_code": "PPLA", "GNS:dsg_name": "captial of a first-order administrative division", "GNS:id": "-3193170", "alt_name": "Zmjibar; Az Zanjabar; Zanjibar; Az Zanjab\u0101r", "capital": "6", "int_name": "Zinjib\u0101r", "name": "\u0632\u0646\u062c\u0628\u0627\u0631", "name:ar": "\u0632\u0646\u062c\u0628\u0627\u0631", "name:cs": "Zind\u017eib\u00e1r", "name:de": "Zinjibar", "name:en": "Zinjibar", "name:fr": "Zinjibar", "name:ru": "\u0417\u0438\u043d\u0434\u0436\u0438\u0431\u0430\u0440", "name:uk": "\u0417\u0456\u043d\u0434\u0436\u0456\u0431\u0430\u0440", "place": "town", "population": "19879", "population:date": "2004-12-17", "source:name": "GNS", "source:population": "YCSO2004:12-10-21-1", "wikidata": "Q204391"}}]}