{"version": 0.6, "generator": "Overpass API 0.7.62.4 2390de5a", "osm3s": {"timestamp_osm_base": "2025-01-08T06:32:48Z", "copyright": "The data included in this document is from www.openstreetmap.org. The data is made available under ODbL."}, "elements": [{"type": "node", "id": 599171922, "lat": 36.7304865, "lon": 43.8748927, "tags": {"alt_name:ar": "\u0639\u0642\u0631\u0647", "capital": "6", "ele:note": "(625, 2050.52)", "int_name": "\u0626\u0627\u06a9\u0631\u06ce", "name": "\u0626\u0627\u06a9\u0631\u06ce", "name:ar": "\u0639\u0642\u0631\u0629", "name:arc": "\u0725\u0729\u072a", "name:arz": "\u0639\u0642\u0631\u0629", "name:ceb": "Aqrah", "name:ckb": "\u0626\u0627\u06a9\u0631\u06ce", "name:de": "Akr\u00ea", "name:en": "Akre", "name:es": "Aqrah", "name:fr": "Aqra", "name:it": "Aqrah", "name:ku": "Akr\u00ea", "name:ml": "\u0d06\u0d15\u0d4d\u0d30\u0d47", "name:pl": "Akra", "name:ru": "\u0410\u043a\u0440\u0430", "name:sv": "Aqrah", "name:tr": "Akra", "name:uk": "\u0410\u043a\u0440\u0430", "place": "town", "population": "68100", "population:date": "2018", "wikidata": "Q421302", "wikipedia": "ckb:\u0626\u0627\u06a9\u0631\u06ce", "wikipedia:ar": "\u0639\u0642\u0631\u0629"}}, {"type": "node", "id": 1438216966, "lat": 36.5909704, "lon": 43.5214882, "tags": {"name": "\u06a9\u06d5\u0644\u06d5\u06a9\u0686\u06cc", "name:ar": "\u0643\u0644\u0643\u062c\u064a", "place": "town"}}, {"type": "node", "id": 1438217072, "lat": 36.6403095, "lon": 43.5271085, "tags": {"admin_level": "7", "name": "\u0686\u0695\u06d5", "name:ar": "\u0634\u0631\u0629", "name:ckb": "\u0686\u0695\u06d5", "name:ku": "\u00c7irre", "place": "town"}}, {"type": "node", "id": 2488232946, "lat": 36.625098, "lon": 43.702024, "tags": {"alt_name": "\u0631\u0648\u0641\u064a\u0629", "capital": "7", "int_name": "Ruvia, Ruvina, R\u016bviyah, \u0631\u0648\u06a4\u064a\u0647, Ruvia, Ruvina, Ruviyah, \u0631\u0648\u06a4\u064a\u0647", "is_in": "Iraq , \u062c\u0645\u0647\u0648\u0631\u064a\u0629 \u0627\u0644\u0639\u0631\u0627\u0642", "name": "\u0695\u0648\u0648\u06a4\u06cc\u0627", "name:ckb": "\u0695\u0648\u0648\u06a4\u06cc\u0627", "name:en": "Ruvia", "name:ku": "R\u00fbvya", "place": "town"}}, {"type": "node", "id": 2488259513, "lat": 36.7986354, "lon": 43.986556, "tags": {"alt_name": "\u062f\u06cc\u0646\u0627\u0631\u062a\u06d5", "capital": "7", "name": "\u062f\u06cc\u0646\u0627\u0631\u062a\u06d5", "name:ar": "\u062f\u064a\u0646\u0627\u0631\u062a\u0629", "name:ckb": "\u062f\u06cc\u0646\u0627\u0631\u062a\u06d5", "name:de": "Dinarta", "name:en": "Dinarta", "name:fr": "Dinarta", "name:ku": "D\u00eenarte", "place": "town"}}, {"type": "node", "id": 4779993129, "lat": 36.6998278, "lon": 43.6007207, "tags": {"addr:city": "\u062f\u0647\u06c6\u06a9", "name": "\u0642\u06d5\u0633\u0631\u06c6\u06a9", "name:ar": "\u0642\u0633\u0631\u0648\u06a9", "name:ckb": "\u0642\u06d5\u0633\u0631\u06c6\u06a9", "name:ku": "Qesrok", "name:tr": "Kasrok", "place": "town"}}, {"type": "node", "id": 9520444085, "lat": 36.655529, "lon": 43.8086485, "tags": {"name": "\u06af\u0631\u062f\u06d5\u0633\u06ce\u0646", "name:ar": "\u06a9\u0631\u062f\u0629\u0633\u06cc\u0646", "name:ckb": "\u06af\u0631\u062f\u06d5\u0633\u06ce\u0646", "name:de": "Grdasen", "name:en": "Grdasen", "name:fr": "Grdasen", "place": "town"}}]}