{"version": 0.6, "generator": "Overpass API 0.7.62.4 2390de5a", "osm3s": {"timestamp_osm_base": "2025-01-08T05:57:59Z", "copyright": "The data included in this document is from www.openstreetmap.org. The data is made available under ODbL."}, "elements": [{"type": "node", "id": 768596313, "lat": 30.8550945, "lon": 32.3096054, "tags": {"alt_name": "\u0627\u0644\u0642\u0646\u0637\u0631\u0629 \u0627\u0644\u063a\u0631\u0628\u064a\u0629", "int_name": "El-Qan\u1e6dara el-Gharb\u00eeya, Al Qantara al Gharbiya, Al Qantarah Gharb", "name": "\u0627\u0644\u0642\u0646\u0637\u0631\u0629 \u063a\u0631\u0628", "name:ar": "\u0627\u0644\u0642\u0646\u0637\u0631\u0629 \u063a\u0631\u0628", "name:ar1": "\u0627\u0644\u0642\u0646\u0637\u0631\u0629 \u0627\u0644\u063a\u0631\u0628\u064a\u0629", "name:de": "Qantara Westen", "name:en": "Qantara West", "name:fr": "Qantara Ouest", "name:hr": "Al Kantara Zapad", "name:ml": "\u0d16\u0d28\u0d4d\u0d24\u0d30 \u0d17\u0d7c\u0d2c\u0d4d", "name:uk": "\u0410\u043b\u044c-\u041a\u0430\u043d\u0442\u0430\u0440\u0430-\u0413\u0430\u0440\u0431\u0430\u0441", "place": "city", "wikidata": "Q5603262", "wikipedia": "ar:\u0627\u0644\u0642\u0646\u0637\u0631\u0629 \u063a\u0631\u0628"}}, {"type": "node", "id": 768596321, "lat": 30.8636259, "lon": 32.3251656, "tags": {"alt_name": "\u0642\u0646\u0637\u0631\u0629 \u0634\u0631\u0642\u064a\u0629", "int_name": "Kantara East, Kantara East", "name": "\u0627\u0644\u0642\u0646\u0637\u0631\u0629 \u0634\u0631\u0642", "name:ar": "\u0627\u0644\u0642\u0646\u0637\u0631\u0629 \u0634\u0631\u0642", "name:ar1": "\u0642\u0646\u0637\u0631\u0629 \u0634\u0631\u0642\u064a\u0629", "name:de": "Ost-Qantara", "name:en": "Qantara East", "name:fr": "Est de Qantara", "name:hr": "Al Kantara Istok", "name:ml": "\u0d16\u0d28\u0d4d\u0d24\u0d3e\u0d30 \u0d37\u0d7c\u0d16\u0d4d", "name:uk": "\u0410\u043b\u044c-\u041a\u0430\u043d\u0442\u0430\u0440\u0430 \u0435\u043b\u044c-\u0428\u0430\u0440\u043a\u0456\u044f", "place": "city", "wikidata": "Q1324574", "wikimedia_commons": "Category:El Kantara (Egypt)", "wikipedia": "ar:\u0627\u0644\u0642\u0646\u0637\u0631\u0629 \u0634\u0631\u0642"}}]}