{"version": 0.6, "generator": "Overpass API 0.7.62.4 2390de5a", "osm3s": {"timestamp_osm_base": "2025-01-08T06:24:35Z", "copyright": "The data included in this document is from www.openstreetmap.org. The data is made available under ODbL."}, "elements": [{"type": "node", "id": 1716912156, "lat": 22.3840219, "lon": 57.5240243, "tags": {"name": "\u0623\u062f\u0645", "name:ar": "\u0623\u062f\u0645", "name:azb": "\u0627\u062f\u0645", "name:de": "Adam", "name:en": "Adam", "name:es": "Adam", "name:fa": "\u0627\u062f\u0645", "name:fr": "Adam", "name:ml": "\u0d05\u0d26\u0d02", "name:ur": "\u0627\u062f\u0645", "place": "city", "population": "18515", "wikidata": "Q2823918", "wikipedia": "ar:\u0648\u0644\u0627\u064a\u0629 \u0623\u062f\u0645"}}, {"type": "node", "id": 1718130564, "lat": 22.625787, "lon": 57.3112589, "tags": {"alt_name": "\u0645\u0639\u0645\u0648\u0631\u0629", "int_name": "Mamur, Mam\u016brah, Mamur, Mamurah", "is_in": "Oman , \u0639\u064f\u0645\u0627\u0646", "name": "\u0645\u0639\u0645\u0648\u0631\u0629", "name:ar": "\u0645\u0639\u0645\u0648\u0631\u0629", "name:ar1": "\u0645\u0639\u0645\u0648\u0631\u0629", "name:de": "Mamur", "name:en": "Mamur", "name:fr": "Mamur", "place": "town"}}]}