{"version": 0.6, "generator": "Overpass API 0.7.62.4 2390de5a", "osm3s": {"timestamp_osm_base": "2025-01-08T07:26:49Z", "copyright": "The data included in this document is from www.openstreetmap.org. The data is made available under ODbL."}, "elements": [{"type": "node", "id": 249166495, "lat": 18.0792379, "lon": -15.9780071, "tags": {"GNS:dsg_code": "PPLC", "GNS:dsg_name": "populated place", "GNS:id": "-1402901", "GNS:modify_date": "2011-01-26", "admin_level": "2", "alt_name": "Nouakchot;Nouakchat", "alt_name:ar": "\u0627\u0646\u0648\u0627\u0643\u0634\u0648\u0637;\u0623\u0646\u0648\u0627\u0643\u0634\u0648\u0637", "alt_name:de": "Nawakschut", "alt_name:en": "Nuwakshut", "capital": "yes", "capital_ISO3166-1": "yes", "name": "\u0646\u0648\u0627\u0643\u0634\u0648\u0637", "name:am": "\u1291\u12cb\u12ad\u123e\u1275", "name:ar": "\u0646\u0648\u0627\u0643\u0634\u0648\u0637", "name:arc": "\u0722\u0718\u0710\u071f\u072b\u0718\u071b", "name:ast": "Nuakxot", "name:az": "Nuak\u015fot", "name:az-Arab": "\u0646\u0648\u0627\u0643\u0634\u0648\u0637", "name:azb": "\u0646\u0648\u0627\u0643\u0634\u0648\u0637", "name:be": "\u041d\u0443\u0430\u043a\u0448\u043e\u0442", "name:be-tarask": "\u041d\u0443\u0430\u043a\u0448\u043e\u0442", "name:ber": "\u2d4f\u2d61\u2d30\u2d3d\u2d5b\u2d53\u2d5f", "name:bg": "\u041d\u0443\u0430\u043a\u0448\u043e\u0442", "name:bn": "\u09a8\u09c1\u0993\u09af\u09bc\u09be\u0995\u09b6\u09c1\u09a4", "name:bo": "\u0f53\u0f60\u0f74\u0f0b\u0f40\u0f0b\u0f45\u0f7c\u0f0b\u0f4a\u0f72\u0f0d", "name:br": "Nouakchott", "name:ckb": "\u0646\u0648\u0627\u06a9\u0634\u06c6\u062a", "name:cs": "Nuak\u0161ott", "name:da": "Nouakchott", "name:de": "Nouakchott", "name:el": "\u039d\u03bf\u03c5\u03b1\u03ba\u03c3\u03cc\u03c4", "name:en": "Nouakchott", "name:eo": "Nuak\u015doto", "name:es": "Nuakchot", "name:et": "Nouakchott", "name:eu": "Nuakchot", "name:fa": "\u0646\u0648\u0622\u06a9\u0634\u0648\u062a", "name:fi": "Nouakchott", "name:fr": "Nouakchott", "name:grc": "\u039d\u03b1\u03c5\u03b1\u03be\u03bf\u03cd\u03c4\u03b7", "name:he": "\u05e0\u05d5\u05d0\u05e7\u05e9\u05d5\u05d8", "name:hr": "Nouakchott", "name:ht": "Nouakchot", "name:hu": "Nouakchott", "name:hy": "\u0546\u0578\u0582\u0561\u056f\u0577\u0578\u057f", "name:is": "N\u00faaksjott", "name:it": "Nouakchott", "name:ja": "\u30cc\u30a2\u30af\u30b7\u30e7\u30c3\u30c8", "name:ka": "\u10dc\u10e3\u10d0\u10e5\u10e8\u10dd\u10e2\u10d8", "name:kab": "Nwaqcu\u1e6d", "name:kk": "\u041d\u0443\u0430\u043a\u0448\u043e\u0442 \u049b\u0430\u043b\u0430\u0441\u044b", "name:kk-Arab": "\u0646\u06cb\u0627\u0643\u0634\u0648\u062a", "name:ko": "\ub204\uc545\uc1fc\ud2b8", "name:ks": "\u0646\u0648\u0627\u06a9\u0634\u0648\u0637", "name:ku": "N\u00fbak\u015fot", "name:ky": "\u041d\u0443\u0430\u043a\u0448\u043e\u0442", "name:lt": "Nuak\u0161otas", "name:lv": "Nuak\u0161ota", "name:mk": "\u041d\u0443\u0430\u043a\u0448\u043e\u0442", "name:ml": "\u0d28\u0d4c\u0d35\u0d3e\u0d15\u0d4d\u0d15\u0d4d\u0d1a\u0d4d\u0d1a\u0d4b\u0d1f\u0d4d\u0d1f\u0d4d", "name:mr": "\u0928\u0935\u093e\u0915\u0938\u0941\u0924", "name:mrj": "\u041d\u0443\u0430\u043a\u0448\u043e\u0442", "name:nl": "Nouakchott", "name:no": "Nouakchott", "name:nov": "Nouakchot", "name:oc": "Nuakshut", "name:pa": "\u0a28\u0a41\u0a06\u0a15\u0a1a\u0a4b\u0a24", "name:pl": "Nawakszut", "name:pnb": "\u0646\u0648\u0648\u0627\u06a9\u0648\u0679", "name:ps": "\u0646\u0648\u0627\u06a9\u0634\u0648\u062a", "name:pt": "Nuaquexote", "name:ru": "\u041d\u0443\u0430\u043a\u0448\u043e\u0442", "name:sk": "Nouakchott", "name:so": "Nawakshot", "name:sr": "\u041d\u0443\u0430\u043a\u0448\u043e\u0442", "name:sv": "Nouakchott", "name:syc": "\u0722\u0718\u0710\u071f\u072b\u0718\u071b", "name:ta": "\u0ba8\u0bb5\u0bbe\u0b95\u0bcd\u0b9a\u0bcb\u0b9f\u0bcd", "name:tg": "\u041d\u0443\u0430\u043a\u0448\u043e\u0442", "name:th": "\u0e19\u0e39\u0e41\u0e2d\u0e01\u0e0a\u0e2d\u0e15", "name:tr": "Nuak\u015fot", "name:udm": "\u041d\u0443\u0430\u043a\u0448\u043e\u0442", "name:uk": "\u041d\u0443\u0430\u043a\u0448\u043e\u0442", "name:ur": "\u0646\u0648\u0627\u06a9\u0634\u0648\u0637", "name:vi": "Nouakchott", "name:vo": "N\u00e4vakjut", "name:yue": "\u6216\u7d22", "name:zh": "\u52aa\u74e6\u514b\u8096\u7279", "place": "city", "population": "958399", "source:name:br": "ofis publik ar brezhoneg", "wikidata": "Q3688", "wikipedia": "ar:\u0646\u0648\u0627\u0643\u0634\u0648\u0637", "wikipedia:ar": "\u0646\u0648\u0627\u0643\u0634\u0648\u0637", "wikipedia:es": "Nuakchot"}}, {"type": "node", "id": 4477062524, "lat": 18.1111443, "lon": -16.0038402, "tags": {"GNS:dsg_code": "PPLA", "GNS:dsg_name": "populated place", "GNS:id": "13492736", "GNS:modify_date": "2015-12-09", "alt_name": "\u062a\u0641\u0631\u063a \u0632\u064a\u0646\u0647;\u062d\u064a \u062a\u0641\u0631\u063a \u0632\u064a\u0646\u0647", "alt_name:ar": "\u062a\u0641\u0631\u063a \u0632\u064a\u0646\u0647;\u062d\u064a \u062a\u0641\u0631\u063a \u0632\u064a\u0646\u0647", "long_name": "\u062d\u064a \u062a\u0641\u0631\u063a \u0632\u064a\u0646\u0629", "long_name:ar": "\u062d\u064a \u062a\u0641\u0631\u063a \u0632\u064a\u0646\u0629", "name": "\u062a\u0641\u0631\u063a \u0632\u064a\u0646\u0629", "name:ar": "\u062a\u0641\u0631\u063a \u0632\u064a\u0646\u0629", "name:en": "Tafragh Zaynah", "name:fr": "Tevragh Zeina", "place": "town", "wikidata": "Q892759", "wikipedia": "ar:\u062a\u0641\u0631\u063a \u0632\u064a\u0646\u0629", "wikipedia:ar": "\u062a\u0641\u0631\u063a \u0632\u064a\u0646\u0629"}}, {"type": "node", "id": 4506712358, "lat": 18.0459512, "lon": -15.9632837, "tags": {"GNS:dsg_code": "PPLA", "GNS:dsg_name": "populated place", "GNS:id": "13492729", "GNS:modify_date": "2015-12-09", "alt_name": "Arafat", "name": "\u0639\u0631\u0641\u0627\u062a", "name:ar": "\u0639\u0631\u0641\u0627\u062a", "name:en": "`Arafat", "name:fr": "Araffat", "place": "town", "wikidata": "Q892676", "wikipedia": "ar:\u0639\u0631\u0641\u0627\u062a (\u0646\u0648\u0627\u0643\u0634\u0648\u0637)"}}, {"type": "node", "id": 4513826946, "lat": 18.1187992, "lon": -15.9218206, "tags": {"GNS:dsg_code": "PPLA", "GNS:dsg_name": "populated place", "GNS:id": "13492731", "GNS:modify_date": "2015-12-09", "alt_name": "Dar Na\u00efm;Dar Naim", "name": "\u062f\u0627\u0631 \u0627\u0644\u0646\u0639\u064a\u0645", "name:ar": "\u062f\u0627\u0631 \u0627\u0644\u0646\u0639\u064a\u0645", "name:en": "Dar an Na`im", "name:fr": "Dar Naim", "place": "town", "wikidata": "Q892127", "wikipedia": "ar:\u062f\u0627\u0631 \u0627\u0644\u0646\u0639\u064a\u0645 (\u0646\u0648\u0627\u0643\u0634\u0648\u0637)"}}]}