{"version": 0.6, "generator": "Overpass API 0.7.62.4 2390de5a", "osm3s": {"timestamp_osm_base": "2025-01-08T06:58:15Z", "copyright": "The data included in this document is from www.openstreetmap.org. The data is made available under ODbL."}, "elements": [{"type": "node", "id": 287583296, "lat": 36.4006557, "lon": 10.6190626, "tags": {"name": "\u0627\u0644\u062d\u0645\u0627\u0645\u0627\u062a", "name:ar": "\u0627\u0644\u062d\u0645\u0627\u0645\u0627\u062a", "name:de": "Al-Hammamat", "name:en": "Hammamet", "name:fr": "Hammamet", "name:kab": "\u1e24emmamat", "name:ml": "\u0d39\u0d2e\u0d4d\u0d2e\u0d3e\u0d2e\u0d3e\u0d24\u0d4d\u0d24\u0d4d", "name:ru": "\u0425\u0430\u043c\u043c\u0430\u043c\u0435\u0442", "place": "city", "population": "97579", "wikidata": "Q339535", "wikipedia": "ar:\u0627\u0644\u062d\u0645\u0627\u0645\u0627\u062a (\u062a\u0648\u0646\u0633)"}}, {"type": "node", "id": 1439531928, "lat": 36.1341194, "lon": 10.3779916, "tags": {"name": "\u0627\u0644\u0646\u0641\u064a\u0636\u0629", "name:ar": "\u0627\u0644\u0646\u0641\u064a\u0636\u0629", "name:en": "Enfidha", "name:fr": "Enfidha", "name:kab": "Nfi\u1e0da", "place": "town", "population": "10990", "wikidata": "Q1025361", "wikimedia_commons": "Category:Enfidha", "wikipedia": "ar:\u0627\u0644\u0646\u0641\u064a\u0636\u0629"}}]}