{"version": 0.6, "generator": "Overpass API 0.7.62.4 2390de5a", "osm3s": {"timestamp_osm_base": "2025-01-08T06:22:27Z", "copyright": "The data included in this document is from www.openstreetmap.org. The data is made available under ODbL."}, "elements": [{"type": "node", "id": 1224762079, "lat": 15.866558, "lon": 43.404949, "tags": {"GNS:dsg_code": "PPLA2", "GNS:dsg_name": "captial of a second-order administrative division", "GNS:id": "-3184525", "int_name": "Ash Sh\u0101hil", "name": "\u0627\u0644\u0634\u0627\u0647\u0644", "name:ar": "\u0627\u0644\u0634\u0627\u0647\u0644", "name:de": "Ash Shahil", "name:en": "Ash Shahil", "name:fr": "Ash Shahil", "place": "town", "population": "3474", "population:date": "2004-12-17", "source:name": "GNS", "source:population": "YCSO2004:17-21-22-1"}}, {"type": "node", "id": 1224765912, "lat": 15.974314, "lon": 43.46381, "tags": {"GNS:dsg_code": "PPLA2", "GNS:dsg_name": "captial of a second-order administrative division", "GNS:id": "400673", "alt_name": "Al Jubayl", "int_name": "Al Mift\u0101\u1e29", "name": "\u0627\u0644\u0645\u0641\u062a\u0627\u062d", "name:ar": "\u0627\u0644\u0645\u0641\u062a\u0627\u062d", "name:de": "Al Miftah", "name:en": "Al Miftah", "name:fr": "Al Miftah", "place": "town", "population": "2272", "population:date": "2004-12-17", "source:name": "GNS", "source:population": "YCSO2004:17-16-21-1"}}, {"type": "node", "id": 1224765944, "lat": 15.947582, "lon": 43.435868, "tags": {"GNS:dsg_code": "PPLA2", "GNS:dsg_name": "captial of a second-order administrative division", "GNS:id": "-3183485", "alt_name": "El-Ma\u1e25\u0101bishah; El-Mahabishah; Mahabeshe", "int_name": "Al Ma\u1e29\u0101bishah", "name": "\u0627\u0644\u0645\u062d\u0627\u0628\u0634\u0629", "name:ar": "\u0627\u0644\u0645\u062d\u0627\u0628\u0634\u0629", "name:de": "Al Mahabishah", "name:en": "Al Mahabishah", "name:fr": "Al Mahabishah", "place": "town", "population": "14001", "population:date": "2004-12-17", "source:name": "GNS", "source:population": "YCSO2004:17-15-21-1"}}, {"type": "node", "id": 1227099237, "lat": 15.877222, "lon": 43.666667, "tags": {"GNS:dsg_code": "PPLA2", "GNS:dsg_name": "captial of a second-order administrative division", "GNS:id": "226425", "int_name": "Al Maghrabah", "name": "\u0627\u0644\u0645\u063a\u0631\u0628\u0629", "name:ar": "\u0627\u0644\u0645\u063a\u0631\u0628\u0629", "name:de": "Al Maghrabah", "name:en": "Al Maghrabah", "name:fr": "Al Maghrabah", "place": "town", "population": "1214", "population:date": "2004-12-17", "source:name": "GNS", "source:population": "YCSO2004:17-17-21-1"}}, {"type": "node", "id": 1227102336, "lat": 15.958611, "lon": 43.780833, "tags": {"GNS:dsg_code": "PPLA2", "GNS:dsg_name": "captial of a second-order administrative division", "GNS:id": "-3184735", "alt_name": "As Sawda'; Sudah; Sawd\u0101\u2019; S\u016bdah; Suda; Es-Sudah; Es-S\u016bdah; Sawda'; As Sawd\u0101\u2019; As Sauda", "int_name": "As S\u016bdah", "name": "\u0627\u0644\u0633\u0648\u062f\u0629", "name:ar": "\u0627\u0644\u0633\u0648\u062f\u0629", "name:de": "As Sudah", "name:en": "As Sudah", "name:fr": "As Sudah", "place": "town", "population": "1508", "population:date": "2004-12-17", "source:name": "GNS", "source:population": "YCSO2004:29-13-22-1"}}, {"type": "node", "id": 1227105542, "lat": 16.017868, "lon": 43.596474, "tags": {"GNS:dsg_code": "PPLA2", "GNS:dsg_name": "captial of a second-order administrative division", "GNS:id": "274054", "int_name": "Al Jam\u012bmah", "name": "\u0627\u0644\u062c\u0645\u064a\u0645\u0629 (\u0627\u0644\u062d\u0635\u0646)", "name:ar": "\u0627\u0644\u062c\u0645\u064a\u0645\u0629 (\u0627\u0644\u062d\u0635\u0646)", "name:de": "Al Jamimah", "name:en": "Al Jamimah", "name:fr": "Al Jamimah", "place": "town", "population": "1399", "population:date": "2004-12-17", "source:name": "GNS", "source:population": "YCSO2004:17-8-21-1"}}, {"type": "node", "id": 1227112094, "lat": 16.050972, "lon": 43.706991, "tags": {"GNS:dsg_code": "PPLA2", "GNS:dsg_name": "captial of a second-order administrative division", "GNS:id": "274060", "alt_name": "\u0638\u0644\u064a\u0645\u0629 \u062d\u0628\u0648\u0631", "int_name": "\u1e28ab\u016br, Z\u0327ulaymah \u1e28ab\u016br , Habur, Zulaymah Habur", "name": "\u0638\u0644\u064a\u0645\u0629 \u062d\u0628\u0648\u0631", "name:ar": "\u0638\u0644\u064a\u0645\u0629 \u062d\u0628\u0648\u0631", "name:de": "Habur", "name:en": "Habur", "name:fr": "Habur", "place": "town", "population": "2733", "population:date": "2004-12-17", "source:name": "GNS", "source:population": "YCSO2004:29-8-21-1"}}, {"type": "node", "id": 1227115289, "lat": 16.1555844, "lon": 43.4220823, "tags": {"GNS:dsg_code": "PPLA2", "GNS:dsg_name": "captial of a second-order administrative division", "GNS:id": "352454", "int_name": "Kushar", "name": "\u0643\u0634\u0631", "name:ar": "\u0643\u0634\u0631", "name:de": "Kushar", "name:en": "Kushar", "name:fr": "Kushar", "place": "town", "population": "2649", "population:date": "2004-12-17", "source:name": "GNS", "source:population": "YCSO2004:17-7-27-1"}}, {"type": "node", "id": 1227141014, "lat": 16.1844225, "lon": 43.7025359, "tags": {"GNS:dsg_code": "PPLA2", "GNS:dsg_name": "captial of a second-order administrative division", "GNS:id": "-3191673", "alt_name": "Sahara; Shahara; Shaharah; \u0634\u0647\u0627\u0631\u0629; Hajera; Shah\u0101rah; Shiharah; \u0160ah\u00e2ra; Shih\u0101rah; \u0634\u0647\u0627\u0631\u0629 \u0627\u0644\u063a\u064a\u0633", "capital": "6", "int_name": "Shah\u0101rat al Gh\u012bs", "name": "\u0634\u0647\u0627\u0631\u0629", "name:ar": "\u0634\u0647\u0627\u0631\u0629", "name:de": "Shaharat al Ghis", "name:en": "Shaharat al Ghis", "name:fr": "Shaharat al Ghis", "place": "town", "population": "1850", "population:date": "2004-12-17", "source:name": "GNS", "source:population": "YCSO2004:29-5-21-1", "wikidata": "Q3481209"}}]}