{"version": 0.6, "generator": "Overpass API 0.7.62.4 2390de5a", "osm3s": {"timestamp_osm_base": "2025-01-08T07:17:42Z", "copyright": "The data included in this document is from www.openstreetmap.org. The data is made available under ODbL."}, "elements": [{"type": "node", "id": 1576254205, "lat": 29.013582, "lon": -8.886818, "tags": {"capital": "6", "name": "Fam El Hisn \u2d3c\u2d30\u2d4e \u2d4d\u2d43\u2d5a\u2d30\u2d4f \u0641\u0645 \u0627\u0644\u062d\u0635\u0646", "name:ar": "\u0641\u0645 \u0627\u0644\u062d\u0635\u0646", "name:ber": "\u2d3c\u2d30\u2d4e \u2d4d\u2d43\u2d5a\u2d30\u2d4f", "name:en": "Foum el Hassan", "name:fr": "Fam El Hisn", "name:zgh": "\u2d3c\u2d30\u2d4e \u2d4d\u2d43\u2d5a\u2d30\u2d4f", "place": "town", "wikidata": "Q3064838"}}, {"type": "node", "id": 2271229896, "lat": 29.1609816, "lon": -8.9588426, "tags": {"capital": "7", "name": "Aguerd Tamanart \u2d30\u2d33\u2d55\u2d39 \u2d5c\u2d30\u2d4e\u2d30\u2d4f\u2d30\u2d55\u2d5c \u062a\u0645\u0646\u0627\u0631\u062a", "name:ar": "\u062a\u0645\u0646\u0627\u0631\u062a", "name:ber": "\u2d30\u2d33\u2d55\u2d39 \u2d5c\u2d30\u2d4e\u2d30\u2d4f\u2d30\u2d55\u2d5c", "name:en": "Aguerd Tamanart", "name:fr": "Aguerd Tamanart", "place": "town"}}]}